[{"id": 1, "name": "Kabul", "name_ru": "Kabul", "tz": "", "district": "Kābul"}, {"id": 2, "name": "Kandahar", "name_ru": "Kandahār", "tz": "", "district": "Kandahār"}, {"id": 3, "name": "Herat", "name_ru": "Herāt", "tz": "", "district": "Herāt"}, {"id": 4, "name": "Mazar-e Sharif", "name_ru": "Mazār-e Sharīf", "tz": "", "district": "Balkh"}, {"id": 5, "name": "Jalalabad", "name_ru": "Jalālābād", "tz": "", "district": "Nangarhār"}, {"id": 6, "name": "Taluqan", "name_ru": "Tāluqān", "tz": "", "district": "Takhār"}, {"id": 7, "name": "Kunduz", "name_ru": "Kunduz", "tz": "", "district": "Kunduz"}, {"id": 8, "name": "Lashkar Gah", "name_ru": "Lashkar Gāh", "tz": "", "district": "Helmand"}, {"id": 9, "name": "Maimanah", "name_ru": "Maīmanah", "tz": "", "district": "Fāryāb"}, {"id": 10, "name": "Shibirghan", "name_ru": "Shibirghān", "tz": "", "district": "Jowzjān"}, {"id": 11, "name": "Khost", "name_ru": "Khōst", "tz": "", "district": "Khōst"}, {"id": 12, "name": "Ghazni", "name_ru": "Ghaznī", "tz": "", "district": "Ghaznī"}, {"id": 13, "name": "Pul-e Khumri", "name_ru": "Pul-e Khumrī", "tz": "", "district": "Baghlān"}, {"id": 14, "name": "Farah", "name_ru": "Farāh", "tz": "", "district": "Farāh"}, {"id": 15, "name": "Gardez", "name_ru": "Gardēz", "tz": "", "district": "Paktiyā"}, {"id": 16, "name": "Faizabad", "name_ru": "Faīẕābād", "tz": "", "district": "Badakhshān"}, {"id": 17, "name": "Bamyan", "name_ru": "Bāmyān", "tz": "", "district": "Bāmyān"}, {"id": 18, "name": "Charikar", "name_ru": "Chārīkār", "tz": "", "district": "Parwān"}, {"id": 19, "name": "Sar-e Pul", "name_ru": "Sar-e Pul", "tz": "", "district": "Sar-e Pul"}, {"id": 20, "name": "Zaranj", "name_ru": "Zaranj", "tz": "", "district": "Nīmrōz"}, {"id": 21, "name": "Asadabad", "name_ru": "Asadābād", "tz": "", "district": "Kunaṟ"}, {"id": 22, "name": "Maidan Shahr", "name_ru": "Maīdān Shahr", "tz": "", "district": "Wardak"}, {"id": 23, "name": "Mehtar Lam", "name_ru": "Mehtar Lām", "tz": "", "district": "Laghmān"}, {"id": 24, "name": "Fayroz Koh", "name_ru": "Fayrōz Kōh", "tz": "", "district": "Ghōr"}, {"id": 25, "name": "Qalat", "name_ru": "Qalāt", "tz": "", "district": "Zābul"}, {"id": 26, "name": "Tarin Kot", "name_ru": "Tarīn Kōṯ", "tz": "", "district": "Uruzgān"}, {"id": 27, "name": "Mahmud-e Raqi", "name_ru": "Maḩmūd-e Rāqī", "tz": "", "district": "Kāpīsā"}, {"id": 28, "name": "Qal`ah-ye Now", "name_ru": "Qal‘ah-ye Now", "tz": "", "district": "Bādghīs"}, {"id": 29, "name": "Aibak", "name_ru": "Aībak", "tz": "", "district": "Samangān"}, {"id": 30, "name": "Pul-e `Alam", "name_ru": "Pul-e ‘Alam", "tz": "", "district": "Lōgar"}, {"id": 31, "name": "Sharan", "name_ru": "Sharan", "tz": "", "district": "Paktīkā"}, {"id": 32, "name": "Nili", "name_ru": "Nīlī", "tz": "", "district": "Dāykundī"}, {"id": 33, "name": "Bazarak", "name_ru": "Bāzārak", "tz": "", "district": "Panjshir"}, {"id": 34, "name": "Parun", "name_ru": "Pārūn", "tz": "", "district": "Nūristān"}, {"id": 35, "name": "Balkh", "name_ru": "Balkh", "tz": "", "district": "Balkh"}, {"id": 36, "name": "Baghlan", "name_ru": "Baghlān", "tz": "", "district": "Baghlān"}, {"id": 37, "name": "Andkhoy", "name_ru": "Andkhōy", "tz": "", "district": "Fāryāb"}, {"id": 38, "name": "Kotah-ye `Ashro", "name_ru": "Kōṯah-ye ‘As̲h̲rō", "tz": "", "district": "Wardak"}, {"id": 39, "name": "Khulm", "name_ru": "Khulm", "tz": "", "district": "Balkh"}, {"id": 40, "name": "Khanabad", "name_ru": "Khānābād", "tz": "", "district": "Kunduz"}, {"id": 41, "name": "Baraki Barak", "name_ru": "Barakī Barak", "tz": "", "district": "Lōgar"}, {"id": 42, "name": "Qal`ah-ye Zal", "name_ru": "Qal‘ah-ye Zāl", "tz": "", "district": "Kunduz"}, {"id": 43, "name": "Karukh", "name_ru": "Karukh", "tz": "", "district": "Herāt"}, {"id": 44, "name": "Zarghun Shahr", "name_ru": "Zarghūn Shahr", "tz": "", "district": "Paktīkā"}, {"id": 45, "name": "Buyni Qarah", "name_ru": "Buynī Qarah", "tz": "", "district": "Balkh"}]