[{"id": 1, "name": "Tirana", "name_ru": "Tirana", "tz": "", "district": "Tiranë"}, {"id": 2, "name": "Vlore", "name_ru": "Vlorë", "tz": "", "district": "Vlorë"}, {"id": 3, "name": "Kamez", "name_ru": "Kamëz", "tz": "", "district": "Tiranë"}, {"id": 4, "name": "Fier", "name_ru": "Fier", "tz": "", "district": "Fier"}, {"id": 5, "name": "Durres", "name_ru": "Durrës", "tz": "", "district": "Durrës"}, {"id": 6, "name": "Shkoder", "name_ru": "Shkodër", "tz": "", "district": "Shkodër"}, {"id": 7, "name": "Elbasan", "name_ru": "Elbasan", "tz": "", "district": "Elbasan"}, {"id": 8, "name": "Korce", "name_ru": "Korçë", "tz": "", "district": "Korçë"}, {"id": 9, "name": "Berat", "name_ru": "Berat", "tz": "", "district": "Berat"}, {"id": 10, "name": "Gjirokaster", "name_ru": "Gjirokastër", "tz": "", "district": "Gjirokastër"}, {"id": 11, "name": "Lezhe", "name_ru": "Lezhë", "tz": "", "district": "Lezhë"}, {"id": 12, "name": "Kukes", "name_ru": "Kukës", "tz": "", "district": "Kukës"}, {"id": 13, "name": "Peshkopi", "name_ru": "Peshkopi", "tz": "", "district": "Dibër"}, {"id": 14, "name": "Sarande", "name_ru": "Sarandë", "tz": "", "district": "Vlorë"}, {"id": 15, "name": "Lushnje", "name_ru": "Lushnjë", "tz": "", "district": "Fier"}, {"id": 16, "name": "Kavaje", "name_ru": "Kavajë", "tz": "", "district": "Tiranë"}, {"id": 17, "name": "Pogradec", "name_ru": "Pogradec", "tz": "", "district": "Korçë"}, {"id": 18, "name": "Fushe-Kruje", "name_ru": "Fushë-Krujë", "tz": "", "district": "Durrës"}, {"id": 19, "name": "Lac", "name_ru": "Laç", "tz": "", "district": "Lezhë"}, {"id": 20, "name": "Sukth", "name_ru": "Sukth", "tz": "", "district": "Durrës"}, {"id": 21, "name": "Patos", "name_ru": "Patos", "tz": "", "district": "Fier"}, {"id": 22, "name": "Kucove", "name_ru": "Kuçovë", "tz": "", "district": "Berat"}, {"id": 23, "name": "Librazhd-Qender", "name_ru": "Librazhd-Qendër", "tz": "", "district": "Elbasan"}, {"id": 24, "name": "Kruje", "name_ru": "Krujë", "tz": "", "district": "Durrës"}, {"id": 25, "name": "Burrel", "name_ru": "Burrel", "tz": "", "district": "Dibër"}, {"id": 26, "name": "Gramsh", "name_ru": "Gramsh", "tz": "", "district": "Elbasan"}, {"id": 27, "name": "Shijak", "name_ru": "Shijak", "tz": "", "district": "Durrës"}, {"id": 28, "name": "Libonik", "name_ru": "Libonik", "tz": "", "district": "Korçë"}, {"id": 29, "name": "Belsh", "name_ru": "Belsh", "tz": "", "district": "Elbasan"}, {"id": 30, "name": "Rreshen", "name_ru": "Rrëshen", "tz": "", "district": "Lezhë"}, {"id": 31, "name": "Ballsh", "name_ru": "Ballsh", "tz": "", "district": "Fier"}, {"id": 32, "name": "Mamurras", "name_ru": "Mamurras", "tz": "", "district": "Lezhë"}, {"id": 33, "name": "Divjake", "name_ru": "Divjakë", "tz": "", "district": "Fier"}, {"id": 34, "name": "Bulqize", "name_ru": "Bulqizë", "tz": "", "district": "Dibër"}, {"id": 35, "name": "Shengjin", "name_ru": "Shëngjin", "tz": "", "district": "Lezhë"}, {"id": 36, "name": "Vau i Dejes", "name_ru": "Vau i Dejës", "tz": "", "district": "Shkodër"}, {"id": 37, "name": "Rrogozhine", "name_ru": "Rrogozhinë", "tz": "", "district": "Tiranë"}, {"id": 38, "name": "Librazhd", "name_ru": "Librazhd", "tz": "", "district": "Elbasan"}, {"id": 39, "name": "Bilisht", "name_ru": "Bilisht", "tz": "", "district": "Korçë"}, {"id": 40, "name": "Peqin", "name_ru": "Peqin", "tz": "", "district": "Elbasan"}, {"id": 41, "name": "Cerrik", "name_ru": "Cërrik", "tz": "", "district": "Elbasan"}, {"id": 42, "name": "Roskovec", "name_ru": "Roskovec", "tz": "", "district": "Fier"}, {"id": 43, "name": "Permet", "name_ru": "Përmet", "tz": "", "district": "Gjirokastër"}, {"id": 44, "name": "Prrenjas", "name_ru": "Prrenjas", "tz": "", "district": "Elbasan"}, {"id": 45, "name": "Krume", "name_ru": "Krumë", "tz": "", "district": "Kukës"}, {"id": 46, "name": "Delvine", "name_ru": "Delvinë", "tz": "", "district": "Vlorë"}, {"id": 47, "name": "Bajram Curri", "name_ru": "Bajram Curri", "tz": "", "district": "Kukës"}, {"id": 48, "name": "Tepelene", "name_ru": "Tepelenë", "tz": "", "district": "Gjirokastër"}, {"id": 49, "name": "Erseke", "name_ru": "Ersekë", "tz": "", "district": "Korçë"}, {"id": 50, "name": "Corovode", "name_ru": "Çorovodë", "tz": "", "district": "Berat"}, {"id": 51, "name": "Puke", "name_ru": "Pukë", "tz": "", "district": "Shkodër"}]