[{"id": 1, "name": "Yerevan", "name_ru": "Yerevan", "tz": "", "district": "Yerevan"}, {"id": 2, "name": "Gyumri", "name_ru": "Gyumri", "tz": "", "district": "Shirak"}, {"id": 3, "name": "Vanadzor", "name_ru": "Vanadzor", "tz": "", "district": "Lorri"}, {"id": 4, "name": "Hrazdan", "name_ru": "Hrazdan", "tz": "", "district": "Kotayk’"}, {"id": 5, "name": "Abovyan", "name_ru": "Abovyan", "tz": "", "district": "Kotayk’"}, {"id": 6, "name": "Kapan", "name_ru": "Kapan", "tz": "", "district": "Syunik’"}, {"id": 7, "name": "Armavir", "name_ru": "Armavir", "tz": "", "district": "Armavir"}, {"id": 8, "name": "Charentsavan", "name_ru": "Charentsavan", "tz": "", "district": "Kotayk’"}, {"id": 9, "name": "Artashat", "name_ru": "Artashat", "tz": "", "district": "Ararat"}, {"id": 10, "name": "Ashtarak", "name_ru": "Ashtarak", "tz": "", "district": "Aragatsotn"}, {"id": 11, "name": "Ijevan", "name_ru": "Ijevan", "tz": "", "district": "Tavush"}, {"id": 12, "name": "Gavarr", "name_ru": "Gavarr", "tz": "", "district": "Geghark’unik’"}, {"id": 13, "name": "Nor Hachn", "name_ru": "Nor Hachn", "tz": "", "district": "Kotayk’"}, {"id": 14, "name": "Byureghavan", "name_ru": "Byureghavan", "tz": "", "district": "Kotayk’"}, {"id": 15, "name": "Yeghegnadzor", "name_ru": "Yeghegnadzor", "tz": "", "district": "Vayots’ Dzor"}, {"id": 16, "name": "Ejmiatsin", "name_ru": "Ejmiatsin", "tz": "", "district": "Armavir"}, {"id": 17, "name": "Sevan", "name_ru": "Sevan", "tz": "", "district": "Geghark’unik’"}, {"id": 18, "name": "Stepanavan", "name_ru": "Stepanavan", "tz": "", "district": "Lorri"}, {"id": 19, "name": "Masis", "name_ru": "Masis", "tz": "", "district": "Ararat"}, {"id": 20, "name": "Goris", "name_ru": "Goris", "tz": "", "district": "Syunik’"}, {"id": 21, "name": "Ararat", "name_ru": "Ararat", "tz": "", "district": "Ararat"}, {"id": 22, "name": "Artik", "name_ru": "Artik", "tz": "", "district": "Shirak"}, {"id": 23, "name": "Dilijan", "name_ru": "Dilijan", "tz": "", "district": "Tavush"}, {"id": 24, "name": "Spitak", "name_ru": "Spitak", "tz": "", "district": "Lorri"}, {"id": 25, "name": "Sisian", "name_ru": "Sisian", "tz": "", "district": "Syunik’"}, {"id": 26, "name": "Vedi", "name_ru": "Vedi", "tz": "", "district": "Ararat"}, {"id": 27, "name": "Alaverdi", "name_ru": "Alaverdi", "tz": "", "district": "Lorri"}, {"id": 28, "name": "Vardenis", "name_ru": "Vardenis", "tz": "", "district": "Geghark’unik’"}, {"id": 29, "name": "Martuni", "name_ru": "Martuni", "tz": "", "district": "Geghark’unik’"}, {"id": 30, "name": "Metsamor", "name_ru": "Metsamor", "tz": "", "district": "Armavir"}, {"id": 31, "name": "Yeghvard", "name_ru": "Yeghvard", "tz": "", "district": "Kotayk’"}, {"id": 32, "name": "Ayntap", "name_ru": "Ayntap", "tz": "", "district": "Ararat"}, {"id": 33, "name": "Akhuryan", "name_ru": "Akhuryan", "tz": "", "district": "Shirak"}, {"id": 34, "name": "Berd", "name_ru": "Berd", "tz": "", "district": "Tavush"}, {"id": 35, "name": "Vardenik", "name_ru": "Vardenik", "tz": "", "district": "Geghark’unik’"}, {"id": 36, "name": "Nerk'in Getashen", "name_ru": "Nerk’in Getashen", "tz": "", "district": "Geghark’unik’"}, {"id": 37, "name": "Tashir", "name_ru": "Tashir", "tz": "", "district": "Lorri"}, {"id": 38, "name": "Jermuk", "name_ru": "Jermuk", "tz": "", "district": "Vayots’ Dzor"}, {"id": 39, "name": "Jrvezh", "name_ru": "Jrvezh", "tz": "", "district": "Yerevan"}, {"id": 40, "name": "Garrni", "name_ru": "Garrni", "tz": "", "district": "Kotayk’"}, {"id": 41, "name": "Kajaran", "name_ru": "Kajaran", "tz": "", "district": "Syunik’"}, {"id": 42, "name": "Noratus", "name_ru": "Noratus", "tz": "", "district": "Geghark’unik’"}, {"id": 43, "name": "Aparan", "name_ru": "Aparan", "tz": "", "district": "Aragatsotn"}, {"id": 44, "name": "Sardarapat", "name_ru": "Sardarapat", "tz": "", "district": "Armavir"}, {"id": 45, "name": "Karmir Gyukh", "name_ru": "Karmir Gyukh", "tz": "", "district": "Geghark’unik’"}, {"id": 46, "name": "Oshakan", "name_ru": "Oshakan", "tz": "", "district": "Aragatsotn"}, {"id": 47, "name": "Yeranos", "name_ru": "Yeranos", "tz": "", "district": "Geghark’unik’"}, {"id": 48, "name": "Chambarak", "name_ru": "Chambarak", "tz": "", "district": "Geghark’unik’"}, {"id": 49, "name": "Aragatsavan", "name_ru": "Aragatsavan", "tz": "", "district": "Aragatsotn"}, {"id": 50, "name": "Maralik", "name_ru": "Maralik", "tz": "", "district": "Shirak"}, {"id": 51, "name": "Lichk", "name_ru": "Lichk", "tz": "", "district": "Geghark’unik’"}, {"id": 52, "name": "Noyemberyan", "name_ru": "Noyemberyan", "tz": "", "district": "Tavush"}, {"id": 53, "name": "Odzun", "name_ru": "Odzun", "tz": "", "district": "Lorri"}, {"id": 54, "name": "Verin Getashen", "name_ru": "Verin Getashen", "tz": "", "district": "Geghark’unik’"}, {"id": 55, "name": "Tsovinar", "name_ru": "Tsovinar", "tz": "", "district": "Geghark’unik’"}]