[{"id": 1, "name": "Luanda", "name_ru": "Luanda", "tz": "", "district": "Luanda"}, {"id": 2, "name": "Cacuaco", "name_ru": "Cacuaco", "tz": "", "district": "Luanda"}, {"id": 3, "name": "Lubango", "name_ru": "Lubango", "tz": "", "district": "Huíla"}, {"id": 4, "name": "Huambo", "name_ru": "Huambo", "tz": "", "district": "Huambo"}, {"id": 5, "name": "Benguela", "name_ru": "Benguela", "tz": "", "district": "Benguela"}, {"id": 6, "name": "Cabinda", "name_ru": "Cabinda", "tz": "", "district": "Cabinda"}, {"id": 7, "name": "Belas", "name_ru": "Belas", "tz": "", "district": "Luanda"}, {"id": 8, "name": "Talatona", "name_ru": "Talatona", "tz": "", "district": "Luanda"}, {"id": 9, "name": "Lobito", "name_ru": "Lobito", "tz": "", "district": "Benguela"}, {"id": 10, "name": "Saurimo", "name_ru": "Saurimo", "tz": "", "district": "Lunda Sul"}, {"id": 11, "name": "Cubal", "name_ru": "Cubal", "tz": "", "district": "Benguela"}, {"id": 12, "name": "Uige", "name_ru": "Uíge", "tz": "", "district": "Uíge"}, {"id": 13, "name": "Menongue", "name_ru": "Menongue", "tz": "", "district": "Kuando Kubango"}, {"id": 14, "name": "Vila Teixeira da Silva", "name_ru": "Vila Teixeira da Silva", "tz": "", "district": "Huambo"}, {"id": 15, "name": "Sumbe", "name_ru": "Sumbe", "tz": "", "district": "Kwanza Sul"}, {"id": 16, "name": "Gabela", "name_ru": "Gabela", "tz": "", "district": "Kwanza Sul"}, {"id": 17, "name": "Mocamedes", "name_ru": "Moçâmedes", "tz": "", "district": "Namibe"}, {"id": 18, "name": "Ganda", "name_ru": "Ganda", "tz": "", "district": "Benguela"}, {"id": 19, "name": "Barra do Dande", "name_ru": "Barra do Dande", "tz": "", "district": "Bengo"}, {"id": 20, "name": "Tchitato", "name_ru": "Tchitato", "tz": "", "district": "Lunda Norte"}, {"id": 21, "name": "Chibia", "name_ru": "Chibia", "tz": "", "district": "Huíla"}, {"id": 22, "name": "Cuango", "name_ru": "Cuango", "tz": "", "district": "Lunda Norte"}, {"id": 23, "name": "Catumbela", "name_ru": "Catumbela", "tz": "", "district": "Benguela"}, {"id": 24, "name": "Catape", "name_ru": "Catape", "tz": "", "district": "Huíla"}, {"id": 25, "name": "Bocoio", "name_ru": "Bocoio", "tz": "", "district": "Benguela"}, {"id": 26, "name": "Quibala", "name_ru": "Quibala", "tz": "", "district": "Kwanza Sul"}, {"id": 27, "name": "Ndalatando", "name_ru": "Ndalatando", "tz": "", "district": "Kwanza Norte"}, {"id": 28, "name": "Quipungo", "name_ru": "Quipungo", "tz": "", "district": "Huíla"}, {"id": 29, "name": "Lucapa", "name_ru": "Lucapa", "tz": "", "district": "Lunda Norte"}, {"id": 30, "name": "Mbanza Kongo", "name_ru": "Mbanza Kongo", "tz": "", "district": "Zaire"}, {"id": 31, "name": "Namacunde", "name_ru": "Namacunde", "tz": "", "district": "Cunene"}, {"id": 32, "name": "Negage", "name_ru": "Negage", "tz": "", "district": "Uíge"}, {"id": 33, "name": "Porto Amboim", "name_ru": "Porto Amboim", "tz": "", "district": "Kwanza Sul"}, {"id": 34, "name": "Londuimbali", "name_ru": "Londuimbali", "tz": "", "district": "Huambo"}, {"id": 35, "name": "Chicomba", "name_ru": "Chicomba", "tz": "", "district": "Huíla"}, {"id": 36, "name": "Chinguar", "name_ru": "Chinguar", "tz": "", "district": "Bié"}, {"id": 37, "name": "Catabola", "name_ru": "Catabola", "tz": "", "district": "Bié"}, {"id": 38, "name": "Malanje", "name_ru": "Malanje", "tz": "", "district": "Malanje"}, {"id": 39, "name": "Ondjiva", "name_ru": "Ondjiva", "tz": "", "district": "Cunene"}, {"id": 40, "name": "Catchiungo", "name_ru": "Catchiungo", "tz": "", "district": "Huambo"}, {"id": 41, "name": "Cassongue", "name_ru": "Cassongue", "tz": "", "district": "Kwanza Sul"}, {"id": 42, "name": "Cuito", "name_ru": "Cuito", "tz": "", "district": "Bié"}, {"id": 43, "name": "Quilengues", "name_ru": "Quilengues", "tz": "", "district": "Huíla"}, {"id": 44, "name": "Mungo", "name_ru": "Mungo", "tz": "", "district": "Huambo"}, {"id": 45, "name": "Balombo", "name_ru": "Balombo", "tz": "", "district": "Benguela"}, {"id": 46, "name": "Baia Farta", "name_ru": "Baía Farta", "tz": "", "district": "Benguela"}, {"id": 47, "name": "Ndjamba", "name_ru": "Ndjamba", "tz": "", "district": "Huíla"}, {"id": 48, "name": "Caxito", "name_ru": "Caxito", "tz": "", "district": "Bengo"}, {"id": 49, "name": "Luena", "name_ru": "Luena", "tz": "", "district": "Moxico"}, {"id": 50, "name": "Dundo", "name_ru": "Dundo", "tz": "", "district": "Lunda Norte"}, {"id": 51, "name": "Quilenda", "name_ru": "Quilenda", "tz": "", "district": "Kwanza Sul"}, {"id": 52, "name": "Caimbambo", "name_ru": "Caimbambo", "tz": "", "district": "Benguela"}, {"id": 53, "name": "Cambambe", "name_ru": "Cambambe", "tz": "", "district": "Kwanza Norte"}, {"id": 54, "name": "Uacu Cungo", "name_ru": "Uacu Cungo", "tz": "", "district": "Kwanza Sul"}, {"id": 55, "name": "Luau", "name_ru": "Luau", "tz": "", "district": "Moxico"}, {"id": 56, "name": "Conda", "name_ru": "Conda", "tz": "", "district": "Kwanza Sul"}, {"id": 57, "name": "Humpata", "name_ru": "Humpata", "tz": "", "district": "Huíla"}, {"id": 58, "name": "Chongoroi", "name_ru": "Chongoroi", "tz": "", "district": "Benguela"}, {"id": 59, "name": "Capenda Camulemba", "name_ru": "Capenda Camulemba", "tz": "", "district": "Lunda Norte"}, {"id": 60, "name": "Kuvango", "name_ru": "Kuvango", "tz": "", "district": "Huíla"}, {"id": 61, "name": "Chitembo", "name_ru": "Chitembo", "tz": "", "district": "Bié"}, {"id": 62, "name": "Cahama", "name_ru": "Cahama", "tz": "", "district": "Cunene"}, {"id": 63, "name": "Soio", "name_ru": "Soio", "tz": "", "district": "Zaire"}, {"id": 64, "name": "Chipindo", "name_ru": "Chipindo", "tz": "", "district": "Huíla"}, {"id": 65, "name": "Camabatela", "name_ru": "Camabatela", "tz": "", "district": "Kwanza Norte"}, {"id": 66, "name": "Nambuangongo", "name_ru": "Nambuangongo", "tz": "", "district": "Bengo"}, {"id": 67, "name": "Cuemba", "name_ru": "Cuemba", "tz": "", "district": "Bié"}, {"id": 68, "name": "Ucuma", "name_ru": "Ucuma", "tz": "", "district": "Huambo"}, {"id": 69, "name": "Cuchi", "name_ru": "Cuchi", "tz": "", "district": "Kuando Kubango"}, {"id": 70, "name": "Cuito Cuanavale", "name_ru": "Cuito Cuanavale", "tz": "", "district": "Kuando Kubango"}, {"id": 71, "name": "PortoAlexandre", "name_ru": "Porto Alexandre", "tz": "", "district": "Namibe"}, {"id": 72, "name": "Tchindjendje", "name_ru": "Tchindjendje", "tz": "", "district": "Huambo"}, {"id": 73, "name": "Mavinga", "name_ru": "Mavinga", "tz": "", "district": "Kuando Kubango"}, {"id": 74, "name": "Caluquembe", "name_ru": "Caluquembe", "tz": "", "district": "Huíla"}, {"id": 75, "name": "Longonjo", "name_ru": "Longonjo", "tz": "", "district": "Huambo"}, {"id": 76, "name": "Alto-Cuilo", "name_ru": "Alto-Cuilo", "tz": "", "district": "Lunda Sul"}, {"id": 77, "name": "Cacongo", "name_ru": "Cacongo", "tz": "", "district": "Cabinda"}, {"id": 78, "name": "Lubalo", "name_ru": "Lubalo", "tz": "", "district": "Lunda Norte"}, {"id": 79, "name": "Camacupa", "name_ru": "Camacupa", "tz": "", "district": "Bié"}, {"id": 80, "name": "Ambriz", "name_ru": "Ambriz", "tz": "", "district": "Bengo"}, {"id": 81, "name": "Bolongongo", "name_ru": "Bolongongo", "tz": "", "district": "Kwanza Norte"}, {"id": 82, "name": "Nzeto", "name_ru": "Nzeto", "tz": "", "district": "Zaire"}, {"id": 83, "name": "Songo", "name_ru": "Songo", "tz": "", "district": "Uíge"}, {"id": 84, "name": "Dondo", "name_ru": "Dondo", "tz": "", "district": "Kwanza Norte"}, {"id": 85, "name": "Muconda", "name_ru": "Muconda", "tz": "", "district": "Lunda Sul"}, {"id": 86, "name": "Chibemba", "name_ru": "Chibemba", "tz": "", "district": "Huíla"}, {"id": 87, "name": "Cacolo", "name_ru": "Cacolo", "tz": "", "district": "Lunda Sul"}, {"id": 88, "name": "Xangongo", "name_ru": "Xangongo", "tz": "", "district": "Cunene"}, {"id": 89, "name": "Cazombo", "name_ru": "Cazombo", "tz": "", "district": "Moxico"}, {"id": 90, "name": "Bala Cangamba", "name_ru": "Bala Cangamba", "tz": "", "district": "Moxico"}, {"id": 91, "name": "Calulo", "name_ru": "Calulo", "tz": "", "district": "Kwanza Sul"}, {"id": 92, "name": "Calenga", "name_ru": "Calenga", "tz": "", "district": "Bié"}, {"id": 93, "name": "Tchitado", "name_ru": "Tchitado", "tz": "", "district": "Cunene"}]