[{"id": 1, "name": "Buenos Aires", "name_ru": "Buenos Aires", "tz": "America/Argentina/Buenos_Aires", "district": "Buenos Aires, Ciudad Autónoma de"}, {"id": 2, "name": "Cordoba", "name_ru": "Córdoba", "tz": "America/Argentina/Cordoba", "district": "Córdoba"}, {"id": 3, "name": "Rosario", "name_ru": "Rosario", "tz": "America/Argentina/Cordoba", "district": "Santa Fe"}, {"id": 4, "name": "Comodoro Rivadavia", "name_ru": "Comodoro Rivadavia", "tz": "America/Argentina/Catamarca", "district": "Chubut"}, {"id": 5, "name": "San Miguel de Tucuman", "name_ru": "San Miguel de Tucumán", "tz": "America/Argentina/Tucuman", "district": "Tucumán"}, {"id": 6, "name": "Mar del Plata", "name_ru": "Mar del Plata", "tz": "America/Argentina/Buenos_Aires", "district": "Buenos Aires"}, {"id": 7, "name": "Salta", "name_ru": "Salta", "tz": "America/Argentina/Salta", "district": "Salta"}, {"id": 8, "name": "San Juan", "name_ru": "San Juan", "tz": "America/Argentina/San_Juan", "district": "San Juan"}, {"id": 9, "name": "Lanus", "name_ru": "Lanús", "tz": "America/Argentina/Buenos_Aires", "district": "Buenos Aires"}, {"id": 10, "name": "Florencio Varela", "name_ru": "Florencio Varela", "tz": "America/Argentina/Buenos_Aires", "district": "Buenos Aires"}, {"id": 11, "name": "Santa Fe", "name_ru": "Santa Fe", "tz": "America/Argentina/Cordoba", "district": "Santa Fe"}, {"id": 12, "name": "Corrientes", "name_ru": "Corrientes", "tz": "America/Argentina/Cordoba", "district": "Corrientes"}, {"id": 13, "name": "San Salvador de Jujuy", "name_ru": "San Salvador de Jujuy", "tz": "America/Argentina/Jujuy", "district": "Jujuy"}, {"id": 14, "name": "Bahia Blanca", "name_ru": "Bahía Blanca", "tz": "America/Argentina/Buenos_Aires", "district": "Buenos Aires"}, {"id": 15, "name": "Resistencia", "name_ru": "Resistencia", "tz": "America/Argentina/Cordoba", "district": "Chaco"}, {"id": 16, "name": "Posadas", "name_ru": "Posadas", "tz": "America/Argentina/Cordoba", "district": "Misiones"}, {"id": 17, "name": "Santiago del Estero", "name_ru": "Santiago del Estero", "tz": "America/Argentina/Cordoba", "district": "Santiago del Estero"}, {"id": 18, "name": "Parana", "name_ru": "Paraná", "tz": "America/Argentina/Cordoba", "district": "Entre Ríos"}, {"id": 19, "name": "Merlo", "name_ru": "Merlo", "tz": "America/Argentina/Buenos_Aires", "district": "Buenos Aires"}, {"id": 20, "name": "Gonzalez Catan", "name_ru": "González Catán", "tz": "America/Argentina/Buenos_Aires", "district": "Buenos Aires"}, {"id": 21, "name": "Quilmes", "name_ru": "Quilmes", "tz": "America/Argentina/Buenos_Aires", "district": "Buenos Aires"}, {"id": 22, "name": "Neuquen", "name_ru": "Neuquén", "tz": "America/Argentina/Salta", "district": "Neuquén"}, {"id": 23, "name": "Banfield", "name_ru": "Banfield", "tz": "America/Argentina/Buenos_Aires", "district": "Buenos Aires"}, {"id": 24, "name": "Jose C. Paz", "name_ru": "José C. Paz", "tz": "America/Argentina/Buenos_Aires", "district": "Buenos Aires"}, {"id": 25, "name": "Formosa", "name_ru": "Formosa", "tz": "America/Argentina/Cordoba", "district": "Formosa"}, {"id": 26, "name": "Isidro Casanova", "name_ru": "Isidro Casanova", "tz": "America/Argentina/Buenos_Aires", "district": "Buenos Aires"}, {"id": 27, "name": "La Plata", "name_ru": "La Plata", "tz": "America/Argentina/Buenos_Aires", "district": "Buenos Aires"}, {"id": 28, "name": "Godoy Cruz", "name_ru": "Godoy Cruz", "tz": "America/Argentina/Mendoza", "district": "Mendoza"}, {"id": 29, "name": "Berazategui", "name_ru": "Berazategui", "tz": "America/Argentina/Buenos_Aires", "district": "Buenos Aires"}, {"id": 30, "name": "La Rioja", "name_ru": "La Rioja", "tz": "America/Argentina/La_Rioja", "district": "La Rioja"}, {"id": 31, "name": "San Luis", "name_ru": "San Luis", "tz": "America/Argentina/San_Luis", "district": "San Luis"}, {"id": 32, "name": "San Miguel", "name_ru": "San Miguel", "tz": "America/Argentina/Buenos_Aires", "district": "Buenos Aires"}, {"id": 33, "name": "Jose Maria Ezeiza", "name_ru": "José María Ezeiza", "tz": "America/Argentina/Buenos_Aires", "district": "Buenos Aires"}, {"id": 34, "name": "San Nicolas de los Arroyos", "name_ru": "San Nicolás de los Arroyos", "tz": "America/Argentina/Buenos_Aires", "district": "Buenos Aires"}, {"id": 35, "name": "Catamarca", "name_ru": "Catamarca", "tz": "America/Argentina/Catamarca", "district": "Catamarca"}, {"id": 36, "name": "Rafael Castillo", "name_ru": "Rafael Castillo", "tz": "America/Argentina/Buenos_Aires", "district": "Buenos Aires"}, {"id": 37, "name": "Rio Cuarto", "name_ru": "Río Cuarto", "tz": "America/Argentina/Cordoba", "district": "Córdoba"}, {"id": 38, "name": "Florencio Varela", "name_ru": "Florencio Varela", "tz": "America/Argentina/Buenos_Aires", "district": "Buenos Aires"}, {"id": 39, "name": "Concordia", "name_ru": "Concordia", "tz": "America/Argentina/Cordoba", "district": "Entre Ríos"}, {"id": 40, "name": "San Justo", "name_ru": "San Justo", "tz": "America/Argentina/Buenos_Aires", "district": "Buenos Aires"}, {"id": 41, "name": "Ituzaingo", "name_ru": "Ituzaingó", "tz": "America/Argentina/Buenos_Aires", "district": "Buenos Aires"}, {"id": 42, "name": "Temperley", "name_ru": "Temperley", "tz": "America/Argentina/Buenos_Aires", "district": "Buenos Aires"}, {"id": 43, "name": "Ramos Mejia", "name_ru": "Ramos Mejía", "tz": "America/Argentina/Buenos_Aires", "district": "Buenos Aires"}, {"id": 44, "name": "Lomas de Zamora", "name_ru": "Lomas de Zamora", "tz": "America/Argentina/Buenos_Aires", "district": "Buenos Aires"}, {"id": 45, "name": "San Martin", "name_ru": "San Martín", "tz": "America/Argentina/Mendoza", "district": "Mendoza"}, {"id": 46, "name": "Mendoza", "name_ru": "Mendoza", "tz": "America/Argentina/Mendoza", "district": "Mendoza"}, {"id": 47, "name": "Tandil", "name_ru": "Tandil", "tz": "America/Argentina/Buenos_Aires", "district": "Buenos Aires"}, {"id": 48, "name": "Puerto Madryn", "name_ru": "Puerto Madryn", "tz": "America/Argentina/Catamarca", "district": "Chubut"}, {"id": 49, "name": "Bernal", "name_ru": "Bernal", "tz": "America/Argentina/Buenos_Aires", "district": "Buenos Aires"}, {"id": 50, "name": "Castelar", "name_ru": "Castelar", "tz": "America/Argentina/Buenos_Aires", "district": "Buenos Aires"}, {"id": 51, "name": "San Carlos de Bariloche", "name_ru": "San Carlos de Bariloche", "tz": "America/Argentina/Salta", "district": "Río Negro"}, {"id": 52, "name": "Esteban Echeverria", "name_ru": "Esteban Echeverría", "tz": "America/Argentina/Buenos_Aires", "district": "Buenos Aires"}, {"id": 53, "name": "Villa Mercedes", "name_ru": "Villa Mercedes", "tz": "America/Argentina/San_Luis", "district": "San Luis"}, {"id": 54, "name": "Gualeguaychu", "name_ru": "Gualeguaychú", "tz": "America/Argentina/Cordoba", "district": "Entre Ríos"}, {"id": 55, "name": "San Rafael", "name_ru": "San Rafael", "tz": "America/Argentina/Mendoza", "district": "Mendoza"}, {"id": 56, "name": "Moron", "name_ru": "Morón", "tz": "America/Argentina/Buenos_Aires", "district": "Buenos Aires"}, {"id": 57, "name": "La Banda", "name_ru": "La Banda", "tz": "America/Argentina/Cordoba", "district": "Santiago del Estero"}, {"id": 58, "name": "Villa Luzuriaga", "name_ru": "Villa Luzuriaga", "tz": "America/Argentina/Buenos_Aires", "district": "Buenos Aires"}, {"id": 59, "name": "Caseros", "name_ru": "Caseros", "tz": "America/Argentina/Buenos_Aires", "district": "Buenos Aires"}, {"id": 60, "name": "Santa Rosa", "name_ru": "Santa Rosa", "tz": "America/Argentina/Salta", "district": "La Pampa"}, {"id": 61, "name": "Libertad", "name_ru": "Libertad", "tz": "America/Argentina/Buenos_Aires", "district": "Buenos Aires"}, {"id": 62, "name": "Burzaco", "name_ru": "Burzaco", "tz": "America/Argentina/Buenos_Aires", "district": "Buenos Aires"}, {"id": 63, "name": "Ciudad General Belgrano", "name_ru": "Ciudad General Belgrano", "tz": "America/Argentina/Buenos_Aires", "district": "Buenos Aires"}, {"id": 64, "name": "San Francisco Solano", "name_ru": "San Francisco Solano", "tz": "America/Argentina/Buenos_Aires", "district": "Buenos Aires"}, {"id": 65, "name": "Rio Gallegos", "name_ru": "Río Gallegos", "tz": "America/Argentina/Rio_Gallegos", "district": "Santa Cruz"}, {"id": 66, "name": "Monte Chingolo", "name_ru": "Monte Chingolo", "tz": "America/Argentina/Buenos_Aires", "district": "Buenos Aires"}, {"id": 67, "name": "Remedios de Escalada", "name_ru": "Remedios de Escalada", "tz": "America/Argentina/Buenos_Aires", "district": "Buenos Aires"}, {"id": 68, "name": "Ezpeleta", "name_ru": "Ezpeleta", "tz": "America/Argentina/Buenos_Aires", "district": "Buenos Aires"}, {"id": 69, "name": "Villa Celina", "name_ru": "Villa Celina", "tz": "America/Argentina/Buenos_Aires", "district": "Buenos Aires, Ciudad Autónoma de"}, {"id": 70, "name": "Lomas del Mirador", "name_ru": "Lomas del Mirador", "tz": "America/Argentina/Buenos_Aires", "district": "Buenos Aires"}, {"id": 71, "name": "Bella Vista", "name_ru": "Bella Vista", "tz": "America/Argentina/Buenos_Aires", "district": "Buenos Aires"}, {"id": 72, "name": "Wilde", "name_ru": "Wilde", "tz": "America/Argentina/Buenos_Aires", "district": "Buenos Aires"}, {"id": 73, "name": "Villa Dominico", "name_ru": "Villa Domínico", "tz": "America/Argentina/Buenos_Aires", "district": "Buenos Aires"}, {"id": 74, "name": "Los Polvorines", "name_ru": "Los Polvorines", "tz": "America/Argentina/Buenos_Aires", "district": "Buenos Aires"}, {"id": 75, "name": "Rafael Calzada", "name_ru": "Rafael Calzada", "tz": "America/Argentina/Buenos_Aires", "district": "Buenos Aires"}, {"id": 76, "name": "Viedma", "name_ru": "Viedma", "tz": "America/Argentina/Salta", "district": "Río Negro"}, {"id": 77, "name": "Ushuaia", "name_ru": "Ushuaia", "tz": "America/Argentina/Ushuaia", "district": "Tierra del Fuego, Antártida e Islas del Atlántico Sur"}, {"id": 78, "name": "Longchamps", "name_ru": "Longchamps", "tz": "America/Argentina/Buenos_Aires", "district": "Buenos Aires"}, {"id": 79, "name": "Villa Alsina", "name_ru": "Villa Alsina", "tz": "America/Argentina/Buenos_Aires", "district": "Buenos Aires"}, {"id": 80, "name": "San Isidro", "name_ru": "San Isidro", "tz": "America/Argentina/Buenos_Aires", "district": "Buenos Aires"}, {"id": 81, "name": "Jose Marmol", "name_ru": "José Mármol", "tz": "America/Argentina/Buenos_Aires", "district": "Buenos Aires"}, {"id": 82, "name": "Haedo", "name_ru": "Haedo", "tz": "America/Argentina/Buenos_Aires", "district": "Buenos Aires"}, {"id": 83, "name": "Munro", "name_ru": "Munro", "tz": "America/Argentina/Buenos_Aires", "district": "Buenos Aires"}, {"id": 84, "name": "Dock Sur", "name_ru": "Dock Sur", "tz": "America/Argentina/Buenos_Aires", "district": "Buenos Aires"}, {"id": 85, "name": "Villa Adelina", "name_ru": "Villa Adelina", "tz": "America/Argentina/Buenos_Aires", "district": "Buenos Aires"}, {"id": 86, "name": "Adrogue", "name_ru": "Adrogue", "tz": "America/Argentina/Buenos_Aires", "district": "Buenos Aires"}, {"id": 87, "name": "Avellaneda", "name_ru": "Avellaneda", "tz": "America/Argentina/Buenos_Aires", "district": "Buenos Aires"}, {"id": 88, "name": "Vicente Lopez", "name_ru": "Vicente López", "tz": "America/Argentina/Buenos_Aires", "district": "Buenos Aires"}, {"id": 89, "name": "Tapiales", "name_ru": "Tapiales", "tz": "America/Argentina/Buenos_Aires", "district": "Buenos Aires"}, {"id": 90, "name": "Don Bosco", "name_ru": "Don Bosco", "tz": "America/Argentina/Buenos_Aires", "district": "Buenos Aires"}, {"id": 91, "name": "Rawson", "name_ru": "Rawson", "tz": "America/Argentina/Catamarca", "district": "Chubut"}, {"id": 92, "name": "Villa Sarmiento", "name_ru": "Villa Sarmiento", "tz": "America/Argentina/Buenos_Aires", "district": "Buenos Aires"}, {"id": 93, "name": "Aldo Bonzi", "name_ru": "Aldo Bonzi", "tz": "America/Argentina/Buenos_Aires", "district": "Buenos Aires"}, {"id": 94, "name": "Malvinas Argentinas", "name_ru": "Malvinas Argentinas", "tz": "America/Argentina/Cordoba", "district": "Córdoba"}, {"id": 95, "name": "Zarate", "name_ru": "Zárate", "tz": "America/Argentina/Buenos_Aires", "district": "Buenos Aires"}, {"id": 96, "name": "Trelew", "name_ru": "Trelew", "tz": "America/Argentina/Catamarca", "district": "Chubut"}, {"id": 97, "name": "Rafaela", "name_ru": "Rafaela", "tz": "America/Argentina/Cordoba", "district": "Santa Fe"}, {"id": 98, "name": "Pergamino", "name_ru": "Pergamino", "tz": "America/Argentina/Buenos_Aires", "district": "Buenos Aires"}, {"id": 99, "name": "Campana", "name_ru": "Campana", "tz": "America/Argentina/Buenos_Aires", "district": "Buenos Aires"}, {"id": 100, "name": "Olavarria", "name_ru": "Olavarría", "tz": "America/Argentina/Buenos_Aires", "district": "Buenos Aires"}, {"id": 101, "name": "Junin", "name_ru": "Junín", "tz": "America/Argentina/Buenos_Aires", "district": "Buenos Aires"}, {"id": 102, "name": "Pilar", "name_ru": "Pilar", "tz": "America/Argentina/Buenos_Aires", "district": "Buenos Aires"}, {"id": 103, "name": "Presidencia Roque Saenz Pena", "name_ru": "Presidencia Roque Sáenz Peña", "tz": "America/Argentina/Cordoba", "district": "Chaco"}, {"id": 104, "name": "Lujan", "name_ru": "Luján", "tz": "America/Argentina/Buenos_Aires", "district": "Buenos Aires"}, {"id": 105, "name": "General Roca", "name_ru": "General Roca", "tz": "America/Argentina/Salta", "district": "Río Negro"}, {"id": 106, "name": "Gobernador Galvez", "name_ru": "Gobernador Gálvez", "tz": "America/Argentina/Cordoba", "district": "Santa Fe"}, {"id": 107, "name": "Necochea", "name_ru": "Necochea", "tz": "America/Argentina/Buenos_Aires", "district": "Buenos Aires"}, {"id": 108, "name": "Villa Maria", "name_ru": "Villa María", "tz": "America/Argentina/Cordoba", "district": "Córdoba"}, {"id": 109, "name": "Venado Tuerto", "name_ru": "Venado Tuerto", "tz": "America/Argentina/Cordoba", "district": "Santa Fe"}, {"id": 110, "name": "San Ramon de la Nueva Oran", "name_ru": "San Ramón de la Nueva Orán", "tz": "America/Argentina/Salta", "district": "Salta"}, {"id": 111, "name": "Concepcion del Uruguay", "name_ru": "Concepción del Uruguay", "tz": "America/Argentina/Cordoba", "district": "Entre Ríos"}, {"id": 112, "name": "Goya", "name_ru": "Goya", "tz": "America/Argentina/Cordoba", "district": "Corrientes"}, {"id": 113, "name": "Reconquista", "name_ru": "Reconquista", "tz": "America/Argentina/Cordoba", "district": "Santa Fe"}, {"id": 114, "name": "Las Heras", "name_ru": "Las Heras", "tz": "America/Argentina/Mendoza", "district": "Mendoza"}, {"id": 115, "name": "Obera", "name_ru": "Oberá", "tz": "America/Argentina/Cordoba", "district": "Misiones"}, {"id": 116, "name": "Santo Tome", "name_ru": "Santo Tomé", "tz": "America/Argentina/Cordoba", "district": "Santa Fe"}, {"id": 117, "name": "Villa Carlos Paz", "name_ru": "Villa Carlos Paz", "tz": "America/Argentina/Cordoba", "district": "Córdoba"}, {"id": 118, "name": "San Francisco", "name_ru": "San Francisco", "tz": "America/Argentina/Cordoba", "district": "Córdoba"}, {"id": 119, "name": "Sarandi", "name_ru": "Sarandí", "tz": "America/Argentina/Buenos_Aires", "district": "Buenos Aires"}, {"id": 120, "name": "Tartagal", "name_ru": "Tartagal", "tz": "America/Argentina/Salta", "district": "Salta"}, {"id": 121, "name": "San Pedro", "name_ru": "San Pedro", "tz": "America/Argentina/Jujuy", "district": "Jujuy"}, {"id": 122, "name": "Punta Alta", "name_ru": "Punta Alta", "tz": "America/Argentina/Buenos_Aires", "district": "Buenos Aires"}, {"id": 123, "name": "General Pico", "name_ru": "General Pico", "tz": "America/Argentina/Salta", "district": "La Pampa"}, {"id": 124, "name": "Azul", "name_ru": "Azul", "tz": "America/Argentina/Buenos_Aires", "district": "Buenos Aires"}, {"id": 125, "name": "Chivilcoy", "name_ru": "Chivilcoy", "tz": "America/Argentina/Buenos_Aires", "district": "Buenos Aires"}, {"id": 126, "name": "Mercedes", "name_ru": "Mercedes", "tz": "America/Argentina/Buenos_Aires", "district": "Buenos Aires"}, {"id": 127, "name": "Cruz del Eje", "name_ru": "Cruz del Eje", "tz": "America/Argentina/Cordoba", "district": "Córdoba"}, {"id": 128, "name": "Caleta Olivia", "name_ru": "Caleta Olivia", "tz": "America/Argentina/Rio_Gallegos", "district": "Santa Cruz"}, {"id": 129, "name": "El Talar de Pacheco", "name_ru": "El Talar de Pacheco", "tz": "America/Argentina/Buenos_Aires", "district": "Buenos Aires"}, {"id": 130, "name": "Villaguay", "name_ru": "Villaguay", "tz": "America/Argentina/Cordoba", "district": "Entre Ríos"}, {"id": 131, "name": "Libertador General San Martin", "name_ru": "Libertador General San Martín", "tz": "America/Argentina/Jujuy", "district": "Jujuy"}, {"id": 132, "name": "La Reja", "name_ru": "La Reja", "tz": "America/Argentina/Buenos_Aires", "district": "Buenos Aires"}, {"id": 133, "name": "Alta Gracia", "name_ru": "Alta Gracia", "tz": "America/Argentina/Cordoba", "district": "Córdoba"}, {"id": 134, "name": "San Lorenzo", "name_ru": "San Lorenzo", "tz": "America/Argentina/Cordoba", "district": "Corrientes"}, {"id": 135, "name": "San Pedro", "name_ru": "San Pedro", "tz": "America/Argentina/Buenos_Aires", "district": "Buenos Aires"}, {"id": 136, "name": "Villa Constitucion", "name_ru": "Villa Constitución", "tz": "America/Argentina/Cordoba", "district": "Santa Fe"}, {"id": 137, "name": "Tres Arroyos", "name_ru": "Tres Arroyos", "tz": "America/Argentina/Buenos_Aires", "district": "Buenos Aires"}, {"id": 138, "name": "Rio Tercero", "name_ru": "Río Tercero", "tz": "America/Argentina/Cordoba", "district": "Córdoba"}, {"id": 139, "name": "Chajari", "name_ru": "Chajarí", "tz": "America/Argentina/Cordoba", "district": "Entre Ríos"}, {"id": 140, "name": "Pinamar", "name_ru": "Pinamar", "tz": "America/Argentina/Buenos_Aires", "district": "Buenos Aires"}, {"id": 141, "name": "Esperanza", "name_ru": "Esperanza", "tz": "America/Argentina/Cordoba", "district": "Santa Fe"}, {"id": 142, "name": "Gualeguay", "name_ru": "Gualeguay", "tz": "America/Argentina/Cordoba", "district": "Entre Ríos"}, {"id": 143, "name": "Balcarce", "name_ru": "Balcarce", "tz": "America/Argentina/Buenos_Aires", "district": "Buenos Aires"}, {"id": 144, "name": "Aristobulo del Valle", "name_ru": "Aristóbulo del Valle", "tz": "America/Argentina/Cordoba", "district": "Misiones"}, {"id": 145, "name": "Granadero Baigorria", "name_ru": "Granadero Baigorria", "tz": "America/Argentina/Cordoba", "district": "Santa Fe"}, {"id": 146, "name": "Esquel", "name_ru": "Esquel", "tz": "America/Argentina/Catamarca", "district": "Buenos Aires, Ciudad Autónoma de"}, {"id": 147, "name": "Nueve de Julio", "name_ru": "Nueve de Julio", "tz": "America/Argentina/Buenos_Aires", "district": "Buenos Aires"}, {"id": 148, "name": "Cutral-Co", "name_ru": "Cutral-Có", "tz": "America/Argentina/Salta", "district": "Neuquén"}, {"id": 149, "name": "Casilda", "name_ru": "Casilda", "tz": "America/Argentina/Cordoba", "district": "Santa Fe"}, {"id": 150, "name": "Chacabuco", "name_ru": "Chacabuco", "tz": "America/Argentina/Buenos_Aires", "district": "Buenos Aires"}, {"id": 151, "name": "Centenario", "name_ru": "Centenario", "tz": "America/Argentina/Salta", "district": "Neuquén"}, {"id": 152, "name": "Bell Ville", "name_ru": "Bell Ville", "tz": "America/Argentina/Cordoba", "district": "Córdoba"}, {"id": 153, "name": "Chilecito", "name_ru": "Chilecito", "tz": "America/Argentina/La_Rioja", "district": "La Rioja"}, {"id": 154, "name": "Bragado", "name_ru": "Bragado", "tz": "America/Argentina/Buenos_Aires", "district": "Buenos Aires"}, {"id": 155, "name": "La Calera", "name_ru": "La Calera", "tz": "America/Argentina/Cordoba", "district": "Córdoba"}, {"id": 156, "name": "Plottier", "name_ru": "Plottier", "tz": "America/Argentina/Salta", "district": "Neuquén"}, {"id": 157, "name": "Zapala", "name_ru": "Zapala", "tz": "America/Argentina/Salta", "district": "Neuquén"}, {"id": 158, "name": "Jesus Maria", "name_ru": "Jesús María", "tz": "America/Argentina/Cordoba", "district": "Córdoba"}, {"id": 159, "name": "Rio Grande", "name_ru": "Río Grande", "tz": "America/Argentina/Ushuaia", "district": "Tierra del Fuego, Antártida e Islas del Atlántico Sur"}, {"id": 160, "name": "Mercedes", "name_ru": "Mercedes", "tz": "America/Argentina/Cordoba", "district": "Corrientes"}, {"id": 161, "name": "Victoria", "name_ru": "Victoria", "tz": "America/Argentina/Cordoba", "district": "Entre Ríos"}, {"id": 162, "name": "Villa Angela", "name_ru": "Villa Ángela", "tz": "America/Argentina/Cordoba", "district": "Chaco"}, {"id": 163, "name": "Villa Regina", "name_ru": "Villa Regina", "tz": "America/Argentina/Salta", "district": "Río Negro"}, {"id": 164, "name": "Villa Gesell", "name_ru": "Villa Gesell", "tz": "America/Argentina/Buenos_Aires", "district": "Buenos Aires"}, {"id": 165, "name": "Capitan Bermudez", "name_ru": "Capitán Bermúdez", "tz": "America/Argentina/Cordoba", "district": "Santa Fe"}, {"id": 166, "name": "Canada de Gomez", "name_ru": "Cañada de Gómez", "tz": "America/Argentina/Cordoba", "district": "Santa Fe"}, {"id": 167, "name": "Baradero", "name_ru": "Baradero", "tz": "America/Argentina/Buenos_Aires", "district": "Buenos Aires"}, {"id": 168, "name": "Villa Allende", "name_ru": "Villa Allende", "tz": "America/Argentina/Cordoba", "district": "Córdoba"}, {"id": 169, "name": "San Martin de los Andes", "name_ru": "San Martín de los Andes", "tz": "America/Argentina/Salta", "district": "Neuquén"}, {"id": 170, "name": "Marcos Juarez", "name_ru": "Marcos Juárez", "tz": "America/Argentina/Cordoba", "district": "Córdoba"}, {"id": 171, "name": "Dolores", "name_ru": "Dolores", "tz": "America/Argentina/Buenos_Aires", "district": "Buenos Aires"}, {"id": 172, "name": "Firmat", "name_ru": "Firmat", "tz": "America/Argentina/Cordoba", "district": "Santa Fe"}, {"id": 173, "name": "Colon", "name_ru": "Colón", "tz": "America/Argentina/Cordoba", "district": "Entre Ríos"}, {"id": 174, "name": "Lincoln", "name_ru": "Lincoln", "tz": "America/Argentina/Buenos_Aires", "district": "Buenos Aires"}, {"id": 175, "name": "Coronel Suarez", "name_ru": "Coronel Suárez", "tz": "America/Argentina/Buenos_Aires", "district": "Buenos Aires"}, {"id": 176, "name": "Veinticinco de Mayo", "name_ru": "Veinticinco de Mayo", "tz": "America/Argentina/Buenos_Aires", "district": "Buenos Aires"}, {"id": 177, "name": "Avellaneda", "name_ru": "Avellaneda", "tz": "America/Argentina/Cordoba", "district": "Santa Fe"}, {"id": 178, "name": "Allen", "name_ru": "Allen", "tz": "America/Argentina/Salta", "district": "Río Negro"}, {"id": 179, "name": "Tunuyan", "name_ru": "Tunuyán", "tz": "America/Argentina/Mendoza", "district": "Mendoza"}, {"id": 180, "name": "Cinco Saltos", "name_ru": "Cinco Saltos", "tz": "America/Argentina/Salta", "district": "Río Negro"}, {"id": 181, "name": "San Justo", "name_ru": "San Justo", "tz": "America/Argentina/Cordoba", "district": "Santa Fe"}, {"id": 182, "name": "Dean Funes", "name_ru": "Deán Funes", "tz": "America/Argentina/Cordoba", "district": "Córdoba"}, {"id": 183, "name": "El Calafate", "name_ru": "El Calafate", "tz": "America/Argentina/Rio_Gallegos", "district": "Santa Cruz"}, {"id": 184, "name": "Chascomus", "name_ru": "Chascomús", "tz": "America/Argentina/Buenos_Aires", "district": "Buenos Aires"}, {"id": 185, "name": "Pico Truncado", "name_ru": "Pico Truncado", "tz": "America/Argentina/Rio_Gallegos", "district": "Santa Cruz"}, {"id": 186, "name": "Sunchales", "name_ru": "Sunchales", "tz": "America/Argentina/Cordoba", "district": "Santa Fe"}, {"id": 187, "name": "Laboulaye", "name_ru": "Laboulaye", "tz": "America/Argentina/Cordoba", "district": "Córdoba"}, {"id": 188, "name": "Brandsen", "name_ru": "Brandsen", "tz": "America/Argentina/Buenos_Aires", "district": "Buenos Aires"}, {"id": 189, "name": "General Martin Miguel de Guemes", "name_ru": "General Martín Miguel de Güemes", "tz": "America/Argentina/Salta", "district": "Salta"}, {"id": 190, "name": "Rio Segundo", "name_ru": "Río Segundo", "tz": "America/Argentina/Cordoba", "district": "Córdoba"}, {"id": 191, "name": "Vera", "name_ru": "Vera", "tz": "America/Argentina/Cordoba", "district": "Santa Fe"}, {"id": 192, "name": "Villa Nueva", "name_ru": "Villa Nueva", "tz": "America/Argentina/Cordoba", "district": "Córdoba"}, {"id": 193, "name": "Rufino", "name_ru": "Rufino", "tz": "America/Argentina/Cordoba", "district": "Santa Fe"}, {"id": 194, "name": "Unquillo", "name_ru": "Unquillo", "tz": "America/Argentina/Cordoba", "district": "Córdoba"}, {"id": 195, "name": "Charata", "name_ru": "Charata", "tz": "America/Argentina/Cordoba", "district": "Chaco"}, {"id": 196, "name": "Lobos", "name_ru": "Lobos", "tz": "America/Argentina/Buenos_Aires", "district": "Buenos Aires"}, {"id": 197, "name": "Coronda", "name_ru": "Coronda", "tz": "America/Argentina/Cordoba", "district": "Santa Fe"}, {"id": 198, "name": "General Juan Madariaga", "name_ru": "General Juan Madariaga", "tz": "America/Argentina/Buenos_Aires", "district": "Buenos Aires"}, {"id": 199, "name": "General Deheza", "name_ru": "General Deheza", "tz": "America/Argentina/Cordoba", "district": "Córdoba"}, {"id": 200, "name": "Las Heras", "name_ru": "Las Heras", "tz": "America/Argentina/Rio_Gallegos", "district": "Santa Cruz"}, {"id": 201, "name": "Santa Elena", "name_ru": "Santa Elena", "tz": "America/Argentina/Cordoba", "district": "Entre Ríos"}, {"id": 202, "name": "Catriel", "name_ru": "Catriel", "tz": "America/Argentina/Salta", "district": "Río Negro"}, {"id": 203, "name": "Veinticinco de Mayo", "name_ru": "Veinticinco de Mayo", "tz": "America/Argentina/Salta", "district": "La Pampa"}, {"id": 204, "name": "Eldorado", "name_ru": "Eldorado", "tz": "America/Argentina/Cordoba", "district": "Misiones"}, {"id": 205, "name": "Ayacucho", "name_ru": "Ayacucho", "tz": "America/Argentina/Buenos_Aires", "district": "Buenos Aires"}, {"id": 206, "name": "Santa Maria", "name_ru": "Santa María", "tz": "America/Argentina/Catamarca", "district": "Catamarca"}, {"id": 207, "name": "Federacion", "name_ru": "Federación", "tz": "America/Argentina/Cordoba", "district": "Entre Ríos"}, {"id": 208, "name": "La Falda", "name_ru": "La Falda", "tz": "America/Argentina/Cordoba", "district": "Córdoba"}, {"id": 209, "name": "Carcarana", "name_ru": "Carcarañá", "tz": "America/Argentina/Cordoba", "district": "Santa Fe"}, {"id": 210, "name": "San Antonio Oeste", "name_ru": "San Antonio Oeste", "tz": "America/Argentina/Salta", "district": "Río Negro"}, {"id": 211, "name": "Villa del Rosario", "name_ru": "Villa del Rosario", "tz": "America/Argentina/Cordoba", "district": "Córdoba"}, {"id": 212, "name": "Villa Paranacito", "name_ru": "Villa Paranacito", "tz": "America/Argentina/Cordoba", "district": "Entre Ríos"}, {"id": 213, "name": "Fray Luis A. Beltran", "name_ru": "Fray Luis A. Beltrán", "tz": "America/Argentina/Cordoba", "district": "Santa Fe"}, {"id": 214, "name": "Carmen de Areco", "name_ru": "Carmen de Areco", "tz": "America/Argentina/Buenos_Aires", "district": "Buenos Aires"}, {"id": 215, "name": "Ceres", "name_ru": "Ceres", "tz": "America/Argentina/Cordoba", "district": "Santa Fe"}, {"id": 216, "name": "San Cristobal", "name_ru": "San Cristóbal", "tz": "America/Argentina/Cordoba", "district": "Santa Fe"}, {"id": 217, "name": "Puerto Deseado", "name_ru": "Puerto Deseado", "tz": "America/Argentina/Rio_Gallegos", "district": "Santa Cruz"}, {"id": 218, "name": "Anatuya", "name_ru": "Añatuya", "tz": "America/Argentina/Cordoba", "district": "Santiago del Estero"}, {"id": 219, "name": "Mar de Ajo", "name_ru": "Mar de Ajó", "tz": "America/Argentina/Buenos_Aires", "district": "Buenos Aires"}, {"id": 220, "name": "La Quiaca", "name_ru": "La Quiaca", "tz": "America/Argentina/Jujuy", "district": "Jujuy"}, {"id": 221, "name": "San Javier", "name_ru": "San Javier", "tz": "America/Argentina/Cordoba", "district": "Santa Fe"}, {"id": 222, "name": "Frias", "name_ru": "Frías", "tz": "America/Argentina/Catamarca", "district": "Santiago del Estero"}, {"id": 223, "name": "Joaquin V. Gonzalez", "name_ru": "Joaquín V. González", "tz": "America/Argentina/Salta", "district": "Salta"}, {"id": 224, "name": "Puerto San Martin", "name_ru": "Puerto San Martín", "tz": "America/Argentina/Cordoba", "district": "Santa Fe"}, {"id": 225, "name": "Plaza Huincul", "name_ru": "Plaza Huincul", "tz": "America/Argentina/Salta", "district": "Neuquén"}, {"id": 226, "name": "Oncativo", "name_ru": "Oncativo", "tz": "America/Argentina/Cordoba", "district": "Córdoba"}, {"id": 227, "name": "Chos Malal", "name_ru": "Chos Malal", "tz": "America/Argentina/Salta", "district": "Neuquén"}, {"id": 228, "name": "Santa Rosa de Calamuchita", "name_ru": "Santa Rosa de Calamuchita", "tz": "America/Argentina/Cordoba", "district": "Córdoba"}, {"id": 229, "name": "Rosario del Tala", "name_ru": "Rosario del Tala", "tz": "America/Argentina/Cordoba", "district": "Entre Ríos"}, {"id": 230, "name": "San Salvador", "name_ru": "San Salvador", "tz": "America/Argentina/Cordoba", "district": "Entre Ríos"}, {"id": 231, "name": "Junin de los Andes", "name_ru": "Junín de los Andes", "tz": "America/Argentina/Salta", "district": "Neuquén"}, {"id": 232, "name": "La Carlota", "name_ru": "La Carlota", "tz": "America/Argentina/Cordoba", "district": "Córdoba"}, {"id": 233, "name": "Laguna Paiva", "name_ru": "Laguna Paiva", "tz": "America/Argentina/Cordoba", "district": "Santa Fe"}, {"id": 234, "name": "Las Parejas", "name_ru": "Las Parejas", "tz": "America/Argentina/Cordoba", "district": "Santa Fe"}, {"id": 235, "name": "Malargue", "name_ru": "Malargüe", "tz": "America/Argentina/Mendoza", "district": "Mendoza"}, {"id": 236, "name": "Cafayate", "name_ru": "Cafayate", "tz": "America/Argentina/Salta", "district": "Salta"}, {"id": 237, "name": "Rio Colorado", "name_ru": "Río Colorado", "tz": "America/Argentina/Salta", "district": "La Pampa"}, {"id": 238, "name": "Oliva", "name_ru": "Oliva", "tz": "America/Argentina/Cordoba", "district": "Córdoba"}, {"id": 239, "name": "Cerrillos", "name_ru": "Cerrillos", "tz": "America/Argentina/Salta", "district": "Salta"}, {"id": 240, "name": "Coronel Dorrego", "name_ru": "Coronel Dorrego", "tz": "America/Argentina/Buenos_Aires", "district": "Buenos Aires"}, {"id": 241, "name": "Monte Quemado", "name_ru": "Monte Quemado", "tz": "America/Argentina/Cordoba", "district": "Santiago del Estero"}, {"id": 242, "name": "Humahuaca", "name_ru": "Humahuaca", "tz": "America/Argentina/Jujuy", "district": "Jujuy"}, {"id": 243, "name": "Belen", "name_ru": "Belén", "tz": "America/Argentina/Catamarca", "district": "Catamarca"}, {"id": 244, "name": "Capilla del Monte", "name_ru": "Capilla del Monte", "tz": "America/Argentina/Cordoba", "district": "Córdoba"}, {"id": 245, "name": "Armstrong", "name_ru": "Armstrong", "tz": "America/Argentina/Cordoba", "district": "Santa Fe"}, {"id": 246, "name": "Villa La Angostura", "name_ru": "Villa La Angostura", "tz": "America/Argentina/Salta", "district": "Neuquén"}, {"id": 247, "name": "Sarmiento", "name_ru": "Sarmiento", "tz": "America/Argentina/Catamarca", "district": "Chubut"}, {"id": 248, "name": "Benito Juarez", "name_ru": "Benito Juárez", "tz": "America/Argentina/Buenos_Aires", "district": "Buenos Aires"}, {"id": 249, "name": "Frontera", "name_ru": "Frontera", "tz": "America/Argentina/Cordoba", "district": "Córdoba"}, {"id": 250, "name": "Corral de Bustos", "name_ru": "Corral de Bustos", "tz": "America/Argentina/Cordoba", "district": "Córdoba"}, {"id": 251, "name": "Leones", "name_ru": "Leones", "tz": "America/Argentina/Cordoba", "district": "Córdoba"}, {"id": 252, "name": "Choele Choel", "name_ru": "Choele Choel", "tz": "America/Argentina/Salta", "district": "Río Negro"}, {"id": 253, "name": "Santa Maria", "name_ru": "Santa María", "tz": "America/Argentina/Cordoba", "district": "Córdoba"}, {"id": 254, "name": "Castelli", "name_ru": "Castelli", "tz": "America/Argentina/Cordoba", "district": "Chaco"}, {"id": 255, "name": "Embalse", "name_ru": "Embalse", "tz": "America/Argentina/Cordoba", "district": "Córdoba"}, {"id": 256, "name": "Rada Tilly", "name_ru": "Rada Tilly", "tz": "America/Argentina/Catamarca", "district": "Chubut"}, {"id": 257, "name": "Chamical", "name_ru": "Chamical", "tz": "America/Argentina/La_Rioja", "district": "La Rioja"}, {"id": 258, "name": "Yacimiento Rio Turbio", "name_ru": "Yacimiento Río Turbio", "tz": "America/Argentina/Rio_Gallegos", "district": "Santa Cruz"}, {"id": 259, "name": "Jesus Nazareno", "name_ru": "Jesús Nazareno", "tz": "America/Argentina/Mendoza", "district": "Mendoza"}, {"id": 260, "name": "Mina Clavero", "name_ru": "Mina Clavero", "tz": "America/Argentina/Cordoba", "district": "Córdoba"}, {"id": 261, "name": "Laprida", "name_ru": "Laprida", "tz": "America/Argentina/Buenos_Aires", "district": "Buenos Aires"}, {"id": 262, "name": "Helvecia", "name_ru": "Helvecia", "tz": "America/Argentina/Cordoba", "district": "Santa Fe"}, {"id": 263, "name": "San Julian", "name_ru": "San Julián", "tz": "America/Argentina/Rio_Gallegos", "district": "Santa Cruz"}, {"id": 264, "name": "Villa General Belgrano", "name_ru": "Villa General Belgrano", "tz": "America/Argentina/Cordoba", "district": "Córdoba"}, {"id": 265, "name": "Santa Rosa de Rio Primero", "name_ru": "Santa Rosa de Río Primero", "tz": "America/Argentina/Cordoba", "district": "Córdoba"}, {"id": 266, "name": "Lamarque", "name_ru": "Lamarque", "tz": "America/Argentina/Salta", "district": "Río Negro"}, {"id": 267, "name": "Las Lomitas", "name_ru": "Las Lomitas", "tz": "America/Argentina/Cordoba", "district": "Formosa"}, {"id": 268, "name": "Laguna Larga", "name_ru": "Laguna Larga", "tz": "America/Argentina/Cordoba", "district": "Córdoba"}, {"id": 269, "name": "Carhue", "name_ru": "Carhué", "tz": "America/Argentina/Buenos_Aires", "district": "Buenos Aires"}, {"id": 270, "name": "General Fernandez Oro", "name_ru": "General Fernández Oro", "tz": "America/Argentina/Salta", "district": "Río Negro"}, {"id": 271, "name": "Rinconada", "name_ru": "Rinconada", "tz": "America/Argentina/Jujuy", "district": "Jujuy"}, {"id": 272, "name": "Ingeniero Guillermo N. Juarez", "name_ru": "Ingeniero Guillermo N. Juárez", "tz": "America/Argentina/Cordoba", "district": "Formosa"}, {"id": 273, "name": "Comandante Luis Piedra Buena", "name_ru": "Comandante Luis Piedra Buena", "tz": "America/Argentina/Rio_Gallegos", "district": "Santa Cruz"}, {"id": 274, "name": "Villa Cura Brochero", "name_ru": "Villa Cura Brochero", "tz": "America/Argentina/Cordoba", "district": "Córdoba"}, {"id": 275, "name": "Trevelin", "name_ru": "Trevelín", "tz": "America/Argentina/Catamarca", "district": "Chubut"}, {"id": 276, "name": "Ingeniero Jacobacci", "name_ru": "Ingeniero Jacobacci", "tz": "America/Argentina/Salta", "district": "Río Negro"}, {"id": 277, "name": "Ingeniero Luis A. Huergo", "name_ru": "Ingeniero Luis A. Huergo", "tz": "America/Argentina/Salta", "district": "Río Negro"}, {"id": 278, "name": "Veintiocho de Noviembre", "name_ru": "Veintiocho de Noviembre", "tz": "America/Argentina/Rio_Gallegos", "district": "Santa Cruz"}, {"id": 279, "name": "Chepes", "name_ru": "Chepes", "tz": "America/Argentina/La_Rioja", "district": "La Rioja"}, {"id": 280, "name": "Villa Huidobro", "name_ru": "Villa Huidobro", "tz": "America/Argentina/Cordoba", "district": "Córdoba"}, {"id": 281, "name": "General Conesa", "name_ru": "General Conesa", "tz": "America/Argentina/Salta", "district": "Río Negro"}, {"id": 282, "name": "San Antonio de los Cobres", "name_ru": "San Antonio de los Cobres", "tz": "America/Argentina/Salta", "district": "Salta"}, {"id": 283, "name": "Macachin", "name_ru": "Macachín", "tz": "America/Argentina/Salta", "district": "La Pampa"}, {"id": 284, "name": "Los Menucos", "name_ru": "Los Menucos", "tz": "America/Argentina/Salta", "district": "Río Negro"}, {"id": 285, "name": "Perito Moreno", "name_ru": "Perito Moreno", "tz": "America/Argentina/Rio_Gallegos", "district": "Santa Cruz"}, {"id": 286, "name": "Gobernador Gregores", "name_ru": "Gobernador Gregores", "tz": "America/Argentina/Rio_Gallegos", "district": "Santa Cruz"}, {"id": 287, "name": "Abra Pampa", "name_ru": "Abra Pampa", "tz": "America/Argentina/Jujuy", "district": "Jujuy"}, {"id": 288, "name": "Victorica", "name_ru": "Victorica", "tz": "America/Argentina/Salta", "district": "La Pampa"}, {"id": 289, "name": "La Paz", "name_ru": "La Paz", "tz": "America/Argentina/Mendoza", "district": "Mendoza"}, {"id": 290, "name": "Comandante Fontana", "name_ru": "Comandante Fontana", "tz": "America/Argentina/Cordoba", "district": "Formosa"}, {"id": 291, "name": "El Maiten", "name_ru": "El Maitén", "tz": "America/Argentina/Catamarca", "district": "Buenos Aires, Ciudad Autónoma de"}, {"id": 292, "name": "Pampa del Infierno", "name_ru": "Pampa del Infierno", "tz": "America/Argentina/Cordoba", "district": "Chaco"}, {"id": 293, "name": "Rio Mayo", "name_ru": "Río Mayo", "tz": "America/Argentina/Catamarca", "district": "Chubut"}, {"id": 294, "name": "Chumbicha", "name_ru": "Chumbicha", "tz": "America/Argentina/Catamarca", "district": "Catamarca"}, {"id": 295, "name": "Trancas", "name_ru": "Trancas", "tz": "America/Argentina/Tucuman", "district": "Tucumán"}, {"id": 296, "name": "Alto Rio Senguer", "name_ru": "Alto Río Senguer", "tz": "America/Argentina/Catamarca", "district": "Chubut"}, {"id": 297, "name": "Sierra Colorada", "name_ru": "Sierra Colorada", "tz": "America/Argentina/Salta", "district": "Río Negro"}, {"id": 298, "name": "Las Lajas", "name_ru": "Las Lajas", "tz": "America/Argentina/Salta", "district": "Neuquén"}, {"id": 299, "name": "Susques", "name_ru": "Susques", "tz": "America/Argentina/Jujuy", "district": "Jujuy"}, {"id": 300, "name": "Comallo", "name_ru": "Comallo", "tz": "America/Argentina/Salta", "district": "Río Negro"}, {"id": 301, "name": "Rodeo", "name_ru": "Rodeo", "tz": "America/Argentina/San_Juan", "district": "San Juan"}, {"id": 302, "name": "Gastre", "name_ru": "Gastre", "tz": "America/Argentina/Catamarca", "district": "Chubut"}, {"id": 303, "name": "Tinogasta", "name_ru": "Tinogasta", "tz": "America/Argentina/Catamarca", "district": "Catamarca"}, {"id": 304, "name": "Telsen", "name_ru": "Telsen", "tz": "America/Argentina/Catamarca", "district": "Chubut"}, {"id": 305, "name": "Pedro Luro", "name_ru": "Pedro Luro", "tz": "America/Argentina/Buenos_Aires", "district": "Buenos Aires"}, {"id": 306, "name": "Monte Cristo", "name_ru": "Monte Cristo", "tz": "America/Argentina/Cordoba", "district": "Córdoba"}, {"id": 307, "name": "Justiniano Posse", "name_ru": "Justiniano Posse", "tz": "America/Argentina/Cordoba", "district": "Córdoba"}, {"id": 308, "name": "Senillosa", "name_ru": "Senillosa", "tz": "America/Argentina/Salta", "district": "Neuquén"}, {"id": 309, "name": "Sierra Grande", "name_ru": "Sierra Grande", "tz": "America/Argentina/Salta", "district": "Río Negro"}, {"id": 310, "name": "Santa Rosa", "name_ru": "Santa Rosa", "tz": "America/Argentina/Cordoba", "district": "Corrientes"}, {"id": 311, "name": "Rio Primero", "name_ru": "Río Primero", "tz": "America/Argentina/Cordoba", "district": "Córdoba"}, {"id": 312, "name": "General Levalle", "name_ru": "General Levalle", "tz": "America/Argentina/Cordoba", "district": "Córdoba"}, {"id": 313, "name": "Perugorria", "name_ru": "Perugorría", "tz": "America/Argentina/Cordoba", "district": "Corrientes"}, {"id": 314, "name": "Bialet Masse", "name_ru": "Bialet Massé", "tz": "America/Argentina/Cordoba", "district": "Córdoba"}, {"id": 315, "name": "Darregueira", "name_ru": "Darregueira", "tz": "America/Argentina/Buenos_Aires", "district": "Buenos Aires"}, {"id": 316, "name": "Villalonga", "name_ru": "Villalonga", "tz": "America/Argentina/Buenos_Aires", "district": "Buenos Aires"}, {"id": 317, "name": "Uspallata", "name_ru": "Uspallata", "tz": "America/Argentina/Mendoza", "district": "Mendoza"}, {"id": 318, "name": "Villa Rumipal", "name_ru": "Villa Rumipal", "tz": "America/Argentina/Cordoba", "district": "Córdoba"}, {"id": 319, "name": "Los Blancos", "name_ru": "Los Blancos", "tz": "America/Argentina/Salta", "district": "Salta"}]