[{"id": 1, "name": "Vienna", "name_ru": "Vienna", "tz": "", "district": "Wien"}, {"id": 2, "name": "Graz", "name_ru": "Graz", "tz": "", "district": "Steiermark"}, {"id": 3, "name": "Linz", "name_ru": "Linz", "tz": "", "district": "Oberösterreich"}, {"id": 4, "name": "Salzburg", "name_ru": "Salzburg", "tz": "", "district": "Salzburg"}, {"id": 5, "name": "Innsbruck", "name_ru": "Innsbruck", "tz": "", "district": "Tirol"}, {"id": 6, "name": "Klagenfurt", "name_ru": "Klagenfurt", "tz": "", "district": "Kärnten"}, {"id": 7, "name": "Sankt Polten", "name_ru": "Sankt Pölten", "tz": "", "district": "Niederösterreich"}, {"id": 8, "name": "Bregenz", "name_ru": "Bregenz", "tz": "", "district": "Vorarlberg"}, {"id": 9, "name": "Modling", "name_ru": "Mödling", "tz": "", "district": "Niederösterreich"}, {"id": 10, "name": "Hall in Tirol", "name_ru": "Hall in Tirol", "tz": "", "district": "Tirol"}, {"id": 11, "name": "Eisenstadt", "name_ru": "Eisenstadt", "tz": "", "district": "Burgenland"}, {"id": 12, "name": "Wels", "name_ru": "Wels", "tz": "", "district": "Oberösterreich"}, {"id": 13, "name": "Villach", "name_ru": "Villach", "tz": "", "district": "Kärnten"}, {"id": 14, "name": "Dornbirn", "name_ru": "Dornbirn", "tz": "", "district": "Vorarlberg"}, {"id": 15, "name": "Wiener Neustadt", "name_ru": "Wiener Neustadt", "tz": "", "district": "Niederösterreich"}, {"id": 16, "name": "Steyr", "name_ru": "Steyr", "tz": "", "district": "Oberösterreich"}, {"id": 17, "name": "Leonding", "name_ru": "Leonding", "tz": "", "district": "Oberösterreich"}, {"id": 18, "name": "Klosterneuburg", "name_ru": "Klosterneuburg", "tz": "", "district": "Niederösterreich"}, {"id": 19, "name": "Traun", "name_ru": "Traun", "tz": "", "district": "Oberösterreich"}, {"id": 20, "name": "Wolfsberg", "name_ru": "Wolfsberg", "tz": "", "district": "Kärnten"}, {"id": 21, "name": "Krems an der Donau", "name_ru": "Krems an der Donau", "tz": "", "district": "Niederösterreich"}, {"id": 22, "name": "Leoben", "name_ru": "Leoben", "tz": "", "district": "Steiermark"}, {"id": 23, "name": "Amstetten", "name_ru": "Amstetten", "tz": "", "district": "Niederösterreich"}, {"id": 24, "name": "Lustenau", "name_ru": "Lustenau", "tz": "", "district": "Vorarlberg"}, {"id": 25, "name": "Kapfenberg", "name_ru": "Kapfenberg", "tz": "", "district": "Steiermark"}, {"id": 26, "name": "Hallein", "name_ru": "Hallein", "tz": "", "district": "Salzburg"}, {"id": 27, "name": "Kufstein", "name_ru": "Kufstein", "tz": "", "district": "Tirol"}, {"id": 28, "name": "Traiskirchen", "name_ru": "Traiskirchen", "tz": "", "district": "Niederösterreich"}, {"id": 29, "name": "Schwechat", "name_ru": "Schwechat", "tz": "", "district": "Niederösterreich"}, {"id": 30, "name": "Stockerau", "name_ru": "Stockerau", "tz": "", "district": "Niederösterreich"}, {"id": 31, "name": "Braunau am Inn", "name_ru": "Braunau am Inn", "tz": "", "district": "Oberösterreich"}, {"id": 32, "name": "Hohenems", "name_ru": "Hohenems", "tz": "", "district": "Vorarlberg"}, {"id": 33, "name": "Saalfelden am Steinernen Meer", "name_ru": "Saalfelden am Steinernen Meer", "tz": "", "district": "Salzburg"}, {"id": 34, "name": "Ansfelden", "name_ru": "Ansfelden", "tz": "", "district": "Oberösterreich"}, {"id": 35, "name": "Bruck an der Mur", "name_ru": "Bruck an der Mur", "tz": "", "district": "Steiermark"}, {"id": 36, "name": "Perchtoldsdorf", "name_ru": "Perchtoldsdorf", "tz": "", "district": "Niederösterreich"}, {"id": 37, "name": "Telfs", "name_ru": "Telfs", "tz": "", "district": "Tirol"}, {"id": 38, "name": "Spittal an der Drau", "name_ru": "Spittal an der Drau", "tz": "", "district": "Kärnten"}, {"id": 39, "name": "Bludenz", "name_ru": "Bludenz", "tz": "", "district": "Vorarlberg"}, {"id": 40, "name": "Ternitz", "name_ru": "Ternitz", "tz": "", "district": "Niederösterreich"}, {"id": 41, "name": "Worgl", "name_ru": "Wörgl", "tz": "", "district": "Tirol"}, {"id": 42, "name": "Schwaz", "name_ru": "Schwaz", "tz": "", "district": "Tirol"}, {"id": 43, "name": "Feldkirchen", "name_ru": "Feldkirchen", "tz": "", "district": "Kärnten"}, {"id": 44, "name": "Korneuburg", "name_ru": "Korneuburg", "tz": "", "district": "Niederösterreich"}, {"id": 45, "name": "Hard", "name_ru": "Hard", "tz": "", "district": "Vorarlberg"}, {"id": 46, "name": "Bad Ischl", "name_ru": "Bad Ischl", "tz": "", "district": "Oberösterreich"}, {"id": 47, "name": "Marchtrenk", "name_ru": "Marchtrenk", "tz": "", "district": "Oberösterreich"}, {"id": 48, "name": "Feldbach", "name_ru": "Feldbach", "tz": "", "district": "Steiermark"}, {"id": 49, "name": "Knittelfeld", "name_ru": "Knittelfeld", "tz": "", "district": "Steiermark"}, {"id": 50, "name": "Neunkirchen", "name_ru": "Neunkirchen", "tz": "", "district": "Niederösterreich"}, {"id": 51, "name": "Brunn am Gebirge", "name_ru": "Brunn am Gebirge", "tz": "", "district": "Niederösterreich"}, {"id": 52, "name": "Gmunden", "name_ru": "Gmunden", "tz": "", "district": "Oberösterreich"}, {"id": 53, "name": "Vocklabruck", "name_ru": "Vöcklabruck", "tz": "", "district": "Oberösterreich"}, {"id": 54, "name": "Sankt Veit an der Glan", "name_ru": "Sankt Veit an der Glan", "tz": "", "district": "Kärnten"}, {"id": 55, "name": "Leibnitz", "name_ru": "Leibnitz", "tz": "", "district": "Steiermark"}, {"id": 56, "name": "Lienz", "name_ru": "Lienz", "tz": "", "district": "Tirol"}, {"id": 57, "name": "Rankweil", "name_ru": "Rankweil", "tz": "", "district": "Vorarlberg"}, {"id": 58, "name": "Enns", "name_ru": "Enns", "tz": "", "district": "Oberösterreich"}, {"id": 59, "name": "Weiz", "name_ru": "Weiz", "tz": "", "district": "Steiermark"}, {"id": 60, "name": "Gotzis", "name_ru": "Götzis", "tz": "", "district": "Vorarlberg"}, {"id": 61, "name": "Bad Voslau", "name_ru": "Bad Vöslau", "tz": "", "district": "Niederösterreich"}, {"id": 62, "name": "Ried im Innkreis", "name_ru": "Ried im Innkreis", "tz": "", "district": "Oberösterreich"}, {"id": 63, "name": "Ganserndorf", "name_ru": "Gänserndorf", "tz": "", "district": "Niederösterreich"}, {"id": 64, "name": "Hollabrunn", "name_ru": "Hollabrunn", "tz": "", "district": "Niederösterreich"}, {"id": 65, "name": "Deutschlandsberg", "name_ru": "Deutschlandsberg", "tz": "", "district": "Steiermark"}, {"id": 66, "name": "Mistelbach", "name_ru": "Mistelbach", "tz": "", "district": "Niederösterreich"}, {"id": 67, "name": "Gerasdorf bei Wien", "name_ru": "Gerasdorf bei Wien", "tz": "", "district": "Niederösterreich"}, {"id": 68, "name": "Waidhofen an der Ybbs", "name_ru": "Waidhofen an der Ybbs", "tz": "", "district": "Niederösterreich"}, {"id": 69, "name": "Sankt Johann im Pongau", "name_ru": "Sankt Johann im Pongau", "tz": "", "district": "Salzburg"}, {"id": 70, "name": "Gross-Enzersdorf", "name_ru": "Groß-Enzersdorf", "tz": "", "district": "Niederösterreich"}, {"id": 71, "name": "Trofaiach", "name_ru": "Trofaiach", "tz": "", "district": "Steiermark"}, {"id": 72, "name": "Ebreichsdorf", "name_ru": "Ebreichsdorf", "tz": "", "district": "Niederösterreich"}, {"id": 73, "name": "Gleisdorf", "name_ru": "Gleisdorf", "tz": "", "district": "Steiermark"}, {"id": 74, "name": "Volkermarkt", "name_ru": "Völkermarkt", "tz": "", "district": "Kärnten"}, {"id": 75, "name": "Wiener Neudorf", "name_ru": "Wiener Neudorf", "tz": "", "district": "Niederösterreich"}, {"id": 76, "name": "Zwettl", "name_ru": "Zwettl", "tz": "", "district": "Niederösterreich"}, {"id": 77, "name": "Strasshof an der Nordbahn", "name_ru": "Strasshof an der Nordbahn", "tz": "", "district": "Niederösterreich"}, {"id": 78, "name": "Lauterach", "name_ru": "Lauterach", "tz": "", "district": "Vorarlberg"}, {"id": 79, "name": "Bischofshofen", "name_ru": "Bischofshofen", "tz": "", "district": "Salzburg"}, {"id": 80, "name": "Imst", "name_ru": "Imst", "tz": "", "district": "Tirol"}, {"id": 81, "name": "Maria Enzersdorf", "name_ru": "Maria Enzersdorf", "tz": "", "district": "Niederösterreich"}, {"id": 82, "name": "Koflach", "name_ru": "Köflach", "tz": "", "district": "Steiermark"}, {"id": 83, "name": "Rum", "name_ru": "Rum", "tz": "", "district": "Tirol"}, {"id": 84, "name": "Laakirchen", "name_ru": "Laakirchen", "tz": "", "district": "Oberösterreich"}, {"id": 85, "name": "Judenburg", "name_ru": "Judenburg", "tz": "", "district": "Steiermark"}, {"id": 86, "name": "Sankt Andra", "name_ru": "Sankt Andrä", "tz": "", "district": "Kärnten"}, {"id": 87, "name": "Purkersdorf", "name_ru": "Purkersdorf", "tz": "", "district": "Niederösterreich"}, {"id": 88, "name": "Zell am See", "name_ru": "Zell am See", "tz": "", "district": "Salzburg"}, {"id": 89, "name": "Altmunster", "name_ru": "Altmünster", "tz": "", "district": "Oberösterreich"}, {"id": 90, "name": "Guntramsdorf", "name_ru": "Guntramsdorf", "tz": "", "district": "Niederösterreich"}, {"id": 91, "name": "Voitsberg", "name_ru": "Voitsberg", "tz": "", "district": "Steiermark"}, {"id": 92, "name": "Attnang-Puchheim", "name_ru": "Attnang-Puchheim", "tz": "", "district": "Oberösterreich"}, {"id": 93, "name": "Sierning", "name_ru": "Sierning", "tz": "", "district": "Oberösterreich"}, {"id": 94, "name": "Sankt Johann in Tirol", "name_ru": "Sankt Johann in Tirol", "tz": "", "district": "Tirol"}, {"id": 95, "name": "Sankt Valentin", "name_ru": "Sankt Valentin", "tz": "", "district": "Niederösterreich"}, {"id": 96, "name": "Wolfurt", "name_ru": "Wolfurt", "tz": "", "district": "Vorarlberg"}, {"id": 97, "name": "Velden am Worthersee", "name_ru": "Velden am Wörthersee", "tz": "", "district": "Kärnten"}, {"id": 98, "name": "Engerwitzdorf", "name_ru": "Engerwitzdorf", "tz": "", "district": "Oberösterreich"}, {"id": 99, "name": "Deutsch-Wagram", "name_ru": "Deutsch-Wagram", "tz": "", "district": "Niederösterreich"}, {"id": 100, "name": "Langenzersdorf", "name_ru": "Langenzersdorf", "tz": "", "district": "Niederösterreich"}, {"id": 101, "name": "Murzzuschlag", "name_ru": "Mürzzuschlag", "tz": "", "district": "Steiermark"}, {"id": 102, "name": "Stainz", "name_ru": "Stainz", "tz": "", "district": "Steiermark"}, {"id": 103, "name": "Furstenfeld", "name_ru": "Fürstenfeld", "tz": "", "district": "Steiermark"}, {"id": 104, "name": "Perg", "name_ru": "Perg", "tz": "", "district": "Oberösterreich"}, {"id": 105, "name": "Freistadt", "name_ru": "Freistadt", "tz": "", "district": "Oberösterreich"}, {"id": 106, "name": "Neulengbach", "name_ru": "Neulengbach", "tz": "", "district": "Niederösterreich"}, {"id": 107, "name": "Kitzbuhel", "name_ru": "Kitzbühel", "tz": "", "district": "Tirol"}, {"id": 108, "name": "Hochst", "name_ru": "Höchst", "tz": "", "district": "Vorarlberg"}, {"id": 109, "name": "Neusiedl am See", "name_ru": "Neusiedl am See", "tz": "", "district": "Burgenland"}, {"id": 110, "name": "Zirl", "name_ru": "Zirl", "tz": "", "district": "Tirol"}, {"id": 111, "name": "Seiersberg", "name_ru": "Seiersberg", "tz": "", "district": "Steiermark"}, {"id": 112, "name": "Liezen", "name_ru": "Liezen", "tz": "", "district": "Steiermark"}, {"id": 113, "name": "Bruck an der Leitha", "name_ru": "Bruck an der Leitha", "tz": "", "district": "Niederösterreich"}, {"id": 114, "name": "Landeck", "name_ru": "Landeck", "tz": "", "district": "Tirol"}, {"id": 115, "name": "Pasching", "name_ru": "Pasching", "tz": "", "district": "Oberösterreich"}, {"id": 116, "name": "Kindberg", "name_ru": "Kindberg", "tz": "", "district": "Steiermark"}, {"id": 117, "name": "Gratkorn", "name_ru": "Gratkorn", "tz": "", "district": "Steiermark"}, {"id": 118, "name": "Sankt Andra vor dem Hagenthale", "name_ru": "Sankt Andrä vor dem Hagenthale", "tz": "", "district": "Niederösterreich"}, {"id": 119, "name": "Kottingbrunn", "name_ru": "Kottingbrunn", "tz": "", "district": "Niederösterreich"}, {"id": 120, "name": "Zeltweg", "name_ru": "Zeltweg", "tz": "", "district": "Steiermark"}, {"id": 121, "name": "Herzogenburg", "name_ru": "Herzogenburg", "tz": "", "district": "Niederösterreich"}, {"id": 122, "name": "Vols", "name_ru": "Völs", "tz": "", "district": "Tirol"}, {"id": 123, "name": "Wattens", "name_ru": "Wattens", "tz": "", "district": "Tirol"}, {"id": 124, "name": "Altach", "name_ru": "Altach", "tz": "", "district": "Vorarlberg"}, {"id": 125, "name": "Fohnsdorf", "name_ru": "Fohnsdorf", "tz": "", "district": "Steiermark"}, {"id": 126, "name": "Mattighofen", "name_ru": "Mattighofen", "tz": "", "district": "Oberösterreich"}, {"id": 127, "name": "Oberwart", "name_ru": "Oberwart", "tz": "", "district": "Burgenland"}, {"id": 128, "name": "Ebensee", "name_ru": "Ebensee", "tz": "", "district": "Oberösterreich"}, {"id": 129, "name": "Gallneukirchen", "name_ru": "Gallneukirchen", "tz": "", "district": "Oberösterreich"}, {"id": 130, "name": "Langenlois", "name_ru": "Langenlois", "tz": "", "district": "Niederösterreich"}, {"id": 131, "name": "Pressbaum", "name_ru": "Pressbaum", "tz": "", "district": "Niederösterreich"}, {"id": 132, "name": "Vosendorf", "name_ru": "Vösendorf", "tz": "", "district": "Niederösterreich"}, {"id": 133, "name": "Sieghartskirchen", "name_ru": "Sieghartskirchen", "tz": "", "district": "Niederösterreich"}, {"id": 134, "name": "Vorchdorf", "name_ru": "Vorchdorf", "tz": "", "district": "Oberösterreich"}, {"id": 135, "name": "Mattersburg", "name_ru": "Mattersburg", "tz": "", "district": "Burgenland"}, {"id": 136, "name": "Jenbach", "name_ru": "Jenbach", "tz": "", "district": "Tirol"}, {"id": 137, "name": "Strasswalchen", "name_ru": "Strasswalchen", "tz": "", "district": "Salzburg"}, {"id": 138, "name": "Grodig", "name_ru": "Grödig", "tz": "", "district": "Salzburg"}, {"id": 139, "name": "Fehring", "name_ru": "Fehring", "tz": "", "district": "Steiermark"}, {"id": 140, "name": "Himberg", "name_ru": "Himberg", "tz": "", "district": "Niederösterreich"}, {"id": 141, "name": "Bad Goisern", "name_ru": "Bad Goisern", "tz": "", "district": "Oberösterreich"}, {"id": 142, "name": "Kuchl", "name_ru": "Kuchl", "tz": "", "district": "Salzburg"}, {"id": 143, "name": "Kalsdorf bei Graz", "name_ru": "Kalsdorf bei Graz", "tz": "", "district": "Steiermark"}, {"id": 144, "name": "Asten", "name_ru": "Asten", "tz": "", "district": "Oberösterreich"}, {"id": 145, "name": "Wolkersdorf im Weinviertel", "name_ru": "Wolkersdorf im Weinviertel", "tz": "", "district": "Niederösterreich"}, {"id": 146, "name": "Hitzendorf", "name_ru": "Hitzendorf", "tz": "", "district": "Steiermark"}, {"id": 147, "name": "Absam", "name_ru": "Absam", "tz": "", "district": "Tirol"}, {"id": 148, "name": "Pottendorf", "name_ru": "Pottendorf", "tz": "", "district": "Niederösterreich"}, {"id": 149, "name": "Ferlach", "name_ru": "Ferlach", "tz": "", "district": "Kärnten"}, {"id": 150, "name": "Arnoldstein", "name_ru": "Arnoldstein", "tz": "", "district": "Kärnten"}, {"id": 151, "name": "Feldkirchen bei Graz", "name_ru": "Feldkirchen bei Graz", "tz": "", "district": "Steiermark"}, {"id": 152, "name": "Eugendorf", "name_ru": "Eugendorf", "tz": "", "district": "Salzburg"}, {"id": 153, "name": "Oberndorf bei Salzburg", "name_ru": "Oberndorf bei Salzburg", "tz": "", "district": "Salzburg"}, {"id": 154, "name": "Horbranz", "name_ru": "Hörbranz", "tz": "", "district": "Vorarlberg"}, {"id": 155, "name": "Bad Hofgastein", "name_ru": "Bad Hofgastein", "tz": "", "district": "Salzburg"}, {"id": 156, "name": "Hartberg", "name_ru": "Hartberg", "tz": "", "district": "Steiermark"}, {"id": 157, "name": "Garsten", "name_ru": "Garsten", "tz": "", "district": "Oberösterreich"}, {"id": 158, "name": "Hainburg an der Donau", "name_ru": "Hainburg an der Donau", "tz": "", "district": "Niederösterreich"}, {"id": 159, "name": "Reutte", "name_ru": "Reutte", "tz": "", "district": "Tirol"}, {"id": 160, "name": "Eggersdorf bei Graz", "name_ru": "Eggersdorf bei Graz", "tz": "", "district": "Steiermark"}, {"id": 161, "name": "Kremsmunster", "name_ru": "Kremsmünster", "tz": "", "district": "Oberösterreich"}, {"id": 162, "name": "Frohnleiten", "name_ru": "Frohnleiten", "tz": "", "district": "Steiermark"}, {"id": 163, "name": "Wilhelmsburg", "name_ru": "Wilhelmsburg", "tz": "", "district": "Niederösterreich"}, {"id": 164, "name": "Horn", "name_ru": "Horn", "tz": "", "district": "Niederösterreich"}, {"id": 165, "name": "Schladming", "name_ru": "Schladming", "tz": "", "district": "Steiermark"}, {"id": 166, "name": "Neuhofen an der Krems", "name_ru": "Neuhofen an der Krems", "tz": "", "district": "Oberösterreich"}, {"id": 167, "name": "Seeboden", "name_ru": "Seeboden", "tz": "", "district": "Kärnten"}, {"id": 168, "name": "Scharding", "name_ru": "Schärding", "tz": "", "district": "Oberösterreich"}, {"id": 169, "name": "Eibiswald", "name_ru": "Eibiswald", "tz": "", "district": "Steiermark"}, {"id": 170, "name": "Neumarkt am Wallersee", "name_ru": "Neumarkt am Wallersee", "tz": "", "district": "Salzburg"}, {"id": 171, "name": "Traismauer", "name_ru": "Traismauer", "tz": "", "district": "Niederösterreich"}, {"id": 172, "name": "Laa an der Thaya", "name_ru": "Laa an der Thaya", "tz": "", "district": "Niederösterreich"}, {"id": 173, "name": "Horsching", "name_ru": "Hörsching", "tz": "", "district": "Oberösterreich"}, {"id": 174, "name": "Axams", "name_ru": "Axams", "tz": "", "district": "Tirol"}, {"id": 175, "name": "Markt Sankt Florian", "name_ru": "Markt Sankt Florian", "tz": "", "district": "Oberösterreich"}, {"id": 176, "name": "Wagna", "name_ru": "Wagna", "tz": "", "district": "Steiermark"}, {"id": 177, "name": "Lochau", "name_ru": "Lochau", "tz": "", "district": "Vorarlberg"}, {"id": 178, "name": "Nenzing", "name_ru": "Nenzing", "tz": "", "district": "Vorarlberg"}, {"id": 179, "name": "Kirchbichl", "name_ru": "Kirchbichl", "tz": "", "district": "Tirol"}, {"id": 180, "name": "Gloggnitz", "name_ru": "Gloggnitz", "tz": "", "district": "Niederösterreich"}, {"id": 181, "name": "Gunskirchen", "name_ru": "Gunskirchen", "tz": "", "district": "Oberösterreich"}, {"id": 182, "name": "Pollau", "name_ru": "Pöllau", "tz": "", "district": "Steiermark"}, {"id": 183, "name": "Gnas", "name_ru": "Gnas", "tz": "", "district": "Steiermark"}, {"id": 184, "name": "Wildon", "name_ru": "Wildon", "tz": "", "district": "Steiermark"}, {"id": 185, "name": "Wilhering", "name_ru": "Wilhering", "tz": "", "district": "Oberösterreich"}, {"id": 186, "name": "Alkoven", "name_ru": "Alkoven", "tz": "", "district": "Oberösterreich"}, {"id": 187, "name": "Breitenfurth bei Wien", "name_ru": "Breitenfurth bei Wien", "tz": "", "district": "Niederösterreich"}, {"id": 188, "name": "Thalgau", "name_ru": "Thalgau", "tz": "", "district": "Salzburg"}, {"id": 189, "name": "Timelkam", "name_ru": "Timelkam", "tz": "", "district": "Oberösterreich"}, {"id": 190, "name": "Pinkafeld", "name_ru": "Pinkafeld", "tz": "", "district": "Burgenland"}, {"id": 191, "name": "Mittermicheldorf", "name_ru": "Mittermicheldorf", "tz": "", "district": "Oberösterreich"}, {"id": 192, "name": "Eberndorf", "name_ru": "Eberndorf", "tz": "", "district": "Kärnten"}, {"id": 193, "name": "Radenthein", "name_ru": "Radenthein", "tz": "", "district": "Kärnten"}, {"id": 194, "name": "Ybbs an der Donau", "name_ru": "Ybbs an der Donau", "tz": "", "district": "Niederösterreich"}, {"id": 195, "name": "Paternion", "name_ru": "Paternion", "tz": "", "district": "Kärnten"}, {"id": 196, "name": "Abtenau", "name_ru": "Abtenau", "tz": "", "district": "Salzburg"}, {"id": 197, "name": "Thalheim bei Wels", "name_ru": "Thalheim bei Wels", "tz": "", "district": "Oberösterreich"}, {"id": 198, "name": "Leopoldsdorf", "name_ru": "Leopoldsdorf", "tz": "", "district": "Niederösterreich"}, {"id": 199, "name": "Fischamend", "name_ru": "Fischamend", "tz": "", "district": "Niederösterreich"}, {"id": 200, "name": "Wernberg", "name_ru": "Wernberg", "tz": "", "district": "Kärnten"}, {"id": 201, "name": "Tamsweg", "name_ru": "Tamsweg", "tz": "", "district": "Salzburg"}, {"id": 202, "name": "Melk", "name_ru": "Melk", "tz": "", "district": "Niederösterreich"}, {"id": 203, "name": "Bergheim", "name_ru": "Bergheim", "tz": "", "district": "Salzburg"}, {"id": 204, "name": "Ebbs", "name_ru": "Ebbs", "tz": "", "district": "Tirol"}, {"id": 205, "name": "Hopfgarten im Brixental", "name_ru": "Hopfgarten im Brixental", "tz": "", "district": "Tirol"}, {"id": 206, "name": "Bad Gleichenberg", "name_ru": "Bad Gleichenberg", "tz": "", "district": "Steiermark"}, {"id": 207, "name": "Schwertberg", "name_ru": "Schwertberg", "tz": "", "district": "Oberösterreich"}, {"id": 208, "name": "Elsbethen", "name_ru": "Elsbethen", "tz": "", "district": "Salzburg"}, {"id": 209, "name": "Haag", "name_ru": "Haag", "tz": "", "district": "Niederösterreich"}, {"id": 210, "name": "Spielberg bei Knittelfeld", "name_ru": "Spielberg bei Knittelfeld", "tz": "", "district": "Steiermark"}, {"id": 211, "name": "Waidhofen an der Thaya", "name_ru": "Waidhofen an der Thaya", "tz": "", "district": "Niederösterreich"}, {"id": 212, "name": "Lenzing", "name_ru": "Lenzing", "tz": "", "district": "Oberösterreich"}, {"id": 213, "name": "Gmund", "name_ru": "Gmünd", "tz": "", "district": "Niederösterreich"}, {"id": 214, "name": "Poysdorf", "name_ru": "Poysdorf", "tz": "", "district": "Niederösterreich"}, {"id": 215, "name": "Lieboch", "name_ru": "Lieboch", "tz": "", "district": "Steiermark"}, {"id": 216, "name": "Sollenau", "name_ru": "Sollenau", "tz": "", "district": "Niederösterreich"}, {"id": 217, "name": "Feldkirchen an der Donau", "name_ru": "Feldkirchen an der Donau", "tz": "", "district": "Oberösterreich"}, {"id": 218, "name": "Schrems", "name_ru": "Schrems", "tz": "", "district": "Niederösterreich"}, {"id": 219, "name": "Pregarten", "name_ru": "Pregarten", "tz": "", "district": "Oberösterreich"}, {"id": 220, "name": "Zistersdorf", "name_ru": "Zistersdorf", "tz": "", "district": "Niederösterreich"}, {"id": 221, "name": "Sankt Ruprecht an der Raab", "name_ru": "Sankt Ruprecht an der Raab", "tz": "", "district": "Steiermark"}, {"id": 222, "name": "Grieskirchen", "name_ru": "Grieskirchen", "tz": "", "district": "Oberösterreich"}, {"id": 223, "name": "Mittersill", "name_ru": "Mittersill", "tz": "", "district": "Salzburg"}, {"id": 224, "name": "Bad Hall", "name_ru": "Bad Hall", "tz": "", "district": "Oberösterreich"}, {"id": 225, "name": "Ohlsdorf", "name_ru": "Ohlsdorf", "tz": "", "district": "Oberösterreich"}, {"id": 226, "name": "Stadl-Paura", "name_ru": "Stadl-Paura", "tz": "", "district": "Oberösterreich"}, {"id": 227, "name": "Pettenbach", "name_ru": "Pettenbach", "tz": "", "district": "Oberösterreich"}, {"id": 228, "name": "Krieglach", "name_ru": "Krieglach", "tz": "", "district": "Steiermark"}, {"id": 229, "name": "Andorf", "name_ru": "Andorf", "tz": "", "district": "Oberösterreich"}, {"id": 230, "name": "Kirchberg in Tirol", "name_ru": "Kirchberg in Tirol", "tz": "", "district": "Tirol"}, {"id": 231, "name": "Rottenmann", "name_ru": "Rottenmann", "tz": "", "district": "Steiermark"}, {"id": 232, "name": "Gramastetten", "name_ru": "Gramastetten", "tz": "", "district": "Oberösterreich"}, {"id": 233, "name": "Sankt Peter in der Au Dorf", "name_ru": "Sankt Peter in der Au Dorf", "tz": "", "district": "Niederösterreich"}, {"id": 234, "name": "Boheimkirchen", "name_ru": "Böheimkirchen", "tz": "", "district": "Niederösterreich"}, {"id": 235, "name": "Vomp", "name_ru": "Vomp", "tz": "", "district": "Tirol"}, {"id": 236, "name": "Admont", "name_ru": "Admont", "tz": "", "district": "Steiermark"}, {"id": 237, "name": "Hafendorf", "name_ru": "Hafendorf", "tz": "", "district": "Steiermark"}]