[{"id": 1, "name": "Sydney", "name_ru": "Sydney", "tz": "Australia/Sydney", "district": "New South Wales"}, {"id": 2, "name": "Melbourne", "name_ru": "Melbourne", "tz": "Australia/Melbourne", "district": "Victoria"}, {"id": 3, "name": "Brisbane", "name_ru": "Brisbane", "tz": "Australia/Brisbane", "district": "Queensland"}, {"id": 4, "name": "Perth", "name_ru": "Perth", "tz": "Australia/Perth", "district": "Western Australia"}, {"id": 5, "name": "Adelaide", "name_ru": "Adelaide", "tz": "Australia/Adelaide", "district": "South Australia"}, {"id": 6, "name": "Canberra", "name_ru": "Canberra", "tz": "Australia/Sydney", "district": "Australian Capital Territory"}, {"id": 7, "name": "Gold Coast", "name_ru": "Gold Coast", "tz": "Australia/Brisbane", "district": "Queensland"}, {"id": 8, "name": "Cranbourne", "name_ru": "Cranbourne", "tz": "Australia/Melbourne", "district": "Victoria"}, {"id": 9, "name": "Central Coast", "name_ru": "Central Coast", "tz": "Australia/Sydney", "district": "New South Wales"}, {"id": 10, "name": "Wollongong", "name_ru": "Wollongong", "tz": "Australia/Sydney", "district": "New South Wales"}, {"id": 11, "name": "Hobart", "name_ru": "Hobart", "tz": "Australia/Hobart", "district": "Tasmania"}, {"id": 12, "name": "Geelong", "name_ru": "Geelong", "tz": "Australia/Melbourne", "district": "Victoria"}, {"id": 13, "name": "Townsville", "name_ru": "Townsville", "tz": "Australia/Brisbane", "district": "Queensland"}, {"id": 14, "name": "Ipswich", "name_ru": "Ipswich", "tz": "Australia/Brisbane", "district": "Queensland"}, {"id": 15, "name": "Newcastle", "name_ru": "Newcastle", "tz": "Australia/Sydney", "district": "New South Wales"}, {"id": 16, "name": "Cairns", "name_ru": "Cairns", "tz": "Australia/Brisbane", "district": "Queensland"}, {"id": 17, "name": "Darwin", "name_ru": "Darwin", "tz": "Australia/Darwin", "district": "Northern Territory"}, {"id": 18, "name": "Toowoomba", "name_ru": "Toowoomba", "tz": "Australia/Brisbane", "district": "Queensland"}, {"id": 19, "name": "Launceston", "name_ru": "Launceston", "tz": "Australia/Hobart", "district": "Tasmania"}, {"id": 20, "name": "Caloundra", "name_ru": "Caloundra", "tz": "Australia/Brisbane", "district": "Queensland"}, {"id": 21, "name": "Dandenong", "name_ru": "Dandenong", "tz": "Australia/Melbourne", "district": "Victoria"}, {"id": 22, "name": "Campbelltown", "name_ru": "Campbelltown", "tz": "Australia/Sydney", "district": "New South Wales"}, {"id": 23, "name": "Leopold", "name_ru": "Leopold", "tz": "Australia/Melbourne", "district": "Victoria"}, {"id": 24, "name": "Corinda", "name_ru": "Corinda", "tz": "Australia/Brisbane", "district": "Queensland"}, {"id": 25, "name": "Worragee", "name_ru": "Worragee", "tz": "Australia/Sydney", "district": "New South Wales"}, {"id": 26, "name": "Ballarat", "name_ru": "Ballarat", "tz": "Australia/Melbourne", "district": "Victoria"}, {"id": 27, "name": "Bendigo", "name_ru": "Bendigo", "tz": "Australia/Melbourne", "district": "Victoria"}, {"id": 28, "name": "Bunbury", "name_ru": "Bunbury", "tz": "Australia/Perth", "district": "Western Australia"}, {"id": 29, "name": "Bundaberg", "name_ru": "Bundaberg", "tz": "Australia/Brisbane", "district": "Queensland"}, {"id": 30, "name": "Wagga Wagga", "name_ru": "Wagga Wagga", "tz": "Australia/Sydney", "district": "New South Wales"}, {"id": 31, "name": "Melton", "name_ru": "Melton", "tz": "Australia/Melbourne", "district": "Victoria"}, {"id": 32, "name": "Hervey Bay", "name_ru": "Hervey Bay", "tz": "Australia/Brisbane", "district": "Queensland"}, {"id": 33, "name": "Pakenham", "name_ru": "Pakenham", "tz": "Australia/Melbourne", "district": "Victoria"}, {"id": 34, "name": "Port Macquarie", "name_ru": "Port Macquarie", "tz": "Australia/Sydney", "district": "New South Wales"}, {"id": 35, "name": "Dubbo", "name_ru": "Dubbo", "tz": "Australia/Sydney", "district": "New South Wales"}, {"id": 36, "name": "Orange", "name_ru": "Orange", "tz": "Australia/Sydney", "district": "New South Wales"}, {"id": 37, "name": "Frankston", "name_ru": "Frankston", "tz": "Australia/Melbourne", "district": "Victoria"}, {"id": 38, "name": "Sunbury", "name_ru": "Sunbury", "tz": "Australia/Melbourne", "district": "Victoria"}, {"id": 39, "name": "Bathurst", "name_ru": "Bathurst", "tz": "Australia/Sydney", "district": "New South Wales"}, {"id": 40, "name": "Gladstone", "name_ru": "Gladstone", "tz": "Australia/Brisbane", "district": "Queensland"}, {"id": 41, "name": "Mildura", "name_ru": "Mildura", "tz": "Australia/Melbourne", "district": "Victoria"}, {"id": 42, "name": "Southport", "name_ru": "Southport", "tz": "Australia/Brisbane", "district": "Queensland"}, {"id": 43, "name": "Geraldton", "name_ru": "Geraldton", "tz": "Australia/Perth", "district": "Western Australia"}, {"id": 44, "name": "Shepparton", "name_ru": "Shepparton", "tz": "Australia/Melbourne", "district": "Victoria"}, {"id": 45, "name": "Kalgoorlie", "name_ru": "Kalgoorlie", "tz": "Australia/Perth", "district": "Western Australia"}, {"id": 46, "name": "Warrnambool", "name_ru": "Warrnambool", "tz": "Australia/Melbourne", "district": "Victoria"}, {"id": 47, "name": "Albany", "name_ru": "Albany", "tz": "Australia/Perth", "district": "Western Australia"}, {"id": 48, "name": "Quakers Hill", "name_ru": "Quakers Hill", "tz": "Australia/Sydney", "district": "New South Wales"}, {"id": 49, "name": "Burnie", "name_ru": "Burnie", "tz": "Australia/Hobart", "district": "Tasmania"}, {"id": 50, "name": "Caboolture", "name_ru": "Caboolture", "tz": "Australia/Brisbane", "district": "Queensland"}, {"id": 51, "name": "Coffs Harbour", "name_ru": "Coffs Harbour", "tz": "Australia/Sydney", "district": "New South Wales"}, {"id": 52, "name": "Mount Gambier", "name_ru": "Mount Gambier", "tz": "Australia/Adelaide", "district": "South Australia"}, {"id": 53, "name": "Traralgon", "name_ru": "Traralgon", "tz": "Australia/Melbourne", "district": "Victoria"}, {"id": 54, "name": "Busselton", "name_ru": "Busselton", "tz": "Australia/Perth", "district": "Western Australia"}, {"id": 55, "name": "Armidale", "name_ru": "Armidale", "tz": "Australia/Sydney", "district": "New South Wales"}, {"id": 56, "name": "Alice Springs", "name_ru": "Alice Springs", "tz": "Australia/Darwin", "district": "Northern Territory"}, {"id": 57, "name": "Devonport", "name_ru": "Devonport", "tz": "Australia/Hobart", "district": "Tasmania"}, {"id": 58, "name": "Goulburn", "name_ru": "Goulburn", "tz": "Australia/Sydney", "district": "New South Wales"}, {"id": 59, "name": "Whyalla", "name_ru": "Whyalla", "tz": "Australia/Adelaide", "district": "South Australia"}, {"id": 60, "name": "Kwinana", "name_ru": "Kwinana", "tz": "Australia/Perth", "district": "Western Australia"}, {"id": 61, "name": "Mount Eliza", "name_ru": "Mount Eliza", "tz": "Australia/Melbourne", "district": "Victoria"}, {"id": 62, "name": "Griffith", "name_ru": "Griffith", "tz": "Australia/Sydney", "district": "New South Wales"}, {"id": 63, "name": "Wodonga", "name_ru": "Wodonga", "tz": "Australia/Melbourne", "district": "Victoria"}, {"id": 64, "name": "Narangba", "name_ru": "Narangba", "tz": "Australia/Brisbane", "district": "Queensland"}, {"id": 65, "name": "Wangaratta", "name_ru": "Wangaratta", "tz": "Australia/Melbourne", "district": "Victoria"}, {"id": 66, "name": "Broken Hill", "name_ru": "Broken Hill", "tz": "Australia/Broken_Hill", "district": "New South Wales"}, {"id": 67, "name": "Taree", "name_ru": "Taree", "tz": "Australia/Sydney", "district": "New South Wales"}, {"id": 68, "name": "Banora Point", "name_ru": "Banora Point", "tz": "Australia/Sydney", "district": "New South Wales"}, {"id": 69, "name": "Nerang", "name_ru": "Nerang", "tz": "Australia/Brisbane", "district": "Queensland"}, {"id": 70, "name": "Lara", "name_ru": "Lara", "tz": "Australia/Melbourne", "district": "Victoria"}, {"id": 71, "name": "Cessnock", "name_ru": "Cessnock", "tz": "Australia/Sydney", "district": "New South Wales"}, {"id": 72, "name": "Warragul", "name_ru": "Warragul", "tz": "Australia/Melbourne", "district": "Victoria"}, {"id": 73, "name": "Karratha", "name_ru": "Karratha", "tz": "Australia/Perth", "district": "Western Australia"}, {"id": 74, "name": "Maryborough", "name_ru": "Maryborough", "tz": "Australia/Brisbane", "district": "Queensland"}, {"id": 75, "name": "Ulladulla", "name_ru": "Ulladulla", "tz": "Australia/Sydney", "district": "New South Wales"}, {"id": 76, "name": "Murray Bridge", "name_ru": "Murray Bridge", "tz": "Australia/Adelaide", "district": "South Australia"}, {"id": 77, "name": "Ulverstone", "name_ru": "Ulverstone", "tz": "Australia/Hobart", "district": "Tasmania"}, {"id": 78, "name": "Barwon Heads", "name_ru": "Barwon Heads", "tz": "Australia/Melbourne", "district": "Victoria"}, {"id": 79, "name": "Horsham", "name_ru": "Horsham", "tz": "Australia/Melbourne", "district": "Victoria"}, {"id": 80, "name": "Australind", "name_ru": "Australind", "tz": "Australia/Perth", "district": "Western Australia"}, {"id": 81, "name": "Rochedale", "name_ru": "Rochedale", "tz": "Australia/Brisbane", "district": "Queensland"}, {"id": 82, "name": "Penrith", "name_ru": "Penrith", "tz": "Australia/Sydney", "district": "New South Wales"}, {"id": 83, "name": "Bongaree", "name_ru": "Bongaree", "tz": "Australia/Brisbane", "district": "Queensland"}, {"id": 84, "name": "Echuca", "name_ru": "Echuca", "tz": "Australia/Melbourne", "district": "Victoria"}, {"id": 85, "name": "Morwell", "name_ru": "Morwell", "tz": "Australia/Melbourne", "district": "Victoria"}, {"id": 86, "name": "Emerald", "name_ru": "Emerald", "tz": "Australia/Brisbane", "district": "Queensland"}, {"id": 87, "name": "Port Lincoln", "name_ru": "Port Lincoln", "tz": "Australia/Adelaide", "district": "South Australia"}, {"id": 88, "name": "Forster", "name_ru": "Forster", "tz": "Australia/Sydney", "district": "New South Wales"}, {"id": 89, "name": "Mount Barker", "name_ru": "Mount Barker", "tz": "Australia/Adelaide", "district": "South Australia"}, {"id": 90, "name": "Goonellabah", "name_ru": "Goonellabah", "tz": "Australia/Sydney", "district": "New South Wales"}, {"id": 91, "name": "Raymond Terrace", "name_ru": "Raymond Terrace", "tz": "Australia/Sydney", "district": "New South Wales"}, {"id": 92, "name": "Torquay", "name_ru": "Torquay", "tz": "Australia/Melbourne", "district": "Victoria"}, {"id": 93, "name": "Sale", "name_ru": "Sale", "tz": "Australia/Melbourne", "district": "Victoria"}, {"id": 94, "name": "Rutherford", "name_ru": "Rutherford", "tz": "Australia/Sydney", "district": "New South Wales"}, {"id": 95, "name": "Jimboomba", "name_ru": "Jimboomba", "tz": "Australia/Brisbane", "district": "Queensland"}, {"id": 96, "name": "Dalby", "name_ru": "Dalby", "tz": "Australia/Brisbane", "district": "Queensland"}, {"id": 97, "name": "Warwick", "name_ru": "Warwick", "tz": "Australia/Brisbane", "district": "Queensland"}, {"id": 98, "name": "Muswellbrook", "name_ru": "Muswellbrook", "tz": "Australia/Sydney", "district": "New South Wales"}, {"id": 99, "name": "Drouin", "name_ru": "Drouin", "tz": "Australia/Melbourne", "district": "Victoria"}, {"id": 100, "name": "Inverell", "name_ru": "Inverell", "tz": "Australia/Sydney", "district": "New South Wales"}, {"id": 101, "name": "Parkes", "name_ru": "Parkes", "tz": "Australia/Sydney", "district": "New South Wales"}, {"id": 102, "name": "Nelson Bay", "name_ru": "Nelson Bay", "tz": "Australia/Sydney", "district": "New South Wales"}, {"id": 103, "name": "Wallan", "name_ru": "Wallan", "tz": "Australia/Melbourne", "district": "Victoria"}, {"id": 104, "name": "Nambour", "name_ru": "Nambour", "tz": "Australia/Brisbane", "district": "Queensland"}, {"id": 105, "name": "Somerville", "name_ru": "Somerville", "tz": "Australia/Melbourne", "district": "Victoria"}, {"id": 106, "name": "Gracemere", "name_ru": "Gracemere", "tz": "Australia/Brisbane", "district": "Queensland"}, {"id": 107, "name": "Kingston", "name_ru": "Kingston", "tz": "Australia/Hobart", "district": "Tasmania"}, {"id": 108, "name": "Casino", "name_ru": "Casino", "tz": "Australia/Sydney", "district": "New South Wales"}, {"id": 109, "name": "Mareeba", "name_ru": "Mareeba", "tz": "Australia/Brisbane", "district": "Queensland"}, {"id": 110, "name": "Grafton", "name_ru": "Grafton", "tz": "Australia/Sydney", "district": "New South Wales"}, {"id": 111, "name": "Gympie", "name_ru": "Gympie", "tz": "Australia/Brisbane", "district": "Queensland"}, {"id": 112, "name": "Bowen", "name_ru": "Bowen", "tz": "Australia/Brisbane", "district": "Queensland"}, {"id": 113, "name": "Young", "name_ru": "Young", "tz": "Australia/Sydney", "district": "New South Wales"}, {"id": 114, "name": "Bowral", "name_ru": "Bowral", "tz": "Australia/Sydney", "district": "New South Wales"}, {"id": 115, "name": "Nowra", "name_ru": "Nowra", "tz": "Australia/Sydney", "district": "New South Wales"}, {"id": 116, "name": "Swan Hill", "name_ru": "Swan Hill", "tz": "Australia/Melbourne", "district": "Victoria"}, {"id": 117, "name": "Mount Evelyn", "name_ru": "Mount Evelyn", "tz": "Australia/Melbourne", "district": "Victoria"}, {"id": 118, "name": "Benalla", "name_ru": "Benalla", "tz": "Australia/Melbourne", "district": "Victoria"}, {"id": 119, "name": "Mudgee", "name_ru": "Mudgee", "tz": "Australia/Sydney", "district": "New South Wales"}, {"id": 120, "name": "Cowra", "name_ru": "Cowra", "tz": "Australia/Sydney", "district": "New South Wales"}, {"id": 121, "name": "Kingaroy", "name_ru": "Kingaroy", "tz": "Australia/Brisbane", "district": "Queensland"}, {"id": 122, "name": "Kangaroo Flat", "name_ru": "Kangaroo Flat", "tz": "Australia/Melbourne", "district": "Victoria"}, {"id": 123, "name": "Hamilton", "name_ru": "Hamilton", "tz": "Australia/Melbourne", "district": "Victoria"}, {"id": 124, "name": "Ballina", "name_ru": "Ballina", "tz": "Australia/Sydney", "district": "New South Wales"}, {"id": 125, "name": "Andergrove", "name_ru": "Andergrove", "tz": "Australia/Brisbane", "district": "Queensland"}, {"id": 126, "name": "Moree", "name_ru": "Moree", "tz": "Australia/Sydney", "district": "New South Wales"}, {"id": 127, "name": "Portland", "name_ru": "Portland", "tz": "Australia/Melbourne", "district": "Victoria"}, {"id": 128, "name": "Highfields", "name_ru": "Highfields", "tz": "Australia/Brisbane", "district": "Queensland"}, {"id": 129, "name": "Gunnedah", "name_ru": "Gunnedah", "tz": "Australia/Sydney", "district": "New South Wales"}, {"id": 130, "name": "Springwood", "name_ru": "Springwood", "tz": "Australia/Sydney", "district": "New South Wales"}, {"id": 131, "name": "Colac", "name_ru": "Colac", "tz": "Australia/Melbourne", "district": "Victoria"}, {"id": 132, "name": "Ayr", "name_ru": "Ayr", "tz": "Australia/Brisbane", "district": "Queensland"}, {"id": 133, "name": "Leeton", "name_ru": "Leeton", "tz": "Australia/Sydney", "district": "New South Wales"}, {"id": 134, "name": "Tweed Heads", "name_ru": "Tweed Heads", "tz": "Australia/Sydney", "district": "New South Wales"}, {"id": 135, "name": "Moe", "name_ru": "Moe", "tz": "Australia/Melbourne", "district": "Victoria"}, {"id": 136, "name": "Gisborne", "name_ru": "Gisborne", "tz": "Australia/Melbourne", "district": "Victoria"}, {"id": 137, "name": "Moranbah", "name_ru": "Moranbah", "tz": "Australia/Brisbane", "district": "Queensland"}, {"id": 138, "name": "Yanchep", "name_ru": "Yanchep", "tz": "Australia/Perth", "district": "Western Australia"}, {"id": 139, "name": "Currumbin", "name_ru": "Currumbin", "tz": "Australia/Brisbane", "district": "Queensland"}, {"id": 140, "name": "Bli Bli", "name_ru": "Bli Bli", "tz": "Australia/Brisbane", "district": "Queensland"}, {"id": 141, "name": "Ararat", "name_ru": "Ararat", "tz": "Australia/Melbourne", "district": "Victoria"}, {"id": 142, "name": "Kelso", "name_ru": "Kelso", "tz": "Australia/Sydney", "district": "New South Wales"}, {"id": 143, "name": "Moss Vale", "name_ru": "Moss Vale", "tz": "Australia/Sydney", "district": "New South Wales"}, {"id": 144, "name": "Clifton Springs", "name_ru": "Clifton Springs", "tz": "Australia/Melbourne", "district": "Victoria"}, {"id": 145, "name": "Katoomba", "name_ru": "Katoomba", "tz": "Australia/Sydney", "district": "New South Wales"}, {"id": 146, "name": "Bairnsdale", "name_ru": "Bairnsdale", "tz": "Australia/Melbourne", "district": "Victoria"}, {"id": 147, "name": "Emu Plains", "name_ru": "Emu Plains", "tz": "Australia/Sydney", "district": "New South Wales"}, {"id": 148, "name": "Wollert", "name_ru": "Wollert", "tz": "Australia/Melbourne", "district": "Victoria"}, {"id": 149, "name": "Merrimac", "name_ru": "Merrimac", "tz": "Australia/Brisbane", "district": "New South Wales"}, {"id": 150, "name": "Charters Towers", "name_ru": "Charters Towers", "tz": "Australia/Brisbane", "district": "Queensland"}, {"id": 151, "name": "Rye", "name_ru": "Rye", "tz": "Australia/Melbourne", "district": "Victoria"}, {"id": 152, "name": "Deniliquin", "name_ru": "Deniliquin", "tz": "Australia/Sydney", "district": "New South Wales"}, {"id": 153, "name": "Mooroopna", "name_ru": "Mooroopna", "tz": "Australia/Melbourne", "district": "Victoria"}, {"id": 154, "name": "Forbes", "name_ru": "Forbes", "tz": "Australia/Sydney", "district": "New South Wales"}, {"id": 155, "name": "Redlynch", "name_ru": "Redlynch", "tz": "Australia/Brisbane", "district": "Queensland"}, {"id": 156, "name": "Maryborough", "name_ru": "Maryborough", "tz": "Australia/Melbourne", "district": "Victoria"}, {"id": 157, "name": "Narrabri", "name_ru": "Narrabri", "tz": "Australia/Sydney", "district": "New South Wales"}, {"id": 158, "name": "Kingscliff", "name_ru": "Kingscliff", "tz": "Australia/Sydney", "district": "New South Wales"}, {"id": 159, "name": "Atherton", "name_ru": "Atherton", "tz": "Australia/Brisbane", "district": "Queensland"}, {"id": 160, "name": "Darley", "name_ru": "Darley", "tz": "Australia/Melbourne", "district": "Victoria"}, {"id": 161, "name": "Kilmore", "name_ru": "Kilmore", "tz": "Australia/Melbourne", "district": "Victoria"}, {"id": 162, "name": "Gatton", "name_ru": "Gatton", "tz": "Australia/Brisbane", "district": "Queensland"}, {"id": 163, "name": "Blaxland", "name_ru": "Blaxland", "tz": "Australia/Sydney", "district": "New South Wales"}, {"id": 164, "name": "Yarrawonga", "name_ru": "Yarrawonga", "tz": "Australia/Melbourne", "district": "Victoria"}, {"id": 165, "name": "Collie", "name_ru": "Collie", "tz": "Australia/Perth", "district": "Western Australia"}, {"id": 166, "name": "Kyabram", "name_ru": "Kyabram", "tz": "Australia/Melbourne", "district": "Victoria"}, {"id": 167, "name": "Sanctuary Point", "name_ru": "Sanctuary Point", "tz": "Australia/Sydney", "district": "New South Wales"}, {"id": 168, "name": "Healesville", "name_ru": "Healesville", "tz": "Australia/Melbourne", "district": "Victoria"}, {"id": 169, "name": "Burpengary", "name_ru": "Burpengary", "tz": "Australia/Brisbane", "district": "Queensland"}, {"id": 170, "name": "Margaret River", "name_ru": "Margaret River", "tz": "Australia/Perth", "district": "Western Australia"}, {"id": 171, "name": "Urraween", "name_ru": "Urraween", "tz": "Australia/Brisbane", "district": "Queensland"}, {"id": 172, "name": "Kiama", "name_ru": "Kiama", "tz": "Australia/Sydney", "district": "New South Wales"}, {"id": 173, "name": "Narre Warren North", "name_ru": "Narre Warren North", "tz": "Australia/Melbourne", "district": "Victoria"}, {"id": 174, "name": "Bargara", "name_ru": "Bargara", "tz": "Australia/Brisbane", "district": "Queensland"}, {"id": 175, "name": "Mandurah", "name_ru": "Mandurah", "tz": "Australia/Perth", "district": "Western Australia"}, {"id": 176, "name": "Kyneton", "name_ru": "Kyneton", "tz": "Australia/Melbourne", "district": "Victoria"}, {"id": 177, "name": "Fremantle", "name_ru": "Fremantle", "tz": "Australia/Perth", "district": "Western Australia"}, {"id": 178, "name": "Murwillumbah", "name_ru": "Murwillumbah", "tz": "Australia/Sydney", "district": "New South Wales"}, {"id": 179, "name": "Cootamundra", "name_ru": "Cootamundra", "tz": "Australia/Sydney", "district": "New South Wales"}, {"id": 180, "name": "Gordonvale", "name_ru": "Gordonvale", "tz": "Australia/Brisbane", "district": "Queensland"}, {"id": 181, "name": "Bacchus Marsh", "name_ru": "Bacchus Marsh", "tz": "Australia/Melbourne", "district": "Victoria"}, {"id": 182, "name": "Roma", "name_ru": "Roma", "tz": "Australia/Brisbane", "district": "Queensland"}, {"id": 183, "name": "Waterford", "name_ru": "Waterford", "tz": "Australia/Brisbane", "district": "Queensland"}, {"id": 184, "name": "North Tamborine", "name_ru": "North Tamborine", "tz": "Australia/Brisbane", "district": "Queensland"}, {"id": 185, "name": "Kurri Kurri", "name_ru": "Kurri Kurri", "tz": "Australia/Sydney", "district": "New South Wales"}, {"id": 186, "name": "Castlemaine", "name_ru": "Castlemaine", "tz": "Australia/Melbourne", "district": "Victoria"}, {"id": 187, "name": "Port Augusta", "name_ru": "Port Augusta", "tz": "Australia/Adelaide", "district": "South Australia"}, {"id": 188, "name": "Lennox Head", "name_ru": "Lennox Head", "tz": "Australia/Sydney", "district": "New South Wales"}, {"id": 189, "name": "Bomaderry", "name_ru": "Bomaderry", "tz": "Australia/Sydney", "district": "New South Wales"}, {"id": 190, "name": "Tuncurry", "name_ru": "Tuncurry", "tz": "Australia/Sydney", "district": "New South Wales"}, {"id": 191, "name": "Strathalbyn", "name_ru": "Strathalbyn", "tz": "Australia/Adelaide", "district": "South Australia"}, {"id": 192, "name": "Yeppoon", "name_ru": "Yeppoon", "tz": "Australia/Brisbane", "district": "Queensland"}, {"id": 193, "name": "Seymour", "name_ru": "Seymour", "tz": "Australia/Melbourne", "district": "Victoria"}, {"id": 194, "name": "Wauchope", "name_ru": "Wauchope", "tz": "Australia/Sydney", "district": "New South Wales"}, {"id": 195, "name": "Beaudesert", "name_ru": "Beaudesert", "tz": "Australia/Brisbane", "district": "Queensland"}, {"id": 196, "name": "Helensburgh", "name_ru": "Helensburgh", "tz": "Australia/Sydney", "district": "New South Wales"}, {"id": 197, "name": "Yass", "name_ru": "Yass", "tz": "Australia/Sydney", "district": "New South Wales"}, {"id": 198, "name": "Newman", "name_ru": "Newman", "tz": "Australia/Perth", "district": "Western Australia"}, {"id": 199, "name": "Cooma", "name_ru": "Cooma", "tz": "Australia/Sydney", "district": "New South Wales"}, {"id": 200, "name": "Nuriootpa", "name_ru": "Nuriootpa", "tz": "Australia/Adelaide", "district": "South Australia"}, {"id": 201, "name": "Beerwah", "name_ru": "Beerwah", "tz": "Australia/Brisbane", "district": "Queensland"}, {"id": 202, "name": "Chinchilla", "name_ru": "Chinchilla", "tz": "Australia/Brisbane", "district": "Queensland"}, {"id": 203, "name": "Goondiwindi", "name_ru": "Goondiwindi", "tz": "Australia/Brisbane", "district": "Queensland"}, {"id": 204, "name": "Tumut", "name_ru": "Tumut", "tz": "Australia/Sydney", "district": "New South Wales"}, {"id": 205, "name": "Cannonvale", "name_ru": "Cannonvale", "tz": "Australia/Brisbane", "district": "Queensland"}, {"id": 206, "name": "Nambucca Heads", "name_ru": "Nambucca Heads", "tz": "Australia/Sydney", "district": "New South Wales"}, {"id": 207, "name": "Wynyard", "name_ru": "Wynyard", "tz": "Australia/Hobart", "district": "Tasmania"}, {"id": 208, "name": "North Mackay", "name_ru": "North Mackay", "tz": "Australia/Brisbane", "district": "Queensland"}, {"id": 209, "name": "Northam", "name_ru": "Northam", "tz": "Australia/Perth", "district": "Western Australia"}, {"id": 210, "name": "Mount Cotton", "name_ru": "Mount Cotton", "tz": "Australia/Brisbane", "district": "Queensland"}, {"id": 211, "name": "Alstonville", "name_ru": "Alstonville", "tz": "Australia/Sydney", "district": "New South Wales"}, {"id": 212, "name": "Glen Innes", "name_ru": "Glen Innes", "tz": "Australia/Sydney", "district": "New South Wales"}, {"id": 213, "name": "Yamba", "name_ru": "Yamba", "tz": "Australia/Sydney", "district": "New South Wales"}, {"id": 214, "name": "Biloela", "name_ru": "Biloela", "tz": "Australia/Brisbane", "district": "Queensland"}, {"id": 215, "name": "Kiama Downs", "name_ru": "Kiama Downs", "tz": "Australia/Sydney", "district": "New South Wales"}, {"id": 216, "name": "Pottsville", "name_ru": "Pottsville", "tz": "Australia/Sydney", "district": "New South Wales"}, {"id": 217, "name": "Lysterfield", "name_ru": "Lysterfield", "tz": "Australia/Melbourne", "district": "Victoria"}, {"id": 218, "name": "Lakes Entrance", "name_ru": "Lakes Entrance", "tz": "Australia/Melbourne", "district": "Victoria"}, {"id": 219, "name": "Stawell", "name_ru": "Stawell", "tz": "Australia/Melbourne", "district": "Victoria"}, {"id": 220, "name": "Wentworth Falls", "name_ru": "Wentworth Falls", "tz": "Australia/Sydney", "district": "New South Wales"}, {"id": 221, "name": "Mittagong", "name_ru": "Mittagong", "tz": "Australia/Sydney", "district": "New South Wales"}, {"id": 222, "name": "Scone", "name_ru": "Scone", "tz": "Australia/Sydney", "district": "New South Wales"}, {"id": 223, "name": "Tannum Sands", "name_ru": "Tannum Sands", "tz": "Australia/Brisbane", "district": "Queensland"}, {"id": 224, "name": "Dromana", "name_ru": "Dromana", "tz": "Australia/Melbourne", "district": "Victoria"}, {"id": 225, "name": "Palmwoods", "name_ru": "Palmwoods", "tz": "Australia/Brisbane", "district": "Queensland"}, {"id": 226, "name": "Leongatha", "name_ru": "Leongatha", "tz": "Australia/Melbourne", "district": "Victoria"}, {"id": 227, "name": "South Grafton", "name_ru": "South Grafton", "tz": "Australia/Sydney", "district": "New South Wales"}, {"id": 228, "name": "Point Vernon", "name_ru": "Point Vernon", "tz": "Australia/Brisbane", "district": "Queensland"}, {"id": 229, "name": "Kununurra", "name_ru": "Kununurra", "tz": "Australia/Perth", "district": "Western Australia"}, {"id": 230, "name": "Naracoorte", "name_ru": "Naracoorte", "tz": "Australia/Adelaide", "district": "South Australia"}, {"id": 231, "name": "Corowa", "name_ru": "Corowa", "tz": "Australia/Sydney", "district": "New South Wales"}, {"id": 232, "name": "Woolgoolga", "name_ru": "Woolgoolga", "tz": "Australia/Sydney", "district": "New South Wales"}, {"id": 233, "name": "Cobram", "name_ru": "Cobram", "tz": "Australia/Melbourne", "district": "Victoria"}, {"id": 234, "name": "Queanbeyan", "name_ru": "Queanbeyan", "tz": "Australia/Sydney", "district": "New South Wales"}, {"id": 235, "name": "Albury", "name_ru": "Albury", "tz": "Australia/Sydney", "district": "New South Wales"}, {"id": 236, "name": "Maffra", "name_ru": "Maffra", "tz": "Australia/Melbourne", "district": "Victoria"}, {"id": 237, "name": "Tahmoor", "name_ru": "Tahmoor", "tz": "Australia/Sydney", "district": "New South Wales"}, {"id": 238, "name": "Woodend", "name_ru": "Woodend", "tz": "Australia/Melbourne", "district": "Victoria"}, {"id": 239, "name": "Inverloch", "name_ru": "Inverloch", "tz": "Australia/Melbourne", "district": "Victoria"}, {"id": 240, "name": "Whittlesea", "name_ru": "Whittlesea", "tz": "Australia/Melbourne", "district": "Victoria"}, {"id": 241, "name": "Lithgow", "name_ru": "Lithgow", "tz": "Australia/Sydney", "district": "New South Wales"}, {"id": 242, "name": "Emerald", "name_ru": "Emerald", "tz": "Australia/Melbourne", "district": "Victoria"}, {"id": 243, "name": "Richmond", "name_ru": "Richmond", "tz": "Australia/Sydney", "district": "New South Wales"}, {"id": 244, "name": "New Norfolk", "name_ru": "New Norfolk", "tz": "Australia/Hobart", "district": "Tasmania"}, {"id": 245, "name": "East Ballina", "name_ru": "East Ballina", "tz": "Australia/Sydney", "district": "New South Wales"}, {"id": 246, "name": "Sarina", "name_ru": "Sarina", "tz": "Australia/Brisbane", "district": "Queensland"}, {"id": 247, "name": "Wingham", "name_ru": "Wingham", "tz": "Australia/Sydney", "district": "New South Wales"}, {"id": 248, "name": "Millicent", "name_ru": "Millicent", "tz": "Australia/Adelaide", "district": "South Australia"}, {"id": 249, "name": "Dunsborough", "name_ru": "Dunsborough", "tz": "Australia/Perth", "district": "Western Australia"}, {"id": 250, "name": "Irymple", "name_ru": "Irymple", "tz": "Australia/Melbourne", "district": "Victoria"}, {"id": 251, "name": "Cooranbong", "name_ru": "Cooranbong", "tz": "Australia/Sydney", "district": "New South Wales"}, {"id": 252, "name": "Red Cliffs", "name_ru": "Red Cliffs", "tz": "Australia/Melbourne", "district": "Victoria"}, {"id": 253, "name": "Nairne", "name_ru": "Nairne", "tz": "Australia/Adelaide", "district": "South Australia"}, {"id": 254, "name": "Bannockburn", "name_ru": "Bannockburn", "tz": "Australia/Melbourne", "district": "Victoria"}, {"id": 255, "name": "Glenbrook", "name_ru": "Glenbrook", "tz": "Australia/Sydney", "district": "New South Wales"}, {"id": 256, "name": "Smithfield Heights", "name_ru": "Smithfield Heights", "tz": "Australia/Brisbane", "district": "Queensland"}, {"id": 257, "name": "Calliope", "name_ru": "Calliope", "tz": "Australia/Brisbane", "district": "Queensland"}, {"id": 258, "name": "Byron Bay", "name_ru": "Byron Bay", "tz": "Australia/Sydney", "district": "New South Wales"}, {"id": 259, "name": "Glass House Mountains", "name_ru": "Glass House Mountains", "tz": "Australia/Brisbane", "district": "Queensland"}, {"id": 260, "name": "Singleton", "name_ru": "Singleton", "tz": "Australia/Sydney", "district": "New South Wales"}, {"id": 261, "name": "Wonthaggi", "name_ru": "Wonthaggi", "tz": "Australia/Melbourne", "district": "Victoria"}, {"id": 262, "name": "Ocean Shores", "name_ru": "Ocean Shores", "tz": "Australia/Sydney", "district": "New South Wales"}, {"id": 263, "name": "Berri", "name_ru": "Berri", "tz": "Australia/Adelaide", "district": "South Australia"}, {"id": 264, "name": "Howard Springs", "name_ru": "Howard Springs", "tz": "Australia/Darwin", "district": "Northern Territory"}, {"id": 265, "name": "Mackay", "name_ru": "Mackay", "tz": "Australia/Brisbane", "district": "Queensland"}, {"id": 266, "name": "Victor Harbor", "name_ru": "Victor Harbor", "tz": "Australia/Adelaide", "district": "South Australia"}, {"id": 267, "name": "Lismore", "name_ru": "Lismore", "tz": "Australia/Sydney", "district": "New South Wales"}, {"id": 268, "name": "Ingham", "name_ru": "Ingham", "tz": "Australia/Brisbane", "district": "Queensland"}, {"id": 269, "name": "Manjimup", "name_ru": "Manjimup", "tz": "Australia/Perth", "district": "Western Australia"}, {"id": 270, "name": "Smithton", "name_ru": "Smithton", "tz": "Australia/Hobart", "district": "Tasmania"}, {"id": 271, "name": "Narrogin", "name_ru": "Narrogin", "tz": "Australia/Perth", "district": "Western Australia"}, {"id": 272, "name": "Proserpine", "name_ru": "Proserpine", "tz": "Australia/Brisbane", "district": "Queensland"}, {"id": 273, "name": "Merimbula", "name_ru": "Merimbula", "tz": "Australia/Sydney", "district": "New South Wales"}, {"id": 274, "name": "Broome", "name_ru": "Broome", "tz": "Australia/Perth", "district": "Western Australia"}, {"id": 275, "name": "Katanning", "name_ru": "Katanning", "tz": "Australia/Perth", "district": "Western Australia"}, {"id": 276, "name": "Port Hedland", "name_ru": "Port Hedland", "tz": "Australia/Perth", "district": "Western Australia"}, {"id": 277, "name": "Charleville", "name_ru": "Charleville", "tz": "Australia/Brisbane", "district": "Queensland"}, {"id": 278, "name": "Weipa", "name_ru": "Weipa", "tz": "Australia/Brisbane", "district": "Queensland"}, {"id": 279, "name": "Port Douglas", "name_ru": "Port Douglas", "tz": "Australia/Brisbane", "district": "Queensland"}, {"id": 280, "name": "Clare", "name_ru": "Clare", "tz": "Australia/Adelaide", "district": "South Australia"}, {"id": 281, "name": "Wallaroo", "name_ru": "Wallaroo", "tz": "Australia/Adelaide", "district": "South Australia"}, {"id": 282, "name": "Longreach", "name_ru": "Longreach", "tz": "Australia/Brisbane", "district": "Queensland"}, {"id": 283, "name": "Rockhampton", "name_ru": "Rockhampton", "tz": "Australia/Brisbane", "district": "Queensland"}, {"id": 284, "name": "Tom Price", "name_ru": "Tom Price", "tz": "Australia/Perth", "district": "Western Australia"}, {"id": 285, "name": "Cloncurry", "name_ru": "Cloncurry", "tz": "Australia/Brisbane", "district": "Queensland"}, {"id": 286, "name": "Bordertown", "name_ru": "Bordertown", "tz": "Australia/Adelaide", "district": "South Australia"}, {"id": 287, "name": "Mount Barker", "name_ru": "Mount Barker", "tz": "Australia/Perth", "district": "Western Australia"}, {"id": 288, "name": "Esperance", "name_ru": "Esperance", "tz": "Australia/Perth", "district": "Western Australia"}, {"id": 289, "name": "Merredin", "name_ru": "Merredin", "tz": "Australia/Perth", "district": "Western Australia"}, {"id": 290, "name": "Scottsdale", "name_ru": "Scottsdale", "tz": "Australia/Hobart", "district": "Tasmania"}, {"id": 291, "name": "Maitland", "name_ru": "Maitland", "tz": "Australia/Sydney", "district": "New South Wales"}, {"id": 292, "name": "Bourke", "name_ru": "Bourke", "tz": "Australia/Sydney", "district": "New South Wales"}, {"id": 293, "name": "Exmouth", "name_ru": "Exmouth", "tz": "Australia/Perth", "district": "Western Australia"}, {"id": 294, "name": "Queenstown", "name_ru": "Queenstown", "tz": "Australia/Hobart", "district": "Tasmania"}, {"id": 295, "name": "Tumby Bay", "name_ru": "Tumby Bay", "tz": "Australia/Adelaide", "district": "South Australia"}, {"id": 296, "name": "Penola", "name_ru": "Penola", "tz": "Australia/Adelaide", "district": "South Australia"}, {"id": 297, "name": "Kalbarri", "name_ru": "Kalbarri", "tz": "Australia/Perth", "district": "Western Australia"}, {"id": 298, "name": "Innisfail", "name_ru": "Innisfail", "tz": "Australia/Brisbane", "district": "Queensland"}, {"id": 299, "name": "Batemans Bay", "name_ru": "Batemans Bay", "tz": "Australia/Sydney", "district": "New South Wales"}, {"id": 300, "name": "Port Denison", "name_ru": "Port Denison", "tz": "Australia/Perth", "district": "Western Australia"}, {"id": 301, "name": "Barcaldine", "name_ru": "Barcaldine", "tz": "Australia/Brisbane", "district": "Queensland"}, {"id": 302, "name": "Kingston South East", "name_ru": "Kingston South East", "tz": "Australia/Adelaide", "district": "South Australia"}, {"id": 303, "name": "Wagin", "name_ru": "Wagin", "tz": "Australia/Perth", "district": "Western Australia"}, {"id": 304, "name": "Gawler", "name_ru": "Gawler", "tz": "Australia/Adelaide", "district": "South Australia"}, {"id": 305, "name": "Peterborough", "name_ru": "Peterborough", "tz": "Australia/Adelaide", "district": "South Australia"}, {"id": 306, "name": "Streaky Bay", "name_ru": "Streaky Bay", "tz": "Australia/Adelaide", "district": "South Australia"}, {"id": 307, "name": "Halls Creek", "name_ru": "Halls Creek", "tz": "Australia/Perth", "district": "Western Australia"}, {"id": 308, "name": "Ouyen", "name_ru": "Ouyen", "tz": "Australia/Melbourne", "district": "Victoria"}, {"id": 309, "name": "Katherine", "name_ru": "Katherine", "tz": "Australia/Darwin", "district": "Northern Territory"}, {"id": 310, "name": "Mount Isa", "name_ru": "Mount Isa", "tz": "Australia/Brisbane", "district": "Queensland"}, {"id": 311, "name": "Hughenden", "name_ru": "Hughenden", "tz": "Australia/Brisbane", "district": "Queensland"}, {"id": 312, "name": "Port Pirie", "name_ru": "Port Pirie", "tz": "Australia/Adelaide", "district": "South Australia"}, {"id": 313, "name": "Meningie", "name_ru": "Meningie", "tz": "Australia/Adelaide", "district": "South Australia"}, {"id": 314, "name": "Cowell", "name_ru": "Cowell", "tz": "Australia/Adelaide", "district": "South Australia"}, {"id": 315, "name": "Meekatharra", "name_ru": "Meekatharra", "tz": "Australia/Perth", "district": "Western Australia"}, {"id": 316, "name": "Yulara", "name_ru": "Yulara", "tz": "Australia/Darwin", "district": "Northern Territory"}, {"id": 317, "name": "Wyndham", "name_ru": "Wyndham", "tz": "Australia/Perth", "district": "Western Australia"}, {"id": 318, "name": "Roebourne", "name_ru": "Roebourne", "tz": "Australia/Perth", "district": "Western Australia"}, {"id": 319, "name": "Bicheno", "name_ru": "Bicheno", "tz": "Australia/Hobart", "district": "Tasmania"}, {"id": 320, "name": "Winton", "name_ru": "Winton", "tz": "Australia/Brisbane", "district": "Queensland"}, {"id": 321, "name": "Oatlands", "name_ru": "Oatlands", "tz": "Australia/Hobart", "district": "Tasmania"}, {"id": 322, "name": "Leonora", "name_ru": "Leonora", "tz": "Australia/Perth", "district": "Western Australia"}, {"id": 323, "name": "Kempsey", "name_ru": "Kempsey", "tz": "Australia/Sydney", "district": "New South Wales"}, {"id": 324, "name": "Gingin", "name_ru": "Gingin", "tz": "Australia/Perth", "district": "Western Australia"}, {"id": 325, "name": "Wilcannia", "name_ru": "Wilcannia", "tz": "Australia/Sydney", "district": "New South Wales"}, {"id": 326, "name": "Onslow", "name_ru": "Onslow", "tz": "Australia/Perth", "district": "Western Australia"}, {"id": 327, "name": "Laverton", "name_ru": "Laverton", "tz": "Australia/Perth", "district": "Western Australia"}, {"id": 328, "name": "Morawa", "name_ru": "Morawa", "tz": "Australia/Perth", "district": "Western Australia"}, {"id": 329, "name": "Southern Cross", "name_ru": "Southern Cross", "tz": "Australia/Perth", "district": "Western Australia"}, {"id": 330, "name": "Quilpie", "name_ru": "Quilpie", "tz": "Australia/Brisbane", "district": "Queensland"}, {"id": 331, "name": "Tamworth", "name_ru": "Tamworth", "tz": "Australia/Sydney", "district": "New South Wales"}, {"id": 332, "name": "Norseman", "name_ru": "Norseman", "tz": "Australia/Perth", "district": "Western Australia"}, {"id": 333, "name": "Ravensthorpe", "name_ru": "Ravensthorpe", "tz": "Australia/Perth", "district": "Western Australia"}, {"id": 334, "name": "Eidsvold", "name_ru": "Eidsvold", "tz": "Australia/Brisbane", "district": "Queensland"}, {"id": 335, "name": "Pannawonica", "name_ru": "Pannawonica", "tz": "Australia/Perth", "district": "Western Australia"}, {"id": 336, "name": "Kimba", "name_ru": "Kimba", "tz": "Australia/Adelaide", "district": "South Australia"}, {"id": 337, "name": "Richmond", "name_ru": "Richmond", "tz": "Australia/Brisbane", "district": "Queensland"}, {"id": 338, "name": "Mount Magnet", "name_ru": "Mount Magnet", "tz": "Australia/Perth", "district": "Western Australia"}, {"id": 339, "name": "Three Springs", "name_ru": "Three Springs", "tz": "Australia/Perth", "district": "Western Australia"}, {"id": 340, "name": "Theodore", "name_ru": "Theodore", "tz": "Australia/Brisbane", "district": "Queensland"}, {"id": 341, "name": "Carnarvon", "name_ru": "Carnarvon", "tz": "Australia/Perth", "district": "Western Australia"}, {"id": 342, "name": "Karumba", "name_ru": "Karumba", "tz": "Australia/Brisbane", "district": "Queensland"}, {"id": 343, "name": "Andamooka", "name_ru": "Andamooka", "tz": "Australia/Adelaide", "district": "South Australia"}, {"id": 344, "name": "Georgetown", "name_ru": "Georgetown", "tz": "Australia/Brisbane", "district": "Queensland"}, {"id": 345, "name": "Boulia", "name_ru": "Boulia", "tz": "Australia/Brisbane", "district": "Queensland"}, {"id": 346, "name": "Adelaide River", "name_ru": "Adelaide River", "tz": "Australia/Darwin", "district": "Northern Territory"}, {"id": 347, "name": "Burketown", "name_ru": "Burketown", "tz": "Australia/Brisbane", "district": "Queensland"}, {"id": 348, "name": "Ivanhoe", "name_ru": "Ivanhoe", "tz": "Australia/Sydney", "district": "New South Wales"}, {"id": 349, "name": "Thargomindah", "name_ru": "Thargomindah", "tz": "Australia/Brisbane", "district": "Queensland"}, {"id": 350, "name": "Pine Creek", "name_ru": "Pine Creek", "tz": "Australia/Darwin", "district": "Northern Territory"}, {"id": 351, "name": "Camooweal", "name_ru": "Camooweal", "tz": "Australia/Brisbane", "district": "Queensland"}, {"id": 352, "name": "Birdsville", "name_ru": "Birdsville", "tz": "Australia/Brisbane", "district": "Queensland"}, {"id": 353, "name": "Bedourie", "name_ru": "Bedourie", "tz": "Australia/Brisbane", "district": "Queensland"}, {"id": 354, "name": "Windorah", "name_ru": "Windorah", "tz": "Australia/Brisbane", "district": "Queensland"}, {"id": 355, "name": "Kingoonya", "name_ru": "Kingoonya", "tz": "Australia/Adelaide", "district": "South Australia"}, {"id": 356, "name": "Bullsbrook", "name_ru": "Bullsbrook", "tz": "Australia/Perth", "district": "Western Australia"}, {"id": 357, "name": "McMinns Lagoon", "name_ru": "McMinns Lagoon", "tz": "Australia/Darwin", "district": "Northern Territory"}, {"id": 358, "name": "Ceduna", "name_ru": "Ceduna", "tz": "Australia/Adelaide", "district": "South Australia"}, {"id": 359, "name": "Woomera", "name_ru": "Woomera", "tz": "Australia/Adelaide", "district": "South Australia"}]