[{"id": 1, "name": "Baku", "name_ru": "Baku", "tz": "", "district": "Bakı"}, {"id": 2, "name": "Sumqayit", "name_ru": "Sumqayıt", "tz": "", "district": "Sumqayıt"}, {"id": 3, "name": "Ganca", "name_ru": "Gəncə", "tz": "", "district": "Gəncə"}, {"id": 4, "name": "Mingacevir", "name_ru": "Mingəçevir", "tz": "", "district": "Mingəçevir"}, {"id": 5, "name": "Xirdalan", "name_ru": "Xırdalan", "tz": "", "district": "Abşeron"}, {"id": 6, "name": "Naxcivan", "name_ru": "Naxçıvan", "tz": "", "district": "Naxçıvan"}, {"id": 7, "name": "Sirvan", "name_ru": "Şirvan", "tz": "", "district": "Şirvan"}, {"id": 8, "name": "Saki", "name_ru": "Şəki", "tz": "", "district": "Şəki"}, {"id": 9, "name": "Yevlax", "name_ru": "Yevlax", "tz": "", "district": "Yevlax"}, {"id": 10, "name": "M.A. Rasulzada", "name_ru": "M.Ə. Rəsulzadə", "tz": "", "district": "Bakı"}, {"id": 11, "name": "Lankaran", "name_ru": "Lənkəran", "tz": "", "district": "Lənkəran"}, {"id": 12, "name": "Samkir", "name_ru": "Şəmkir", "tz": "", "district": "Şəmkir"}, {"id": 13, "name": "Xacmaz", "name_ru": "Xaçmaz", "tz": "", "district": "Xaçmaz"}, {"id": 14, "name": "Agcabadi", "name_ru": "Ağcabədi", "tz": "", "district": "Ağcabədi"}, {"id": 15, "name": "Barda", "name_ru": "Bərdə", "tz": "", "district": "Bərdə"}, {"id": 16, "name": "Goycay", "name_ru": "Göyçay", "tz": "", "district": "Göyçay"}, {"id": 17, "name": "Zaqatala", "name_ru": "Zaqatala", "tz": "", "district": "Zaqatala"}, {"id": 18, "name": "Imisli", "name_ru": "İmişli", "tz": "", "district": "İmişli"}, {"id": 19, "name": "Salyan", "name_ru": "Salyan", "tz": "", "district": "Salyan"}, {"id": 20, "name": "Agdas", "name_ru": "Ağdaş", "tz": "", "district": "Ağdaş"}, {"id": 21, "name": "Calilabad", "name_ru": "Cəlilabad", "tz": "", "district": "Cəlilabad"}, {"id": 22, "name": "Haci Zeynalabdin", "name_ru": "Hacı Zeynalabdin", "tz": "", "district": "Sumqayıt"}, {"id": 23, "name": "Bilasuvar", "name_ru": "Biləsuvar", "tz": "", "district": "Biləsuvar"}, {"id": 24, "name": "Quba", "name_ru": "Quba", "tz": "", "district": "Quba"}, {"id": 25, "name": "Ismayilli", "name_ru": "İsmayıllı", "tz": "", "district": "İsmayıllı"}, {"id": 26, "name": "Agsu", "name_ru": "Ağsu", "tz": "", "district": "Ağsu"}, {"id": 27, "name": "Agstafa", "name_ru": "Ağstafa", "tz": "", "district": "Ağstafa"}, {"id": 28, "name": "Ahmadli", "name_ru": "Əhmədli", "tz": "", "district": "Bakı"}, {"id": 29, "name": "Siyazan", "name_ru": "Siyəzən", "tz": "", "district": "Siyəzən"}, {"id": 30, "name": "Sabirabad", "name_ru": "Sabirabad", "tz": "", "district": "Sabirabad"}, {"id": 31, "name": "Saatli", "name_ru": "Saatlı", "tz": "", "district": "Saatlı"}, {"id": 32, "name": "Fuzuli", "name_ru": "Füzuli", "tz": "", "district": "Füzuli"}, {"id": 33, "name": "Astara", "name_ru": "Astara", "tz": "", "district": "Astara"}, {"id": 34, "name": "Kurdamir", "name_ru": "Kürdəmir", "tz": "", "district": "Kürdəmir"}, {"id": 35, "name": "Masalli", "name_ru": "Masallı", "tz": "", "district": "Masallı"}, {"id": 36, "name": "Ucar", "name_ru": "Ucar", "tz": "", "district": "Ucar"}, {"id": 37, "name": "Neftcala", "name_ru": "Neftçala", "tz": "", "district": "Neftçala"}, {"id": 38, "name": "Qusar", "name_ru": "Qusar", "tz": "", "district": "Qusar"}, {"id": 39, "name": "Tovuz", "name_ru": "Tovuz", "tz": "", "district": "Tovuz"}, {"id": 40, "name": "Tartar", "name_ru": "Tərtər", "tz": "", "district": "Tərtər"}, {"id": 41, "name": "Culfa", "name_ru": "Culfa", "tz": "", "district": "Culfa"}, {"id": 42, "name": "Beylaqan", "name_ru": "Beyləqan", "tz": "", "district": "Beyləqan"}, {"id": 43, "name": "Qax", "name_ru": "Qax", "tz": "", "district": "Qax"}, {"id": 44, "name": "Daskasan", "name_ru": "Daşkəsən", "tz": "", "district": "Daşkəsən"}, {"id": 45, "name": "Ordubad", "name_ru": "Ordubad", "tz": "", "district": "Ordubad"}, {"id": 46, "name": "Naftalan", "name_ru": "Naftalan", "tz": "", "district": "Naftalan"}, {"id": 47, "name": "Samux", "name_ru": "Samux", "tz": "", "district": "Samux"}, {"id": 48, "name": "Gadabay", "name_ru": "Gədəbəy", "tz": "", "district": "Gədəbəy"}, {"id": 49, "name": "Zardab", "name_ru": "Zərdab", "tz": "", "district": "Zərdab"}, {"id": 50, "name": "Balakan", "name_ru": "Balakən", "tz": "", "district": "Balakən"}, {"id": 51, "name": "Yardimli", "name_ru": "Yardımlı", "tz": "", "district": "Yardımlı"}, {"id": 52, "name": "Goranboy", "name_ru": "Goranboy", "tz": "", "district": "Goranboy"}, {"id": 53, "name": "Lerik", "name_ru": "Lerik", "tz": "", "district": "Lerik"}, {"id": 54, "name": "Oguz", "name_ru": "Oğuz", "tz": "", "district": "Oğuz"}, {"id": 55, "name": "Cabrayil", "name_ru": "Cəbrayıl", "tz": "", "district": "Cəbrayıl"}, {"id": 56, "name": "Babak", "name_ru": "Babək", "tz": "", "district": "Babək"}, {"id": 57, "name": "Susa", "name_ru": "Şuşa", "tz": "", "district": "Şuşa"}, {"id": 58, "name": "Agdam", "name_ru": "Ağdam", "tz": "", "district": "Ağdam"}, {"id": 59, "name": "Sahbuz", "name_ru": "Şahbuz", "tz": "", "district": "Şahbuz"}, {"id": 60, "name": "Lacin", "name_ru": "Laçın", "tz": "", "district": "Laçın"}, {"id": 61, "name": "Xocali", "name_ru": "Xocalı", "tz": "", "district": "Xocalı"}, {"id": 62, "name": "Qubadli", "name_ru": "Qubadlı", "tz": "", "district": "Qubadlı"}, {"id": 63, "name": "Heydarabad", "name_ru": "Heydərabad", "tz": "", "district": "Sədərək"}, {"id": 64, "name": "Qazax", "name_ru": "Qazax", "tz": "", "district": "Qazax"}, {"id": 65, "name": "Sarur", "name_ru": "Şərur", "tz": "", "district": "Şərur"}, {"id": 66, "name": "Qabala", "name_ru": "Qəbələ", "tz": "", "district": "Qəbələ"}, {"id": 67, "name": "Goygol", "name_ru": "Göygöl", "tz": "", "district": "Göygöl"}, {"id": 68, "name": "Davaci", "name_ru": "Dəvəçi", "tz": "", "district": "Şabran"}, {"id": 69, "name": "Qivraq", "name_ru": "Qıvraq", "tz": "", "district": "Kəngərli"}, {"id": 70, "name": "Haciqabul", "name_ru": "Hacıqabul", "tz": "", "district": "Hacıqabul"}, {"id": 71, "name": "Kalbacar", "name_ru": "Kəlbəcər", "tz": "", "district": "Kəlbəcər"}, {"id": 72, "name": "Qobustan", "name_ru": "Qobustan", "tz": "", "district": "Qobustan"}, {"id": 73, "name": "Xocavand", "name_ru": "Xocavənd", "tz": "", "district": "Xocavənd"}, {"id": 74, "name": "Xizi", "name_ru": "Xızı", "tz": "", "district": "Xızı"}, {"id": 75, "name": "Qaracuxur", "name_ru": "Qaraçuxur", "tz": "", "district": "Bakı"}, {"id": 76, "name": "Bakixanov", "name_ru": "Bakıxanov", "tz": "", "district": "Bakı"}, {"id": 77, "name": "Xankandi", "name_ru": "Xankəndi", "tz": "", "district": "Xankəndi"}, {"id": 78, "name": "Mastaga", "name_ru": "Maştağa", "tz": "", "district": "Bakı"}, {"id": 79, "name": "Qazyan", "name_ru": "Qəzyan", "tz": "", "district": "Qubadlı"}, {"id": 80, "name": "Lokbatan", "name_ru": "Lökbatan", "tz": "", "district": "Bakı"}, {"id": 81, "name": "Buzovna", "name_ru": "Buzovna", "tz": "", "district": "Bakı"}, {"id": 82, "name": "Amircan", "name_ru": "Əmircan", "tz": "", "district": "Bakı"}, {"id": 83, "name": "Samaxi", "name_ru": "Şamaxı", "tz": "", "district": "Şamaxı"}, {"id": 84, "name": "Corat", "name_ru": "Corat", "tz": "", "district": "Sumqayıt"}, {"id": 85, "name": "Pirallahi", "name_ru": "Pirallahı", "tz": "", "district": "Bakı"}, {"id": 86, "name": "Alat", "name_ru": "Ələt", "tz": "", "district": "Bakı"}, {"id": 87, "name": "Qazmalar", "name_ru": "Qazmalar", "tz": "", "district": "Qəbələ"}, {"id": 88, "name": "Xudat", "name_ru": "Xudat", "tz": "", "district": "Xaçmaz"}, {"id": 89, "name": "Qovlar", "name_ru": "Qovlar", "tz": "", "district": "Tovuz"}, {"id": 90, "name": "Goytapa", "name_ru": "Göytəpə", "tz": "", "district": "Cəlilabad"}, {"id": 91, "name": "Asagi Ayibli", "name_ru": "Aşağı Ayıblı", "tz": "", "district": "Tovuz"}, {"id": 92, "name": "Liman", "name_ru": "Liman", "tz": "", "district": "Lənkəran"}, {"id": 93, "name": "Xacmaz", "name_ru": "Xaçmaz", "tz": "", "district": "Oğuz"}, {"id": 94, "name": "Xindiristan", "name_ru": "Xındırıstan", "tz": "", "district": "Ağdam"}, {"id": 95, "name": "Kis", "name_ru": "Kiş", "tz": "", "district": "Şəki"}, {"id": 96, "name": "Agdam", "name_ru": "Ağdam", "tz": "", "district": "Tovuz"}]