[{"id": 1, "name": "Sarajevo", "name_ru": "Sarajevo", "tz": "", "district": "Bosnia and Herzegovina, Federation of"}, {"id": 2, "name": "Banja Luka", "name_ru": "Banja Luka", "tz": "", "district": "Srpska, Republika"}, {"id": 3, "name": "Mostar", "name_ru": "Mostar", "tz": "", "district": "Bosnia and Herzegovina, Federation of"}, {"id": 4, "name": "Bijeljina", "name_ru": "Bijeljina", "tz": "", "district": "Srpska, Republika"}, {"id": 5, "name": "Tuzla", "name_ru": "Tuzla", "tz": "", "district": "Bosnia and Herzegovina, Federation of"}, {"id": 6, "name": "Brcko", "name_ru": "Brčko", "tz": "", "district": "Brcko District"}, {"id": 7, "name": "Prijedor", "name_ru": "Prijedor", "tz": "", "district": "Srpska, Republika"}, {"id": 8, "name": "Zenica", "name_ru": "Zenica", "tz": "", "district": "Bosnia and Herzegovina, Federation of"}, {"id": 9, "name": "Doboj", "name_ru": "Doboj", "tz": "", "district": "Srpska, Republika"}, {"id": 10, "name": "Zvornik", "name_ru": "Zvornik", "tz": "", "district": "Srpska, Republika"}, {"id": 11, "name": "Sanski Most", "name_ru": "Sanski Most", "tz": "", "district": "Bosnia and Herzegovina, Federation of"}, {"id": 12, "name": "Lukavac", "name_ru": "Lukavac", "tz": "", "district": "Bosnia and Herzegovina, Federation of"}, {"id": 13, "name": "Bihac", "name_ru": "Bihać", "tz": "", "district": "Bosnia and Herzegovina, Federation of"}, {"id": 14, "name": "Bugojno", "name_ru": "Bugojno", "tz": "", "district": "Bosnia and Herzegovina, Federation of"}, {"id": 15, "name": "Zepce", "name_ru": "Žepče", "tz": "", "district": "Bosnia and Herzegovina, Federation of"}, {"id": 16, "name": "Trebinje", "name_ru": "Trebinje", "tz": "", "district": "Srpska, Republika"}, {"id": 17, "name": "Bosanska Krupa", "name_ru": "Bosanska Krupa", "tz": "", "district": "Bosnia and Herzegovina, Federation of"}, {"id": 18, "name": "Capljina", "name_ru": "Čapljina", "tz": "", "district": "Bosnia and Herzegovina, Federation of"}, {"id": 19, "name": "Banovici", "name_ru": "Banovići", "tz": "", "district": ""}, {"id": 20, "name": "Breza", "name_ru": "Breza", "tz": "", "district": "Bosnia and Herzegovina, Federation of"}, {"id": 21, "name": "Derventa", "name_ru": "Derventa", "tz": "", "district": "Srpska, Republika"}, {"id": 22, "name": "Gorazde", "name_ru": "Goražde", "tz": "", "district": "Bosnia and Herzegovina, Federation of"}, {"id": 23, "name": "Foca", "name_ru": "Foča", "tz": "", "district": "Srpska, Republika"}, {"id": 24, "name": "Sapna", "name_ru": "Sapna", "tz": "", "district": "Bosnia and Herzegovina, Federation of"}, {"id": 25, "name": "Jablanica", "name_ru": "Jablanica", "tz": "", "district": "Bosnia and Herzegovina, Federation of"}, {"id": 26, "name": "Vares", "name_ru": "Vareš", "tz": "", "district": "Bosnia and Herzegovina, Federation of"}, {"id": 27, "name": "Livno", "name_ru": "Livno", "tz": "", "district": "Bosnia and Herzegovina, Federation of"}, {"id": 28, "name": "Bosanski Petrovac", "name_ru": "Bosanski Petrovac", "tz": "", "district": "Bosnia and Herzegovina, Federation of"}, {"id": 29, "name": "Mrkonjic Grad", "name_ru": "Mrkonjić Grad", "tz": "", "district": "Srpska, Republika"}, {"id": 30, "name": "Drvar", "name_ru": "Drvar", "tz": "", "district": "Bosnia and Herzegovina, Federation of"}, {"id": 31, "name": "Velika Kladusa", "name_ru": "Velika Kladuša", "tz": "", "district": "Bosnia and Herzegovina, Federation of"}, {"id": 32, "name": "Visegrad", "name_ru": "Višegrad", "tz": "", "district": "Srpska, Republika"}, {"id": 33, "name": "Tomislavgrad", "name_ru": "Tomislavgrad", "tz": "", "district": "Bosnia and Herzegovina, Federation of"}]