[{"id": 1, "name": "Dhaka", "name_ru": "Dhaka", "tz": "", "district": "Dhaka"}, {"id": 2, "name": "Chattogram", "name_ru": "Chattogram", "tz": "", "district": "Chittagong"}, {"id": 3, "name": "Khulna", "name_ru": "Khulna", "tz": "", "district": "Khulna"}, {"id": 4, "name": "Sylhet", "name_ru": "Sylhet", "tz": "", "district": "Sylhet"}, {"id": 5, "name": "Rajshahi", "name_ru": "Rājshāhi", "tz": "", "district": "Rājshāhi"}, {"id": 6, "name": "Mymensingh", "name_ru": "Mymensingh", "tz": "", "district": "Mymensingh"}, {"id": 7, "name": "Comilla", "name_ru": "Comilla", "tz": "", "district": "Chittagong"}, {"id": 8, "name": "Rangpur", "name_ru": "Rangpur", "tz": "", "district": "Rangpur"}, {"id": 9, "name": "Brahmanbaria", "name_ru": "Brāhmanbāria", "tz": "", "district": "Chittagong"}, {"id": 10, "name": "Jessore", "name_ru": "Jessore", "tz": "", "district": "Khulna"}, {"id": 11, "name": "Narayanganj", "name_ru": "Nārāyanganj", "tz": "", "district": "Dhaka"}, {"id": 12, "name": "Saidpur", "name_ru": "Saidpur", "tz": "", "district": "Rangpur"}, {"id": 13, "name": "Barishal", "name_ru": "Barishal", "tz": "", "district": "Barisāl"}, {"id": 14, "name": "Narsingdi", "name_ru": "Narsingdi", "tz": "", "district": "Dhaka"}, {"id": 15, "name": "Tangail", "name_ru": "Tāngāil", "tz": "", "district": "Dhaka"}, {"id": 16, "name": "Jamalpur", "name_ru": "Jamālpur", "tz": "", "district": "Mymensingh"}, {"id": 17, "name": "Nawabganj", "name_ru": "Nawābganj", "tz": "", "district": "Rājshāhi"}, {"id": 18, "name": "Pabna", "name_ru": "Pābna", "tz": "", "district": "Rājshāhi"}, {"id": 19, "name": "Harinakunda", "name_ru": "Harinākunda", "tz": "", "district": "Khulna"}]