[{"id": 1, "name": "Brussels", "name_ru": "Brussels", "tz": "", "district": "Brussels-Capital Region"}, {"id": 2, "name": "Antwerp", "name_ru": "Antwerp", "tz": "", "district": "Flanders"}, {"id": 3, "name": "Gent", "name_ru": "Gent", "tz": "", "district": "Flanders"}, {"id": 4, "name": "Charleroi", "name_ru": "Charleroi", "tz": "", "district": "Wallonia"}, {"id": 5, "name": "Liege", "name_ru": "Liège", "tz": "", "district": "Wallonia"}, {"id": 6, "name": "Anderlecht", "name_ru": "Anderlecht", "tz": "", "district": "Brussels-Capital Region"}, {"id": 7, "name": "Bruges", "name_ru": "Bruges", "tz": "", "district": "Flanders"}, {"id": 8, "name": "Namur", "name_ru": "Namur", "tz": "", "district": "Wallonia"}, {"id": 9, "name": "Moortebeek", "name_ru": "Moortebeek", "tz": "", "district": "Flanders"}, {"id": 10, "name": "Leuven", "name_ru": "Leuven", "tz": "", "district": "Flanders"}, {"id": 11, "name": "Mechelen", "name_ru": "Mechelen", "tz": "", "district": "Flanders"}, {"id": 12, "name": "Forest", "name_ru": "Forest", "tz": "", "district": "Brussels-Capital Region"}, {"id": 13, "name": "Etterbeek", "name_ru": "Etterbeek", "tz": "", "district": "Brussels-Capital Region"}, {"id": 14, "name": "Jette", "name_ru": "Jette", "tz": "", "district": "Brussels-Capital Region"}, {"id": 15, "name": "Evere", "name_ru": "Evere", "tz": "", "district": "Brussels-Capital Region"}, {"id": 16, "name": "Vilvoorde", "name_ru": "Vilvoorde", "tz": "", "district": "Flanders"}, {"id": 17, "name": "Wilrijk", "name_ru": "Wilrijk", "tz": "", "district": "Flanders"}, {"id": 18, "name": "Koekelberg", "name_ru": "Koekelberg", "tz": "", "district": "Brussels-Capital Region"}, {"id": 19, "name": "Sint-Joost-ten-Node", "name_ru": "Sint-Joost-ten-Node", "tz": "", "district": "Brussels-Capital Region"}, {"id": 20, "name": "Ganshoren", "name_ru": "Ganshoren", "tz": "", "district": "Brussels-Capital Region"}, {"id": 21, "name": "Mortsel", "name_ru": "Mortsel", "tz": "", "district": "Flanders"}, {"id": 22, "name": "Saint-Nicolas", "name_ru": "Saint-Nicolas", "tz": "", "district": "Wallonia"}, {"id": 23, "name": "Ekeren", "name_ru": "Ekeren", "tz": "", "district": "Flanders"}, {"id": 24, "name": "Edegem", "name_ru": "Edegem", "tz": "", "district": "Flanders"}, {"id": 25, "name": "Assebroek", "name_ru": "Assebroek", "tz": "", "district": "Flanders"}, {"id": 26, "name": "Boom", "name_ru": "Boom", "tz": "", "district": "Flanders"}, {"id": 27, "name": "Wondelgem", "name_ru": "Wondelgem", "tz": "", "district": "Flanders"}, {"id": 28, "name": "Wezembeek-Oppem", "name_ru": "Wezembeek-Oppem", "tz": "", "district": "Flanders"}, {"id": 29, "name": "Kraainem", "name_ru": "Kraainem", "tz": "", "district": "Flanders"}, {"id": 30, "name": "Hemiksem", "name_ru": "Hemiksem", "tz": "", "district": "Flanders"}, {"id": 31, "name": "Borsbeek", "name_ru": "Borsbeek", "tz": "", "district": "Flanders"}, {"id": 32, "name": "Drogenbos", "name_ru": "Drogenbos", "tz": "", "district": "Flanders"}, {"id": 33, "name": "Mons", "name_ru": "Mons", "tz": "", "district": "Wallonia"}, {"id": 34, "name": "Aalst", "name_ru": "Aalst", "tz": "", "district": "Flanders"}, {"id": 35, "name": "La Louviere", "name_ru": "La Louvière", "tz": "", "district": "Wallonia"}, {"id": 36, "name": "Hasselt", "name_ru": "Hasselt", "tz": "", "district": "Flanders"}, {"id": 37, "name": "Sint-Niklaas", "name_ru": "Sint-Niklaas", "tz": "", "district": "Flanders"}, {"id": 38, "name": "Kortrijk", "name_ru": "Kortrijk", "tz": "", "district": "Flanders"}, {"id": 39, "name": "Ostend", "name_ru": "Ostend", "tz": "", "district": "Flanders"}, {"id": 40, "name": "Tournai", "name_ru": "Tournai", "tz": "", "district": "Wallonia"}, {"id": 41, "name": "Genk", "name_ru": "Genk", "tz": "", "district": "Flanders"}, {"id": 42, "name": "Seraing", "name_ru": "Seraing", "tz": "", "district": "Wallonia"}, {"id": 43, "name": "Roeselare", "name_ru": "Roeselare", "tz": "", "district": "Flanders"}, {"id": 44, "name": "Mouscron", "name_ru": "Mouscron", "tz": "", "district": "Wallonia"}, {"id": 45, "name": "Verviers", "name_ru": "Verviers", "tz": "", "district": "Wallonia"}, {"id": 46, "name": "Beveren", "name_ru": "Beveren", "tz": "", "district": "Flanders"}, {"id": 47, "name": "Beringen", "name_ru": "Beringen", "tz": "", "district": "Flanders"}, {"id": 48, "name": "Dendermonde", "name_ru": "Dendermonde", "tz": "", "district": "Flanders"}, {"id": 49, "name": "Turnhout", "name_ru": "Turnhout", "tz": "", "district": "Flanders"}, {"id": 50, "name": "Dilbeek", "name_ru": "Dilbeek", "tz": "", "district": "Flanders"}, {"id": 51, "name": "Heist-op-den-Berg", "name_ru": "Heist-op-den-Berg", "tz": "", "district": "Flanders"}, {"id": 52, "name": "Lokeren", "name_ru": "Lokeren", "tz": "", "district": "Flanders"}, {"id": 53, "name": "Herstal", "name_ru": "Herstal", "tz": "", "district": "Wallonia"}, {"id": 54, "name": "Geel", "name_ru": "Geel", "tz": "", "district": "Flanders"}, {"id": 55, "name": "Sint-Truiden", "name_ru": "Sint-Truiden", "tz": "", "district": "Flanders"}, {"id": 56, "name": "Braine-l'Alleud", "name_ru": "Braine-l’Alleud", "tz": "", "district": "Wallonia"}, {"id": 57, "name": "Halle", "name_ru": "Halle", "tz": "", "district": "Flanders"}, {"id": 58, "name": "Ninove", "name_ru": "Ninove", "tz": "", "district": "Flanders"}, {"id": 59, "name": "Waregem", "name_ru": "Waregem", "tz": "", "district": "Flanders"}, {"id": 60, "name": "Brasschaat", "name_ru": "Brasschaat", "tz": "", "district": "Flanders"}, {"id": 61, "name": "Mechelen-aan-de-Maas", "name_ru": "Mechelen-aan-de-Maas", "tz": "", "district": "Flanders"}, {"id": 62, "name": "Grimbergen", "name_ru": "Grimbergen", "tz": "", "district": "Flanders"}, {"id": 63, "name": "Chatelet", "name_ru": "Châtelet", "tz": "", "district": "Wallonia"}, {"id": 64, "name": "Lierre", "name_ru": "Lierre", "tz": "", "district": "Flanders"}, {"id": 65, "name": "Mol", "name_ru": "Mol", "tz": "", "district": "Flanders"}, {"id": 66, "name": "Evergem", "name_ru": "Evergem", "tz": "", "district": "Flanders"}, {"id": 67, "name": "Schoten", "name_ru": "Schoten", "tz": "", "district": "Flanders"}, {"id": 68, "name": "Ieper", "name_ru": "Ieper", "tz": "", "district": "Flanders"}, {"id": 69, "name": "Tienen", "name_ru": "Tienen", "tz": "", "district": "Flanders"}, {"id": 70, "name": "Wavre", "name_ru": "Wavre", "tz": "", "district": "Wallonia"}, {"id": 71, "name": "Sint-Pieters-Leeuw", "name_ru": "Sint-Pieters-Leeuw", "tz": "", "district": "Flanders"}, {"id": 72, "name": "Lommel", "name_ru": "Lommel", "tz": "", "district": "Flanders"}, {"id": 73, "name": "Menen", "name_ru": "Menen", "tz": "", "district": "Flanders"}, {"id": 74, "name": "Binche", "name_ru": "Binche", "tz": "", "district": "Wallonia"}, {"id": 75, "name": "Geraardsbergen", "name_ru": "Geraardsbergen", "tz": "", "district": "Flanders"}, {"id": 76, "name": "Asse", "name_ru": "Asse", "tz": "", "district": "Flanders"}, {"id": 77, "name": "Knokke-Heist", "name_ru": "Knokke-Heist", "tz": "", "district": "Flanders"}, {"id": 78, "name": "Bilzen", "name_ru": "Bilzen", "tz": "", "district": "Flanders"}, {"id": 79, "name": "Louvain-la-Neuve", "name_ru": "Louvain-la-Neuve", "tz": "", "district": "Wallonia"}, {"id": 80, "name": "Wevelgem", "name_ru": "Wevelgem", "tz": "", "district": "Flanders"}, {"id": 81, "name": "Courcelles", "name_ru": "Courcelles", "tz": "", "district": "Wallonia"}, {"id": 82, "name": "Waterloo", "name_ru": "Waterloo", "tz": "", "district": "Wallonia"}, {"id": 83, "name": "Oudenaarde", "name_ru": "Oudenaarde", "tz": "", "district": "Flanders"}, {"id": 84, "name": "Tongeren", "name_ru": "Tongeren", "tz": "", "district": "Flanders"}, {"id": 85, "name": "Deinze", "name_ru": "Deinze", "tz": "", "district": "Flanders"}, {"id": 86, "name": "Aarschot", "name_ru": "Aarschot", "tz": "", "district": "Flanders"}, {"id": 87, "name": "Temse", "name_ru": "Temse", "tz": "", "district": "Flanders"}, {"id": 88, "name": "Arlon", "name_ru": "Arlon", "tz": "", "district": "Wallonia"}, {"id": 89, "name": "Zaventem", "name_ru": "Zaventem", "tz": "", "district": "Flanders"}, {"id": 90, "name": "Ans", "name_ru": "Ans", "tz": "", "district": "Wallonia"}, {"id": 91, "name": "Ath", "name_ru": "Ath", "tz": "", "district": "Wallonia"}, {"id": 92, "name": "Brecht", "name_ru": "Brecht", "tz": "", "district": "Flanders"}, {"id": 93, "name": "Nivelles", "name_ru": "Nivelles", "tz": "", "district": "Wallonia"}, {"id": 94, "name": "Herentals", "name_ru": "Herentals", "tz": "", "district": "Flanders"}, {"id": 95, "name": "Harelbeke", "name_ru": "Harelbeke", "tz": "", "district": "Flanders"}, {"id": 96, "name": "Izegem", "name_ru": "Izegem", "tz": "", "district": "Flanders"}, {"id": 97, "name": "Andenne", "name_ru": "Andenne", "tz": "", "district": "Wallonia"}, {"id": 98, "name": "Soignies", "name_ru": "Soignies", "tz": "", "district": "Wallonia"}, {"id": 99, "name": "Kapellen", "name_ru": "Kapellen", "tz": "", "district": "Flanders"}, {"id": 100, "name": "Willebroek", "name_ru": "Willebroek", "tz": "", "district": "Flanders"}, {"id": 101, "name": "Ronse", "name_ru": "Ronse", "tz": "", "district": "Flanders"}, {"id": 102, "name": "Flemalle-Haute", "name_ru": "Flémalle-Haute", "tz": "", "district": "Wallonia"}, {"id": 103, "name": "Zottegem", "name_ru": "Zottegem", "tz": "", "district": "Flanders"}, {"id": 104, "name": "Tubize", "name_ru": "Tubize", "tz": "", "district": "Wallonia"}, {"id": 105, "name": "Lanaken", "name_ru": "Lanaken", "tz": "", "district": "Flanders"}, {"id": 106, "name": "Gembloux", "name_ru": "Gembloux", "tz": "", "district": "Wallonia"}, {"id": 107, "name": "Wetteren", "name_ru": "Wetteren", "tz": "", "district": "Flanders"}, {"id": 108, "name": "Oupeye", "name_ru": "Oupeye", "tz": "", "district": "Wallonia"}, {"id": 109, "name": "Beersel", "name_ru": "Beersel", "tz": "", "district": "Flanders"}, {"id": 110, "name": "Overijse", "name_ru": "Overijse", "tz": "", "district": "Flanders"}, {"id": 111, "name": "Maaseik", "name_ru": "Maaseik", "tz": "", "district": "Flanders"}, {"id": 112, "name": "Hamme", "name_ru": "Hamme", "tz": "", "district": "Flanders"}, {"id": 113, "name": "Westerlo", "name_ru": "Westerlo", "tz": "", "district": "Flanders"}, {"id": 114, "name": "Merelbeke", "name_ru": "Merelbeke", "tz": "", "district": "Flanders"}, {"id": 115, "name": "Zwevegem", "name_ru": "Zwevegem", "tz": "", "district": "Flanders"}, {"id": 116, "name": "Manage", "name_ru": "Manage", "tz": "", "district": "Wallonia"}, {"id": 117, "name": "Diest", "name_ru": "Diest", "tz": "", "district": "Flanders"}, {"id": 118, "name": "Maldegem", "name_ru": "Maldegem", "tz": "", "district": "Flanders"}, {"id": 119, "name": "Oostkamp", "name_ru": "Oostkamp", "tz": "", "district": "Flanders"}, {"id": 120, "name": "Zemst", "name_ru": "Zemst", "tz": "", "district": "Flanders"}, {"id": 121, "name": "Saint-Ghislain", "name_ru": "Saint-Ghislain", "tz": "", "district": "Wallonia"}, {"id": 122, "name": "Scherpenheuvel", "name_ru": "Scherpenheuvel", "tz": "", "district": "Flanders"}, {"id": 123, "name": "Nijlen", "name_ru": "Nijlen", "tz": "", "district": "Flanders"}, {"id": 124, "name": "Fleurus", "name_ru": "Fleurus", "tz": "", "district": "Wallonia"}, {"id": 125, "name": "Zedelgem", "name_ru": "Zedelgem", "tz": "", "district": "Flanders"}, {"id": 126, "name": "Tervuren", "name_ru": "Tervuren", "tz": "", "district": "Flanders"}, {"id": 127, "name": "Rixensart", "name_ru": "Rixensart", "tz": "", "district": "Wallonia"}, {"id": 128, "name": "Balen", "name_ru": "Balen", "tz": "", "district": "Flanders"}, {"id": 129, "name": "Frameries", "name_ru": "Frameries", "tz": "", "district": "Wallonia"}, {"id": 130, "name": "Lochristi", "name_ru": "Lochristi", "tz": "", "district": "Flanders"}, {"id": 131, "name": "Koksijde", "name_ru": "Koksijde", "tz": "", "district": "Flanders"}, {"id": 132, "name": "Zoersel", "name_ru": "Zoersel", "tz": "", "district": "Flanders"}, {"id": 133, "name": "Herent", "name_ru": "Herent", "tz": "", "district": "Flanders"}, {"id": 134, "name": "Colfontaine", "name_ru": "Colfontaine", "tz": "", "district": "Wallonia"}, {"id": 135, "name": "Kontich", "name_ru": "Kontich", "tz": "", "district": "Flanders"}, {"id": 136, "name": "Braine-le-Comte", "name_ru": "Braine-le-Comte", "tz": "", "district": "Wallonia"}, {"id": 137, "name": "Chaudfontaine", "name_ru": "Chaudfontaine", "tz": "", "district": "Wallonia"}, {"id": 138, "name": "Zonhoven", "name_ru": "Zonhoven", "tz": "", "district": "Flanders"}, {"id": 139, "name": "Huy", "name_ru": "Huy", "tz": "", "district": "Wallonia"}, {"id": 140, "name": "Bornem", "name_ru": "Bornem", "tz": "", "district": "Flanders"}, {"id": 141, "name": "Hoogstraten", "name_ru": "Hoogstraten", "tz": "", "district": "Flanders"}, {"id": 142, "name": "Zele", "name_ru": "Zele", "tz": "", "district": "Flanders"}, {"id": 143, "name": "Eeklo", "name_ru": "Eeklo", "tz": "", "district": "Flanders"}, {"id": 144, "name": "Denderleeuw", "name_ru": "Denderleeuw", "tz": "", "district": "Flanders"}, {"id": 145, "name": "Blankenberge", "name_ru": "Blankenberge", "tz": "", "district": "Flanders"}, {"id": 146, "name": "Sint-Katelijne-Waver", "name_ru": "Sint-Katelijne-Waver", "tz": "", "district": "Flanders"}, {"id": 147, "name": "Torhout", "name_ru": "Torhout", "tz": "", "district": "Flanders"}, {"id": 148, "name": "Wuustwezel", "name_ru": "Wuustwezel", "tz": "", "district": "Flanders"}, {"id": 149, "name": "Boussu", "name_ru": "Boussu", "tz": "", "district": "Wallonia"}, {"id": 150, "name": "Kortenberg", "name_ru": "Kortenberg", "tz": "", "district": "Flanders"}, {"id": 151, "name": "Quaregnon", "name_ru": "Quaregnon", "tz": "", "district": "Wallonia"}, {"id": 152, "name": "Tielt", "name_ru": "Tielt", "tz": "", "district": "Flanders"}, {"id": 153, "name": "Schilde", "name_ru": "Schilde", "tz": "", "district": "Flanders"}, {"id": 154, "name": "Zwijndrecht", "name_ru": "Zwijndrecht", "tz": "", "district": "Flanders"}, {"id": 155, "name": "Morlanwelz-Mariemont", "name_ru": "Morlanwelz-Mariemont", "tz": "", "district": "Wallonia"}, {"id": 156, "name": "Lebbeke", "name_ru": "Lebbeke", "tz": "", "district": "Flanders"}, {"id": 157, "name": "Poperinge", "name_ru": "Poperinge", "tz": "", "district": "Flanders"}, {"id": 158, "name": "Meise", "name_ru": "Meise", "tz": "", "district": "Flanders"}, {"id": 159, "name": "Eupen", "name_ru": "Eupen", "tz": "", "district": "Wallonia"}, {"id": 160, "name": "Middelkerke", "name_ru": "Middelkerke", "tz": "", "district": "Flanders"}, {"id": 161, "name": "Sint-Gillis-Waas", "name_ru": "Sint-Gillis-Waas", "tz": "", "district": "Flanders"}, {"id": 162, "name": "Diepenbeek", "name_ru": "Diepenbeek", "tz": "", "district": "Flanders"}, {"id": 163, "name": "Essen", "name_ru": "Essen", "tz": "", "district": "Flanders"}, {"id": 164, "name": "Stabroek", "name_ru": "Stabroek", "tz": "", "district": "Flanders"}, {"id": 165, "name": "Lede", "name_ru": "Lede", "tz": "", "district": "Flanders"}, {"id": 166, "name": "Bredene", "name_ru": "Bredene", "tz": "", "district": "Flanders"}, {"id": 167, "name": "Kasterlee", "name_ru": "Kasterlee", "tz": "", "district": "Flanders"}, {"id": 168, "name": "Londerzeel", "name_ru": "Londerzeel", "tz": "", "district": "Flanders"}, {"id": 169, "name": "Sint-Genesius-Rode", "name_ru": "Sint-Genesius-Rode", "tz": "", "district": "Flanders"}, {"id": 170, "name": "Wervik", "name_ru": "Wervik", "tz": "", "district": "Flanders"}, {"id": 171, "name": "Haaltert", "name_ru": "Haaltert", "tz": "", "district": "Flanders"}, {"id": 172, "name": "Ranst", "name_ru": "Ranst", "tz": "", "district": "Flanders"}, {"id": 173, "name": "Kalmthout", "name_ru": "Kalmthout", "tz": "", "district": "Flanders"}, {"id": 174, "name": "Tessenderlo", "name_ru": "Tessenderlo", "tz": "", "district": "Flanders"}, {"id": 175, "name": "Lessines", "name_ru": "Lessines", "tz": "", "district": "Wallonia"}, {"id": 176, "name": "Stekene", "name_ru": "Stekene", "tz": "", "district": "Flanders"}, {"id": 177, "name": "Destelbergen", "name_ru": "Destelbergen", "tz": "", "district": "Flanders"}, {"id": 178, "name": "Walcourt", "name_ru": "Walcourt", "tz": "", "district": "Wallonia"}, {"id": 179, "name": "Fontaine-l'Eveque", "name_ru": "Fontaine-l’Évêque", "tz": "", "district": "Wallonia"}, {"id": 180, "name": "Beerse", "name_ru": "Beerse", "tz": "", "district": "Flanders"}, {"id": 181, "name": "Vise", "name_ru": "Visé", "tz": "", "district": "Wallonia"}, {"id": 182, "name": "Wemmel", "name_ru": "Wemmel", "tz": "", "district": "Flanders"}, {"id": 183, "name": "Duffel", "name_ru": "Duffel", "tz": "", "district": "Flanders"}, {"id": 184, "name": "Herzele", "name_ru": "Herzele", "tz": "", "district": "Flanders"}, {"id": 185, "name": "Putte", "name_ru": "Putte", "tz": "", "district": "Flanders"}, {"id": 186, "name": "Puurs", "name_ru": "Puurs", "tz": "", "district": "Flanders"}, {"id": 187, "name": "Herve", "name_ru": "Herve", "tz": "", "district": "Wallonia"}, {"id": 188, "name": "Fleron", "name_ru": "Fléron", "tz": "", "district": "Wallonia"}, {"id": 189, "name": "Marche-en-Famenne", "name_ru": "Marche-en-Famenne", "tz": "", "district": "Wallonia"}, {"id": 190, "name": "Pont-a-Celles", "name_ru": "Pont-à-Celles", "tz": "", "district": "Wallonia"}, {"id": 191, "name": "Neerpelt", "name_ru": "Neerpelt", "tz": "", "district": "Flanders"}, {"id": 192, "name": "Soumagne", "name_ru": "Soumagne", "tz": "", "district": "Wallonia"}, {"id": 193, "name": "Peruwelz", "name_ru": "Péruwelz", "tz": "", "district": "Wallonia"}, {"id": 194, "name": "Aubange", "name_ru": "Aubange", "tz": "", "district": "Wallonia"}, {"id": 195, "name": "Dour", "name_ru": "Dour", "tz": "", "district": "Wallonia"}, {"id": 196, "name": "Kruibeke", "name_ru": "Kruibeke", "tz": "", "district": "Flanders"}, {"id": 197, "name": "Rotselaar", "name_ru": "Rotselaar", "tz": "", "district": "Flanders"}, {"id": 198, "name": "Sint-Kruis", "name_ru": "Sint-Kruis", "tz": "", "district": "Flanders"}, {"id": 199, "name": "Riemst", "name_ru": "Riemst", "tz": "", "district": "Flanders"}, {"id": 200, "name": "Diksmuide", "name_ru": "Diksmuide", "tz": "", "district": "Flanders"}, {"id": 201, "name": "Lille", "name_ru": "Lille", "tz": "", "district": "Flanders"}, {"id": 202, "name": "Machelen", "name_ru": "Machelen", "tz": "", "district": "Flanders"}, {"id": 203, "name": "Merchtem", "name_ru": "Merchtem", "tz": "", "district": "Flanders"}, {"id": 204, "name": "Hannut", "name_ru": "Hannut", "tz": "", "district": "Wallonia"}, {"id": 205, "name": "Peer", "name_ru": "Peer", "tz": "", "district": "Flanders"}, {"id": 206, "name": "Ciney", "name_ru": "Ciney", "tz": "", "district": "Wallonia"}, {"id": 207, "name": "Dison", "name_ru": "Dison", "tz": "", "district": "Wallonia"}, {"id": 208, "name": "Eghezee", "name_ru": "Éghezée", "tz": "", "district": "Wallonia"}, {"id": 209, "name": "Leopoldsburg", "name_ru": "Leopoldsburg", "tz": "", "district": "Flanders"}, {"id": 210, "name": "Landen", "name_ru": "Landen", "tz": "", "district": "Flanders"}, {"id": 211, "name": "Bree", "name_ru": "Bree", "tz": "", "district": "Flanders"}, {"id": 212, "name": "Zulte", "name_ru": "Zulte", "tz": "", "district": "Flanders"}, {"id": 213, "name": "Ternat", "name_ru": "Ternat", "tz": "", "district": "Flanders"}, {"id": 214, "name": "Bastogne", "name_ru": "Bastogne", "tz": "", "district": "Wallonia"}, {"id": 215, "name": "Beernem", "name_ru": "Beernem", "tz": "", "district": "Flanders"}, {"id": 216, "name": "Rumst", "name_ru": "Rumst", "tz": "", "district": "Flanders"}, {"id": 217, "name": "Overpelt", "name_ru": "Overpelt", "tz": "", "district": "Flanders"}, {"id": 218, "name": "Chapelle-lez-Herlaimont", "name_ru": "Chapelle-lez-Herlaimont", "tz": "", "district": "Wallonia"}, {"id": 219, "name": "Waremme", "name_ru": "Waremme", "tz": "", "district": "Wallonia"}, {"id": 220, "name": "Aartselaar", "name_ru": "Aartselaar", "tz": "", "district": "Flanders"}, {"id": 221, "name": "Tremelo", "name_ru": "Tremelo", "tz": "", "district": "Flanders"}, {"id": 222, "name": "Genappe", "name_ru": "Genappe", "tz": "", "district": "Wallonia"}, {"id": 223, "name": "Bonheiden", "name_ru": "Bonheiden", "tz": "", "district": "Flanders"}, {"id": 224, "name": "Berlare", "name_ru": "Berlare", "tz": "", "district": "Flanders"}, {"id": 225, "name": "Opwijk", "name_ru": "Opwijk", "tz": "", "district": "Flanders"}, {"id": 226, "name": "Buggenhout", "name_ru": "Buggenhout", "tz": "", "district": "Flanders"}, {"id": 227, "name": "Lummen", "name_ru": "Lummen", "tz": "", "district": "Flanders"}, {"id": 228, "name": "Ravels", "name_ru": "Ravels", "tz": "", "district": "Flanders"}, {"id": 229, "name": "Anzegem", "name_ru": "Anzegem", "tz": "", "district": "Flanders"}, {"id": 230, "name": "Thuin", "name_ru": "Thuin", "tz": "", "district": "Wallonia"}, {"id": 231, "name": "Sprimont", "name_ru": "Sprimont", "tz": "", "district": "Wallonia"}, {"id": 232, "name": "Amay", "name_ru": "Amay", "tz": "", "district": "Wallonia"}, {"id": 233, "name": "Herselt", "name_ru": "Herselt", "tz": "", "district": "Flanders"}, {"id": 234, "name": "Haacht", "name_ru": "Haacht", "tz": "", "district": "Flanders"}, {"id": 235, "name": "Lubbeek", "name_ru": "Lubbeek", "tz": "", "district": "Flanders"}, {"id": 236, "name": "Kuurne", "name_ru": "Kuurne", "tz": "", "district": "Flanders"}, {"id": 237, "name": "Liedekerke", "name_ru": "Liedekerke", "tz": "", "district": "Flanders"}, {"id": 238, "name": "Wingene", "name_ru": "Wingene", "tz": "", "district": "Flanders"}, {"id": 239, "name": "Assenede", "name_ru": "Assenede", "tz": "", "district": "Flanders"}, {"id": 240, "name": "Jodoigne", "name_ru": "Jodoigne", "tz": "", "district": "Wallonia"}, {"id": 241, "name": "Beloeil", "name_ru": "Beloeil", "tz": "", "district": "Wallonia"}, {"id": 242, "name": "Ichtegem", "name_ru": "Ichtegem", "tz": "", "district": "Flanders"}, {"id": 243, "name": "Jabbeke", "name_ru": "Jabbeke", "tz": "", "district": "Flanders"}, {"id": 244, "name": "Enghien", "name_ru": "Enghien", "tz": "", "district": "Wallonia"}, {"id": 245, "name": "Wanze", "name_ru": "Wanze", "tz": "", "district": "Wallonia"}, {"id": 246, "name": "Wommelgem", "name_ru": "Wommelgem", "tz": "", "district": "Flanders"}, {"id": 247, "name": "Oud-Turnhout", "name_ru": "Oud-Turnhout", "tz": "", "district": "Flanders"}, {"id": 248, "name": "Oosterzele", "name_ru": "Oosterzele", "tz": "", "district": "Flanders"}, {"id": 249, "name": "Couvin", "name_ru": "Couvin", "tz": "", "district": "Wallonia"}, {"id": 250, "name": "Boechout", "name_ru": "Boechout", "tz": "", "district": "Flanders"}, {"id": 251, "name": "Blegny", "name_ru": "Blegny", "tz": "", "district": "Wallonia"}, {"id": 252, "name": "Dinant", "name_ru": "Dinant", "tz": "", "district": "Wallonia"}, {"id": 253, "name": "Beyne-Heusay", "name_ru": "Beyne-Heusay", "tz": "", "district": "Wallonia"}, {"id": 254, "name": "Zelzate", "name_ru": "Zelzate", "tz": "", "district": "Flanders"}, {"id": 255, "name": "Grez-Doiceau", "name_ru": "Grez-Doiceau", "tz": "", "district": "Wallonia"}, {"id": 256, "name": "Arendonk", "name_ru": "Arendonk", "tz": "", "district": "Flanders"}, {"id": 257, "name": "Keerbergen", "name_ru": "Keerbergen", "tz": "", "district": "Flanders"}, {"id": 258, "name": "Zandhoven", "name_ru": "Zandhoven", "tz": "", "district": "Flanders"}, {"id": 259, "name": "Bocholt", "name_ru": "Bocholt", "tz": "", "district": "Flanders"}, {"id": 260, "name": "Esneux", "name_ru": "Esneux", "tz": "", "district": "Wallonia"}, {"id": 261, "name": "Gavere", "name_ru": "Gavere", "tz": "", "district": "Flanders"}, {"id": 262, "name": "Mettet", "name_ru": "Mettet", "tz": "", "district": "Wallonia"}, {"id": 263, "name": "Boortmeerbeek", "name_ru": "Boortmeerbeek", "tz": "", "district": "Flanders"}, {"id": 264, "name": "Anderlues", "name_ru": "Anderlues", "tz": "", "district": "Wallonia"}, {"id": 265, "name": "Herk-de-Stad", "name_ru": "Herk-de-Stad", "tz": "", "district": "Flanders"}, {"id": 266, "name": "De Haan", "name_ru": "De Haan", "tz": "", "district": "Flanders"}, {"id": 267, "name": "Gerpinnes", "name_ru": "Gerpinnes", "tz": "", "district": "Wallonia"}, {"id": 268, "name": "Olen", "name_ru": "Olen", "tz": "", "district": "Flanders"}, {"id": 269, "name": "Laarne", "name_ru": "Laarne", "tz": "", "district": "Flanders"}, {"id": 270, "name": "Kortemark", "name_ru": "Kortemark", "tz": "", "district": "Flanders"}, {"id": 271, "name": "Malmedy", "name_ru": "Malmédy", "tz": "", "district": "Wallonia"}, {"id": 272, "name": "Rochefort", "name_ru": "Rochefort", "tz": "", "district": "Wallonia"}, {"id": 273, "name": "Zonnebeke", "name_ru": "Zonnebeke", "tz": "", "district": "Flanders"}, {"id": 274, "name": "Steenokkerzeel", "name_ru": "Steenokkerzeel", "tz": "", "district": "Flanders"}, {"id": 275, "name": "Aywaille", "name_ru": "Aywaille", "tz": "", "district": "Wallonia"}, {"id": 276, "name": "Deerlijk", "name_ru": "Deerlijk", "tz": "", "district": "Flanders"}, {"id": 277, "name": "Kinrooi", "name_ru": "Kinrooi", "tz": "", "district": "Flanders"}, {"id": 278, "name": "Profondeville", "name_ru": "Profondeville", "tz": "", "district": "Wallonia"}, {"id": 279, "name": "Nevele", "name_ru": "Nevele", "tz": "", "district": "Flanders"}, {"id": 280, "name": "Niel", "name_ru": "Niel", "tz": "", "district": "Flanders"}, {"id": 281, "name": "Gistel", "name_ru": "Gistel", "tz": "", "district": "Flanders"}, {"id": 282, "name": "Melle", "name_ru": "Melle", "tz": "", "district": "Flanders"}, {"id": 283, "name": "Farciennes", "name_ru": "Farciennes", "tz": "", "district": "Wallonia"}, {"id": 284, "name": "Kampenhout", "name_ru": "Kampenhout", "tz": "", "district": "Flanders"}, {"id": 285, "name": "Rijkevorsel", "name_ru": "Rijkevorsel", "tz": "", "district": "Flanders"}, {"id": 286, "name": "Theux", "name_ru": "Theux", "tz": "", "district": "Wallonia"}, {"id": 287, "name": "Bernissart", "name_ru": "Bernissart", "tz": "", "district": "Wallonia"}, {"id": 288, "name": "Vosselaar", "name_ru": "Vosselaar", "tz": "", "district": "Flanders"}, {"id": 289, "name": "Wichelen", "name_ru": "Wichelen", "tz": "", "district": "Flanders"}, {"id": 290, "name": "Alken", "name_ru": "Alken", "tz": "", "district": "Flanders"}, {"id": 291, "name": "Berlaar", "name_ru": "Berlaar", "tz": "", "district": "Flanders"}, {"id": 292, "name": "Chaumont-Gistoux", "name_ru": "Chaumont-Gistoux", "tz": "", "district": "Wallonia"}, {"id": 293, "name": "Nieuwpoort", "name_ru": "Nieuwpoort", "tz": "", "district": "Flanders"}, {"id": 294, "name": "Veurne", "name_ru": "Veurne", "tz": "", "district": "Flanders"}, {"id": 295, "name": "Hoeilaart", "name_ru": "Hoeilaart", "tz": "", "district": "Flanders"}, {"id": 296, "name": "La Calamine", "name_ru": "La Calamine", "tz": "", "district": "Wallonia"}, {"id": 297, "name": "Staden", "name_ru": "Staden", "tz": "", "district": "Flanders"}, {"id": 298, "name": "Ingelmunster", "name_ru": "Ingelmunster", "tz": "", "district": "Flanders"}, {"id": 299, "name": "De Panne", "name_ru": "De Panne", "tz": "", "district": "Flanders"}, {"id": 300, "name": "Grobbendonk", "name_ru": "Grobbendonk", "tz": "", "district": "Flanders"}, {"id": 301, "name": "Florennes", "name_ru": "Florennes", "tz": "", "district": "Wallonia"}, {"id": 302, "name": "Retie", "name_ru": "Retie", "tz": "", "district": "Flanders"}, {"id": 303, "name": "Oud-Heverlee", "name_ru": "Oud-Heverlee", "tz": "", "district": "Flanders"}, {"id": 304, "name": "Ecaussinnes-Lalaing", "name_ru": "Écaussinnes-Lalaing", "tz": "", "district": "Wallonia"}, {"id": 305, "name": "Seneffe", "name_ru": "Seneffe", "tz": "", "district": "Wallonia"}, {"id": 306, "name": "Durbuy", "name_ru": "Durbuy", "tz": "", "district": "Wallonia"}, {"id": 307, "name": "Virton", "name_ru": "Virton", "tz": "", "district": "Wallonia"}, {"id": 308, "name": "Moorslede", "name_ru": "Moorslede", "tz": "", "district": "Flanders"}, {"id": 309, "name": "Meulebeke", "name_ru": "Meulebeke", "tz": "", "district": "Flanders"}, {"id": 310, "name": "Damme", "name_ru": "Damme", "tz": "", "district": "Flanders"}, {"id": 311, "name": "De Pinte", "name_ru": "De Pinte", "tz": "", "district": "Flanders"}, {"id": 312, "name": "Waasmunster", "name_ru": "Waasmunster", "tz": "", "district": "Flanders"}, {"id": 313, "name": "Hulshout", "name_ru": "Hulshout", "tz": "", "district": "Flanders"}, {"id": 314, "name": "Wijnegem", "name_ru": "Wijnegem", "tz": "", "district": "Flanders"}, {"id": 315, "name": "Villers-la-Ville", "name_ru": "Villers-la-Ville", "tz": "", "district": "Wallonia"}, {"id": 316, "name": "Braine-le-Chateau", "name_ru": "Braine-le-Château", "tz": "", "district": "Wallonia"}, {"id": 317, "name": "Borgloon", "name_ru": "Borgloon", "tz": "", "district": "Flanders"}, {"id": 318, "name": "Court-Saint-Etienne", "name_ru": "Court-Saint-Étienne", "tz": "", "district": "Wallonia"}, {"id": 319, "name": "Raeren", "name_ru": "Raeren", "tz": "", "district": "Wallonia"}, {"id": 320, "name": "Montignies-le-Tilleul", "name_ru": "Montignies-le-Tilleul", "tz": "", "district": "Wallonia"}, {"id": 321, "name": "Estaimpuis", "name_ru": "Estaimpuis", "tz": "", "district": "Wallonia"}, {"id": 322, "name": "Opglabbeek", "name_ru": "Opglabbeek", "tz": "", "district": "Flanders"}, {"id": 323, "name": "Sint-Lievens-Houtem", "name_ru": "Sint-Lievens-Houtem", "tz": "", "district": "Flanders"}, {"id": 324, "name": "Spa", "name_ru": "Spa", "tz": "", "district": "Wallonia"}, {"id": 325, "name": "Begijnendijk", "name_ru": "Begijnendijk", "tz": "", "district": "Flanders"}, {"id": 326, "name": "Meerhout", "name_ru": "Meerhout", "tz": "", "district": "Flanders"}, {"id": 327, "name": "Jurbise", "name_ru": "Jurbise", "tz": "", "district": "Wallonia"}, {"id": 328, "name": "Plombieres", "name_ru": "Plombières", "tz": "", "district": "Wallonia"}, {"id": 329, "name": "Avelgem", "name_ru": "Avelgem", "tz": "", "district": "Flanders"}, {"id": 330, "name": "Welkenraedt", "name_ru": "Welkenraedt", "tz": "", "district": "Wallonia"}, {"id": 331, "name": "Bertem", "name_ru": "Bertem", "tz": "", "district": "Flanders"}, {"id": 332, "name": "Bierbeek", "name_ru": "Bierbeek", "tz": "", "district": "Flanders"}, {"id": 333, "name": "Hooglede", "name_ru": "Hooglede", "tz": "", "district": "Flanders"}, {"id": 334, "name": "Houthulst", "name_ru": "Houthulst", "tz": "", "district": "Flanders"}, {"id": 335, "name": "Lint", "name_ru": "Lint", "tz": "", "district": "Flanders"}, {"id": 336, "name": "Erquelinnes", "name_ru": "Erquelinnes", "tz": "", "district": "Wallonia"}, {"id": 337, "name": "Holsbeek", "name_ru": "Holsbeek", "tz": "", "district": "Flanders"}, {"id": 338, "name": "Pepinster", "name_ru": "Pepinster", "tz": "", "district": "Wallonia"}, {"id": 339, "name": "Huldenberg", "name_ru": "Huldenberg", "tz": "", "district": "Flanders"}, {"id": 340, "name": "Ledegem", "name_ru": "Ledegem", "tz": "", "district": "Flanders"}, {"id": 341, "name": "Lovendegem", "name_ru": "Lovendegem", "tz": "", "district": "Flanders"}, {"id": 342, "name": "Wielsbeke", "name_ru": "Wielsbeke", "tz": "", "district": "Flanders"}, {"id": 343, "name": "Kapelle-op-den-Bos", "name_ru": "Kapelle-op-den-Bos", "tz": "", "district": "Flanders"}, {"id": 344, "name": "Hoeselt", "name_ru": "Hoeselt", "tz": "", "district": "Flanders"}, {"id": 345, "name": "Dessel", "name_ru": "Dessel", "tz": "", "district": "Flanders"}, {"id": 346, "name": "Chimay", "name_ru": "Chimay", "tz": "", "district": "Wallonia"}, {"id": 347, "name": "Saint-Vith", "name_ru": "Saint-Vith", "tz": "", "district": "Wallonia"}, {"id": 348, "name": "Halen", "name_ru": "Halen", "tz": "", "district": "Flanders"}, {"id": 349, "name": "Awans", "name_ru": "Awans", "tz": "", "district": "Wallonia"}, {"id": 350, "name": "Oudenburg", "name_ru": "Oudenburg", "tz": "", "district": "Flanders"}, {"id": 351, "name": "Juprelle", "name_ru": "Juprelle", "tz": "", "district": "Wallonia"}, {"id": 352, "name": "Schelle", "name_ru": "Schelle", "tz": "", "district": "Flanders"}, {"id": 353, "name": "Perwez", "name_ru": "Perwez", "tz": "", "district": "Wallonia"}, {"id": 354, "name": "Gooik", "name_ru": "Gooik", "tz": "", "district": "Flanders"}, {"id": 355, "name": "Hove", "name_ru": "Hove", "tz": "", "district": "Flanders"}, {"id": 356, "name": "La Bruyere", "name_ru": "La Bruyère", "tz": "", "district": "Wallonia"}, {"id": 357, "name": "Herenthout", "name_ru": "Herenthout", "tz": "", "district": "Flanders"}, {"id": 358, "name": "Yvoir", "name_ru": "Yvoir", "tz": "", "district": "Wallonia"}, {"id": 359, "name": "Sint-Martens-Lennik", "name_ru": "Sint-Martens-Lennik", "tz": "", "district": "Flanders"}, {"id": 360, "name": "Philippeville", "name_ru": "Philippeville", "tz": "", "district": "Wallonia"}, {"id": 361, "name": "Ardooie", "name_ru": "Ardooie", "tz": "", "district": "Flanders"}, {"id": 362, "name": "Bassenge", "name_ru": "Bassenge", "tz": "", "district": "Wallonia"}, {"id": 363, "name": "Beauraing", "name_ru": "Beauraing", "tz": "", "district": "Wallonia"}, {"id": 364, "name": "Lichtervelde", "name_ru": "Lichtervelde", "tz": "", "district": "Flanders"}, {"id": 365, "name": "Sint-Martens-Latem", "name_ru": "Sint-Martens-Latem", "tz": "", "district": "Flanders"}, {"id": 366, "name": "Sint-Amands", "name_ru": "Sint-Amands", "tz": "", "district": "Flanders"}, {"id": 367, "name": "Koekelare", "name_ru": "Koekelare", "tz": "", "district": "Flanders"}, {"id": 368, "name": "Galmaarden", "name_ru": "Galmaarden", "tz": "", "district": "Flanders"}, {"id": 369, "name": "Bertrix", "name_ru": "Bertrix", "tz": "", "district": "Wallonia"}, {"id": 370, "name": "Dentergem", "name_ru": "Dentergem", "tz": "", "district": "Flanders"}, {"id": 371, "name": "Merksplas", "name_ru": "Merksplas", "tz": "", "district": "Flanders"}, {"id": 372, "name": "Kortessem", "name_ru": "Kortessem", "tz": "", "district": "Flanders"}, {"id": 373, "name": "Zomergem", "name_ru": "Zomergem", "tz": "", "district": "Flanders"}, {"id": 374, "name": "Zoutleeuw", "name_ru": "Zoutleeuw", "tz": "", "district": "Flanders"}, {"id": 375, "name": "Jalhay", "name_ru": "Jalhay", "tz": "", "district": "Wallonia"}, {"id": 376, "name": "Sombreffe", "name_ru": "Sombreffe", "tz": "", "district": "Wallonia"}, {"id": 377, "name": "As", "name_ru": "As", "tz": "", "district": "Flanders"}, {"id": 378, "name": "Gingelom", "name_ru": "Gingelom", "tz": "", "district": "Flanders"}, {"id": 379, "name": "Silly", "name_ru": "Silly", "tz": "", "district": "Wallonia"}, {"id": 380, "name": "Trooz", "name_ru": "Trooz", "tz": "", "district": "Wallonia"}, {"id": 381, "name": "Habay-la-Vieille", "name_ru": "Habay-la-Vieille", "tz": "", "district": "Wallonia"}, {"id": 382, "name": "Boutersem", "name_ru": "Boutersem", "tz": "", "district": "Flanders"}, {"id": 383, "name": "Messancy", "name_ru": "Messancy", "tz": "", "district": "Wallonia"}, {"id": 384, "name": "Waarschoot", "name_ru": "Waarschoot", "tz": "", "district": "Flanders"}, {"id": 385, "name": "Floreffe", "name_ru": "Floreffe", "tz": "", "district": "Wallonia"}, {"id": 386, "name": "Oostrozebeke", "name_ru": "Oostrozebeke", "tz": "", "district": "Flanders"}, {"id": 387, "name": "Kruishoutem", "name_ru": "Kruishoutem", "tz": "", "district": "Flanders"}, {"id": 388, "name": "Vorselaar", "name_ru": "Vorselaar", "tz": "", "district": "Flanders"}, {"id": 389, "name": "Kortenaken", "name_ru": "Kortenaken", "tz": "", "district": "Flanders"}, {"id": 390, "name": "Antoing", "name_ru": "Antoing", "tz": "", "district": "Wallonia"}, {"id": 391, "name": "Mont-Saint-Guibert", "name_ru": "Mont-Saint-Guibert", "tz": "", "district": "Wallonia"}, {"id": 392, "name": "Wachtebeke", "name_ru": "Wachtebeke", "tz": "", "district": "Flanders"}, {"id": 393, "name": "Vielsalm", "name_ru": "Vielsalm", "tz": "", "district": "Wallonia"}, {"id": 394, "name": "Zingem", "name_ru": "Zingem", "tz": "", "district": "Flanders"}, {"id": 395, "name": "Chastre-Villeroux-Blanmont", "name_ru": "Chastre-Villeroux-Blanmont", "tz": "", "district": "Wallonia"}, {"id": 396, "name": "Ruisbroek", "name_ru": "Ruisbroek", "tz": "", "district": "Flanders"}, {"id": 397, "name": "Neufchateau", "name_ru": "Neufchâteau", "tz": "", "district": "Wallonia"}, {"id": 398, "name": "Wellen", "name_ru": "Wellen", "tz": "", "district": "Flanders"}, {"id": 399, "name": "Dalhem", "name_ru": "Dalhem", "tz": "", "district": "Wallonia"}, {"id": 400, "name": "La Hulpe", "name_ru": "La Hulpe", "tz": "", "district": "Wallonia"}, {"id": 401, "name": "Waimes", "name_ru": "Waimes", "tz": "", "district": "Wallonia"}, {"id": 402, "name": "Zutendaal", "name_ru": "Zutendaal", "tz": "", "district": "Flanders"}, {"id": 403, "name": "Hamois", "name_ru": "Hamois", "tz": "", "district": "Wallonia"}, {"id": 404, "name": "Heers", "name_ru": "Heers", "tz": "", "district": "Flanders"}, {"id": 405, "name": "Beauvechain", "name_ru": "Beauvechain", "tz": "", "district": "Wallonia"}, {"id": 406, "name": "Walhain-Saint-Paul", "name_ru": "Walhain-Saint-Paul", "tz": "", "district": "Wallonia"}, {"id": 407, "name": "Gesves", "name_ru": "Gesves", "tz": "", "district": "Wallonia"}, {"id": 408, "name": "Nieuwerkerken", "name_ru": "Nieuwerkerken", "tz": "", "district": "Flanders"}, {"id": 409, "name": "Stavelot", "name_ru": "Stavelot", "tz": "", "district": "Wallonia"}, {"id": 410, "name": "Anhee", "name_ru": "Anhée", "tz": "", "district": "Wallonia"}, {"id": 411, "name": "Beaumont", "name_ru": "Beaumont", "tz": "", "district": "Wallonia"}, {"id": 412, "name": "Hoegaarden", "name_ru": "Hoegaarden", "tz": "", "district": "Flanders"}, {"id": 413, "name": "Saint-Georges", "name_ru": "Saint-Georges", "tz": "", "district": "Wallonia"}, {"id": 414, "name": "Hensies", "name_ru": "Hensies", "tz": "", "district": "Wallonia"}, {"id": 415, "name": "Quievrain", "name_ru": "Quiévrain", "tz": "", "district": "Wallonia"}, {"id": 416, "name": "Ittre", "name_ru": "Ittre", "tz": "", "district": "Wallonia"}, {"id": 417, "name": "Assesse", "name_ru": "Assesse", "tz": "", "district": "Wallonia"}, {"id": 418, "name": "Chievres", "name_ru": "Chièvres", "tz": "", "district": "Wallonia"}, {"id": 419, "name": "Pittem", "name_ru": "Pittem", "tz": "", "district": "Flanders"}, {"id": 420, "name": "Herne", "name_ru": "Herne", "tz": "", "district": "Flanders"}, {"id": 421, "name": "Sint-Laureins", "name_ru": "Sint-Laureins", "tz": "", "district": "Flanders"}, {"id": 422, "name": "Villers-le-Bouillet", "name_ru": "Villers-le-Bouillet", "tz": "", "district": "Wallonia"}, {"id": 423, "name": "Kaprijke", "name_ru": "Kaprijke", "tz": "", "district": "Flanders"}, {"id": 424, "name": "Ramillies-Offus", "name_ru": "Ramillies-Offus", "tz": "", "district": "Wallonia"}, {"id": 425, "name": "Moerbeke", "name_ru": "Moerbeke", "tz": "", "district": "Flanders"}, {"id": 426, "name": "Braives", "name_ru": "Braives", "tz": "", "district": "Wallonia"}, {"id": 427, "name": "Bekkevoort", "name_ru": "Bekkevoort", "tz": "", "district": "Flanders"}, {"id": 428, "name": "Engis", "name_ru": "Engis", "tz": "", "district": "Wallonia"}, {"id": 429, "name": "Geetbets", "name_ru": "Geetbets", "tz": "", "district": "Flanders"}, {"id": 430, "name": "Lendelede", "name_ru": "Lendelede", "tz": "", "district": "Flanders"}, {"id": 431, "name": "Remicourt", "name_ru": "Remicourt", "tz": "", "district": "Wallonia"}, {"id": 432, "name": "Ellezelles", "name_ru": "Ellezelles", "tz": "", "district": "Wallonia"}, {"id": 433, "name": "Hastiere-par-dela", "name_ru": "Hastière-par-delà", "tz": "", "district": "Wallonia"}, {"id": 434, "name": "Lobbes", "name_ru": "Lobbes", "tz": "", "district": "Wallonia"}, {"id": 435, "name": "Beveren", "name_ru": "Beveren", "tz": "", "district": "Flanders"}, {"id": 436, "name": "Nandrin", "name_ru": "Nandrin", "tz": "", "district": "Wallonia"}, {"id": 437, "name": "Desselgem", "name_ru": "Desselgem", "tz": "", "district": "Flanders"}, {"id": 438, "name": "Etalle", "name_ru": "Étalle", "tz": "", "district": "Wallonia"}, {"id": 439, "name": "Lontzen", "name_ru": "Lontzen", "tz": "", "district": "Wallonia"}, {"id": 440, "name": "Pecq", "name_ru": "Pecq", "tz": "", "district": "Wallonia"}, {"id": 441, "name": "Celles", "name_ru": "Celles", "tz": "", "district": "Wallonia"}, {"id": 442, "name": "Florenville", "name_ru": "Florenville", "tz": "", "district": "Wallonia"}, {"id": 443, "name": "Butgenbach", "name_ru": "Butgenbach", "tz": "", "district": "Wallonia"}, {"id": 444, "name": "Somme-Leuze", "name_ru": "Somme-Leuze", "tz": "", "district": "Wallonia"}, {"id": 445, "name": "Marchin", "name_ru": "Marchin", "tz": "", "district": "Wallonia"}, {"id": 446, "name": "Hotton", "name_ru": "Hotton", "tz": "", "district": "Wallonia"}, {"id": 447, "name": "Saint-Hubert", "name_ru": "Saint-Hubert", "tz": "", "district": "Wallonia"}, {"id": 448, "name": "Comblain-au-Pont", "name_ru": "Comblain-au-Pont", "tz": "", "district": "Wallonia"}, {"id": 449, "name": "Attert", "name_ru": "Attert", "tz": "", "district": "Wallonia"}, {"id": 450, "name": "Ruiselede", "name_ru": "Ruiselede", "tz": "", "district": "Flanders"}, {"id": 451, "name": "Incourt", "name_ru": "Incourt", "tz": "", "district": "Wallonia"}, {"id": 452, "name": "Ambleve", "name_ru": "Amblève", "tz": "", "district": "Wallonia"}, {"id": 453, "name": "Nassogne", "name_ru": "Nassogne", "tz": "", "district": "Wallonia"}, {"id": 454, "name": "Bullange", "name_ru": "Bullange", "tz": "", "district": "Wallonia"}, {"id": 455, "name": "Glabbeek-Zuurbemde", "name_ru": "Glabbeek-Zuurbemde", "tz": "", "district": "Flanders"}, {"id": 456, "name": "Paliseul", "name_ru": "Paliseul", "tz": "", "district": "Wallonia"}, {"id": 457, "name": "Heron", "name_ru": "Héron", "tz": "", "district": "Wallonia"}, {"id": 458, "name": "Rumes", "name_ru": "Rumes", "tz": "", "district": "Wallonia"}, {"id": 459, "name": "Leglise", "name_ru": "Léglise", "tz": "", "district": "Wallonia"}, {"id": 460, "name": "Bouillon", "name_ru": "Bouillon", "tz": "", "district": "Wallonia"}, {"id": 461, "name": "Momignies", "name_ru": "Momignies", "tz": "", "district": "Wallonia"}, {"id": 462, "name": "Houffalize", "name_ru": "Houffalize", "tz": "", "district": "Wallonia"}, {"id": 463, "name": "Gouvy", "name_ru": "Gouvy", "tz": "", "district": "Wallonia"}, {"id": 464, "name": "Chiny", "name_ru": "Chiny", "tz": "", "district": "Wallonia"}, {"id": 465, "name": "Libin", "name_ru": "Libin", "tz": "", "district": "Wallonia"}, {"id": 466, "name": "Ohey", "name_ru": "Ohey", "tz": "", "district": "Wallonia"}, {"id": 467, "name": "Havelange", "name_ru": "Havelange", "tz": "", "district": "Wallonia"}, {"id": 468, "name": "Alveringem", "name_ru": "Alveringem", "tz": "", "district": "Flanders"}]