[{"id": 1, "name": "Ouagadougou", "name_ru": "Ouagadougou", "tz": "", "district": "Centre"}, {"id": 2, "name": "Bobo-Dioulasso", "name_ru": "Bobo-Dioulasso", "tz": "", "district": "Hauts-Bassins"}, {"id": 3, "name": "Koudougou", "name_ru": "Koudougou", "tz": "", "district": "Centre-Ouest"}, {"id": 4, "name": "Ouahigouya", "name_ru": "Ouahigouya", "tz": "", "district": "Nord"}, {"id": 5, "name": "Kaya", "name_ru": "Kaya", "tz": "", "district": "Centre-Nord"}, {"id": 6, "name": "Banfora", "name_ru": "Banfora", "tz": "", "district": "Cascades"}, {"id": 7, "name": "Fada Ngourma", "name_ru": "Fada Ngourma", "tz": "", "district": "Est"}, {"id": 8, "name": "Dedougou", "name_ru": "Dédougou", "tz": "", "district": "Boucle du Mouhoun"}, {"id": 9, "name": "Tenkodogo", "name_ru": "Tenkodogo", "tz": "", "district": "Centre-Est"}, {"id": 10, "name": "Dori", "name_ru": "Dori", "tz": "", "district": "Sahel"}, {"id": 11, "name": "Manga", "name_ru": "Manga", "tz": "", "district": "Centre-Sud"}, {"id": 12, "name": "Ziniare", "name_ru": "Ziniaré", "tz": "", "district": "Plateau-Central"}, {"id": 13, "name": "Gaoua", "name_ru": "Gaoua", "tz": "", "district": "Sud-Ouest"}, {"id": 14, "name": "Pouytenga", "name_ru": "Pouytenga", "tz": "", "district": "Centre-Est"}, {"id": 15, "name": "Hounde", "name_ru": "Houndé", "tz": "", "district": "Hauts-Bassins"}, {"id": 16, "name": "Djibo", "name_ru": "Djibo", "tz": "", "district": "Sahel"}, {"id": 17, "name": "Kongoussi", "name_ru": "Kongoussi", "tz": "", "district": "Centre-Nord"}, {"id": 18, "name": "Titao", "name_ru": "Titao", "tz": "", "district": "Nord"}, {"id": 19, "name": "Koupela", "name_ru": "Koupéla", "tz": "", "district": "Centre-Est"}, {"id": 20, "name": "Garango", "name_ru": "Garango", "tz": "", "district": "Centre-Est"}, {"id": 21, "name": "Gaoua", "name_ru": "Gaoua", "tz": "", "district": "Sud-Ouest"}, {"id": 22, "name": "Gourcy", "name_ru": "Gourcy", "tz": "", "district": "Nord"}, {"id": 23, "name": "Yako", "name_ru": "Yako", "tz": "", "district": "Nord"}, {"id": 24, "name": "Zorgo", "name_ru": "Zorgo", "tz": "", "district": "Plateau-Central"}, {"id": 25, "name": "Reo", "name_ru": "Réo", "tz": "", "district": "Centre-Ouest"}, {"id": 26, "name": "Leo", "name_ru": "Léo", "tz": "", "district": "Centre-Ouest"}, {"id": 27, "name": "Niangoloko", "name_ru": "Niangoloko", "tz": "", "district": "Cascades"}, {"id": 28, "name": "Kombissiri", "name_ru": "Kombissiri", "tz": "", "district": "Centre-Sud"}, {"id": 29, "name": "Nouna", "name_ru": "Nouna", "tz": "", "district": "Boucle du Mouhoun"}, {"id": 30, "name": "Diapaga", "name_ru": "Diapaga", "tz": "", "district": "Est"}, {"id": 31, "name": "Orodara", "name_ru": "Orodara", "tz": "", "district": "Hauts-Bassins"}, {"id": 32, "name": "Po", "name_ru": "Pô", "tz": "", "district": "Centre-Sud"}, {"id": 33, "name": "Tougan", "name_ru": "Tougan", "tz": "", "district": "Boucle du Mouhoun"}, {"id": 34, "name": "Boulsa", "name_ru": "Boulsa", "tz": "", "district": "Centre-Nord"}, {"id": 35, "name": "Diebougou", "name_ru": "Diébougou", "tz": "", "district": "Sud-Ouest"}, {"id": 36, "name": "Salanso", "name_ru": "Salanso", "tz": "", "district": "Boucle du Mouhoun"}, {"id": 37, "name": "Bogande", "name_ru": "Bogandé", "tz": "", "district": "Est"}, {"id": 38, "name": "Gorom-Gorom", "name_ru": "Gorom-Gorom", "tz": "", "district": "Sahel"}, {"id": 39, "name": "Sapouy", "name_ru": "Sapouy", "tz": "", "district": "Centre-Ouest"}, {"id": 40, "name": "Sebba", "name_ru": "Sebba", "tz": "", "district": "Sahel"}]