[{"id": 1, "name": "Sofia", "name_ru": "Sofia", "tz": "", "district": "Sofia-Grad"}, {"id": 2, "name": "Plovdiv", "name_ru": "Plovdiv", "tz": "", "district": "Plovdiv"}, {"id": 3, "name": "Varna", "name_ru": "Varna", "tz": "", "district": "Varna"}, {"id": 4, "name": "Burgas", "name_ru": "Burgas", "tz": "", "district": "Burgas"}, {"id": 5, "name": "Ruse", "name_ru": "Ruse", "tz": "", "district": "Ruse"}, {"id": 6, "name": "Stara Zagora", "name_ru": "Stara Zagora", "tz": "", "district": "Stara Zagora"}, {"id": 7, "name": "Pleven", "name_ru": "Pleven", "tz": "", "district": "Pleven"}, {"id": 8, "name": "Dobrich", "name_ru": "Dobrich", "tz": "", "district": "Dobrich"}, {"id": 9, "name": "Sliven", "name_ru": "Sliven", "tz": "", "district": "Sliven"}, {"id": 10, "name": "Shumen", "name_ru": "Shumen", "tz": "", "district": "Shumen"}, {"id": 11, "name": "Pazardzhik", "name_ru": "Pazardzhik", "tz": "", "district": "Pazardzhik"}, {"id": 12, "name": "Pernik", "name_ru": "Pernik", "tz": "", "district": "Pernik"}, {"id": 13, "name": "Blagoevgrad", "name_ru": "Blagoevgrad", "tz": "", "district": "Blagoevgrad"}, {"id": 14, "name": "Haskovo", "name_ru": "Haskovo", "tz": "", "district": "Haskovo"}, {"id": 15, "name": "Yambol", "name_ru": "Yambol", "tz": "", "district": "Yambol"}, {"id": 16, "name": "Veliko Tarnovo", "name_ru": "Veliko Tarnovo", "tz": "", "district": "Veliko Tarnovo"}, {"id": 17, "name": "Vratsa", "name_ru": "Vratsa", "tz": "", "district": "Vratsa"}, {"id": 18, "name": "Gabrovo", "name_ru": "Gabrovo", "tz": "", "district": "Gabrovo"}, {"id": 19, "name": "Kardzhali", "name_ru": "Kardzhali", "tz": "", "district": "Kardzhali"}, {"id": 20, "name": "Vidin", "name_ru": "Vidin", "tz": "", "district": "Vidin"}, {"id": 21, "name": "Kyustendil", "name_ru": "Kyustendil", "tz": "", "district": "Kyustendil"}, {"id": 22, "name": "Montana", "name_ru": "Montana", "tz": "", "district": "Montana"}, {"id": 23, "name": "Targovishte", "name_ru": "Targovishte", "tz": "", "district": "Targovishte"}, {"id": 24, "name": "Silistra", "name_ru": "Silistra", "tz": "", "district": "Silistra"}, {"id": 25, "name": "Lovech", "name_ru": "Lovech", "tz": "", "district": "Lovech"}, {"id": 26, "name": "Razgrad", "name_ru": "Razgrad", "tz": "", "district": "Razgrad"}, {"id": 27, "name": "Smolyan", "name_ru": "Smolyan", "tz": "", "district": "Smolyan"}, {"id": 28, "name": "Asenovgrad", "name_ru": "Asenovgrad", "tz": "", "district": "Plovdiv"}, {"id": 29, "name": "Kazanlak", "name_ru": "Kazanlak", "tz": "", "district": "Stara Zagora"}, {"id": 30, "name": "Dimitrovgrad", "name_ru": "Dimitrovgrad", "tz": "", "district": "Haskovo"}, {"id": 31, "name": "Dupnitsa", "name_ru": "Dupnitsa", "tz": "", "district": "Kyustendil"}, {"id": 32, "name": "Gorna Oryahovitsa", "name_ru": "Gorna Oryahovitsa", "tz": "", "district": "Veliko Tarnovo"}, {"id": 33, "name": "Petrich", "name_ru": "Petrich", "tz": "", "district": "Blagoevgrad"}, {"id": 34, "name": "Sandanski", "name_ru": "Sandanski", "tz": "", "district": "Blagoevgrad"}, {"id": 35, "name": "Samokov", "name_ru": "Samokov", "tz": "", "district": "Sofia"}, {"id": 36, "name": "Velingrad", "name_ru": "Velingrad", "tz": "", "district": "Pazardzhik"}, {"id": 37, "name": "Svishtov", "name_ru": "Svishtov", "tz": "", "district": "Veliko Tarnovo"}, {"id": 38, "name": "Sevlievo", "name_ru": "Sevlievo", "tz": "", "district": "Gabrovo"}, {"id": 39, "name": "Aytos", "name_ru": "Aytos", "tz": "", "district": "Burgas"}, {"id": 40, "name": "Lom", "name_ru": "Lom", "tz": "", "district": "Montana"}, {"id": 41, "name": "Nova Zagora", "name_ru": "Nova Zagora", "tz": "", "district": "Sliven"}, {"id": 42, "name": "Karlovo", "name_ru": "Karlovo", "tz": "", "district": "Plovdiv"}, {"id": 43, "name": "Botevgrad", "name_ru": "Botevgrad", "tz": "", "district": "Sofia"}, {"id": 44, "name": "Troyan", "name_ru": "Troyan", "tz": "", "district": "Lovech"}, {"id": 45, "name": "Harmanli", "name_ru": "Harmanli", "tz": "", "district": "Haskovo"}, {"id": 46, "name": "Gotse Delchev", "name_ru": "Gotse Delchev", "tz": "", "district": "Blagoevgrad"}, {"id": 47, "name": "Peshtera", "name_ru": "Peshtera", "tz": "", "district": "Pazardzhik"}, {"id": 48, "name": "Svilengrad", "name_ru": "Svilengrad", "tz": "", "district": "Haskovo"}, {"id": 49, "name": "Karnobat", "name_ru": "Karnobat", "tz": "", "district": "Burgas"}, {"id": 50, "name": "Panagyurishte", "name_ru": "Panagyurishte", "tz": "", "district": "Pazardzhik"}, {"id": 51, "name": "Rakovski", "name_ru": "Rakovski", "tz": "", "district": "Plovdiv"}, {"id": 52, "name": "Popovo", "name_ru": "Popovo", "tz": "", "district": "Targovishte"}, {"id": 53, "name": "Chirpan", "name_ru": "Chirpan", "tz": "", "district": "Stara Zagora"}, {"id": 54, "name": "Novi Iskar", "name_ru": "Novi Iskar", "tz": "", "district": "Sofia-Grad"}, {"id": 55, "name": "Pomorie", "name_ru": "Pomorie", "tz": "", "district": "Burgas"}, {"id": 56, "name": "Nesebar", "name_ru": "Nesebar", "tz": "", "district": "Burgas"}, {"id": 57, "name": "Ihtiman", "name_ru": "Ihtiman", "tz": "", "district": "Sofia"}, {"id": 58, "name": "Parvomay", "name_ru": "Parvomay", "tz": "", "district": "Plovdiv"}, {"id": 59, "name": "Radomir", "name_ru": "Radomir", "tz": "", "district": "Pernik"}, {"id": 60, "name": "Berkovitsa", "name_ru": "Berkovitsa", "tz": "", "district": "Montana"}, {"id": 61, "name": "Novi Pazar", "name_ru": "Novi Pazar", "tz": "", "district": "Shumen"}, {"id": 62, "name": "Provadia", "name_ru": "Provadia", "tz": "", "district": "Varna"}, {"id": 63, "name": "Balchik", "name_ru": "Balchik", "tz": "", "district": "Dobrich"}, {"id": 64, "name": "Razlog", "name_ru": "Razlog", "tz": "", "district": "Blagoevgrad"}, {"id": 65, "name": "Bankya", "name_ru": "Bankya", "tz": "", "district": "Sofia-Grad"}, {"id": 66, "name": "Kozloduy", "name_ru": "Kozloduy", "tz": "", "district": "Vratsa"}, {"id": 67, "name": "Stamboliyski", "name_ru": "Stamboliyski", "tz": "", "district": "Plovdiv"}, {"id": 68, "name": "Radnevo", "name_ru": "Radnevo", "tz": "", "district": "Stara Zagora"}, {"id": 69, "name": "Kostinbrod", "name_ru": "Kostinbrod", "tz": "", "district": "Sofia"}, {"id": 70, "name": "Kavarna", "name_ru": "Kavarna", "tz": "", "district": "Dobrich"}, {"id": 71, "name": "Byala Slatina", "name_ru": "Byala Slatina", "tz": "", "district": "Vratsa"}, {"id": 72, "name": "Etropole", "name_ru": "Etropole", "tz": "", "district": "Sofia"}, {"id": 73, "name": "Knezha", "name_ru": "Knezha", "tz": "", "district": "Vratsa"}, {"id": 74, "name": "Pavlikeni", "name_ru": "Pavlikeni", "tz": "", "district": "Veliko Tarnovo"}, {"id": 75, "name": "Mezdra", "name_ru": "Mezdra", "tz": "", "district": "Vratsa"}, {"id": 76, "name": "Elhovo", "name_ru": "Elhovo", "tz": "", "district": "Yambol"}, {"id": 77, "name": "Lukovit", "name_ru": "Lukovit", "tz": "", "district": "Lovech"}, {"id": 78, "name": "Teteven", "name_ru": "Teteven", "tz": "", "district": "Lovech"}, {"id": 79, "name": "Omurtag", "name_ru": "Omurtag", "tz": "", "district": "Targovishte"}, {"id": 80, "name": "Momchilgrad", "name_ru": "Momchilgrad", "tz": "", "district": "Kardzhali"}, {"id": 81, "name": "Tutrakan", "name_ru": "Tutrakan", "tz": "", "district": "Silistra"}, {"id": 82, "name": "Bansko", "name_ru": "Bansko", "tz": "", "district": "Blagoevgrad"}, {"id": 83, "name": "Devnya", "name_ru": "Devnya", "tz": "", "district": "Varna"}, {"id": 84, "name": "Sredets", "name_ru": "Sredets", "tz": "", "district": "Burgas"}, {"id": 85, "name": "Rakitovo", "name_ru": "Rakitovo", "tz": "", "district": "Pazardzhik"}, {"id": 86, "name": "Isperih", "name_ru": "Isperih", "tz": "", "district": "Razgrad"}, {"id": 87, "name": "Tryavna", "name_ru": "Tryavna", "tz": "", "district": "Gabrovo"}, {"id": 88, "name": "Aksakovo", "name_ru": "Aksakovo", "tz": "", "district": "Varna"}, {"id": 89, "name": "Veliki Preslav", "name_ru": "Veliki Preslav", "tz": "", "district": "Shumen"}, {"id": 90, "name": "Krichim", "name_ru": "Krichim", "tz": "", "district": "Plovdiv"}, {"id": 91, "name": "Septemvri", "name_ru": "Septemvri", "tz": "", "district": "Pazardzhik"}, {"id": 92, "name": "Lyaskovets", "name_ru": "Lyaskovets", "tz": "", "district": "Veliko Tarnovo"}, {"id": 93, "name": "Beloslav", "name_ru": "Beloslav", "tz": "", "district": "Varna"}, {"id": 94, "name": "Simeonovgrad", "name_ru": "Simeonovgrad", "tz": "", "district": "Haskovo"}, {"id": 95, "name": "Svoge", "name_ru": "Svoge", "tz": "", "district": "Sofia"}, {"id": 96, "name": "Lyubimets", "name_ru": "Lyubimets", "tz": "", "district": "Haskovo"}, {"id": 97, "name": "Belene", "name_ru": "Belene", "tz": "", "district": "Pleven"}, {"id": 98, "name": "Dulovo", "name_ru": "Dulovo", "tz": "", "district": "Silistra"}, {"id": 99, "name": "Slivnitsa", "name_ru": "Slivnitsa", "tz": "", "district": "Sofia"}, {"id": 100, "name": "Elin Pelin", "name_ru": "Elin Pelin", "tz": "", "district": "Sofia"}, {"id": 101, "name": "Dryanovo", "name_ru": "Dryanovo", "tz": "", "district": "Gabrovo"}, {"id": 102, "name": "Dolni Chiflik", "name_ru": "Dolni Chiflik", "tz": "", "district": "Varna"}, {"id": 103, "name": "Lozen", "name_ru": "Lozen", "tz": "", "district": "Sofia-Grad"}, {"id": 104, "name": "Zlatograd", "name_ru": "Zlatograd", "tz": "", "district": "Smolyan"}, {"id": 105, "name": "Simitli", "name_ru": "Simitli", "tz": "", "district": "Blagoevgrad"}, {"id": 106, "name": "Kubrat", "name_ru": "Kubrat", "tz": "", "district": "Razgrad"}, {"id": 107, "name": "Pirdop", "name_ru": "Pirdop", "tz": "", "district": "Sofia"}, {"id": 108, "name": "Tervel", "name_ru": "Tervel", "tz": "", "district": "Dobrich"}, {"id": 109, "name": "General Toshevo", "name_ru": "General Toshevo", "tz": "", "district": "Dobrich"}, {"id": 110, "name": "Aydemir", "name_ru": "Aydemir", "tz": "", "district": "Silistra"}, {"id": 111, "name": "Straldzha", "name_ru": "Straldzha", "tz": "", "district": "Yambol"}, {"id": 112, "name": "Bistritsa", "name_ru": "Bistritsa", "tz": "", "district": "Sofia-Grad"}, {"id": 113, "name": "Devin", "name_ru": "Devin", "tz": "", "district": "Smolyan"}, {"id": 114, "name": "Kuklen", "name_ru": "Kuklen", "tz": "", "district": "Plovdiv"}, {"id": 115, "name": "Tvarditsa", "name_ru": "Tvarditsa", "tz": "", "district": "Sliven"}, {"id": 116, "name": "Kostenets", "name_ru": "Kostenets", "tz": "", "district": "Sofia"}, {"id": 117, "name": "Tsarevo", "name_ru": "Tsarevo", "tz": "", "district": "Burgas"}, {"id": 118, "name": "Varshets", "name_ru": "Varshets", "tz": "", "district": "Montana"}, {"id": 119, "name": "Kameno", "name_ru": "Kameno", "tz": "", "district": "Burgas"}, {"id": 120, "name": "Kotel", "name_ru": "Kotel", "tz": "", "district": "Sliven"}, {"id": 121, "name": "Krumovgrad", "name_ru": "Krumovgrad", "tz": "", "district": "Kardzhali"}, {"id": 122, "name": "Strazhitsa", "name_ru": "Strazhitsa", "tz": "", "district": "Veliko Tarnovo"}, {"id": 123, "name": "Yakoruda", "name_ru": "Yakoruda", "tz": "", "district": "Blagoevgrad"}, {"id": 124, "name": "Bozhurishte", "name_ru": "Bozhurishte", "tz": "", "district": "Sofia"}, {"id": 125, "name": "Bobov Dol", "name_ru": "Bobov Dol", "tz": "", "district": "Kyustendil"}, {"id": 126, "name": "Suvorovo", "name_ru": "Suvorovo", "tz": "", "district": "Varna"}, {"id": 127, "name": "Perushtitsa", "name_ru": "Perushtitsa", "tz": "", "district": "Plovdiv"}]