[{"id": 1, "name": "Bujumbura", "name_ru": "Bujumbura", "tz": "", "district": "Bujumbura Mairie"}, {"id": 2, "name": "Gitega", "name_ru": "Gitega", "tz": "", "district": "Gitega"}, {"id": 3, "name": "Ngozi", "name_ru": "Ngozi", "tz": "", "district": "Ngozi"}, {"id": 4, "name": "Kayanza", "name_ru": "Kayanza", "tz": "", "district": "Kayanza"}, {"id": 5, "name": "Bubanza", "name_ru": "Bubanza", "tz": "", "district": "Bubanza"}, {"id": 6, "name": "Karuzi", "name_ru": "Karuzi", "tz": "", "district": "Karuzi"}, {"id": 7, "name": "Kirundo", "name_ru": "Kirundo", "tz": "", "district": "Kirundo"}, {"id": 8, "name": "Muyinga", "name_ru": "Muyinga", "tz": "", "district": "Muyinga"}, {"id": 9, "name": "Makamba", "name_ru": "Makamba", "tz": "", "district": "Makamba"}, {"id": 10, "name": "Ruyigi", "name_ru": "Ruyigi", "tz": "", "district": "Ruyigi"}, {"id": 11, "name": "Rutana", "name_ru": "Rutana", "tz": "", "district": "Rutana"}, {"id": 12, "name": "Muramvya", "name_ru": "Muramvya", "tz": "", "district": "Muramvya"}, {"id": 13, "name": "Bururi", "name_ru": "Bururi", "tz": "", "district": "Bururi"}, {"id": 14, "name": "Cankuzo", "name_ru": "Cankuzo", "tz": "", "district": "Cankuzo"}, {"id": 15, "name": "Isale", "name_ru": "Isale", "tz": "", "district": "Bujumbura Rural"}, {"id": 16, "name": "Rumonge", "name_ru": "Rumonge", "tz": "", "district": "Rumonge"}, {"id": 17, "name": "Cibitoke", "name_ru": "Cibitoke", "tz": "", "district": "Cibitoke"}, {"id": 18, "name": "Gitega", "name_ru": "Gitega", "tz": "", "district": "Mwaro"}, {"id": 19, "name": "Gatumba", "name_ru": "Gatumba", "tz": "", "district": "Bujumbura Rural"}]