[{"id": 1, "name": "Cotonou", "name_ru": "Cotonou", "tz": "", "district": "Littoral"}, {"id": 2, "name": "Porto-Novo", "name_ru": "Porto-Novo", "tz": "", "district": "Ouémé"}, {"id": 3, "name": "Djougou", "name_ru": "Djougou", "tz": "", "district": "Donga"}, {"id": 4, "name": "Parakou", "name_ru": "Parakou", "tz": "", "district": "Borgou"}, {"id": 5, "name": "Kandi", "name_ru": "Kandi", "tz": "", "district": "Alibori"}, {"id": 6, "name": "Lokossa", "name_ru": "Lokossa", "tz": "", "district": "Mono"}, {"id": 7, "name": "Ouidah", "name_ru": "Ouidah", "tz": "", "district": "Atlantique"}, {"id": 8, "name": "Abomey", "name_ru": "Abomey", "tz": "", "district": "Zou"}, {"id": 9, "name": "Natitingou", "name_ru": "Natitingou", "tz": "", "district": "Atacora"}, {"id": 10, "name": "Dogbo", "name_ru": "Dogbo", "tz": "", "district": "Couffo"}, {"id": 11, "name": "Sakete", "name_ru": "Sakété", "tz": "", "district": "Plateau"}, {"id": 12, "name": "Savalou", "name_ru": "Savalou", "tz": "", "district": "Collines"}, {"id": 13, "name": "Save", "name_ru": "Savé", "tz": "", "district": "Collines"}]