[{"id": 1, "name": "Bandar Seri Begawan", "name_ru": "Bandar Seri Begawan", "tz": "", "district": "Brunei and Muara"}, {"id": 2, "name": "Kuala Belait", "name_ru": "Kuala Belait", "tz": "", "district": "Belait"}, {"id": 3, "name": "Bangar", "name_ru": "Bangar", "tz": "", "district": "Temburong"}, {"id": 4, "name": "Tutong", "name_ru": "Tutong", "tz": "", "district": "Tutong"}, {"id": 5, "name": "Seria", "name_ru": "Seria", "tz": "", "district": "Belait"}, {"id": 6, "name": "Kampong Tunah Jambu", "name_ru": "Kampong Tunah Jambu", "tz": "", "district": "Brunei and Muara"}, {"id": 7, "name": "Kampong Lambak", "name_ru": "Kampong Lambak", "tz": "", "district": "Brunei and Muara"}, {"id": 8, "name": "Kampong Mata Mata", "name_ru": "Kampong Mata Mata", "tz": "", "district": "Brunei and Muara"}, {"id": 9, "name": "Kampong Beribi", "name_ru": "Kampong Beribi", "tz": "", "district": "Brunei and Muara"}, {"id": 10, "name": "Kampong Mulaut", "name_ru": "Kampong Mulaut", "tz": "", "district": "Brunei and Muara"}, {"id": 11, "name": "Kampong Rimba", "name_ru": "Kampong Rimba", "tz": "", "district": "Brunei and Muara"}]