[{"id": 1, "name": "Santa Cruz", "name_ru": "Santa Cruz", "tz": "", "district": "Santa Cruz"}, {"id": 2, "name": "La Paz", "name_ru": "La Paz", "tz": "", "district": "La Paz"}, {"id": 3, "name": "Sucre", "name_ru": "Sucre", "tz": "", "district": "Chuquisaca"}, {"id": 4, "name": "Cochabamba", "name_ru": "Cochabamba", "tz": "", "district": "Cochabamba"}, {"id": 5, "name": "Oruro", "name_ru": "Oruro", "tz": "", "district": "Oruro"}, {"id": 6, "name": "Oruro", "name_ru": "Oruro", "tz": "", "district": "Oruro"}, {"id": 7, "name": "Warnes", "name_ru": "Warnes", "tz": "", "district": "Santa Cruz"}, {"id": 8, "name": "Potosi", "name_ru": "Potosí", "tz": "", "district": "Potosí"}, {"id": 9, "name": "Tarija", "name_ru": "Tarija", "tz": "", "district": "Tarija"}, {"id": 10, "name": "Sacaba", "name_ru": "Sacaba", "tz": "", "district": "Cochabamba"}, {"id": 11, "name": "Quillacollo", "name_ru": "Quillacollo", "tz": "", "district": "Cochabamba"}, {"id": 12, "name": "Montero", "name_ru": "Montero", "tz": "", "district": "Santa Cruz"}, {"id": 13, "name": "Trinidad", "name_ru": "Trinidad", "tz": "", "district": "El Beni"}, {"id": 14, "name": "Cobija", "name_ru": "Cobija", "tz": "", "district": "Pando"}, {"id": 15, "name": "Yacuiba", "name_ru": "Yacuiba", "tz": "", "district": "Tarija"}, {"id": 16, "name": "Riberalta", "name_ru": "Riberalta", "tz": "", "district": "El Beni"}, {"id": 17, "name": "Villa Tunari", "name_ru": "Villa Tunari", "tz": "", "district": "Cochabamba"}, {"id": 18, "name": "Puerto Villarroel", "name_ru": "Puerto Villarroel", "tz": "", "district": "Cochabamba"}, {"id": 19, "name": "Villamontes", "name_ru": "Villamontes", "tz": "", "district": "Tarija"}, {"id": 20, "name": "Guayaramerin", "name_ru": "Guayaramerín", "tz": "", "district": "El Beni"}, {"id": 21, "name": "Camiri", "name_ru": "Camiri", "tz": "", "district": "Santa Cruz"}, {"id": 22, "name": "Tiquipaya", "name_ru": "Tiquipaya", "tz": "", "district": "Cochabamba"}, {"id": 23, "name": "Viacha", "name_ru": "Viacha", "tz": "", "district": "La Paz"}, {"id": 24, "name": "Bermejo", "name_ru": "Bermejo", "tz": "", "district": "Tarija"}, {"id": 25, "name": "Llallagua", "name_ru": "Llallagua", "tz": "", "district": "Potosí"}, {"id": 26, "name": "Villazon", "name_ru": "Villazón", "tz": "", "district": "Potosí"}, {"id": 27, "name": "Uyuni", "name_ru": "Uyuni", "tz": "", "district": "Potosí"}, {"id": 28, "name": "San Borja", "name_ru": "San Borja", "tz": "", "district": "El Beni"}, {"id": 29, "name": "San Ignacio de Velasco", "name_ru": "San Ignacio de Velasco", "tz": "", "district": "Santa Cruz"}, {"id": 30, "name": "Tupiza", "name_ru": "Tupiza", "tz": "", "district": "Potosí"}, {"id": 31, "name": "Patacamaya", "name_ru": "Patacamaya", "tz": "", "district": "La Paz"}, {"id": 32, "name": "Capinota", "name_ru": "Capinota", "tz": "", "district": "Cochabamba"}, {"id": 33, "name": "San Jose de Chiquitos", "name_ru": "San José de Chiquitos", "tz": "", "district": "Santa Cruz"}, {"id": 34, "name": "Vallegrande", "name_ru": "Vallegrande", "tz": "", "district": "Santa Cruz"}, {"id": 35, "name": "Mapiri", "name_ru": "Mapiri", "tz": "", "district": "La Paz"}, {"id": 36, "name": "Portachuelo", "name_ru": "Portachuelo", "tz": "", "district": "Santa Cruz"}, {"id": 37, "name": "Comarapa", "name_ru": "Comarapa", "tz": "", "district": "Santa Cruz"}, {"id": 38, "name": "Punata", "name_ru": "Punata", "tz": "", "district": "Cochabamba"}, {"id": 39, "name": "Villa Yapacani", "name_ru": "Villa Yapacaní", "tz": "", "district": "Santa Cruz"}, {"id": 40, "name": "Ascension", "name_ru": "Ascensión", "tz": "", "district": "Santa Cruz"}, {"id": 41, "name": "Vinto", "name_ru": "Vinto", "tz": "", "district": "Cochabamba"}, {"id": 42, "name": "Chulumani", "name_ru": "Chulumani", "tz": "", "district": "La Paz"}, {"id": 43, "name": "Santa Ana de Yacuma", "name_ru": "Santa Ana de Yacuma", "tz": "", "district": "El Beni"}, {"id": 44, "name": "Rurrenabaque", "name_ru": "Rurrenabaque", "tz": "", "district": "El Beni"}, {"id": 45, "name": "Puerto Suarez", "name_ru": "Puerto Suárez", "tz": "", "district": "Santa Cruz"}, {"id": 46, "name": "Torotoro", "name_ru": "Torotoro", "tz": "", "district": "Potosí"}, {"id": 47, "name": "Puerto Quijarro", "name_ru": "Puerto Quijarro", "tz": "", "district": "Santa Cruz"}, {"id": 48, "name": "Robore", "name_ru": "Roboré", "tz": "", "district": "Santa Cruz"}, {"id": 49, "name": "Challapata", "name_ru": "Challapata", "tz": "", "district": "Oruro"}, {"id": 50, "name": "Achacachi", "name_ru": "Achacachi", "tz": "", "district": "La Paz"}, {"id": 51, "name": "Aiquile", "name_ru": "Aiquile", "tz": "", "district": "Cochabamba"}, {"id": 52, "name": "Reyes", "name_ru": "Reyes", "tz": "", "district": "El Beni"}, {"id": 53, "name": "Cliza", "name_ru": "Cliza", "tz": "", "district": "Cochabamba"}, {"id": 54, "name": "Charagua", "name_ru": "Charagua", "tz": "", "district": "Santa Cruz"}, {"id": 55, "name": "San Ramon", "name_ru": "San Ramón", "tz": "", "district": "El Beni"}, {"id": 56, "name": "San Carlos", "name_ru": "San Carlos", "tz": "", "district": "Santa Cruz"}, {"id": 57, "name": "Uncia", "name_ru": "Uncia", "tz": "", "district": "Potosí"}, {"id": 58, "name": "Camargo", "name_ru": "Camargo", "tz": "", "district": "Chuquisaca"}, {"id": 59, "name": "Sicasica", "name_ru": "Sicasica", "tz": "", "district": "La Paz"}, {"id": 60, "name": "Magdalena", "name_ru": "Magdalena", "tz": "", "district": "El Beni"}, {"id": 61, "name": "Samaipata", "name_ru": "Samaipata", "tz": "", "district": "Santa Cruz"}, {"id": 62, "name": "Padilla", "name_ru": "Padilla", "tz": "", "district": "Chuquisaca"}, {"id": 63, "name": "Tarabuco", "name_ru": "Tarabuco", "tz": "", "district": "Chuquisaca"}, {"id": 64, "name": "Baures", "name_ru": "Baures", "tz": "", "district": "El Beni"}, {"id": 65, "name": "Coroico", "name_ru": "Coroico", "tz": "", "district": "La Paz"}, {"id": 66, "name": "Sorata", "name_ru": "Sorata", "tz": "", "district": "La Paz"}, {"id": 67, "name": "Cuevo", "name_ru": "Cuevo", "tz": "", "district": "Santa Cruz"}, {"id": 68, "name": "San Matias", "name_ru": "San Matías", "tz": "", "district": "Santa Cruz"}, {"id": 69, "name": "Betanzos", "name_ru": "Betanzos", "tz": "", "district": "Potosí"}, {"id": 70, "name": "San Javier", "name_ru": "San Javier", "tz": "", "district": "Santa Cruz"}, {"id": 71, "name": "Apolo", "name_ru": "Apolo", "tz": "", "district": "La Paz"}, {"id": 72, "name": "Quime", "name_ru": "Quime", "tz": "", "district": "La Paz"}, {"id": 73, "name": "San Lorenzo", "name_ru": "San Lorenzo", "tz": "", "district": "Tarija"}, {"id": 74, "name": "Entre Rios", "name_ru": "Entre Ríos", "tz": "", "district": "Tarija"}, {"id": 75, "name": "Corocoro", "name_ru": "Corocoro", "tz": "", "district": "La Paz"}, {"id": 76, "name": "San Rafael", "name_ru": "San Rafael", "tz": "", "district": "Santa Cruz"}, {"id": 77, "name": "Puerto Acosta", "name_ru": "Puerto Acosta", "tz": "", "district": "La Paz"}, {"id": 78, "name": "Sabaya", "name_ru": "Sabaya", "tz": "", "district": "Oruro"}, {"id": 79, "name": "Llica", "name_ru": "Llica", "tz": "", "district": "Potosí"}, {"id": 80, "name": "Charana", "name_ru": "Charaña", "tz": "", "district": "La Paz"}, {"id": 81, "name": "Villa Martin Colchak", "name_ru": "Villa Martín Colchak", "tz": "", "district": "Potosí"}, {"id": 82, "name": "Puerto Heath", "name_ru": "Puerto Heath", "tz": "", "district": "La Paz"}, {"id": 83, "name": "Piso Firme", "name_ru": "Piso Firme", "tz": "", "district": "El Beni"}]