[{"id": 1, "name": "Thimphu", "name_ru": "Thimphu", "tz": "", "district": "Thimphu"}, {"id": 2, "name": "Paro", "name_ru": "Paro", "tz": "", "district": "Paro"}, {"id": 3, "name": "Wangdue Phodrang", "name_ru": "Wangdue Phodrang", "tz": "", "district": "Wangdue Phodrang"}, {"id": 4, "name": "Punakha", "name_ru": "Punakha", "tz": "", "district": "Punakha"}, {"id": 5, "name": "Samtse", "name_ru": "Samtse", "tz": "", "district": "Samtse"}, {"id": 6, "name": "Tsirang", "name_ru": "Tsirang", "tz": "", "district": "Tsirang"}, {"id": 7, "name": "Mongar", "name_ru": "Mongar", "tz": "", "district": "Mongar"}, {"id": 8, "name": "Haa", "name_ru": "Haa", "tz": "", "district": "Haa"}, {"id": 9, "name": "Samdrup Jongkhar", "name_ru": "Samdrup Jongkhar", "tz": "", "district": "Samdrup Jongkhar"}, {"id": 10, "name": "Sarpang", "name_ru": "Sarpang", "tz": "", "district": "Sarpang"}, {"id": 11, "name": "Trashigang", "name_ru": "Trashigang", "tz": "", "district": "Trashigang"}, {"id": 12, "name": "Pemagatshel", "name_ru": "Pemagatshel", "tz": "", "district": "Pemagatshel"}, {"id": 13, "name": "Tsimasham", "name_ru": "Tsimasham", "tz": "", "district": "Chhukha"}, {"id": 14, "name": "Trashi Yangtse", "name_ru": "Trashi Yangtse", "tz": "", "district": "Trashi Yangtse"}, {"id": 15, "name": "Trongsa", "name_ru": "Trongsa", "tz": "", "district": "Trongsa"}, {"id": 16, "name": "Zhemgang", "name_ru": "Zhemgang", "tz": "", "district": "Zhemgang"}, {"id": 17, "name": "Jakar", "name_ru": "Jakar", "tz": "", "district": "Bumthang"}, {"id": 18, "name": "Lhuentse", "name_ru": "Lhuentse", "tz": "", "district": "Lhuentse"}, {"id": 19, "name": "Daga", "name_ru": "Daga", "tz": "", "district": "Dagana"}, {"id": 20, "name": "Gasa", "name_ru": "Gasa", "tz": "", "district": "Gasa"}]