[{"id": 1, "name": "Gaborone", "name_ru": "Gaborone", "tz": "", "district": "Gaborone"}, {"id": 2, "name": "Francistown", "name_ru": "Francistown", "tz": "", "district": "Francistown"}, {"id": 3, "name": "Molepolole", "name_ru": "Molepolole", "tz": "", "district": "Kweneng"}, {"id": 4, "name": "Maun", "name_ru": "Maun", "tz": "", "district": "North West"}, {"id": 5, "name": "Selibe Phikwe", "name_ru": "Selibe Phikwe", "tz": "", "district": "Selibe Phikwe"}, {"id": 6, "name": "Serowe", "name_ru": "Serowe", "tz": "", "district": "Central"}, {"id": 7, "name": "Kanye", "name_ru": "Kanye", "tz": "", "district": "Southern"}, {"id": 8, "name": "Mochudi", "name_ru": "Mochudi", "tz": "", "district": "Kgatleng"}, {"id": 9, "name": "Lobatse", "name_ru": "Lobatse", "tz": "", "district": "Lobatse"}, {"id": 10, "name": "Tshabong", "name_ru": "Tshabong", "tz": "", "district": "Kgalagadi"}, {"id": 11, "name": "Kasane", "name_ru": "Kasane", "tz": "", "district": "Chobe"}, {"id": 12, "name": "Ghanzi", "name_ru": "Ghanzi", "tz": "", "district": "Ghanzi"}, {"id": 13, "name": "Ramotswa", "name_ru": "Ramotswa", "tz": "", "district": "South East"}, {"id": 14, "name": "Masunga", "name_ru": "Masunga", "tz": "", "district": "North East"}, {"id": 15, "name": "Sowa Town", "name_ru": "Sowa Town", "tz": "", "district": "Sowa Town"}, {"id": 16, "name": "Jwaneng", "name_ru": "Jwaneng", "tz": "", "district": "Jwaneng"}, {"id": 17, "name": "Mahalapye", "name_ru": "Mahalapye", "tz": "", "district": "Central"}, {"id": 18, "name": "Palapye", "name_ru": "Palapye", "tz": "", "district": "Central"}, {"id": 19, "name": "Lekala", "name_ru": "Lekala", "tz": "", "district": "Central"}, {"id": 20, "name": "Gweta", "name_ru": "Gweta", "tz": "", "district": "Central"}, {"id": 21, "name": "Nata", "name_ru": "Nata", "tz": "", "district": "Central"}, {"id": 22, "name": "Mopipi", "name_ru": "Mopipi", "tz": "", "district": "Central"}, {"id": 23, "name": "Lehututu", "name_ru": "Lehututu", "tz": "", "district": "Kgalagadi"}, {"id": 24, "name": "Nokaneng", "name_ru": "Nokaneng", "tz": "", "district": "North West"}, {"id": 25, "name": "Lokwabe", "name_ru": "Lokwabe", "tz": "", "district": "Kgalagadi"}, {"id": 26, "name": "Tsau", "name_ru": "Tsau", "tz": "", "district": "North West"}, {"id": 27, "name": "Muhembo", "name_ru": "Muhembo", "tz": "", "district": "North West"}]