[{"id": 1, "name": "Minsk", "name_ru": "Minsk", "tz": "", "district": "Minsk"}, {"id": 2, "name": "Homyel'", "name_ru": "Homyel’", "tz": "", "district": "Homyel’skaya Voblasts’"}, {"id": 3, "name": "Vitsyebsk", "name_ru": "Vitsyebsk", "tz": "", "district": "Vitsyebskaya Voblasts’"}, {"id": 4, "name": "Mahilyow", "name_ru": "Mahilyow", "tz": "", "district": "Mahilyowskaya Voblasts’"}, {"id": 5, "name": "Hrodna", "name_ru": "Hrodna", "tz": "", "district": "Hrodzyenskaya Voblasts’"}, {"id": 6, "name": "Brest", "name_ru": "Brest", "tz": "", "district": "Brestskaya Voblasts’"}, {"id": 7, "name": "Babruysk", "name_ru": "Babruysk", "tz": "", "district": "Mahilyowskaya Voblasts’"}, {"id": 8, "name": "Baranavichy", "name_ru": "Baranavichy", "tz": "", "district": "Brestskaya Voblasts’"}, {"id": 9, "name": "Horad Barysaw", "name_ru": "Horad Barysaw", "tz": "", "district": "Minskaya Voblasts’"}, {"id": 10, "name": "Pinsk", "name_ru": "Pinsk", "tz": "", "district": "Brestskaya Voblasts’"}, {"id": 11, "name": "Orsha", "name_ru": "Orsha", "tz": "", "district": "Vitsyebskaya Voblasts’"}, {"id": 12, "name": "Mazyr", "name_ru": "Mazyr", "tz": "", "district": "Homyel’skaya Voblasts’"}, {"id": 13, "name": "Lida", "name_ru": "Lida", "tz": "", "district": "Hrodzyenskaya Voblasts’"}, {"id": 14, "name": "Salihorsk", "name_ru": "Salihorsk", "tz": "", "district": "Minskaya Voblasts’"}, {"id": 15, "name": "Navapolatsk", "name_ru": "Navapolatsk", "tz": "", "district": "Vitsyebskaya Voblasts’"}, {"id": 16, "name": "Maladzyechna", "name_ru": "Maladzyechna", "tz": "", "district": "Minskaya Voblasts’"}, {"id": 17, "name": "Polatsk", "name_ru": "Polatsk", "tz": "", "district": "Vitsyebskaya Voblasts’"}, {"id": 18, "name": "Svyetlahorsk", "name_ru": "Svyetlahorsk", "tz": "", "district": "Homyel’skaya Voblasts’"}, {"id": 19, "name": "Slutsk", "name_ru": "Slutsk", "tz": "", "district": "Minskaya Voblasts’"}, {"id": 20, "name": "Kobryn", "name_ru": "Kobryn", "tz": "", "district": "Brestskaya Voblasts’"}, {"id": 21, "name": "Slonim", "name_ru": "Slonim", "tz": "", "district": "Hrodzyenskaya Voblasts’"}, {"id": 22, "name": "Vawkavysk", "name_ru": "Vawkavysk", "tz": "", "district": "Hrodzyenskaya Voblasts’"}, {"id": 23, "name": "Kalinkavichy", "name_ru": "Kalinkavichy", "tz": "", "district": "Homyel’skaya Voblasts’"}, {"id": 24, "name": "Smarhon'", "name_ru": "Smarhon’", "tz": "", "district": "Hrodzyenskaya Voblasts’"}, {"id": 25, "name": "Horki", "name_ru": "Horki", "tz": "", "district": "Mahilyowskaya Voblasts’"}, {"id": 26, "name": "Asipovichy", "name_ru": "Asipovichy", "tz": "", "district": "Mahilyowskaya Voblasts’"}, {"id": 27, "name": "Dzyarzhynsk", "name_ru": "Dzyarzhynsk", "tz": "", "district": "Minskaya Voblasts’"}, {"id": 28, "name": "Byaroza", "name_ru": "Byaroza", "tz": "", "district": "Brestskaya Voblasts’"}, {"id": 29, "name": "Navahrudak", "name_ru": "Navahrudak", "tz": "", "district": "Hrodzyenskaya Voblasts’"}, {"id": 30, "name": "Vilyeyka", "name_ru": "Vilyeyka", "tz": "", "district": "Minskaya Voblasts’"}, {"id": 31, "name": "Krychaw", "name_ru": "Krychaw", "tz": "", "district": "Mahilyowskaya Voblasts’"}, {"id": 32, "name": "Luninyets", "name_ru": "Luninyets", "tz": "", "district": "Brestskaya Voblasts’"}, {"id": 33, "name": "Mar''ina Horka", "name_ru": "Mar’’ina Horka", "tz": "", "district": "Minskaya Voblasts’"}, {"id": 34, "name": "Pastavy", "name_ru": "Pastavy", "tz": "", "district": "Vitsyebskaya Voblasts’"}, {"id": 35, "name": "Pruzhany", "name_ru": "Pruzhany", "tz": "", "district": "Brestskaya Voblasts’"}, {"id": 36, "name": "Dobrush", "name_ru": "Dobrush", "tz": "", "district": "Homyel’skaya Voblasts’"}, {"id": 37, "name": "Hlybokaye", "name_ru": "Hlybokaye", "tz": "", "district": "Vitsyebskaya Voblasts’"}, {"id": 38, "name": "Zaslawye", "name_ru": "Zaslawye", "tz": "", "district": "Minskaya Voblasts’"}, {"id": 39, "name": "Fanipal'", "name_ru": "Fanipal’", "tz": "", "district": "Minskaya Voblasts’"}, {"id": 40, "name": "Stowbtsy", "name_ru": "Stowbtsy", "tz": "", "district": "Minskaya Voblasts’"}, {"id": 41, "name": "Ashmyany", "name_ru": "Ashmyany", "tz": "", "district": "Hrodzyenskaya Voblasts’"}, {"id": 42, "name": "Ivanava", "name_ru": "Ivanava", "tz": "", "district": "Brestskaya Voblasts’"}, {"id": 43, "name": "Klimavichy", "name_ru": "Klimavichy", "tz": "", "district": "Mahilyowskaya Voblasts’"}, {"id": 44, "name": "Lahoysk", "name_ru": "Lahoysk", "tz": "", "district": "Minskaya Voblasts’"}, {"id": 45, "name": "Masty", "name_ru": "Masty", "tz": "", "district": "Hrodzyenskaya Voblasts’"}, {"id": 46, "name": "Drahichyn", "name_ru": "Drahichyn", "tz": "", "district": "Brestskaya Voblasts’"}, {"id": 47, "name": "Astravyets", "name_ru": "Astravyets", "tz": "", "district": "Hrodzyenskaya Voblasts’"}, {"id": 48, "name": "Khoyniki", "name_ru": "Khoyniki", "tz": "", "district": "Homyel’skaya Voblasts’"}, {"id": 49, "name": "Stolin", "name_ru": "Stolin", "tz": "", "district": "Brestskaya Voblasts’"}, {"id": 50, "name": "Malaryta", "name_ru": "Malaryta", "tz": "", "district": "Brestskaya Voblasts’"}, {"id": 51, "name": "Mikashevichy", "name_ru": "Mikashevichy", "tz": "", "district": "Brestskaya Voblasts’"}, {"id": 52, "name": "Novalukoml'", "name_ru": "Novalukoml’", "tz": "", "district": "Vitsyebskaya Voblasts’"}, {"id": 53, "name": "Haradok", "name_ru": "Haradok", "tz": "", "district": "Vitsyebskaya Voblasts’"}, {"id": 54, "name": "Lyuban'", "name_ru": "Lyuban’", "tz": "", "district": "Minskaya Voblasts’"}, {"id": 55, "name": "Klyetsk", "name_ru": "Klyetsk", "tz": "", "district": "Minskaya Voblasts’"}, {"id": 56, "name": "Byerazino", "name_ru": "Byerazino", "tz": "", "district": "Minskaya Voblasts’"}, {"id": 57, "name": "Staryya Darohi", "name_ru": "Staryya Darohi", "tz": "", "district": "Minskaya Voblasts’"}, {"id": 58, "name": "Byelaazyorsk", "name_ru": "Byelaazyorsk", "tz": "", "district": "Brestskaya Voblasts’"}, {"id": 59, "name": "Uzda", "name_ru": "Uzda", "tz": "", "district": "Minskaya Voblasts’"}, {"id": 60, "name": "Baran'", "name_ru": "Baran’", "tz": "", "district": "Vitsyebskaya Voblasts’"}, {"id": 61, "name": "Kapyl'", "name_ru": "Kapyl’", "tz": "", "district": "Minskaya Voblasts’"}, {"id": 62, "name": "Mstsislaw", "name_ru": "Mstsislaw", "tz": "", "district": "Mahilyowskaya Voblasts’"}, {"id": 63, "name": "Skidal'", "name_ru": "Skidal’", "tz": "", "district": "Hrodzyenskaya Voblasts’"}, {"id": 64, "name": "Byarozawka", "name_ru": "Byarozawka", "tz": "", "district": "Hrodzyenskaya Voblasts’"}, {"id": 65, "name": "Valozhyn", "name_ru": "Valozhyn", "tz": "", "district": "Minskaya Voblasts’"}, {"id": 66, "name": "Pyetrykaw", "name_ru": "Pyetrykaw", "tz": "", "district": "Homyel’skaya Voblasts’"}, {"id": 67, "name": "Byalynichy", "name_ru": "Byalynichy", "tz": "", "district": "Mahilyowskaya Voblasts’"}, {"id": 68, "name": "Talachyn", "name_ru": "Talachyn", "tz": "", "district": "Vitsyebskaya Voblasts’"}, {"id": 69, "name": "Braslaw", "name_ru": "Braslaw", "tz": "", "district": "Vitsyebskaya Voblasts’"}, {"id": 70, "name": "Buda-Kashalyova", "name_ru": "Buda-Kashalyova", "tz": "", "district": "Homyel’skaya Voblasts’"}, {"id": 71, "name": "Krupki", "name_ru": "Krupki", "tz": "", "district": "Minskaya Voblasts’"}, {"id": 72, "name": "Vyetka", "name_ru": "Vyetka", "tz": "", "district": "Homyel’skaya Voblasts’"}, {"id": 73, "name": "Narowlya", "name_ru": "Narowlya", "tz": "", "district": "Homyel’skaya Voblasts’"}, {"id": 74, "name": "Kamyanyets", "name_ru": "Kamyanyets", "tz": "", "district": "Brestskaya Voblasts’"}, {"id": 75, "name": "Kirawsk", "name_ru": "Kirawsk", "tz": "", "district": "Mahilyowskaya Voblasts’"}, {"id": 76, "name": "Dzyatlava", "name_ru": "Dzyatlava", "tz": "", "district": "Hrodzyenskaya Voblasts’"}, {"id": 77, "name": "Slawharad", "name_ru": "Slawharad", "tz": "", "district": "Mahilyowskaya Voblasts’"}, {"id": 78, "name": "Cherykaw", "name_ru": "Cherykaw", "tz": "", "district": "Mahilyowskaya Voblasts’"}, {"id": 79, "name": "Myory", "name_ru": "Myory", "tz": "", "district": "Vitsyebskaya Voblasts’"}, {"id": 80, "name": "Kruhlaye", "name_ru": "Kruhlaye", "tz": "", "district": "Mahilyowskaya Voblasts’"}, {"id": 81, "name": "Syanno", "name_ru": "Syanno", "tz": "", "district": "Vitsyebskaya Voblasts’"}, {"id": 82, "name": "Iwye", "name_ru": "Iwye", "tz": "", "district": "Hrodzyenskaya Voblasts’"}, {"id": 83, "name": "Klichaw", "name_ru": "Klichaw", "tz": "", "district": "Mahilyowskaya Voblasts’"}, {"id": 84, "name": "Myadzyel", "name_ru": "Myadzyel", "tz": "", "district": "Minskaya Voblasts’"}, {"id": 85, "name": "Vyerkhnyadzvinsk", "name_ru": "Vyerkhnyadzvinsk", "tz": "", "district": "Vitsyebskaya Voblasts’"}, {"id": 86, "name": "Dubrowna", "name_ru": "Dubrowna", "tz": "", "district": "Vitsyebskaya Voblasts’"}, {"id": 87, "name": "Svislach", "name_ru": "Svislach", "tz": "", "district": "Hrodzyenskaya Voblasts’"}, {"id": 88, "name": "Davyd-Haradok", "name_ru": "Davyd-Haradok", "tz": "", "district": "Brestskaya Voblasts’"}]