[{"id": 1, "name": "Toronto", "name_ru": "Toronto", "tz": "America/Toronto", "district": "Ontario"}, {"id": 2, "name": "Montreal", "name_ru": "Montréal", "tz": "America/Toronto", "district": "Quebec"}, {"id": 3, "name": "Vancouver", "name_ru": "Vancouver", "tz": "America/Vancouver", "district": "British Columbia"}, {"id": 4, "name": "Calgary", "name_ru": "Calgary", "tz": "America/Edmonton", "district": "Alberta"}, {"id": 5, "name": "Edmonton", "name_ru": "Edmonton", "tz": "America/Edmonton", "district": "Alberta"}, {"id": 6, "name": "Ottawa", "name_ru": "Ottawa", "tz": "America/Toronto", "district": "Ontario"}, {"id": 7, "name": "Winnipeg", "name_ru": "Winnipeg", "tz": "America/Winnipeg", "district": "Manitoba"}, {"id": 8, "name": "Quebec City", "name_ru": "Quebec City", "tz": "America/Toronto", "district": "Quebec"}, {"id": 9, "name": "Kitchener", "name_ru": "Kitchener", "tz": "America/Toronto", "district": "Ontario"}, {"id": 10, "name": "Halifax", "name_ru": "Halifax", "tz": "America/Halifax", "district": "Nova Scotia"}, {"id": 11, "name": "Victoria", "name_ru": "Victoria", "tz": "America/Vancouver", "district": "British Columbia"}, {"id": 12, "name": "Mississauga", "name_ru": "Mississauga", "tz": "America/Toronto", "district": "Ontario"}, {"id": 13, "name": "Hamilton", "name_ru": "Hamilton", "tz": "America/Toronto", "district": "Ontario"}, {"id": 14, "name": "Brampton", "name_ru": "Brampton", "tz": "America/Toronto", "district": "Ontario"}, {"id": 15, "name": "Surrey", "name_ru": "Surrey", "tz": "America/Vancouver", "district": "British Columbia"}, {"id": 16, "name": "Laval", "name_ru": "Laval", "tz": "America/Toronto", "district": "Quebec"}, {"id": 17, "name": "London", "name_ru": "London", "tz": "America/Toronto", "district": "Ontario"}, {"id": 18, "name": "Markham", "name_ru": "Markham", "tz": "America/Toronto", "district": "Ontario"}, {"id": 19, "name": "St. Catharines", "name_ru": "St. Catharines", "tz": "America/Toronto", "district": "Ontario"}, {"id": 20, "name": "Niagara Falls", "name_ru": "Niagara Falls", "tz": "America/Toronto", "district": "Ontario"}, {"id": 21, "name": "Vaughan", "name_ru": "Vaughan", "tz": "America/Toronto", "district": "Ontario"}, {"id": 22, "name": "Gatineau", "name_ru": "Gatineau", "tz": "America/Toronto", "district": "Quebec"}, {"id": 23, "name": "Windsor", "name_ru": "Windsor", "tz": "America/Toronto", "district": "Ontario"}, {"id": 24, "name": "Saskatoon", "name_ru": "Saskatoon", "tz": "America/Regina", "district": "Saskatchewan"}, {"id": 25, "name": "Longueuil", "name_ru": "Longueuil", "tz": "America/Toronto", "district": "Quebec"}, {"id": 26, "name": "Burnaby", "name_ru": "Burnaby", "tz": "America/Vancouver", "district": "British Columbia"}, {"id": 27, "name": "Regina", "name_ru": "Regina", "tz": "America/Regina", "district": "Saskatchewan"}, {"id": 28, "name": "Richmond", "name_ru": "Richmond", "tz": "America/Vancouver", "district": "British Columbia"}, {"id": 29, "name": "Richmond Hill", "name_ru": "Richmond Hill", "tz": "America/Toronto", "district": "Ontario"}, {"id": 30, "name": "Oakville", "name_ru": "Oakville", "tz": "America/Toronto", "district": "Ontario"}, {"id": 31, "name": "Burlington", "name_ru": "Burlington", "tz": "America/Toronto", "district": "Ontario"}, {"id": 32, "name": "Barrie", "name_ru": "Barrie", "tz": "America/Toronto", "district": "Ontario"}, {"id": 33, "name": "Oshawa", "name_ru": "Oshawa", "tz": "America/Toronto", "district": "Ontario"}, {"id": 34, "name": "Sherbrooke", "name_ru": "Sherbrooke", "tz": "America/Toronto", "district": "Quebec"}, {"id": 35, "name": "Saguenay", "name_ru": "Saguenay", "tz": "America/Toronto", "district": "Quebec"}, {"id": 36, "name": "Levis", "name_ru": "Lévis", "tz": "America/Toronto", "district": "Quebec"}, {"id": 37, "name": "Kelowna", "name_ru": "Kelowna", "tz": "America/Vancouver", "district": "British Columbia"}, {"id": 38, "name": "Abbotsford", "name_ru": "Abbotsford", "tz": "America/Vancouver", "district": "British Columbia"}, {"id": 39, "name": "Coquitlam", "name_ru": "Coquitlam", "tz": "America/Vancouver", "district": "British Columbia"}, {"id": 40, "name": "Trois-Rivieres", "name_ru": "Trois-Rivières", "tz": "America/Toronto", "district": "Quebec"}, {"id": 41, "name": "Guelph", "name_ru": "Guelph", "tz": "America/Toronto", "district": "Ontario"}, {"id": 42, "name": "Cambridge", "name_ru": "Cambridge", "tz": "America/Toronto", "district": "Ontario"}, {"id": 43, "name": "Whitby", "name_ru": "Whitby", "tz": "America/Toronto", "district": "Ontario"}, {"id": 44, "name": "Ajax", "name_ru": "Ajax", "tz": "America/Toronto", "district": "Ontario"}, {"id": 45, "name": "Langley", "name_ru": "Langley", "tz": "America/Vancouver", "district": "British Columbia"}, {"id": 46, "name": "Saanich", "name_ru": "Saanich", "tz": "America/Vancouver", "district": "British Columbia"}, {"id": 47, "name": "Terrebonne", "name_ru": "Terrebonne", "tz": "America/Toronto", "district": "Quebec"}, {"id": 48, "name": "Milton", "name_ru": "Milton", "tz": "America/Toronto", "district": "Ontario"}, {"id": 49, "name": "St. John's", "name_ru": "St. John's", "tz": "America/St_Johns", "district": "Newfoundland and Labrador"}, {"id": 50, "name": "Moncton", "name_ru": "Moncton", "tz": "America/Moncton", "district": "New Brunswick"}, {"id": 51, "name": "Thunder Bay", "name_ru": "Thunder Bay", "tz": "America/Toronto", "district": "Ontario"}, {"id": 52, "name": "Dieppe", "name_ru": "Dieppe", "tz": "America/Moncton", "district": "New Brunswick"}, {"id": 53, "name": "Waterloo", "name_ru": "Waterloo", "tz": "America/Toronto", "district": "Ontario"}, {"id": 54, "name": "Delta", "name_ru": "Delta", "tz": "America/Vancouver", "district": "British Columbia"}, {"id": 55, "name": "Chatham", "name_ru": "Chatham", "tz": "America/Toronto", "district": "Ontario"}, {"id": 56, "name": "Red Deer", "name_ru": "Red Deer", "tz": "America/Edmonton", "district": "Alberta"}, {"id": 57, "name": "Kamloops", "name_ru": "Kamloops", "tz": "America/Vancouver", "district": "British Columbia"}, {"id": 58, "name": "Newmarket", "name_ru": "Newmarket", "tz": "America/Toronto", "district": "Ontario"}, {"id": 59, "name": "White Rock", "name_ru": "White Rock", "tz": "America/Vancouver", "district": "British Columbia"}, {"id": 60, "name": "New Westminster", "name_ru": "New Westminster", "tz": "America/Vancouver", "district": "British Columbia"}, {"id": 61, "name": "Port Coquitlam", "name_ru": "Port Coquitlam", "tz": "America/Vancouver", "district": "British Columbia"}, {"id": 62, "name": "Dollard-des-Ormeaux", "name_ru": "Dollard-des-Ormeaux", "tz": "America/Toronto", "district": "Quebec"}, {"id": 63, "name": "Duncan", "name_ru": "Duncan", "tz": "America/Vancouver", "district": "British Columbia"}, {"id": 64, "name": "Cote-Saint-Luc", "name_ru": "Côte-Saint-Luc", "tz": "America/Toronto", "district": "Quebec"}, {"id": 65, "name": "Sainte-Therese", "name_ru": "Sainte-Thérèse", "tz": "America/Toronto", "district": "Quebec"}, {"id": 66, "name": "Saint-Lambert", "name_ru": "Saint-Lambert", "tz": "America/Toronto", "district": "Quebec"}, {"id": 67, "name": "Kirkland", "name_ru": "Kirkland", "tz": "America/Toronto", "district": "Quebec"}, {"id": 68, "name": "Westmount", "name_ru": "Westmount", "tz": "America/Toronto", "district": "Quebec"}, {"id": 69, "name": "Mont-Royal", "name_ru": "Mont-Royal", "tz": "America/Toronto", "district": "Quebec"}, {"id": 70, "name": "Sainte-Marthe-sur-le-Lac", "name_ru": "Sainte-Marthe-sur-le-Lac", "tz": "America/Toronto", "district": "Quebec"}, {"id": 71, "name": "Esquimalt", "name_ru": "Esquimalt", "tz": "America/Vancouver", "district": "British Columbia"}, {"id": 72, "name": "Deux-Montagnes", "name_ru": "Deux-Montagnes", "tz": "America/Toronto", "district": "Quebec"}, {"id": 73, "name": "L'Ancienne-Lorette", "name_ru": "L’Ancienne-Lorette", "tz": "America/Toronto", "district": "Quebec"}, {"id": 74, "name": "Pincourt", "name_ru": "Pincourt", "tz": "America/Toronto", "district": "Quebec"}, {"id": 75, "name": "Sidney", "name_ru": "Sidney", "tz": "America/Vancouver", "district": "British Columbia"}, {"id": 76, "name": "Bois-des-Filion", "name_ru": "Bois-des-Filion", "tz": "America/Toronto", "district": "Quebec"}, {"id": 77, "name": "Hampstead", "name_ru": "Hampstead", "tz": "America/Toronto", "district": "Quebec"}, {"id": 78, "name": "Charlemagne", "name_ru": "Charlemagne", "tz": "America/Toronto", "district": "Quebec"}, {"id": 79, "name": "L'Epiphanie", "name_ru": "L’Epiphanie", "tz": "America/Toronto", "district": "Quebec"}, {"id": 80, "name": "Montreal-Ouest", "name_ru": "Montréal-Ouest", "tz": "America/Toronto", "district": "Quebec"}, {"id": 81, "name": "Brantford", "name_ru": "Brantford", "tz": "America/Toronto", "district": "Ontario"}, {"id": 82, "name": "Cape Breton", "name_ru": "Cape Breton", "tz": "America/Glace_Bay", "district": "Nova Scotia"}, {"id": 83, "name": "Lethbridge", "name_ru": "Lethbridge", "tz": "America/Edmonton", "district": "Alberta"}, {"id": 84, "name": "Saint-Jean-sur-Richelieu", "name_ru": "Saint-Jean-sur-Richelieu", "tz": "America/Toronto", "district": "Quebec"}, {"id": 85, "name": "Clarington", "name_ru": "Clarington", "tz": "America/Toronto", "district": "Ontario"}, {"id": 86, "name": "Pickering", "name_ru": "Pickering", "tz": "America/Toronto", "district": "Ontario"}, {"id": 87, "name": "Nanaimo", "name_ru": "Nanaimo", "tz": "America/Vancouver", "district": "British Columbia"}, {"id": 88, "name": "Sudbury", "name_ru": "Sudbury", "tz": "America/Toronto", "district": "Ontario"}, {"id": 89, "name": "North Vancouver", "name_ru": "North Vancouver", "tz": "America/Vancouver", "district": "British Columbia"}, {"id": 90, "name": "Brossard", "name_ru": "Brossard", "tz": "America/Toronto", "district": "Quebec"}, {"id": 91, "name": "Repentigny", "name_ru": "Repentigny", "tz": "America/Toronto", "district": "Quebec"}, {"id": 92, "name": "Chilliwack", "name_ru": "Chilliwack", "tz": "America/Vancouver", "district": "British Columbia"}, {"id": 93, "name": "Maple Ridge", "name_ru": "Maple Ridge", "tz": "America/Vancouver", "district": "British Columbia"}, {"id": 94, "name": "Peterborough", "name_ru": "Peterborough", "tz": "America/Toronto", "district": "Ontario"}, {"id": 95, "name": "Kawartha Lakes", "name_ru": "Kawartha Lakes", "tz": "America/Toronto", "district": "Ontario"}, {"id": 96, "name": "Prince George", "name_ru": "Prince George", "tz": "America/Vancouver", "district": "British Columbia"}, {"id": 97, "name": "Sault Ste. Marie", "name_ru": "Sault Ste. Marie", "tz": "America/Toronto", "district": "Ontario"}, {"id": 98, "name": "Sarnia", "name_ru": "Sarnia", "tz": "America/Toronto", "district": "Ontario"}, {"id": 99, "name": "Wood Buffalo", "name_ru": "Wood Buffalo", "tz": "America/Edmonton", "district": "Alberta"}, {"id": 100, "name": "Chateauguay", "name_ru": "Châteauguay", "tz": "America/Toronto", "district": "Quebec"}, {"id": 101, "name": "Saint-Jerome", "name_ru": "Saint-Jérôme", "tz": "America/Toronto", "district": "Quebec"}, {"id": 102, "name": "Drummondville", "name_ru": "Drummondville", "tz": "America/Toronto", "district": "Quebec"}, {"id": 103, "name": "Saint John", "name_ru": "Saint John", "tz": "America/Moncton", "district": "New Brunswick"}, {"id": 104, "name": "Caledon", "name_ru": "Caledon", "tz": "America/Toronto", "district": "Ontario"}, {"id": 105, "name": "St. Albert", "name_ru": "St. Albert", "tz": "America/Edmonton", "district": "Alberta"}, {"id": 106, "name": "Granby", "name_ru": "Granby", "tz": "America/Toronto", "district": "Quebec"}, {"id": 107, "name": "Medicine Hat", "name_ru": "Medicine Hat", "tz": "America/Edmonton", "district": "Alberta"}, {"id": 108, "name": "Grande Prairie", "name_ru": "Grande Prairie", "tz": "America/Edmonton", "district": "Alberta"}, {"id": 109, "name": "St. Thomas", "name_ru": "St. Thomas", "tz": "America/Toronto", "district": "Ontario"}, {"id": 110, "name": "Airdrie", "name_ru": "Airdrie", "tz": "America/Edmonton", "district": "Alberta"}, {"id": 111, "name": "Halton Hills", "name_ru": "Halton Hills", "tz": "America/Toronto", "district": "Ontario"}, {"id": 112, "name": "Saint-Hyacinthe", "name_ru": "Saint-Hyacinthe", "tz": "America/Toronto", "district": "Quebec"}, {"id": 113, "name": "Lac-Brome", "name_ru": "Lac-Brome", "tz": "America/Toronto", "district": "Quebec"}, {"id": 114, "name": "Fredericton", "name_ru": "Fredericton", "tz": "America/Moncton", "district": "New Brunswick"}, {"id": 115, "name": "Blainville", "name_ru": "Blainville", "tz": "America/Toronto", "district": "Quebec"}, {"id": 116, "name": "Aurora", "name_ru": "Aurora", "tz": "America/Toronto", "district": "Ontario"}, {"id": 117, "name": "Welland", "name_ru": "Welland", "tz": "America/Toronto", "district": "Ontario"}, {"id": 118, "name": "North Bay", "name_ru": "North Bay", "tz": "America/Toronto", "district": "Ontario"}, {"id": 119, "name": "Beloeil", "name_ru": "Beloeil", "tz": "America/Toronto", "district": "Quebec"}, {"id": 120, "name": "Belleville", "name_ru": "Belleville", "tz": "America/Toronto", "district": "Ontario"}, {"id": 121, "name": "Mirabel", "name_ru": "Mirabel", "tz": "America/Toronto", "district": "Quebec"}, {"id": 122, "name": "Shawinigan", "name_ru": "Shawinigan", "tz": "America/Toronto", "district": "Quebec"}, {"id": 123, "name": "Brandon", "name_ru": "Brandon", "tz": "America/Winnipeg", "district": "Manitoba"}, {"id": 124, "name": "Rimouski", "name_ru": "Rimouski", "tz": "America/Toronto", "district": "Quebec"}, {"id": 125, "name": "Cornwall", "name_ru": "Cornwall", "tz": "America/Toronto", "district": "Ontario"}, {"id": 126, "name": "Stouffville", "name_ru": "Stouffville", "tz": "America/Toronto", "district": "Ontario"}, {"id": 127, "name": "Georgina", "name_ru": "Georgina", "tz": "America/Toronto", "district": "Ontario"}, {"id": 128, "name": "Victoriaville", "name_ru": "Victoriaville", "tz": "America/Toronto", "district": "Quebec"}, {"id": 129, "name": "Vernon", "name_ru": "Vernon", "tz": "America/Vancouver", "district": "British Columbia"}, {"id": 130, "name": "Saint-Eustache", "name_ru": "Saint-Eustache", "tz": "America/Toronto", "district": "Quebec"}, {"id": 131, "name": "Quinte West", "name_ru": "Quinte West", "tz": "America/Toronto", "district": "Ontario"}, {"id": 132, "name": "Charlottetown", "name_ru": "Charlottetown", "tz": "America/Halifax", "district": "Prince Edward Island"}, {"id": 133, "name": "Mascouche", "name_ru": "Mascouche", "tz": "America/Toronto", "district": "Quebec"}, {"id": 134, "name": "West Vancouver", "name_ru": "West Vancouver", "tz": "America/Vancouver", "district": "British Columbia"}, {"id": 135, "name": "Salaberry-de-Valleyfield", "name_ru": "Salaberry-de-Valleyfield", "tz": "America/Toronto", "district": "Quebec"}, {"id": 136, "name": "Rouyn-Noranda", "name_ru": "Rouyn-Noranda", "tz": "America/Toronto", "district": "Quebec"}, {"id": 137, "name": "Timmins", "name_ru": "Timmins", "tz": "America/Toronto", "district": "Ontario"}, {"id": 138, "name": "Sorel-Tracy", "name_ru": "Sorel-Tracy", "tz": "America/Toronto", "district": "Quebec"}, {"id": 139, "name": "New Tecumseth", "name_ru": "New Tecumseth", "tz": "America/Toronto", "district": "Ontario"}, {"id": 140, "name": "Woodstock", "name_ru": "Woodstock", "tz": "America/Toronto", "district": "Ontario"}, {"id": 141, "name": "Boucherville", "name_ru": "Boucherville", "tz": "America/Toronto", "district": "Quebec"}, {"id": 142, "name": "Mission", "name_ru": "Mission", "tz": "America/Vancouver", "district": "British Columbia"}, {"id": 143, "name": "Vaudreuil-Dorion", "name_ru": "Vaudreuil-Dorion", "tz": "America/Toronto", "district": "Quebec"}, {"id": 144, "name": "Brant", "name_ru": "Brant", "tz": "America/Toronto", "district": "Ontario"}, {"id": 145, "name": "Lakeshore", "name_ru": "Lakeshore", "tz": "America/Toronto", "district": "Ontario"}, {"id": 146, "name": "Innisfil", "name_ru": "Innisfil", "tz": "America/Toronto", "district": "Ontario"}, {"id": 147, "name": "Prince Albert", "name_ru": "Prince Albert", "tz": "America/Regina", "district": "Saskatchewan"}, {"id": 148, "name": "Langford Station", "name_ru": "Langford Station", "tz": "America/Vancouver", "district": "British Columbia"}, {"id": 149, "name": "Bradford West Gwillimbury", "name_ru": "Bradford West Gwillimbury", "tz": "America/Toronto", "district": "Ontario"}, {"id": 150, "name": "Campbell River", "name_ru": "Campbell River", "tz": "America/Vancouver", "district": "British Columbia"}, {"id": 151, "name": "Spruce Grove", "name_ru": "Spruce Grove", "tz": "America/Edmonton", "district": "Alberta"}, {"id": 152, "name": "Moose Jaw", "name_ru": "Moose Jaw", "tz": "America/Regina", "district": "Saskatchewan"}, {"id": 153, "name": "Penticton", "name_ru": "Penticton", "tz": "America/Vancouver", "district": "British Columbia"}, {"id": 154, "name": "Port Moody", "name_ru": "Port Moody", "tz": "America/Vancouver", "district": "British Columbia"}, {"id": 155, "name": "Leamington", "name_ru": "Leamington", "tz": "America/Toronto", "district": "Ontario"}, {"id": 156, "name": "East Kelowna", "name_ru": "East Kelowna", "tz": "America/Vancouver", "district": "British Columbia"}, {"id": 157, "name": "Val-d'Or", "name_ru": "Val-d’Or", "tz": "America/Toronto", "district": "Quebec"}, {"id": 158, "name": "Owen Sound", "name_ru": "Owen Sound", "tz": "America/Toronto", "district": "Ontario"}, {"id": 159, "name": "Stratford", "name_ru": "Stratford", "tz": "America/Toronto", "district": "Ontario"}, {"id": 160, "name": "Lloydminster", "name_ru": "Lloydminster", "tz": "America/Edmonton", "district": "Saskatchewan"}, {"id": 161, "name": "Pointe-Claire", "name_ru": "Pointe-Claire", "tz": "America/Toronto", "district": "Quebec"}, {"id": 162, "name": "Orillia", "name_ru": "Orillia", "tz": "America/Toronto", "district": "Ontario"}, {"id": 163, "name": "Alma", "name_ru": "Alma", "tz": "America/Toronto", "district": "Quebec"}, {"id": 164, "name": "Orangeville", "name_ru": "Orangeville", "tz": "America/Toronto", "district": "Ontario"}, {"id": 165, "name": "Fort Erie", "name_ru": "Fort Erie", "tz": "America/Toronto", "district": "Ontario"}, {"id": 166, "name": "LaSalle", "name_ru": "LaSalle", "tz": "America/Toronto", "district": "Ontario"}, {"id": 167, "name": "Sainte-Julie", "name_ru": "Sainte-Julie", "tz": "America/Toronto", "district": "Quebec"}, {"id": 168, "name": "Leduc", "name_ru": "Leduc", "tz": "America/Edmonton", "district": "Alberta"}, {"id": 169, "name": "North Cowichan", "name_ru": "North Cowichan", "tz": "America/Vancouver", "district": "British Columbia"}, {"id": 170, "name": "Chambly", "name_ru": "Chambly", "tz": "America/Toronto", "district": "Quebec"}, {"id": 171, "name": "Okotoks", "name_ru": "Okotoks", "tz": "America/Edmonton", "district": "Alberta"}, {"id": 172, "name": "Sept-Iles", "name_ru": "Sept-Îles", "tz": "America/Toronto", "district": "Quebec"}, {"id": 173, "name": "Centre Wellington", "name_ru": "Centre Wellington", "tz": "America/Toronto", "district": "Ontario"}, {"id": 174, "name": "Saint-Constant", "name_ru": "Saint-Constant", "tz": "America/Toronto", "district": "Quebec"}, {"id": 175, "name": "Grimsby", "name_ru": "Grimsby", "tz": "America/Toronto", "district": "Ontario"}, {"id": 176, "name": "Boisbriand", "name_ru": "Boisbriand", "tz": "America/Toronto", "district": "Quebec"}, {"id": 177, "name": "Conception Bay South", "name_ru": "Conception Bay South", "tz": "America/St_Johns", "district": "Newfoundland and Labrador"}, {"id": 178, "name": "Saint-Bruno-de-Montarville", "name_ru": "Saint-Bruno-de-Montarville", "tz": "America/Toronto", "district": "Quebec"}, {"id": 179, "name": "Cochrane", "name_ru": "Cochrane", "tz": "America/Edmonton", "district": "Alberta"}, {"id": 180, "name": "Thetford Mines", "name_ru": "Thetford Mines", "tz": "America/Toronto", "district": "Quebec"}, {"id": 181, "name": "Courtenay", "name_ru": "Courtenay", "tz": "America/Vancouver", "district": "British Columbia"}, {"id": 182, "name": "Magog", "name_ru": "Magog", "tz": "America/Toronto", "district": "Quebec"}, {"id": 183, "name": "Whitehorse", "name_ru": "Whitehorse", "tz": "America/Whitehorse", "district": "Yukon"}, {"id": 184, "name": "Woolwich", "name_ru": "Woolwich", "tz": "America/Toronto", "district": "Ontario"}, {"id": 185, "name": "Clarence-Rockland", "name_ru": "Clarence-Rockland", "tz": "America/Toronto", "district": "Ontario"}, {"id": 186, "name": "Fort Saskatchewan", "name_ru": "Fort Saskatchewan", "tz": "America/Edmonton", "district": "Alberta"}, {"id": 187, "name": "East Gwillimbury", "name_ru": "East Gwillimbury", "tz": "America/Toronto", "district": "Ontario"}, {"id": 188, "name": "Lincoln", "name_ru": "Lincoln", "tz": "America/Toronto", "district": "Ontario"}, {"id": 189, "name": "La Prairie", "name_ru": "La Prairie", "tz": "America/Toronto", "district": "Quebec"}, {"id": 190, "name": "Tecumseh", "name_ru": "Tecumseh", "tz": "America/Toronto", "district": "Ontario"}, {"id": 191, "name": "Mount Pearl Park", "name_ru": "Mount Pearl Park", "tz": "America/St_Johns", "district": "Newfoundland and Labrador"}, {"id": 192, "name": "Amherstburg", "name_ru": "Amherstburg", "tz": "America/Toronto", "district": "Ontario"}, {"id": 193, "name": "Brockville", "name_ru": "Brockville", "tz": "America/Toronto", "district": "Ontario"}, {"id": 194, "name": "Collingwood", "name_ru": "Collingwood", "tz": "America/Toronto", "district": "Ontario"}, {"id": 195, "name": "Scugog", "name_ru": "Scugog", "tz": "America/Toronto", "district": "Ontario"}, {"id": 196, "name": "Kingsville", "name_ru": "Kingsville", "tz": "America/Toronto", "district": "Ontario"}, {"id": 197, "name": "Baie-Comeau", "name_ru": "Baie-Comeau", "tz": "America/Toronto", "district": "Quebec"}, {"id": 198, "name": "Paradise", "name_ru": "Paradise", "tz": "America/St_Johns", "district": "Newfoundland and Labrador"}, {"id": 199, "name": "Uxbridge", "name_ru": "Uxbridge", "tz": "America/Toronto", "district": "Ontario"}, {"id": 200, "name": "Essa", "name_ru": "Essa", "tz": "America/Toronto", "district": "Ontario"}, {"id": 201, "name": "Candiac", "name_ru": "Candiac", "tz": "America/Toronto", "district": "Quebec"}, {"id": 202, "name": "Oro-Medonte", "name_ru": "Oro-Medonte", "tz": "America/Toronto", "district": "Ontario"}, {"id": 203, "name": "Varennes", "name_ru": "Varennes", "tz": "America/Toronto", "district": "Quebec"}, {"id": 204, "name": "Strathroy-Caradoc", "name_ru": "Strathroy-Caradoc", "tz": "America/Toronto", "district": "Ontario"}, {"id": 205, "name": "Wasaga Beach", "name_ru": "Wasaga Beach", "tz": "America/Toronto", "district": "Ontario"}, {"id": 206, "name": "New Glasgow", "name_ru": "New Glasgow", "tz": "America/Halifax", "district": "Nova Scotia"}, {"id": 207, "name": "Wilmot", "name_ru": "Wilmot", "tz": "America/Toronto", "district": "Ontario"}, {"id": 208, "name": "Essex", "name_ru": "Essex", "tz": "America/Toronto", "district": "Ontario"}, {"id": 209, "name": "Fort St. John", "name_ru": "Fort St. John", "tz": "America/Dawson_Creek", "district": "British Columbia"}, {"id": 210, "name": "L'Assomption", "name_ru": "L’Assomption", "tz": "America/Toronto", "district": "Quebec"}, {"id": 211, "name": "Saint-Lazare", "name_ru": "Saint-Lazare", "tz": "America/Toronto", "district": "Quebec"}, {"id": 212, "name": "Chestermere", "name_ru": "Chestermere", "tz": "America/Edmonton", "district": "Alberta"}, {"id": 213, "name": "Huntsville", "name_ru": "Huntsville", "tz": "America/Toronto", "district": "Ontario"}, {"id": 214, "name": "Corner Brook", "name_ru": "Corner Brook", "tz": "America/St_Johns", "district": "Newfoundland and Labrador"}, {"id": 215, "name": "Riverview", "name_ru": "Riverview", "tz": "America/Moncton", "district": "New Brunswick"}, {"id": 216, "name": "Lloydminster", "name_ru": "Lloydminster", "tz": "America/Edmonton", "district": "Alberta"}, {"id": 217, "name": "Joliette", "name_ru": "Joliette", "tz": "America/Toronto", "district": "Quebec"}, {"id": 218, "name": "Yellowknife", "name_ru": "Yellowknife", "tz": "America/Edmonton", "district": "Northwest Territories"}, {"id": 219, "name": "Squamish", "name_ru": "Squamish", "tz": "America/Vancouver", "district": "British Columbia"}, {"id": 220, "name": "Riviere-du-Loup", "name_ru": "Rivière-du-Loup", "tz": "America/Toronto", "district": "Quebec"}, {"id": 221, "name": "Cobourg", "name_ru": "Cobourg", "tz": "America/Toronto", "district": "Ontario"}, {"id": 222, "name": "Cranbrook", "name_ru": "Cranbrook", "tz": "America/Edmonton", "district": "British Columbia"}, {"id": 223, "name": "Beaconsfield", "name_ru": "Beaconsfield", "tz": "America/Toronto", "district": "Quebec"}, {"id": 224, "name": "Springwater", "name_ru": "Springwater", "tz": "America/Toronto", "district": "Ontario"}, {"id": 225, "name": "Dorval", "name_ru": "Dorval", "tz": "America/Toronto", "district": "Quebec"}, {"id": 226, "name": "Thorold", "name_ru": "Thorold", "tz": "America/Toronto", "district": "Ontario"}, {"id": 227, "name": "Camrose", "name_ru": "Camrose", "tz": "America/Edmonton", "district": "Alberta"}, {"id": 228, "name": "South Frontenac", "name_ru": "South Frontenac", "tz": "America/Toronto", "district": "Ontario"}, {"id": 229, "name": "Pitt Meadows", "name_ru": "Pitt Meadows", "tz": "America/Vancouver", "district": "British Columbia"}, {"id": 230, "name": "Port Colborne", "name_ru": "Port Colborne", "tz": "America/Toronto", "district": "Ontario"}, {"id": 231, "name": "Quispamsis", "name_ru": "Quispamsis", "tz": "America/Moncton", "district": "New Brunswick"}, {"id": 232, "name": "Mont-Saint-Hilaire", "name_ru": "Mont-Saint-Hilaire", "tz": "America/Toronto", "district": "Quebec"}, {"id": 233, "name": "Bathurst", "name_ru": "Bathurst", "tz": "America/Moncton", "district": "New Brunswick"}, {"id": 234, "name": "Saint-Augustin-de-Desmaures", "name_ru": "Saint-Augustin-de-Desmaures", "tz": "America/Toronto", "district": "Quebec"}, {"id": 235, "name": "Oak Bay", "name_ru": "Oak Bay", "tz": "America/Vancouver", "district": "British Columbia"}, {"id": 236, "name": "Salmon Arm", "name_ru": "Salmon Arm", "tz": "America/Vancouver", "district": "British Columbia"}, {"id": 237, "name": "Port Alberni", "name_ru": "Port Alberni", "tz": "America/Vancouver", "district": "British Columbia"}, {"id": 238, "name": "Miramichi", "name_ru": "Miramichi", "tz": "America/Moncton", "district": "New Brunswick"}, {"id": 239, "name": "Niagara-on-the-Lake", "name_ru": "Niagara-on-the-Lake", "tz": "America/Toronto", "district": "Ontario"}, {"id": 240, "name": "Saint-Lin--Laurentides", "name_ru": "Saint-Lin--Laurentides", "tz": "America/Toronto", "district": "Quebec"}, {"id": 241, "name": "Beaumont", "name_ru": "Beaumont", "tz": "America/Edmonton", "district": "Alberta"}, {"id": 242, "name": "Middlesex Centre", "name_ru": "Middlesex Centre", "tz": "America/Toronto", "district": "Ontario"}, {"id": 243, "name": "Inverness", "name_ru": "Inverness", "tz": "America/Glace_Bay", "district": "Nova Scotia"}, {"id": 244, "name": "Stony Plain", "name_ru": "Stony Plain", "tz": "America/Edmonton", "district": "Alberta"}, {"id": 245, "name": "Petawawa", "name_ru": "Petawawa", "tz": "America/Toronto", "district": "Ontario"}, {"id": 246, "name": "Pelham", "name_ru": "Pelham", "tz": "America/Toronto", "district": "Ontario"}, {"id": 247, "name": "Selwyn", "name_ru": "Selwyn", "tz": "America/Toronto", "district": "Ontario"}, {"id": 248, "name": "Loyalist", "name_ru": "Loyalist", "tz": "America/Toronto", "district": "Ontario"}, {"id": 249, "name": "Midland", "name_ru": "Midland", "tz": "America/Toronto", "district": "Ontario"}, {"id": 250, "name": "Colwood", "name_ru": "Colwood", "tz": "America/Vancouver", "district": "British Columbia"}, {"id": 251, "name": "Central Saanich", "name_ru": "Central Saanich", "tz": "America/Vancouver", "district": "British Columbia"}, {"id": 252, "name": "Sainte-Catherine", "name_ru": "Sainte-Catherine", "tz": "America/Toronto", "district": "Quebec"}, {"id": 253, "name": "Port Hope", "name_ru": "Port Hope", "tz": "America/Toronto", "district": "Ontario"}, {"id": 254, "name": "Saint-Basile-le-Grand", "name_ru": "Saint-Basile-le-Grand", "tz": "America/Toronto", "district": "Quebec"}, {"id": 255, "name": "Swift Current", "name_ru": "Swift Current", "tz": "America/Swift_Current", "district": "Saskatchewan"}, {"id": 256, "name": "Edmundston", "name_ru": "Edmundston", "tz": "America/Moncton", "district": "New Brunswick"}, {"id": 257, "name": "Russell", "name_ru": "Russell", "tz": "America/Toronto", "district": "Ontario"}, {"id": 258, "name": "North Grenville", "name_ru": "North Grenville", "tz": "America/Toronto", "district": "Ontario"}, {"id": 259, "name": "Yorkton", "name_ru": "Yorkton", "tz": "America/Regina", "district": "Saskatchewan"}, {"id": 260, "name": "Tracadie", "name_ru": "Tracadie", "tz": "America/Moncton", "district": "New Brunswick"}, {"id": 261, "name": "Bracebridge", "name_ru": "Bracebridge", "tz": "America/Toronto", "district": "Ontario"}, {"id": 262, "name": "Greater Napanee", "name_ru": "Greater Napanee", "tz": "America/Toronto", "district": "Ontario"}, {"id": 263, "name": "Tillsonburg", "name_ru": "Tillsonburg", "tz": "America/Toronto", "district": "Ontario"}, {"id": 264, "name": "Steinbach", "name_ru": "Steinbach", "tz": "America/Winnipeg", "district": "Manitoba"}, {"id": 265, "name": "Hanover", "name_ru": "Hanover", "tz": "America/Winnipeg", "district": "Manitoba"}, {"id": 266, "name": "Terrace", "name_ru": "Terrace", "tz": "America/Vancouver", "district": "British Columbia"}, {"id": 267, "name": "Springfield", "name_ru": "Springfield", "tz": "America/Winnipeg", "district": "Manitoba"}, {"id": 268, "name": "Gaspe", "name_ru": "Gaspé", "tz": "America/Toronto", "district": "Quebec"}, {"id": 269, "name": "Kenora", "name_ru": "Kenora", "tz": "America/Winnipeg", "district": "Ontario"}, {"id": 270, "name": "Cold Lake", "name_ru": "Cold Lake", "tz": "America/Edmonton", "district": "Alberta"}, {"id": 271, "name": "Summerside", "name_ru": "Summerside", "tz": "America/Halifax", "district": "Prince Edward Island"}, {"id": 272, "name": "Comox", "name_ru": "Comox", "tz": "America/Vancouver", "district": "British Columbia"}, {"id": 273, "name": "Sylvan Lake", "name_ru": "Sylvan Lake", "tz": "America/Edmonton", "district": "Alberta"}, {"id": 274, "name": "West Lincoln", "name_ru": "West Lincoln", "tz": "America/Toronto", "district": "Ontario"}, {"id": 275, "name": "Matane", "name_ru": "Matane", "tz": "America/Toronto", "district": "Quebec"}, {"id": 276, "name": "Brooks", "name_ru": "Brooks", "tz": "America/Edmonton", "district": "Alberta"}, {"id": 277, "name": "Sainte-Anne-des-Plaines", "name_ru": "Sainte-Anne-des-Plaines", "tz": "America/Toronto", "district": "Quebec"}, {"id": 278, "name": "West Nipissing / Nipissing Ouest", "name_ru": "West Nipissing / Nipissing Ouest", "tz": "America/Toronto", "district": "Ontario"}, {"id": 279, "name": "Rosemere", "name_ru": "Rosemère", "tz": "America/Toronto", "district": "Quebec"}, {"id": 280, "name": "Mistassini", "name_ru": "Mistassini", "tz": "America/Toronto", "district": "Quebec"}, {"id": 281, "name": "Grand Falls", "name_ru": "Grand Falls", "tz": "America/St_Johns", "district": "Newfoundland and Labrador"}, {"id": 282, "name": "Clearview", "name_ru": "Clearview", "tz": "America/Toronto", "district": "Ontario"}, {"id": 283, "name": "St. Clair", "name_ru": "St. Clair", "tz": "America/Toronto", "district": "Ontario"}, {"id": 284, "name": "Canmore", "name_ru": "Canmore", "tz": "America/Edmonton", "district": "Alberta"}, {"id": 285, "name": "North Battleford", "name_ru": "North Battleford", "tz": "America/Swift_Current", "district": "Saskatchewan"}, {"id": 286, "name": "Pembroke", "name_ru": "Pembroke", "tz": "America/Toronto", "district": "Ontario"}, {"id": 287, "name": "Mont-Laurier", "name_ru": "Mont-Laurier", "tz": "America/Toronto", "district": "Quebec"}, {"id": 288, "name": "Strathmore", "name_ru": "Strathmore", "tz": "America/Edmonton", "district": "Alberta"}, {"id": 289, "name": "Saugeen Shores", "name_ru": "Saugeen Shores", "tz": "America/Toronto", "district": "Ontario"}, {"id": 290, "name": "Thompson", "name_ru": "Thompson", "tz": "America/Winnipeg", "district": "Manitoba"}, {"id": 291, "name": "Lavaltrie", "name_ru": "Lavaltrie", "tz": "America/Toronto", "district": "Quebec"}, {"id": 292, "name": "High River", "name_ru": "High River", "tz": "America/Edmonton", "district": "Alberta"}, {"id": 293, "name": "Severn", "name_ru": "Severn", "tz": "America/Toronto", "district": "Ontario"}, {"id": 294, "name": "Sainte-Sophie", "name_ru": "Sainte-Sophie", "tz": "America/Toronto", "district": "Quebec"}, {"id": 295, "name": "Saint-Charles-Borromee", "name_ru": "Saint-Charles-Borromée", "tz": "America/Toronto", "district": "Quebec"}, {"id": 296, "name": "Portage La Prairie", "name_ru": "Portage La Prairie", "tz": "America/Winnipeg", "district": "Manitoba"}, {"id": 297, "name": "Thames Centre", "name_ru": "Thames Centre", "tz": "America/Toronto", "district": "Ontario"}, {"id": 298, "name": "Mississippi Mills", "name_ru": "Mississippi Mills", "tz": "America/Toronto", "district": "Ontario"}, {"id": 299, "name": "Powell River", "name_ru": "Powell River", "tz": "America/Vancouver", "district": "British Columbia"}, {"id": 300, "name": "South Glengarry", "name_ru": "South Glengarry", "tz": "America/Toronto", "district": "Ontario"}, {"id": 301, "name": "North Perth", "name_ru": "North Perth", "tz": "America/Toronto", "district": "Ontario"}, {"id": 302, "name": "Mercier", "name_ru": "Mercier", "tz": "America/Toronto", "district": "Quebec"}, {"id": 303, "name": "South Stormont", "name_ru": "South Stormont", "tz": "America/Toronto", "district": "Ontario"}, {"id": 304, "name": "Saint-Colomban", "name_ru": "Saint-Colomban", "tz": "America/Toronto", "district": "Quebec"}, {"id": 305, "name": "Lacombe", "name_ru": "Lacombe", "tz": "America/Edmonton", "district": "Alberta"}, {"id": 306, "name": "Sooke", "name_ru": "Sooke", "tz": "America/Vancouver", "district": "British Columbia"}, {"id": 307, "name": "Dawson Creek", "name_ru": "Dawson Creek", "tz": "America/Dawson_Creek", "district": "British Columbia"}, {"id": 308, "name": "Lake Country", "name_ru": "Lake Country", "tz": "America/Vancouver", "district": "British Columbia"}, {"id": 309, "name": "Trent Hills", "name_ru": "Trent Hills", "tz": "America/Toronto", "district": "Ontario"}, {"id": 310, "name": "Sainte-Marie", "name_ru": "Sainte-Marie", "tz": "America/Toronto", "district": "Quebec"}, {"id": 311, "name": "Guelph/Eramosa", "name_ru": "Guelph/Eramosa", "tz": "America/Toronto", "district": "Ontario"}, {"id": 312, "name": "Truro", "name_ru": "Truro", "tz": "America/Halifax", "district": "Nova Scotia"}, {"id": 313, "name": "Amos", "name_ru": "Amos", "tz": "America/Toronto", "district": "Quebec"}, {"id": 314, "name": "The Nation / La Nation", "name_ru": "The Nation / La Nation", "tz": "America/Toronto", "district": "Ontario"}, {"id": 315, "name": "Ingersoll", "name_ru": "Ingersoll", "tz": "America/Toronto", "district": "Ontario"}, {"id": 316, "name": "Winkler", "name_ru": "Winkler", "tz": "America/Winnipeg", "district": "Manitoba"}, {"id": 317, "name": "Wetaskiwin", "name_ru": "Wetaskiwin", "tz": "America/Edmonton", "district": "Alberta"}, {"id": 318, "name": "Central Elgin", "name_ru": "Central Elgin", "tz": "America/Toronto", "district": "Ontario"}, {"id": 319, "name": "Lachute", "name_ru": "Lachute", "tz": "America/Toronto", "district": "Quebec"}, {"id": 320, "name": "West Grey", "name_ru": "West Grey", "tz": "America/Toronto", "district": "Ontario"}, {"id": 321, "name": "Parksville", "name_ru": "Parksville", "tz": "America/Vancouver", "district": "British Columbia"}, {"id": 322, "name": "Cowansville", "name_ru": "Cowansville", "tz": "America/Toronto", "district": "Quebec"}, {"id": 323, "name": "Becancour", "name_ru": "Bécancour", "tz": "America/Toronto", "district": "Quebec"}, {"id": 324, "name": "Gravenhurst", "name_ru": "Gravenhurst", "tz": "America/Toronto", "district": "Ontario"}, {"id": 325, "name": "Perth East", "name_ru": "Perth East", "tz": "America/Toronto", "district": "Ontario"}, {"id": 326, "name": "Prince Rupert", "name_ru": "Prince Rupert", "tz": "America/Vancouver", "district": "British Columbia"}, {"id": 327, "name": "Prevost", "name_ru": "Prévost", "tz": "America/Toronto", "district": "Quebec"}, {"id": 328, "name": "Sainte-Adele", "name_ru": "Sainte-Adèle", "tz": "America/Toronto", "district": "Quebec"}, {"id": 329, "name": "Kentville", "name_ru": "Kentville", "tz": "America/Halifax", "district": "Nova Scotia"}, {"id": 330, "name": "Beauharnois", "name_ru": "Beauharnois", "tz": "America/Toronto", "district": "Quebec"}, {"id": 331, "name": "Les Iles-de-la-Madeleine", "name_ru": "Les Îles-de-la-Madeleine", "tz": "America/Halifax", "district": "Quebec"}, {"id": 332, "name": "Wellington North", "name_ru": "Wellington North", "tz": "America/Toronto", "district": "Ontario"}, {"id": 333, "name": "St. Andrews", "name_ru": "St. Andrews", "tz": "America/Winnipeg", "district": "Manitoba"}, {"id": 334, "name": "Carleton Place", "name_ru": "Carleton Place", "tz": "America/Toronto", "district": "Ontario"}, {"id": 335, "name": "Whistler", "name_ru": "Whistler", "tz": "America/Vancouver", "district": "British Columbia"}, {"id": 336, "name": "Brighton", "name_ru": "Brighton", "tz": "America/Toronto", "district": "Ontario"}, {"id": 337, "name": "Tiny", "name_ru": "Tiny", "tz": "America/Toronto", "district": "Ontario"}, {"id": 338, "name": "Gander", "name_ru": "Gander", "tz": "America/St_Johns", "district": "Newfoundland and Labrador"}, {"id": 339, "name": "Rothesay", "name_ru": "Rothesay", "tz": "America/Moncton", "district": "New Brunswick"}, {"id": 340, "name": "Brock", "name_ru": "Brock", "tz": "America/Toronto", "district": "Ontario"}, {"id": 341, "name": "Summerland", "name_ru": "Summerland", "tz": "America/Vancouver", "district": "British Columbia"}, {"id": 342, "name": "Val-des-Monts", "name_ru": "Val-des-Monts", "tz": "America/Toronto", "district": "Quebec"}, {"id": 343, "name": "Tache", "name_ru": "Taché", "tz": "America/Winnipeg", "district": "Manitoba"}, {"id": 344, "name": "Montmagny", "name_ru": "Montmagny", "tz": "America/Toronto", "district": "Quebec"}, {"id": 345, "name": "Erin", "name_ru": "Erin", "tz": "America/Toronto", "district": "Ontario"}, {"id": 346, "name": "Kincardine", "name_ru": "Kincardine", "tz": "America/Toronto", "district": "Ontario"}, {"id": 347, "name": "North Dundas", "name_ru": "North Dundas", "tz": "America/Toronto", "district": "Ontario"}, {"id": 348, "name": "Wellesley", "name_ru": "Wellesley", "tz": "America/Toronto", "district": "Ontario"}, {"id": 349, "name": "Estevan", "name_ru": "Estevan", "tz": "America/Regina", "district": "Saskatchewan"}, {"id": 350, "name": "North Saanich", "name_ru": "North Saanich", "tz": "America/Vancouver", "district": "British Columbia"}, {"id": 351, "name": "Warman", "name_ru": "Warman", "tz": "America/Regina", "district": "Saskatchewan"}, {"id": 352, "name": "La Tuque", "name_ru": "La Tuque", "tz": "America/Toronto", "district": "Quebec"}, {"id": 353, "name": "Norwich", "name_ru": "Norwich", "tz": "America/Toronto", "district": "Ontario"}, {"id": 354, "name": "Meaford", "name_ru": "Meaford", "tz": "America/Toronto", "district": "Ontario"}, {"id": 355, "name": "Adjala-Tosorontio", "name_ru": "Adjala-Tosorontio", "tz": "America/Toronto", "district": "Ontario"}, {"id": 356, "name": "Hamilton Township", "name_ru": "Hamilton Township", "tz": "America/Toronto", "district": "Ontario"}, {"id": 357, "name": "St. Clements", "name_ru": "St. Clements", "tz": "America/Winnipeg", "district": "Manitoba"}, {"id": 358, "name": "Saint-Amable", "name_ru": "Saint-Amable", "tz": "America/Toronto", "district": "Quebec"}, {"id": 359, "name": "Weyburn", "name_ru": "Weyburn", "tz": "America/Regina", "district": "Saskatchewan"}, {"id": 360, "name": "South Dundas", "name_ru": "South Dundas", "tz": "America/Toronto", "district": "Ontario"}, {"id": 361, "name": "L'Ile-Perrot", "name_ru": "L’Île-Perrot", "tz": "America/Toronto", "district": "Quebec"}, {"id": 362, "name": "Notre-Dame-de-l'Ile-Perrot", "name_ru": "Notre-Dame-de-l'Île-Perrot", "tz": "America/Toronto", "district": "Quebec"}, {"id": 363, "name": "Williams Lake", "name_ru": "Williams Lake", "tz": "America/Vancouver", "district": "British Columbia"}, {"id": 364, "name": "Elliot Lake", "name_ru": "Elliot Lake", "tz": "America/Toronto", "district": "Ontario"}, {"id": 365, "name": "Cantley", "name_ru": "Cantley", "tz": "America/Toronto", "district": "Quebec"}, {"id": 366, "name": "Nelson", "name_ru": "Nelson", "tz": "America/Vancouver", "district": "British Columbia"}, {"id": 367, "name": "Lambton Shores", "name_ru": "Lambton Shores", "tz": "America/Toronto", "district": "Ontario"}, {"id": 368, "name": "Mapleton", "name_ru": "Mapleton", "tz": "America/Toronto", "district": "Ontario"}, {"id": 369, "name": "Georgian Bluffs", "name_ru": "Georgian Bluffs", "tz": "America/Toronto", "district": "Ontario"}, {"id": 370, "name": "Rawdon", "name_ru": "Rawdon", "tz": "America/Toronto", "district": "Quebec"}, {"id": 371, "name": "Campbellton", "name_ru": "Campbellton", "tz": "America/Moncton", "district": "New Brunswick"}, {"id": 372, "name": "View Royal", "name_ru": "View Royal", "tz": "America/Vancouver", "district": "British Columbia"}, {"id": 373, "name": "Coldstream", "name_ru": "Coldstream", "tz": "America/Vancouver", "district": "British Columbia"}, {"id": 374, "name": "Chester", "name_ru": "Chester", "tz": "America/Halifax", "district": "Nova Scotia"}, {"id": 375, "name": "Queens", "name_ru": "Queens", "tz": "America/Halifax", "district": "Nova Scotia"}, {"id": 376, "name": "Selkirk", "name_ru": "Selkirk", "tz": "America/Winnipeg", "district": "Manitoba"}, {"id": 377, "name": "Saint-Felicien", "name_ru": "Saint-Félicien", "tz": "America/Toronto", "district": "Quebec"}, {"id": 378, "name": "Hawkesbury", "name_ru": "Hawkesbury", "tz": "America/Toronto", "district": "Ontario"}, {"id": 379, "name": "Roberval", "name_ru": "Roberval", "tz": "America/Toronto", "district": "Quebec"}, {"id": 380, "name": "Sainte-Agathe-des-Monts", "name_ru": "Sainte-Agathe-des-Monts", "tz": "America/Toronto", "district": "Quebec"}, {"id": 381, "name": "North Dumfries", "name_ru": "North Dumfries", "tz": "America/Toronto", "district": "Ontario"}, {"id": 382, "name": "Rideau Lakes", "name_ru": "Rideau Lakes", "tz": "America/Toronto", "district": "Ontario"}, {"id": 383, "name": "Sechelt", "name_ru": "Sechelt", "tz": "America/Vancouver", "district": "British Columbia"}, {"id": 384, "name": "North Glengarry", "name_ru": "North Glengarry", "tz": "America/Toronto", "district": "Ontario"}, {"id": 385, "name": "South Huron", "name_ru": "South Huron", "tz": "America/Toronto", "district": "Ontario"}, {"id": 386, "name": "Marieville", "name_ru": "Marieville", "tz": "America/Toronto", "district": "Quebec"}, {"id": 387, "name": "Tay", "name_ru": "Tay", "tz": "America/Toronto", "district": "Ontario"}, {"id": 388, "name": "Temiskaming Shores", "name_ru": "Temiskaming Shores", "tz": "America/Toronto", "district": "Ontario"}, {"id": 389, "name": "Hinton", "name_ru": "Hinton", "tz": "America/Edmonton", "district": "Alberta"}, {"id": 390, "name": "Saint-Sauveur", "name_ru": "Saint-Sauveur", "tz": "America/Toronto", "district": "Quebec"}, {"id": 391, "name": "Quesnel", "name_ru": "Quesnel", "tz": "America/Vancouver", "district": "British Columbia"}, {"id": 392, "name": "Elizabethtown-Kitley", "name_ru": "Elizabethtown-Kitley", "tz": "America/Toronto", "district": "Ontario"}, {"id": 393, "name": "Morinville", "name_ru": "Morinville", "tz": "America/Edmonton", "district": "Alberta"}, {"id": 394, "name": "Grey Highlands", "name_ru": "Grey Highlands", "tz": "America/Toronto", "district": "Ontario"}, {"id": 395, "name": "Stratford", "name_ru": "Stratford", "tz": "America/Halifax", "district": "Prince Edward Island"}, {"id": 396, "name": "Alfred and Plantagenet", "name_ru": "Alfred and Plantagenet", "tz": "America/Toronto", "district": "Ontario"}, {"id": 397, "name": "Mont-Tremblant", "name_ru": "Mont-Tremblant", "tz": "America/Toronto", "district": "Quebec"}, {"id": 398, "name": "Martensville", "name_ru": "Martensville", "tz": "America/Regina", "district": "Saskatchewan"}, {"id": 399, "name": "Saint-Raymond", "name_ru": "Saint-Raymond", "tz": "America/Toronto", "district": "Quebec"}, {"id": 400, "name": "Amherst", "name_ru": "Amherst", "tz": "America/Halifax", "district": "Nova Scotia"}, {"id": 401, "name": "Ramara", "name_ru": "Ramara", "tz": "America/Toronto", "district": "Ontario"}, {"id": 402, "name": "Leeds and the Thousand Islands", "name_ru": "Leeds and the Thousand Islands", "tz": "America/Toronto", "district": "Ontario"}, {"id": 403, "name": "Carignan", "name_ru": "Carignan", "tz": "America/Toronto", "district": "Quebec"}, {"id": 404, "name": "Brockton", "name_ru": "Brockton", "tz": "America/Toronto", "district": "Ontario"}, {"id": 405, "name": "Laurentian Valley", "name_ru": "Laurentian Valley", "tz": "America/Toronto", "district": "Ontario"}, {"id": 406, "name": "East St. Paul", "name_ru": "East St. Paul", "tz": "America/Winnipeg", "district": "Manitoba"}, {"id": 407, "name": "Lorraine", "name_ru": "Lorraine", "tz": "America/Toronto", "district": "Quebec"}, {"id": 408, "name": "Sainte-Julienne", "name_ru": "Sainte-Julienne", "tz": "America/Toronto", "district": "Quebec"}, {"id": 409, "name": "Blackfalds", "name_ru": "Blackfalds", "tz": "America/Edmonton", "district": "Alberta"}, {"id": 410, "name": "Malahide", "name_ru": "Malahide", "tz": "America/Toronto", "district": "Ontario"}, {"id": 411, "name": "Oromocto", "name_ru": "Oromocto", "tz": "America/Moncton", "district": "New Brunswick"}, {"id": 412, "name": "Olds", "name_ru": "Olds", "tz": "America/Edmonton", "district": "Alberta"}, {"id": 413, "name": "Huron East", "name_ru": "Huron East", "tz": "America/Toronto", "district": "Ontario"}, {"id": 414, "name": "Stanley", "name_ru": "Stanley", "tz": "America/Winnipeg", "district": "Manitoba"}, {"id": 415, "name": "Penetanguishene", "name_ru": "Penetanguishene", "tz": "America/Toronto", "district": "Ontario"}, {"id": 416, "name": "Qualicum Beach", "name_ru": "Qualicum Beach", "tz": "America/Vancouver", "district": "British Columbia"}, {"id": 417, "name": "Notre-Dame-des-Prairies", "name_ru": "Notre-Dame-des-Prairies", "tz": "America/Toronto", "district": "Quebec"}, {"id": 418, "name": "West Perth", "name_ru": "West Perth", "tz": "America/Toronto", "district": "Ontario"}, {"id": 419, "name": "Cavan Monaghan", "name_ru": "Cavan Monaghan", "tz": "America/Toronto", "district": "Ontario"}, {"id": 420, "name": "Arnprior", "name_ru": "Arnprior", "tz": "America/Toronto", "district": "Ontario"}, {"id": 421, "name": "Smiths Falls", "name_ru": "Smiths Falls", "tz": "America/Toronto", "district": "Ontario"}, {"id": 422, "name": "Pont-Rouge", "name_ru": "Pont-Rouge", "tz": "America/Toronto", "district": "Quebec"}, {"id": 423, "name": "Champlain", "name_ru": "Champlain", "tz": "America/Toronto", "district": "Ontario"}, {"id": 424, "name": "Coaticook", "name_ru": "Coaticook", "tz": "America/Toronto", "district": "Quebec"}, {"id": 425, "name": "Minto", "name_ru": "Minto", "tz": "America/Toronto", "district": "Ontario"}, {"id": 426, "name": "Morden", "name_ru": "Morden", "tz": "America/Winnipeg", "district": "Manitoba"}, {"id": 427, "name": "Mono", "name_ru": "Mono", "tz": "America/Toronto", "district": "Ontario"}, {"id": 428, "name": "Ladysmith", "name_ru": "Ladysmith", "tz": "America/Vancouver", "district": "British Columbia"}, {"id": 429, "name": "Bridgewater", "name_ru": "Bridgewater", "tz": "America/Halifax", "district": "Nova Scotia"}, {"id": 430, "name": "Dauphin", "name_ru": "Dauphin", "tz": "America/Winnipeg", "district": "Manitoba"}, {"id": 431, "name": "Otterburn Park", "name_ru": "Otterburn Park", "tz": "America/Toronto", "district": "Quebec"}, {"id": 432, "name": "Taber", "name_ru": "Taber", "tz": "America/Edmonton", "district": "Alberta"}, {"id": 433, "name": "South Bruce Peninsula", "name_ru": "South Bruce Peninsula", "tz": "America/Toronto", "district": "Ontario"}, {"id": 434, "name": "Edson", "name_ru": "Edson", "tz": "America/Edmonton", "district": "Alberta"}, {"id": 435, "name": "Farnham", "name_ru": "Farnham", "tz": "America/Toronto", "district": "Quebec"}, {"id": 436, "name": "Kapuskasing", "name_ru": "Kapuskasing", "tz": "America/Toronto", "district": "Ontario"}, {"id": 437, "name": "La Malbaie", "name_ru": "La Malbaie", "tz": "America/Toronto", "district": "Quebec"}, {"id": 438, "name": "Renfrew", "name_ru": "Renfrew", "tz": "America/Toronto", "district": "Ontario"}, {"id": 439, "name": "Coaldale", "name_ru": "Coaldale", "tz": "America/Edmonton", "district": "Alberta"}, {"id": 440, "name": "Portugal Cove-St. Philip's", "name_ru": "Portugal Cove-St. Philip's", "tz": "America/St_Johns", "district": "Newfoundland and Labrador"}, {"id": 441, "name": "Zorra", "name_ru": "Zorra", "tz": "America/Toronto", "district": "Ontario"}, {"id": 442, "name": "Kitimat", "name_ru": "Kitimat", "tz": "America/Vancouver", "district": "British Columbia"}, {"id": 443, "name": "Shelburne", "name_ru": "Shelburne", "tz": "America/Toronto", "district": "Ontario"}, {"id": 444, "name": "Saint-Hippolyte", "name_ru": "Saint-Hippolyte", "tz": "America/Toronto", "district": "Quebec"}, {"id": 445, "name": "Castlegar", "name_ru": "Castlegar", "tz": "America/Vancouver", "district": "British Columbia"}, {"id": 446, "name": "Church Point", "name_ru": "Church Point", "tz": "America/Halifax", "district": "Nova Scotia"}, {"id": 447, "name": "Drumheller", "name_ru": "Drumheller", "tz": "America/Edmonton", "district": "Alberta"}, {"id": 448, "name": "Kirkland Lake", "name_ru": "Kirkland Lake", "tz": "America/Toronto", "district": "Ontario"}, {"id": 449, "name": "Argyle", "name_ru": "Argyle", "tz": "America/Halifax", "district": "Nova Scotia"}, {"id": 450, "name": "Torbay", "name_ru": "Torbay", "tz": "America/St_Johns", "district": "Newfoundland and Labrador"}, {"id": 451, "name": "La Peche", "name_ru": "La Pêche", "tz": "America/Toronto", "district": "Quebec"}, {"id": 452, "name": "Banff", "name_ru": "Banff", "tz": "America/Edmonton", "district": "Alberta"}, {"id": 453, "name": "Innisfail", "name_ru": "Innisfail", "tz": "America/Edmonton", "district": "Alberta"}, {"id": 454, "name": "Nicolet", "name_ru": "Nicolet", "tz": "America/Toronto", "district": "Quebec"}, {"id": 455, "name": "Rockwood", "name_ru": "Rockwood", "tz": "America/Winnipeg", "district": "Manitoba"}, {"id": 456, "name": "Drummond/North Elmsley", "name_ru": "Drummond/North Elmsley", "tz": "America/Toronto", "district": "Ontario"}, {"id": 457, "name": "Dryden", "name_ru": "Dryden", "tz": "America/Winnipeg", "district": "Ontario"}, {"id": 458, "name": "Fort Frances", "name_ru": "Fort Frances", "tz": "America/Winnipeg", "district": "Ontario"}, {"id": 459, "name": "La Sarre", "name_ru": "La Sarre", "tz": "America/Toronto", "district": "Quebec"}, {"id": 460, "name": "Trail", "name_ru": "Trail", "tz": "America/Vancouver", "district": "British Columbia"}, {"id": 461, "name": "Chandler", "name_ru": "Chandler", "tz": "America/Toronto", "district": "Quebec"}, {"id": 462, "name": "Stone Mills", "name_ru": "Stone Mills", "tz": "America/Toronto", "district": "Ontario"}, {"id": 463, "name": "Hanover", "name_ru": "Hanover", "tz": "America/Toronto", "district": "Ontario"}, {"id": 464, "name": "South-West Oxford", "name_ru": "South-West Oxford", "tz": "America/Toronto", "district": "Ontario"}, {"id": 465, "name": "Acton Vale", "name_ru": "Acton Vale", "tz": "America/Toronto", "district": "Quebec"}, {"id": 466, "name": "Bromont", "name_ru": "Bromont", "tz": "America/Toronto", "district": "Quebec"}, {"id": 467, "name": "Beckwith", "name_ru": "Beckwith", "tz": "America/Toronto", "district": "Ontario"}, {"id": 468, "name": "Goderich", "name_ru": "Goderich", "tz": "America/Toronto", "district": "Ontario"}, {"id": 469, "name": "Plympton-Wyoming", "name_ru": "Plympton-Wyoming", "tz": "America/Toronto", "district": "Ontario"}, {"id": 470, "name": "Central Huron", "name_ru": "Central Huron", "tz": "America/Toronto", "district": "Ontario"}, {"id": 471, "name": "Rigaud", "name_ru": "Rigaud", "tz": "America/Toronto", "district": "Quebec"}, {"id": 472, "name": "Louiseville", "name_ru": "Louiseville", "tz": "America/Toronto", "district": "Quebec"}, {"id": 473, "name": "Chibougamau", "name_ru": "Chibougamau", "tz": "America/Toronto", "district": "Quebec"}, {"id": 474, "name": "Aylmer", "name_ru": "Aylmer", "tz": "America/Toronto", "district": "Ontario"}, {"id": 475, "name": "Delson", "name_ru": "Delson", "tz": "America/Toronto", "district": "Quebec"}, {"id": 476, "name": "Kimberley", "name_ru": "Kimberley", "tz": "America/Edmonton", "district": "British Columbia"}, {"id": 477, "name": "Blandford-Blenheim", "name_ru": "Blandford-Blenheim", "tz": "America/Toronto", "district": "Ontario"}, {"id": 478, "name": "Bayham", "name_ru": "Bayham", "tz": "America/Toronto", "district": "Ontario"}, {"id": 479, "name": "Augusta", "name_ru": "Augusta", "tz": "America/Toronto", "district": "Ontario"}, {"id": 480, "name": "Puslinch", "name_ru": "Puslinch", "tz": "America/Toronto", "district": "Ontario"}, {"id": 481, "name": "Beauport", "name_ru": "Beauport", "tz": "America/Toronto", "district": "Quebec"}, {"id": 482, "name": "Saint-Remi", "name_ru": "Saint-Rémi", "tz": "America/Toronto", "district": "Quebec"}, {"id": 483, "name": "St. Marys", "name_ru": "St. Marys", "tz": "America/Toronto", "district": "Ontario"}, {"id": 484, "name": "Drayton Valley", "name_ru": "Drayton Valley", "tz": "America/Edmonton", "district": "Alberta"}, {"id": 485, "name": "Ponoka", "name_ru": "Ponoka", "tz": "America/Edmonton", "district": "Alberta"}, {"id": 486, "name": "Labrador City", "name_ru": "Labrador City", "tz": "America/Goose_Bay", "district": "Newfoundland and Labrador"}, {"id": 487, "name": "Donnacona", "name_ru": "Donnacona", "tz": "America/Toronto", "district": "Quebec"}, {"id": 488, "name": "Southgate", "name_ru": "Southgate", "tz": "America/Toronto", "district": "Ontario"}, {"id": 489, "name": "McNab/Braeside", "name_ru": "McNab/Braeside", "tz": "America/Toronto", "district": "Ontario"}, {"id": 490, "name": "Macdonald", "name_ru": "Macdonald", "tz": "America/Winnipeg", "district": "Manitoba"}, {"id": 491, "name": "Baie-Saint-Paul", "name_ru": "Baie-Saint-Paul", "tz": "America/Toronto", "district": "Quebec"}, {"id": 492, "name": "Merritt", "name_ru": "Merritt", "tz": "America/Vancouver", "district": "British Columbia"}, {"id": 493, "name": "Bluewater", "name_ru": "Bluewater", "tz": "America/Toronto", "district": "Ontario"}, {"id": 494, "name": "East Zorra-Tavistock", "name_ru": "East Zorra-Tavistock", "tz": "America/Toronto", "district": "Ontario"}, {"id": 495, "name": "Stoneham-et-Tewkesbury", "name_ru": "Stoneham-et-Tewkesbury", "tz": "America/Toronto", "district": "Quebec"}, {"id": 496, "name": "Asbestos", "name_ru": "Asbestos", "tz": "America/Toronto", "district": "Quebec"}, {"id": 497, "name": "Huron-Kinloss", "name_ru": "Huron-Kinloss", "tz": "America/Toronto", "district": "Ontario"}, {"id": 498, "name": "Coteau-du-Lac", "name_ru": "Coteau-du-Lac", "tz": "America/Toronto", "district": "Quebec"}, {"id": 499, "name": "The Blue Mountains", "name_ru": "The Blue Mountains", "tz": "America/Toronto", "district": "Ontario"}, {"id": 500, "name": "Whitewater Region", "name_ru": "Whitewater Region", "tz": "America/Toronto", "district": "Ontario"}, {"id": 501, "name": "Edwardsburgh/Cardinal", "name_ru": "Edwardsburgh/Cardinal", "tz": "America/Toronto", "district": "Ontario"}, {"id": 502, "name": "Sainte-Anne-des-Monts", "name_ru": "Sainte-Anne-des-Monts", "tz": "America/Toronto", "district": "Quebec"}, {"id": 503, "name": "Old Chelsea", "name_ru": "Old Chelsea", "tz": "America/Toronto", "district": "Quebec"}, {"id": 504, "name": "North Stormont", "name_ru": "North Stormont", "tz": "America/Toronto", "district": "Ontario"}, {"id": 505, "name": "Alnwick/Haldimand", "name_ru": "Alnwick/Haldimand", "tz": "America/Toronto", "district": "Ontario"}, {"id": 506, "name": "Peace River", "name_ru": "Peace River", "tz": "America/Edmonton", "district": "Alberta"}, {"id": 507, "name": "Arran-Elderslie", "name_ru": "Arran-Elderslie", "tz": "America/Toronto", "district": "Ontario"}, {"id": 508, "name": "Saint-Zotique", "name_ru": "Saint-Zotique", "tz": "America/Toronto", "district": "Quebec"}, {"id": 509, "name": "Val-Shefford", "name_ru": "Val-Shefford", "tz": "America/Toronto", "district": "Quebec"}, {"id": 510, "name": "Douro-Dummer", "name_ru": "Douro-Dummer", "tz": "America/Toronto", "district": "Ontario"}, {"id": 511, "name": "Plessisville", "name_ru": "Plessisville", "tz": "America/Toronto", "district": "Quebec"}, {"id": 512, "name": "Ritchot", "name_ru": "Ritchot", "tz": "America/Winnipeg", "district": "Manitoba"}, {"id": 513, "name": "Otonabee-South Monaghan", "name_ru": "Otonabee-South Monaghan", "tz": "America/Toronto", "district": "Ontario"}, {"id": 514, "name": "Shediac", "name_ru": "Shediac", "tz": "America/Moncton", "district": "New Brunswick"}, {"id": 515, "name": "Slave Lake", "name_ru": "Slave Lake", "tz": "America/Edmonton", "district": "Alberta"}, {"id": 516, "name": "Port-Cartier", "name_ru": "Port-Cartier", "tz": "America/Toronto", "district": "Quebec"}, {"id": 517, "name": "Barrington", "name_ru": "Barrington", "tz": "America/Halifax", "district": "Nova Scotia"}, {"id": 518, "name": "Rocky Mountain House", "name_ru": "Rocky Mountain House", "tz": "America/Edmonton", "district": "Alberta"}, {"id": 519, "name": "Chatsworth", "name_ru": "Chatsworth", "tz": "America/Toronto", "district": "Ontario"}, {"id": 520, "name": "Stephenville", "name_ru": "Stephenville", "tz": "America/St_Johns", "district": "Newfoundland and Labrador"}, {"id": 521, "name": "Devon", "name_ru": "Devon", "tz": "America/Edmonton", "district": "Alberta"}, {"id": 522, "name": "Yarmouth", "name_ru": "Yarmouth", "tz": "America/Halifax", "district": "Nova Scotia"}, {"id": 523, "name": "Boischatel", "name_ru": "Boischatel", "tz": "America/Toronto", "district": "Quebec"}, {"id": 524, "name": "Parry Sound", "name_ru": "Parry Sound", "tz": "America/Toronto", "district": "Ontario"}, {"id": 525, "name": "Pointe-Calumet", "name_ru": "Pointe-Calumet", "tz": "America/Toronto", "district": "Quebec"}, {"id": 526, "name": "Beaubassin East / Beaubassin-est", "name_ru": "Beaubassin East / Beaubassin-est", "tz": "America/Moncton", "district": "New Brunswick"}, {"id": 527, "name": "Wainfleet", "name_ru": "Wainfleet", "tz": "America/Toronto", "district": "Ontario"}, {"id": 528, "name": "Cramahe", "name_ru": "Cramahe", "tz": "America/Toronto", "district": "Ontario"}, {"id": 529, "name": "Beauceville", "name_ru": "Beauceville", "tz": "America/Toronto", "district": "Quebec"}, {"id": 530, "name": "North Middlesex", "name_ru": "North Middlesex", "tz": "America/Toronto", "district": "Ontario"}, {"id": 531, "name": "Amqui", "name_ru": "Amqui", "tz": "America/Toronto", "district": "Quebec"}, {"id": 532, "name": "Sainte-Catherine-de-la-Jacques-Cartier", "name_ru": "Sainte-Catherine-de-la-Jacques-Cartier", "tz": "America/Toronto", "district": "Quebec"}, {"id": 533, "name": "Clarenville", "name_ru": "Clarenville", "tz": "America/St_Johns", "district": "Newfoundland and Labrador"}, {"id": 534, "name": "Mont-Joli", "name_ru": "Mont-Joli", "tz": "America/Toronto", "district": "Quebec"}, {"id": 535, "name": "Wainwright", "name_ru": "Wainwright", "tz": "America/Edmonton", "district": "Alberta"}, {"id": 536, "name": "Contrecoeur", "name_ru": "Contrecoeur", "tz": "America/Toronto", "district": "Quebec"}, {"id": 537, "name": "Saint-Joseph-du-Lac", "name_ru": "Saint-Joseph-du-Lac", "tz": "America/Toronto", "district": "Quebec"}, {"id": 538, "name": "Hope", "name_ru": "Hope", "tz": "America/Vancouver", "district": "British Columbia"}, {"id": 539, "name": "Gimli", "name_ru": "Gimli", "tz": "America/Winnipeg", "district": "Manitoba"}, {"id": 540, "name": "Saint-Apollinaire", "name_ru": "Saint-Apollinaire", "tz": "America/Toronto", "district": "Quebec"}, {"id": 541, "name": "Hindon Hill", "name_ru": "Hindon Hill", "tz": "America/Toronto", "district": "Ontario"}, {"id": 542, "name": "Les Cedres", "name_ru": "Les Cèdres", "tz": "America/Toronto", "district": "Quebec"}, {"id": 543, "name": "La Broquerie", "name_ru": "La Broquerie", "tz": "America/Winnipeg", "district": "Manitoba"}, {"id": 544, "name": "Kent", "name_ru": "Kent", "tz": "America/Vancouver", "district": "British Columbia"}, {"id": 545, "name": "Tweed", "name_ru": "Tweed", "tz": "America/Toronto", "district": "Ontario"}, {"id": 546, "name": "Saint-Felix-de-Valois", "name_ru": "Saint-Félix-de-Valois", "tz": "America/Toronto", "district": "Quebec"}, {"id": 547, "name": "Bay Roberts", "name_ru": "Bay Roberts", "tz": "America/St_Johns", "district": "Newfoundland and Labrador"}, {"id": 548, "name": "Melfort", "name_ru": "Melfort", "tz": "America/Regina", "district": "Saskatchewan"}, {"id": 549, "name": "Bonnyville", "name_ru": "Bonnyville", "tz": "America/Edmonton", "district": "Alberta"}, {"id": 550, "name": "Stettler", "name_ru": "Stettler", "tz": "America/Edmonton", "district": "Alberta"}, {"id": 551, "name": "Saint-Calixte", "name_ru": "Saint-Calixte", "tz": "America/Toronto", "district": "Quebec"}, {"id": 552, "name": "Lac-Megantic", "name_ru": "Lac-Mégantic", "tz": "America/Toronto", "district": "Quebec"}, {"id": 553, "name": "Perth", "name_ru": "Perth", "tz": "America/Toronto", "district": "Ontario"}, {"id": 554, "name": "Oliver Paipoonge", "name_ru": "Oliver Paipoonge", "tz": "America/Toronto", "district": "Ontario"}, {"id": 555, "name": "Humboldt", "name_ru": "Humboldt", "tz": "America/Regina", "district": "Saskatchewan"}, {"id": 556, "name": "Pontiac", "name_ru": "Pontiac", "tz": "America/Toronto", "district": "Quebec"}, {"id": 557, "name": "St. Paul", "name_ru": "St. Paul", "tz": "America/Edmonton", "district": "Alberta"}, {"id": 558, "name": "Petrolia", "name_ru": "Petrolia", "tz": "America/Toronto", "district": "Ontario"}, {"id": 559, "name": "Southwest Middlesex", "name_ru": "Southwest Middlesex", "tz": "America/Toronto", "district": "Ontario"}, {"id": 560, "name": "Front of Yonge", "name_ru": "Front of Yonge", "tz": "America/Toronto", "district": "Ontario"}, {"id": 561, "name": "Vegreville", "name_ru": "Vegreville", "tz": "America/Edmonton", "district": "Alberta"}, {"id": 562, "name": "Sainte-Brigitte-de-Laval", "name_ru": "Sainte-Brigitte-de-Laval", "tz": "America/Toronto", "district": "Quebec"}, {"id": 563, "name": "Vercheres", "name_ru": "Verchères", "tz": "America/Toronto", "district": "Quebec"}, {"id": 564, "name": "The Pas", "name_ru": "The Pas", "tz": "America/Winnipeg", "district": "Manitoba"}, {"id": 565, "name": "Saint-Cesaire", "name_ru": "Saint-Césaire", "tz": "America/Toronto", "district": "Quebec"}, {"id": 566, "name": "La Ronge", "name_ru": "La Ronge", "tz": "America/Regina", "district": "Saskatchewan"}, {"id": 567, "name": "Tay Valley", "name_ru": "Tay Valley", "tz": "America/Toronto", "district": "Ontario"}, {"id": 568, "name": "South Bruce", "name_ru": "South Bruce", "tz": "America/Toronto", "district": "Ontario"}, {"id": 569, "name": "McMasterville", "name_ru": "McMasterville", "tz": "America/Toronto", "district": "Quebec"}, {"id": 570, "name": "Redcliff", "name_ru": "Redcliff", "tz": "America/Edmonton", "district": "Alberta"}, {"id": 571, "name": "Saint-Philippe", "name_ru": "Saint-Philippe", "tz": "America/Toronto", "district": "Quebec"}, {"id": 572, "name": "Richelieu", "name_ru": "Richelieu", "tz": "America/Toronto", "district": "Quebec"}, {"id": 573, "name": "Notre-Dame-du-Mont-Carmel", "name_ru": "Notre-Dame-du-Mont-Carmel", "tz": "America/Toronto", "district": "Quebec"}, {"id": 574, "name": "L'Ange-Gardien", "name_ru": "L'Ange-Gardien", "tz": "America/Toronto", "district": "Quebec"}, {"id": 575, "name": "Sainte-Martine", "name_ru": "Sainte-Martine", "tz": "America/Toronto", "district": "Quebec"}, {"id": 576, "name": "Saint-Pie", "name_ru": "Saint-Pie", "tz": "America/Toronto", "district": "Quebec"}, {"id": 577, "name": "Peachland", "name_ru": "Peachland", "tz": "America/Vancouver", "district": "British Columbia"}, {"id": 578, "name": "Ashfield-Colborne-Wawanosh", "name_ru": "Ashfield-Colborne-Wawanosh", "tz": "America/Toronto", "district": "Ontario"}, {"id": 579, "name": "Trent Lakes", "name_ru": "Trent Lakes", "tz": "America/Toronto", "district": "Ontario"}, {"id": 580, "name": "Northern Rockies", "name_ru": "Northern Rockies", "tz": "America/Fort_Nelson", "district": "British Columbia"}, {"id": 581, "name": "West St. Paul", "name_ru": "West St. Paul", "tz": "America/Winnipeg", "district": "Manitoba"}, {"id": 582, "name": "Windsor", "name_ru": "Windsor", "tz": "America/Toronto", "district": "Quebec"}, {"id": 583, "name": "Creston", "name_ru": "Creston", "tz": "America/Creston", "district": "British Columbia"}, {"id": 584, "name": "Smithers", "name_ru": "Smithers", "tz": "America/Vancouver", "district": "British Columbia"}, {"id": 585, "name": "Cornwall", "name_ru": "Cornwall", "tz": "America/Halifax", "district": "Prince Edward Island"}, {"id": 586, "name": "Meadow Lake", "name_ru": "Meadow Lake", "tz": "America/Swift_Current", "district": "Saskatchewan"}, {"id": 587, "name": "Lanark Highlands", "name_ru": "Lanark Highlands", "tz": "America/Toronto", "district": "Ontario"}, {"id": 588, "name": "Sackville", "name_ru": "Sackville", "tz": "America/Moncton", "district": "New Brunswick"}, {"id": 589, "name": "Grand Falls", "name_ru": "Grand Falls", "tz": "America/Moncton", "district": "New Brunswick"}, {"id": 590, "name": "Cochrane", "name_ru": "Cochrane", "tz": "America/Toronto", "district": "Ontario"}, {"id": 591, "name": "Marystown", "name_ru": "Marystown", "tz": "America/St_Johns", "district": "Newfoundland and Labrador"}, {"id": 592, "name": "Sioux Lookout", "name_ru": "Sioux Lookout", "tz": "America/Winnipeg", "district": "Ontario"}, {"id": 593, "name": "Didsbury", "name_ru": "Didsbury", "tz": "America/Edmonton", "district": "Alberta"}, {"id": 594, "name": "Fernie", "name_ru": "Fernie", "tz": "America/Edmonton", "district": "British Columbia"}, {"id": 595, "name": "Deer Lake", "name_ru": "Deer Lake", "tz": "America/St_Johns", "district": "Newfoundland and Labrador"}, {"id": 596, "name": "Woodstock", "name_ru": "Woodstock", "tz": "America/Moncton", "district": "New Brunswick"}, {"id": 597, "name": "Val-David", "name_ru": "Val-David", "tz": "America/Toronto", "district": "Quebec"}, {"id": 598, "name": "Flin Flon", "name_ru": "Flin Flon", "tz": "America/Winnipeg", "district": "Saskatchewan"}, {"id": 599, "name": "Hudson", "name_ru": "Hudson", "tz": "America/Toronto", "district": "Quebec"}, {"id": 600, "name": "Gananoque", "name_ru": "Gananoque", "tz": "America/Toronto", "district": "Ontario"}, {"id": 601, "name": "Brokenhead", "name_ru": "Brokenhead", "tz": "America/Winnipeg", "district": "Manitoba"}, {"id": 602, "name": "Saint-Paul", "name_ru": "Saint-Paul", "tz": "America/Toronto", "district": "Quebec"}, {"id": 603, "name": "Westlock", "name_ru": "Westlock", "tz": "America/Edmonton", "district": "Alberta"}, {"id": 604, "name": "Temiscouata-sur-le-Lac", "name_ru": "Témiscouata-sur-le-Lac", "tz": "America/Toronto", "district": "Quebec"}, {"id": 605, "name": "Shannon", "name_ru": "Shannon", "tz": "America/Toronto", "district": "Quebec"}, {"id": 606, "name": "Osoyoos", "name_ru": "Osoyoos", "tz": "America/Vancouver", "district": "British Columbia"}, {"id": 607, "name": "Hearst", "name_ru": "Hearst", "tz": "America/Toronto", "district": "Ontario"}, {"id": 608, "name": "Antigonish", "name_ru": "Antigonish", "tz": "America/Glace_Bay", "district": "Nova Scotia"}, {"id": 609, "name": "Corman Park No. 344", "name_ru": "Corman Park No. 344", "tz": "America/Regina", "district": "Saskatchewan"}, {"id": 610, "name": "Happy Valley", "name_ru": "Happy Valley", "tz": "America/Goose_Bay", "district": "Newfoundland and Labrador"}, {"id": 611, "name": "Iqaluit", "name_ru": "Iqaluit", "tz": "America/Iqaluit", "district": "Nunavut"}, {"id": 612, "name": "Brownsburg", "name_ru": "Brownsburg", "tz": "America/Toronto", "district": "Quebec"}, {"id": 613, "name": "Saint-Lambert-de-Lauzon", "name_ru": "Saint-Lambert-de-Lauzon", "tz": "America/Toronto", "district": "Quebec"}, {"id": 614, "name": "Muskoka Falls", "name_ru": "Muskoka Falls", "tz": "America/Toronto", "district": "Ontario"}, {"id": 615, "name": "Dysart et al", "name_ru": "Dysart et al", "tz": "America/Toronto", "district": "Ontario"}, {"id": 616, "name": "Beresford", "name_ru": "Beresford", "tz": "America/Moncton", "district": "New Brunswick"}, {"id": 617, "name": "Douglas", "name_ru": "Douglas", "tz": "America/Moncton", "district": "New Brunswick"}, {"id": 618, "name": "Princeville", "name_ru": "Princeville", "tz": "America/Toronto", "district": "Quebec"}, {"id": 619, "name": "Crowsnest Pass", "name_ru": "Crowsnest Pass", "tz": "America/Edmonton", "district": "Alberta"}, {"id": 620, "name": "Cookshire", "name_ru": "Cookshire", "tz": "America/Toronto", "district": "Quebec"}, {"id": 621, "name": "Saint-Honore", "name_ru": "Saint-Honoré", "tz": "America/Toronto", "district": "Quebec"}, {"id": 622, "name": "Burton", "name_ru": "Burton", "tz": "America/Moncton", "district": "New Brunswick"}, {"id": 623, "name": "Spallumcheen", "name_ru": "Spallumcheen", "tz": "America/Vancouver", "district": "British Columbia"}, {"id": 624, "name": "Saint-Henri", "name_ru": "Saint-Henri", "tz": "America/Toronto", "district": "Quebec"}, {"id": 625, "name": "Ste. Anne", "name_ru": "Ste. Anne", "tz": "America/Winnipeg", "district": "Manitoba"}]