[{"id": 1, "name": "Bangui", "name_ru": "Bangui", "tz": "", "district": "Bangui"}, {"id": 2, "name": "Bimbo", "name_ru": "Bimbo", "tz": "", "district": "Ombella-Mpoko"}, {"id": 3, "name": "Berberati", "name_ru": "Berbérati", "tz": "", "district": "Mambéré-Kadéï"}, {"id": 4, "name": "Bambari", "name_ru": "Bambari", "tz": "", "district": "Ouaka"}, {"id": 5, "name": "Bouar", "name_ru": "Bouar", "tz": "", "district": "Nana-Mambéré"}, {"id": 6, "name": "Bossangoa", "name_ru": "Bossangoa", "tz": "", "district": "Ouham"}, {"id": 7, "name": "Bria", "name_ru": "Bria", "tz": "", "district": "Haute-Kotto"}, {"id": 8, "name": "Bangassou", "name_ru": "Bangassou", "tz": "", "district": "Mbomou"}, {"id": 9, "name": "Nola", "name_ru": "Nola", "tz": "", "district": "Sangha-Mbaéré"}, {"id": 10, "name": "Kaga Bandoro", "name_ru": "Kaga Bandoro", "tz": "", "district": "Nana-Grébizi"}, {"id": 11, "name": "Sibut", "name_ru": "Sibut", "tz": "", "district": "Kémo"}, {"id": 12, "name": "Mbaiki", "name_ru": "Mbaïki", "tz": "", "district": "Lobaye"}, {"id": 13, "name": "Bozoum", "name_ru": "Bozoum", "tz": "", "district": "Ouham-Pendé"}, {"id": 14, "name": "Obo", "name_ru": "Obo", "tz": "", "district": "Haut-Mbomou"}, {"id": 15, "name": "Ndele", "name_ru": "Ndélé", "tz": "", "district": "Bamingui-Bangoran"}, {"id": 16, "name": "Birao", "name_ru": "Birao", "tz": "", "district": "Vakaga"}, {"id": 17, "name": "Mobaye", "name_ru": "Mobaye", "tz": "", "district": "Basse-Kotto"}, {"id": 18, "name": "Carnot", "name_ru": "Carnot", "tz": "", "district": "Mambéré-Kadéï"}, {"id": 19, "name": "Zemio", "name_ru": "Zemio", "tz": "", "district": "Haut-Mbomou"}, {"id": 20, "name": "Kabo", "name_ru": "Kabo", "tz": "", "district": "Ouham"}, {"id": 21, "name": "Kouango", "name_ru": "Kouango", "tz": "", "district": "Ouaka"}, {"id": 22, "name": "Baboua", "name_ru": "Baboua", "tz": "", "district": "Nana-Mambéré"}, {"id": 23, "name": "Bossembele", "name_ru": "Bossembele", "tz": "", "district": "Ombella-Mpoko"}, {"id": 24, "name": "Ouadda", "name_ru": "Ouadda", "tz": "", "district": "Haute-Kotto"}, {"id": 25, "name": "Yakossi", "name_ru": "Yakossi", "tz": "", "district": "Mbomou"}]