[{"id": 1, "name": "Brazzaville", "name_ru": "Brazzaville", "tz": "", "district": "Brazzaville"}, {"id": 2, "name": "Pointe-Noire", "name_ru": "Pointe-Noire", "tz": "", "district": "Pointe-Noire"}, {"id": 3, "name": "Dolisie", "name_ru": "Dolisie", "tz": "", "district": "Niari"}, {"id": 4, "name": "Ouesso", "name_ru": "Ouésso", "tz": "", "district": "Sangha"}, {"id": 5, "name": "Owando", "name_ru": "Owando", "tz": "", "district": "Cuvette"}, {"id": 6, "name": "Sibiti", "name_ru": "Sibiti", "tz": "", "district": "Lékoumou"}, {"id": 7, "name": "Madingou", "name_ru": "Madingou", "tz": "", "district": "Bouenza"}, {"id": 8, "name": "Impfondo", "name_ru": "Impfondo", "tz": "", "district": "Likouala"}, {"id": 9, "name": "Kinkala", "name_ru": "Kinkala", "tz": "", "district": "Pool"}, {"id": 10, "name": "Djambala", "name_ru": "Djambala", "tz": "", "district": "Plateaux"}, {"id": 11, "name": "Ewo", "name_ru": "Ewo", "tz": "", "district": "Cuvette-Ouest"}, {"id": 12, "name": "Loango", "name_ru": "Loango", "tz": "", "district": "Kouilou"}, {"id": 13, "name": "Kayes", "name_ru": "Kayes", "tz": "", "district": "Bouenza"}, {"id": 14, "name": "Mossendjo", "name_ru": "Mossendjo", "tz": "", "district": "Niari"}, {"id": 15, "name": "Gamboma", "name_ru": "Gamboma", "tz": "", "district": "Plateaux"}, {"id": 16, "name": "Boloso", "name_ru": "Boloso", "tz": "", "district": "Sangha"}, {"id": 17, "name": "Makoua", "name_ru": "Makoua", "tz": "", "district": "Cuvette"}, {"id": 18, "name": "Sembe", "name_ru": "Sémbé", "tz": "", "district": "Sangha"}]