[{"id": 1, "name": "Bern", "name_ru": "Bern", "tz": "", "district": "Bern"}, {"id": 2, "name": "Zurich", "name_ru": "Zürich", "tz": "", "district": "Zürich"}, {"id": 3, "name": "Geneva", "name_ru": "Geneva", "tz": "", "district": "Genève"}, {"id": 4, "name": "Basel", "name_ru": "Basel", "tz": "", "district": "Basel-Stadt"}, {"id": 5, "name": "Lausanne", "name_ru": "Lausanne", "tz": "", "district": "Vaud"}, {"id": 6, "name": "Winterthur", "name_ru": "Winterthur", "tz": "", "district": "Zürich"}, {"id": 7, "name": "Lucerne", "name_ru": "Lucerne", "tz": "", "district": "Luzern"}, {"id": 8, "name": "Sankt Gallen", "name_ru": "Sankt Gallen", "tz": "", "district": "Sankt Gallen"}, {"id": 9, "name": "Biel/Bienne", "name_ru": "Biel/Bienne", "tz": "", "district": "Bern"}, {"id": 10, "name": "Thun", "name_ru": "Thun", "tz": "", "district": "Bern"}, {"id": 11, "name": "Bellinzona", "name_ru": "Bellinzona", "tz": "", "district": "Ticino"}, {"id": 12, "name": "Fribourg", "name_ru": "Fribourg", "tz": "", "district": "Fribourg"}, {"id": 13, "name": "Vernier", "name_ru": "Vernier", "tz": "", "district": "Genève"}, {"id": 14, "name": "Schaffhausen", "name_ru": "Schaffhausen", "tz": "", "district": "Schaffhausen"}, {"id": 15, "name": "Chur", "name_ru": "Chur", "tz": "", "district": "Graubünden"}, {"id": 16, "name": "Neuchatel", "name_ru": "Neuchâtel", "tz": "", "district": "Neuchâtel"}, {"id": 17, "name": "Yverdon-les-Bains", "name_ru": "Yverdon-les-Bains", "tz": "", "district": "Vaud"}, {"id": 18, "name": "Zug", "name_ru": "Zug", "tz": "", "district": "Zug"}, {"id": 19, "name": "Carouge", "name_ru": "Carouge", "tz": "", "district": "Genève"}, {"id": 20, "name": "Dubendorf", "name_ru": "Dübendorf", "tz": "", "district": "Zürich"}, {"id": 21, "name": "Dietikon", "name_ru": "Dietikon", "tz": "", "district": "Zürich"}, {"id": 22, "name": "Vevey", "name_ru": "Vevey", "tz": "", "district": "Vaud"}, {"id": 23, "name": "Renens", "name_ru": "Renens", "tz": "", "district": "Vaud"}, {"id": 24, "name": "Meyrin", "name_ru": "Meyrin", "tz": "", "district": "Genève"}, {"id": 25, "name": "Onex", "name_ru": "Onex", "tz": "", "district": "Genève"}, {"id": 26, "name": "Allschwil", "name_ru": "Allschwil", "tz": "", "district": "Basel-Landschaft"}, {"id": 27, "name": "Opfikon", "name_ru": "Opfikon", "tz": "", "district": "Zürich"}, {"id": 28, "name": "Nyon", "name_ru": "Nyon", "tz": "", "district": "Vaud"}, {"id": 29, "name": "Aarau", "name_ru": "Aarau", "tz": "", "district": "Aargau"}, {"id": 30, "name": "Reinach", "name_ru": "Reinach", "tz": "", "district": "Basel-Landschaft"}, {"id": 31, "name": "Schlieren", "name_ru": "Schlieren", "tz": "", "district": "Zürich"}, {"id": 32, "name": "Pully", "name_ru": "Pully", "tz": "", "district": "Vaud"}, {"id": 33, "name": "Adliswil", "name_ru": "Adliswil", "tz": "", "district": "Zürich"}, {"id": 34, "name": "Thalwil", "name_ru": "Thalwil", "tz": "", "district": "Zürich"}, {"id": 35, "name": "Ostermundigen", "name_ru": "Ostermundigen", "tz": "", "district": "Bern"}, {"id": 36, "name": "Morges", "name_ru": "Morges", "tz": "", "district": "Vaud"}, {"id": 37, "name": "Solothurn", "name_ru": "Solothurn", "tz": "", "district": "Solothurn"}, {"id": 38, "name": "Binningen", "name_ru": "Binningen", "tz": "", "district": "Basel-Landschaft"}, {"id": 39, "name": "Wallisellen", "name_ru": "Wallisellen", "tz": "", "district": "Zürich"}, {"id": 40, "name": "Prilly", "name_ru": "Prilly", "tz": "", "district": "Vaud"}, {"id": 41, "name": "Thonex", "name_ru": "Thônex", "tz": "", "district": "Genève"}, {"id": 42, "name": "Arbon", "name_ru": "Arbon", "tz": "", "district": "Thurgau"}, {"id": 43, "name": "Schwyz", "name_ru": "Schwyz", "tz": "", "district": "Schwyz"}, {"id": 44, "name": "La Tour-de-Peilz", "name_ru": "La Tour-de-Peilz", "tz": "", "district": "Vaud"}, {"id": 45, "name": "Liestal", "name_ru": "Liestal", "tz": "", "district": "Basel-Landschaft"}, {"id": 46, "name": "Chene-Bougeries", "name_ru": "Chêne-Bougeries", "tz": "", "district": "Genève"}, {"id": 47, "name": "Le Grand-Saconnex", "name_ru": "Le Grand-Saconnex", "tz": "", "district": "Genève"}, {"id": 48, "name": "Rorschach", "name_ru": "Rorschach", "tz": "", "district": "Sankt Gallen"}, {"id": 49, "name": "Birsfelden", "name_ru": "Birsfelden", "tz": "", "district": "Basel-Landschaft"}, {"id": 50, "name": "Villars-sur-Glane", "name_ru": "Villars-sur-Glâne", "tz": "", "district": "Fribourg"}, {"id": 51, "name": "Delemont", "name_ru": "Delémont", "tz": "", "district": "Jura"}, {"id": 52, "name": "Mannedorf", "name_ru": "Männedorf", "tz": "", "district": "Zürich"}, {"id": 53, "name": "Chavannes-pres-Renens", "name_ru": "Chavannes-près-Renens", "tz": "", "district": "Vaud"}, {"id": 54, "name": "Massagno", "name_ru": "Massagno", "tz": "", "district": "Ticino"}, {"id": 55, "name": "Widnau", "name_ru": "Widnau", "tz": "", "district": "Sankt Gallen"}, {"id": 56, "name": "Epalinges", "name_ru": "Epalinges", "tz": "", "district": "Vaud"}, {"id": 57, "name": "Kilchberg", "name_ru": "Kilchberg", "tz": "", "district": "Zürich"}, {"id": 58, "name": "Nidau", "name_ru": "Nidau", "tz": "", "district": "Bern"}, {"id": 59, "name": "Sarnen", "name_ru": "Sarnen", "tz": "", "district": "Obwalden"}, {"id": 60, "name": "Altdorf", "name_ru": "Altdorf", "tz": "", "district": "Uri"}, {"id": 61, "name": "Oberengstringen", "name_ru": "Oberengstringen", "tz": "", "district": "Zürich"}, {"id": 62, "name": "Stans", "name_ru": "Stans", "tz": "", "district": "Nidwalden"}, {"id": 63, "name": "Bottmingen", "name_ru": "Bottmingen", "tz": "", "district": "Basel-Landschaft"}, {"id": 64, "name": "Rolle", "name_ru": "Rolle", "tz": "", "district": "Vaud"}, {"id": 65, "name": "Preverenges", "name_ru": "Préverenges", "tz": "", "district": "Vaud"}, {"id": 66, "name": "Gerlafingen", "name_ru": "Gerlafingen", "tz": "", "district": "Solothurn"}, {"id": 67, "name": "Greifensee", "name_ru": "Greifensee", "tz": "", "district": "Zürich"}, {"id": 68, "name": "Glarus", "name_ru": "Glarus", "tz": "", "district": "Glarus"}, {"id": 69, "name": "Appenzell", "name_ru": "Appenzell", "tz": "", "district": "Appenzell Innerrhoden"}, {"id": 70, "name": "Lugano", "name_ru": "Lugano", "tz": "", "district": "Ticino"}, {"id": 71, "name": "Koniz", "name_ru": "Köniz", "tz": "", "district": "Bern"}, {"id": 72, "name": "La Chaux-de-Fonds", "name_ru": "La Chaux-de-Fonds", "tz": "", "district": "Neuchâtel"}, {"id": 73, "name": "Sion", "name_ru": "Sion", "tz": "", "district": "Valais"}, {"id": 74, "name": "Uster", "name_ru": "Uster", "tz": "", "district": "Zürich"}, {"id": 75, "name": "Landecy", "name_ru": "Landecy", "tz": "", "district": "Genève"}, {"id": 76, "name": "Emmen", "name_ru": "Emmen", "tz": "", "district": "Luzern"}, {"id": 77, "name": "Rapperswil-Jona", "name_ru": "Rapperswil-Jona", "tz": "", "district": "Sankt Gallen"}, {"id": 78, "name": "Kriens", "name_ru": "Kriens", "tz": "", "district": "Luzern"}, {"id": 79, "name": "Montreux", "name_ru": "Montreux", "tz": "", "district": "Vaud"}, {"id": 80, "name": "Frauenfeld", "name_ru": "Frauenfeld", "tz": "", "district": "Thurgau"}, {"id": 81, "name": "Wetzikon", "name_ru": "Wetzikon", "tz": "", "district": "Zürich"}, {"id": 82, "name": "Baar", "name_ru": "Baar", "tz": "", "district": "Zug"}, {"id": 83, "name": "Wil", "name_ru": "Wil", "tz": "", "district": "Sankt Gallen"}, {"id": 84, "name": "Kreuzlingen", "name_ru": "Kreuzlingen", "tz": "", "district": "Thurgau"}, {"id": 85, "name": "Bulle", "name_ru": "Bulle", "tz": "", "district": "Fribourg"}, {"id": 86, "name": "Riehen", "name_ru": "Riehen", "tz": "", "district": "Basel-Stadt"}, {"id": 87, "name": "Horgen", "name_ru": "Horgen", "tz": "", "district": "Zürich"}, {"id": 88, "name": "Wadenswil", "name_ru": "Wädenswil", "tz": "", "district": "Zürich"}, {"id": 89, "name": "Wettingen", "name_ru": "Wettingen", "tz": "", "district": "Aargau"}, {"id": 90, "name": "Bulach", "name_ru": "Bülach", "tz": "", "district": "Zürich"}, {"id": 91, "name": "Baden", "name_ru": "Baden", "tz": "", "district": "Aargau"}, {"id": 92, "name": "Kloten", "name_ru": "Kloten", "tz": "", "district": "Zürich"}, {"id": 93, "name": "Volketswil", "name_ru": "Volketswil", "tz": "", "district": "Zürich"}, {"id": 94, "name": "Regensdorf", "name_ru": "Regensdorf", "tz": "", "district": "Zürich"}, {"id": 95, "name": "Muttenz", "name_ru": "Muttenz", "tz": "", "district": "Basel-Landschaft"}, {"id": 96, "name": "Gossau", "name_ru": "Gossau", "tz": "", "district": "Sankt Gallen"}, {"id": 97, "name": "Martigny", "name_ru": "Martigny", "tz": "", "district": "Valais"}, {"id": 98, "name": "Olten", "name_ru": "Olten", "tz": "", "district": "Solothurn"}, {"id": 99, "name": "Littau", "name_ru": "Littau", "tz": "", "district": "Luzern"}, {"id": 100, "name": "Monthey", "name_ru": "Monthey", "tz": "", "district": "Valais"}, {"id": 101, "name": "Pratteln", "name_ru": "Pratteln", "tz": "", "district": "Basel-Landschaft"}, {"id": 102, "name": "Grenchen", "name_ru": "Grenchen", "tz": "", "district": "Solothurn"}, {"id": 103, "name": "Freienbach", "name_ru": "Freienbach", "tz": "", "district": "Schwyz"}, {"id": 104, "name": "Wohlen", "name_ru": "Wohlen", "tz": "", "district": "Aargau"}, {"id": 105, "name": "Burgdorf", "name_ru": "Burgdorf", "tz": "", "district": "Bern"}, {"id": 106, "name": "Steffisburg", "name_ru": "Steffisburg", "tz": "", "district": "Bern"}, {"id": 107, "name": "Sierre", "name_ru": "Sierre", "tz": "", "district": "Valais"}, {"id": 108, "name": "Locarno", "name_ru": "Locarno", "tz": "", "district": "Ticino"}, {"id": 109, "name": "Langenthal", "name_ru": "Langenthal", "tz": "", "district": "Bern"}, {"id": 110, "name": "Herisau", "name_ru": "Herisau", "tz": "", "district": "Appenzell Ausserrhoden"}, {"id": 111, "name": "Lyss", "name_ru": "Lyss", "tz": "", "district": "Bern"}, {"id": 112, "name": "Stafa", "name_ru": "Stäfa", "tz": "", "district": "Zürich"}, {"id": 113, "name": "Einsiedeln", "name_ru": "Einsiedeln", "tz": "", "district": "Schwyz"}, {"id": 114, "name": "Mendrisio", "name_ru": "Mendrisio", "tz": "", "district": "Ticino"}, {"id": 115, "name": "Kusnacht", "name_ru": "Küsnacht", "tz": "", "district": "Zürich"}, {"id": 116, "name": "Horw", "name_ru": "Horw", "tz": "", "district": "Luzern"}, {"id": 117, "name": "Richterswil", "name_ru": "Richterswil", "tz": "", "district": "Zürich"}, {"id": 118, "name": "Meilen", "name_ru": "Meilen", "tz": "", "district": "Zürich"}, {"id": 119, "name": "Oftringen", "name_ru": "Oftringen", "tz": "", "district": "Aargau"}, {"id": 120, "name": "Muri", "name_ru": "Muri", "tz": "", "district": "Bern"}, {"id": 121, "name": "Versoix", "name_ru": "Versoix", "tz": "", "district": "Genève"}, {"id": 122, "name": "Gland", "name_ru": "Gland", "tz": "", "district": "Vaud"}, {"id": 123, "name": "Zollikon", "name_ru": "Zollikon", "tz": "", "district": "Zürich"}, {"id": 124, "name": "Amriswil", "name_ru": "Amriswil", "tz": "", "district": "Thurgau"}, {"id": 125, "name": "Rheinfelden", "name_ru": "Rheinfelden", "tz": "", "district": "Aargau"}, {"id": 126, "name": "Munchenstein", "name_ru": "Münchenstein", "tz": "", "district": "Basel-Landschaft"}, {"id": 127, "name": "Uzwil", "name_ru": "Uzwil", "tz": "", "district": "Sankt Gallen"}, {"id": 128, "name": "Spiez", "name_ru": "Spiez", "tz": "", "district": "Bern"}, {"id": 129, "name": "Kussnacht", "name_ru": "Küssnacht", "tz": "", "district": "Schwyz"}, {"id": 130, "name": "Brig-Glis", "name_ru": "Brig-Glis", "tz": "", "district": "Valais"}, {"id": 131, "name": "Buchs", "name_ru": "Buchs", "tz": "", "district": "Sankt Gallen"}, {"id": 132, "name": "Veyrier", "name_ru": "Veyrier", "tz": "", "district": "Genève"}, {"id": 133, "name": "Ruti", "name_ru": "Rüti", "tz": "", "district": "Zürich"}, {"id": 134, "name": "Affoltern am Albis", "name_ru": "Affoltern am Albis", "tz": "", "district": "Zürich"}, {"id": 135, "name": "Spreitenbach", "name_ru": "Spreitenbach", "tz": "", "district": "Aargau"}, {"id": 136, "name": "Brugg", "name_ru": "Brugg", "tz": "", "district": "Aargau"}, {"id": 137, "name": "Bassersdorf", "name_ru": "Bassersdorf", "tz": "", "district": "Zürich"}, {"id": 138, "name": "Zofingen", "name_ru": "Zofingen", "tz": "", "district": "Aargau"}, {"id": 139, "name": "Oberwil", "name_ru": "Oberwil", "tz": "", "district": "Basel-Landschaft"}, {"id": 140, "name": "Plan-les-Ouates", "name_ru": "Plan-les-Ouates", "tz": "", "district": "Genève"}, {"id": 141, "name": "Romanshorn", "name_ru": "Romanshorn", "tz": "", "district": "Thurgau"}, {"id": 142, "name": "Pfaffikon", "name_ru": "Pfäffikon", "tz": "", "district": "Zürich"}, {"id": 143, "name": "Weinfelden", "name_ru": "Weinfelden", "tz": "", "district": "Thurgau"}, {"id": 144, "name": "Arth", "name_ru": "Arth", "tz": "", "district": "Schwyz"}, {"id": 145, "name": "Altstatten", "name_ru": "Altstätten", "tz": "", "district": "Sankt Gallen"}, {"id": 146, "name": "Belp", "name_ru": "Belp", "tz": "", "district": "Bern"}, {"id": 147, "name": "Worb", "name_ru": "Worb", "tz": "", "district": "Bern"}, {"id": 148, "name": "Neuhausen am Rheinfall", "name_ru": "Neuhausen am Rheinfall", "tz": "", "district": "Schaffhausen"}, {"id": 149, "name": "Aesch", "name_ru": "Aesch", "tz": "", "district": "Basel-Landschaft"}, {"id": 150, "name": "Hinwil", "name_ru": "Hinwil", "tz": "", "district": "Zürich"}, {"id": 151, "name": "Waltikon", "name_ru": "Waltikon", "tz": "", "district": "Zürich"}, {"id": 152, "name": "Mohlin", "name_ru": "Möhlin", "tz": "", "district": "Aargau"}, {"id": 153, "name": "Sursee", "name_ru": "Sursee", "tz": "", "district": "Luzern"}, {"id": 154, "name": "Risch", "name_ru": "Risch", "tz": "", "district": "Zug"}, {"id": 155, "name": "Lutry", "name_ru": "Lutry", "tz": "", "district": "Vaud"}, {"id": 156, "name": "Lenzburg", "name_ru": "Lenzburg", "tz": "", "district": "Aargau"}, {"id": 157, "name": "Flawil", "name_ru": "Flawil", "tz": "", "district": "Sankt Gallen"}, {"id": 158, "name": "Suhr", "name_ru": "Suhr", "tz": "", "district": "Aargau"}, {"id": 159, "name": "Therwil", "name_ru": "Therwil", "tz": "", "district": "Basel-Landschaft"}, {"id": 160, "name": "Goldach", "name_ru": "Goldach", "tz": "", "district": "Sankt Gallen"}, {"id": 161, "name": "Urdorf", "name_ru": "Urdorf", "tz": "", "district": "Zürich"}, {"id": 162, "name": "Bernex", "name_ru": "Bernex", "tz": "", "district": "Genève"}, {"id": 163, "name": "Davos", "name_ru": "Davos", "tz": "", "district": "Graubünden"}, {"id": 164, "name": "Le Locle", "name_ru": "Le Locle", "tz": "", "district": "Neuchâtel"}, {"id": 165, "name": "Maur", "name_ru": "Maur", "tz": "", "district": "Zürich"}, {"id": 166, "name": "Zuchwil", "name_ru": "Zuchwil", "tz": "", "district": "Solothurn"}, {"id": 167, "name": "Hochdorf", "name_ru": "Hochdorf", "tz": "", "district": "Luzern"}, {"id": 168, "name": "Aigle", "name_ru": "Aigle", "tz": "", "district": "Valais"}, {"id": 169, "name": "Arlesheim", "name_ru": "Arlesheim", "tz": "", "district": "Basel-Landschaft"}, {"id": 170, "name": "Wittenbach", "name_ru": "Wittenbach", "tz": "", "district": "Sankt Gallen"}, {"id": 171, "name": "Gossau", "name_ru": "Gossau", "tz": "", "district": "Zürich"}, {"id": 172, "name": "Neuenhof", "name_ru": "Neuenhof", "tz": "", "district": "Aargau"}, {"id": 173, "name": "Lachen", "name_ru": "Lachen", "tz": "", "district": "Schwyz"}, {"id": 174, "name": "Payerne", "name_ru": "Payerne", "tz": "", "district": "Vaud"}, {"id": 175, "name": "Naters", "name_ru": "Naters", "tz": "", "district": "Valais"}, {"id": 176, "name": "Embrach", "name_ru": "Embrach", "tz": "", "district": "Zürich"}, {"id": 177, "name": "Wald", "name_ru": "Wald", "tz": "", "district": "Zürich"}, {"id": 178, "name": "Steinhaus", "name_ru": "Steinhaus", "tz": "", "district": "Luzern"}, {"id": 179, "name": "Niederhasli", "name_ru": "Niederhasli", "tz": "", "district": "Zürich"}, {"id": 180, "name": "Estavayer-le-Lac", "name_ru": "Estavayer-le-Lac", "tz": "", "district": "Fribourg"}, {"id": 181, "name": "Fallanden", "name_ru": "Fällanden", "tz": "", "district": "Zürich"}, {"id": 182, "name": "Aarburg", "name_ru": "Aarburg", "tz": "", "district": "Aargau"}, {"id": 183, "name": "Rothrist", "name_ru": "Rothrist", "tz": "", "district": "Aargau"}, {"id": 184, "name": "Eschenbach", "name_ru": "Eschenbach", "tz": "", "district": "Sankt Gallen"}, {"id": 185, "name": "Obersiggenthal", "name_ru": "Obersiggenthal", "tz": "", "district": "Aargau"}, {"id": 186, "name": "Ingenbohl", "name_ru": "Ingenbohl", "tz": "", "district": "Schwyz"}, {"id": 187, "name": "Schubelbach", "name_ru": "Schübelbach", "tz": "", "district": "Schwyz"}, {"id": 188, "name": "Langnau", "name_ru": "Langnau", "tz": "", "district": "Bern"}, {"id": 189, "name": "Oberentfelden", "name_ru": "Oberentfelden", "tz": "", "district": "Aargau"}, {"id": 190, "name": "Dietlikon", "name_ru": "Dietlikon", "tz": "", "district": "Zürich"}, {"id": 191, "name": "Aadorf", "name_ru": "Aadorf", "tz": "", "district": "Thurgau"}, {"id": 192, "name": "Chiasso", "name_ru": "Chiasso", "tz": "", "district": "Ticino"}, {"id": 193, "name": "Buchs", "name_ru": "Buchs", "tz": "", "district": "Aargau"}, {"id": 194, "name": "Au", "name_ru": "Au", "tz": "", "district": "Sankt Gallen"}, {"id": 195, "name": "Reinach", "name_ru": "Reinach", "tz": "", "district": "Aargau"}, {"id": 196, "name": "Le Mont-sur-Lausanne", "name_ru": "Le Mont-sur-Lausanne", "tz": "", "district": "Vaud"}, {"id": 197, "name": "Crissier", "name_ru": "Crissier", "tz": "", "district": "Vaud"}, {"id": 198, "name": "Landquart", "name_ru": "Landquart", "tz": "", "district": "Graubünden"}, {"id": 199, "name": "Hombrechtikon", "name_ru": "Hombrechtikon", "tz": "", "district": "Zürich"}, {"id": 200, "name": "Hunenberg", "name_ru": "Hünenberg", "tz": "", "district": "Zug"}, {"id": 201, "name": "Kirchberg", "name_ru": "Kirchberg", "tz": "", "district": "Sankt Gallen"}, {"id": 202, "name": "Biberist", "name_ru": "Biberist", "tz": "", "district": "Solothurn"}, {"id": 203, "name": "Marly", "name_ru": "Marly", "tz": "", "district": "Fribourg"}, {"id": 204, "name": "Windisch", "name_ru": "Windisch", "tz": "", "district": "Aargau"}, {"id": 205, "name": "Unterageri", "name_ru": "Unterägeri", "tz": "", "district": "Zug"}, {"id": 206, "name": "Egg", "name_ru": "Egg", "tz": "", "district": "Zürich"}, {"id": 207, "name": "Oberriet", "name_ru": "Oberriet", "tz": "", "district": "Sankt Gallen"}, {"id": 208, "name": "Fully", "name_ru": "Fully", "tz": "", "district": "Valais"}, {"id": 209, "name": "Wattwil", "name_ru": "Wattwil", "tz": "", "district": "Sankt Gallen"}, {"id": 210, "name": "Bussy", "name_ru": "Bussy", "tz": "", "district": "Vaud"}, {"id": 211, "name": "Bad Zurzach", "name_ru": "Bad Zurzach", "tz": "", "district": "Aargau"}, {"id": 212, "name": "Conthey", "name_ru": "Conthey", "tz": "", "district": "Valais"}, {"id": 213, "name": "Mels", "name_ru": "Mels", "tz": "", "district": "Sankt Gallen"}, {"id": 214, "name": "Rumlang", "name_ru": "Rümlang", "tz": "", "district": "Zürich"}, {"id": 215, "name": "Murten", "name_ru": "Murten", "tz": "", "district": "Fribourg"}, {"id": 216, "name": "Minusio", "name_ru": "Minusio", "tz": "", "district": "Ticino"}, {"id": 217, "name": "Visp", "name_ru": "Visp", "tz": "", "district": "Valais"}, {"id": 218, "name": "Bremgarten", "name_ru": "Bremgarten", "tz": "", "district": "Aargau"}, {"id": 219, "name": "Muri", "name_ru": "Muri", "tz": "", "district": "Aargau"}, {"id": 220, "name": "Hirslen", "name_ru": "Hirslen", "tz": "", "district": "Zürich"}, {"id": 221, "name": "Wollerau", "name_ru": "Wollerau", "tz": "", "district": "Schwyz"}, {"id": 222, "name": "Sirnach", "name_ru": "Sirnach", "tz": "", "district": "Thurgau"}, {"id": 223, "name": "Domat/Ems", "name_ru": "Domat/Ems", "tz": "", "district": "Graubünden"}, {"id": 224, "name": "Langnau am Albis", "name_ru": "Langnau am Albis", "tz": "", "district": "Zürich"}, {"id": 225, "name": "Rorschacherberg", "name_ru": "Rorschacherberg", "tz": "", "district": "Sankt Gallen"}, {"id": 226, "name": "Seuzach", "name_ru": "Seuzach", "tz": "", "district": "Zürich"}, {"id": 227, "name": "Durnten", "name_ru": "Dürnten", "tz": "", "district": "Zürich"}, {"id": 228, "name": "Meggen", "name_ru": "Meggen", "tz": "", "district": "Luzern"}, {"id": 229, "name": "Dudingen", "name_ru": "Düdingen", "tz": "", "district": "Fribourg"}, {"id": 230, "name": "Granichen", "name_ru": "Gränichen", "tz": "", "district": "Aargau"}, {"id": 231, "name": "Bagnes", "name_ru": "Bagnes", "tz": "", "district": "Valais"}, {"id": 232, "name": "Untersiggenthal", "name_ru": "Untersiggenthal", "tz": "", "district": "Aargau"}, {"id": 233, "name": "Heimberg", "name_ru": "Heimberg", "tz": "", "district": "Bern"}, {"id": 234, "name": "Rothenburg", "name_ru": "Rothenburg", "tz": "", "district": "Luzern"}, {"id": 235, "name": "Willisau", "name_ru": "Willisau", "tz": "", "district": "Luzern"}, {"id": 236, "name": "Dornach", "name_ru": "Dornach", "tz": "", "district": "Solothurn"}, {"id": 237, "name": "Villmergen", "name_ru": "Villmergen", "tz": "", "district": "Aargau"}, {"id": 238, "name": "Herzogenbuchsee", "name_ru": "Herzogenbuchsee", "tz": "", "district": "Bern"}, {"id": 239, "name": "Uetikon am See", "name_ru": "Uetikon am See", "tz": "", "district": "Zürich"}, {"id": 240, "name": "Frenkendorf", "name_ru": "Frenkendorf", "tz": "", "district": "Basel-Landschaft"}, {"id": 241, "name": "Bex", "name_ru": "Bex", "tz": "", "district": "Vaud"}, {"id": 242, "name": "Saviese", "name_ru": "Savièse", "tz": "", "district": "Valais"}, {"id": 243, "name": "Ruschlikon", "name_ru": "Rüschlikon", "tz": "", "district": "Zürich"}, {"id": 244, "name": "Bubikon", "name_ru": "Bubikon", "tz": "", "district": "Zürich"}, {"id": 245, "name": "Oberglatt", "name_ru": "Oberglatt", "tz": "", "district": "Zürich"}, {"id": 246, "name": "Moutier", "name_ru": "Moutier", "tz": "", "district": "Bern"}, {"id": 247, "name": "Derendingen", "name_ru": "Derendingen", "tz": "", "district": "Solothurn"}, {"id": 248, "name": "Ollon", "name_ru": "Ollon", "tz": "", "district": "Vaud"}, {"id": 249, "name": "Orbe", "name_ru": "Orbe", "tz": "", "district": "Vaud"}, {"id": 250, "name": "Peseux", "name_ru": "Peseux", "tz": "", "district": "Neuchâtel"}, {"id": 251, "name": "Erlenbach", "name_ru": "Erlenbach", "tz": "", "district": "Zürich"}, {"id": 252, "name": "Sissach", "name_ru": "Sissach", "tz": "", "district": "Basel-Landschaft"}, {"id": 253, "name": "Altendorf", "name_ru": "Altendorf", "tz": "", "district": "Schwyz"}, {"id": 254, "name": "Trimbach", "name_ru": "Trimbach", "tz": "", "district": "Solothurn"}, {"id": 255, "name": "Reiden", "name_ru": "Reiden", "tz": "", "district": "Luzern"}, {"id": 256, "name": "Buchrain", "name_ru": "Buchrain", "tz": "", "district": "Luzern"}, {"id": 257, "name": "Buchs", "name_ru": "Buchs", "tz": "", "district": "Zürich"}, {"id": 258, "name": "Neuenkirch", "name_ru": "Neuenkirch", "tz": "", "district": "Luzern"}, {"id": 259, "name": "Menziken", "name_ru": "Menziken", "tz": "", "district": "Aargau"}, {"id": 260, "name": "Uznach", "name_ru": "Uznach", "tz": "", "district": "Sankt Gallen"}, {"id": 261, "name": "Thal", "name_ru": "Thal", "tz": "", "district": "Sankt Gallen"}, {"id": 262, "name": "Wurenlos", "name_ru": "Würenlos", "tz": "", "district": "Aargau"}, {"id": 263, "name": "Grabs", "name_ru": "Grabs", "tz": "", "district": "Sankt Gallen"}, {"id": 264, "name": "Wiesendangen", "name_ru": "Wiesendangen", "tz": "", "district": "Zürich"}, {"id": 265, "name": "Porrentruy", "name_ru": "Porrentruy", "tz": "", "district": "Jura"}, {"id": 266, "name": "Chatel-Saint-Denis", "name_ru": "Châtel-Saint-Denis", "tz": "", "district": "Fribourg"}, {"id": 267, "name": "Cologny", "name_ru": "Cologny", "tz": "", "district": "Genève"}, {"id": 268, "name": "Fehraltorf", "name_ru": "Fehraltorf", "tz": "", "district": "Zürich"}, {"id": 269, "name": "Diepoldsau", "name_ru": "Diepoldsau", "tz": "", "district": "Sankt Gallen"}, {"id": 270, "name": "Frutigen", "name_ru": "Frutigen", "tz": "", "district": "Bern"}, {"id": 271, "name": "Schwerzenbach", "name_ru": "Schwerzenbach", "tz": "", "district": "Zürich"}, {"id": 272, "name": "Ruswil", "name_ru": "Ruswil", "tz": "", "district": "Luzern"}, {"id": 273, "name": "Herrliberg", "name_ru": "Herrliberg", "tz": "", "district": "Zürich"}, {"id": 274, "name": "Vetroz", "name_ru": "Vétroz", "tz": "", "district": "Valais"}, {"id": 275, "name": "Schwarzenburg", "name_ru": "Schwarzenburg", "tz": "", "district": "Bern"}, {"id": 276, "name": "Dielsdorf", "name_ru": "Dielsdorf", "tz": "", "district": "Zürich"}, {"id": 277, "name": "Birmensdorf", "name_ru": "Birmensdorf", "tz": "", "district": "Zürich"}, {"id": 278, "name": "Oberrieden", "name_ru": "Oberrieden", "tz": "", "district": "Zürich"}, {"id": 279, "name": "Interlaken", "name_ru": "Interlaken", "tz": "", "district": "Bern"}, {"id": 280, "name": "Saanen", "name_ru": "Saanen", "tz": "", "district": "Bern"}, {"id": 281, "name": "Oberuzwil", "name_ru": "Oberuzwil", "tz": "", "district": "Sankt Gallen"}, {"id": 282, "name": "Gelterkinden", "name_ru": "Gelterkinden", "tz": "", "district": "Basel-Landschaft"}, {"id": 283, "name": "Oensingen", "name_ru": "Oensingen", "tz": "", "district": "Solothurn"}, {"id": 284, "name": "Mellingen", "name_ru": "Mellingen", "tz": "", "district": "Aargau"}, {"id": 285, "name": "Courtepin", "name_ru": "Courtepin", "tz": "", "district": "Fribourg"}, {"id": 286, "name": "Colombier", "name_ru": "Colombier", "tz": "", "district": "Neuchâtel"}, {"id": 287, "name": "Sankt Margrethen", "name_ru": "Sankt Margrethen", "tz": "", "district": "Appenzell Ausserrhoden"}, {"id": 288, "name": "Beromunster", "name_ru": "Beromünster", "tz": "", "district": "Luzern"}, {"id": 289, "name": "Saint-Prex", "name_ru": "Saint-Prex", "tz": "", "district": "Vaud"}, {"id": 290, "name": "Kaiseraugst", "name_ru": "Kaiseraugst", "tz": "", "district": "Aargau"}, {"id": 291, "name": "Losone", "name_ru": "Losone", "tz": "", "district": "Ticino"}, {"id": 292, "name": "Kuttigen", "name_ru": "Küttigen", "tz": "", "district": "Aargau"}, {"id": 293, "name": "Teufen", "name_ru": "Teufen", "tz": "", "district": "Appenzell Ausserrhoden"}, {"id": 294, "name": "Ascona", "name_ru": "Ascona", "tz": "", "district": "Ticino"}, {"id": 295, "name": "Fislisbach", "name_ru": "Fislisbach", "tz": "", "district": "Aargau"}, {"id": 296, "name": "Bolligen", "name_ru": "Bolligen", "tz": "", "district": "Bern"}, {"id": 297, "name": "Kirchberg", "name_ru": "Kirchberg", "tz": "", "district": "Bern"}, {"id": 298, "name": "Echallens", "name_ru": "Echallens", "tz": "", "district": "Vaud"}, {"id": 299, "name": "Blonay", "name_ru": "Blonay", "tz": "", "district": "Vaud"}, {"id": 300, "name": "Bischofszell", "name_ru": "Bischofszell", "tz": "", "district": "Thurgau"}, {"id": 301, "name": "Moudon", "name_ru": "Moudon", "tz": "", "district": "Vaud"}, {"id": 302, "name": "Boudry", "name_ru": "Boudry", "tz": "", "district": "Neuchâtel"}, {"id": 303, "name": "Balsthal", "name_ru": "Balsthal", "tz": "", "district": "Solothurn"}, {"id": 304, "name": "Uetendorf", "name_ru": "Uetendorf", "tz": "", "district": "Bern"}, {"id": 305, "name": "Kerns", "name_ru": "Kerns", "tz": "", "district": "Obwalden"}, {"id": 306, "name": "Jegenstorf", "name_ru": "Jegenstorf", "tz": "", "district": "Bern"}, {"id": 307, "name": "Zell", "name_ru": "Zell", "tz": "", "district": "Zürich"}, {"id": 308, "name": "Gebenstorf", "name_ru": "Gebenstorf", "tz": "", "district": "Aargau"}, {"id": 309, "name": "Rupperswil", "name_ru": "Rupperswil", "tz": "", "district": "Aargau"}, {"id": 310, "name": "Bonstetten", "name_ru": "Bonstetten", "tz": "", "district": "Zürich"}, {"id": 311, "name": "Obererli", "name_ru": "Obererli", "tz": "", "district": "Schwyz"}, {"id": 312, "name": "Biasca", "name_ru": "Biasca", "tz": "", "district": "Ticino"}, {"id": 313, "name": "Bellach", "name_ru": "Bellach", "tz": "", "district": "Solothurn"}, {"id": 314, "name": "Adligenswil", "name_ru": "Adligenswil", "tz": "", "district": "Luzern"}, {"id": 315, "name": "Unterseen", "name_ru": "Unterseen", "tz": "", "district": "Bern"}, {"id": 316, "name": "Saxon", "name_ru": "Saxon", "tz": "", "district": "Valais"}, {"id": 317, "name": "Nurensdorf", "name_ru": "Nürensdorf", "tz": "", "district": "Zürich"}, {"id": 318, "name": "Lausen", "name_ru": "Lausen", "tz": "", "district": "Basel-Landschaft"}, {"id": 319, "name": "Alpnach", "name_ru": "Alpnach", "tz": "", "district": "Obwalden"}, {"id": 320, "name": "Frick", "name_ru": "Frick", "tz": "", "district": "Aargau"}, {"id": 321, "name": "Hergiswil", "name_ru": "Hergiswil", "tz": "", "district": "Nidwalden"}, {"id": 322, "name": "Lindau", "name_ru": "Lindau", "tz": "", "district": "Zürich"}, {"id": 323, "name": "Munchwilen", "name_ru": "Münchwilen", "tz": "", "district": "Thurgau"}, {"id": 324, "name": "Zumikon", "name_ru": "Zumikon", "tz": "", "district": "Zürich"}, {"id": 325, "name": "Obfelden", "name_ru": "Obfelden", "tz": "", "district": "Zürich"}, {"id": 326, "name": "Laufen", "name_ru": "Laufen", "tz": "", "district": "Basel-Landschaft"}, {"id": 327, "name": "Ettingen", "name_ru": "Ettingen", "tz": "", "district": "Basel-Landschaft"}, {"id": 328, "name": "Lengnau", "name_ru": "Lengnau", "tz": "", "district": "Bern"}, {"id": 329, "name": "Villeneuve", "name_ru": "Villeneuve", "tz": "", "district": "Vaud"}, {"id": 330, "name": "Neftenbach", "name_ru": "Neftenbach", "tz": "", "district": "Zürich"}, {"id": 331, "name": "Dulliken", "name_ru": "Dulliken", "tz": "", "district": "Solothurn"}, {"id": 332, "name": "Buochs", "name_ru": "Buochs", "tz": "", "district": "Nidwalden"}, {"id": 333, "name": "Seon", "name_ru": "Seon", "tz": "", "district": "Aargau"}, {"id": 334, "name": "Walenstadt", "name_ru": "Walenstadt", "tz": "", "district": "Sankt Gallen"}, {"id": 335, "name": "Wangen bei Olten", "name_ru": "Wangen bei Olten", "tz": "", "district": "Solothurn"}, {"id": 336, "name": "Fraubrunnen", "name_ru": "Fraubrunnen", "tz": "", "district": "Bern"}, {"id": 337, "name": "Romont", "name_ru": "Romont", "tz": "", "district": "Fribourg"}, {"id": 338, "name": "Schattdorf", "name_ru": "Schattdorf", "tz": "", "district": "Uri"}, {"id": 339, "name": "Eglisau", "name_ru": "Eglisau", "tz": "", "district": "Zürich"}, {"id": 340, "name": "Dagmersellen", "name_ru": "Dagmersellen", "tz": "", "district": "Luzern"}, {"id": 341, "name": "Thayngen", "name_ru": "Thayngen", "tz": "", "district": "Schaffhausen"}, {"id": 342, "name": "Sennwald", "name_ru": "Sennwald", "tz": "", "district": "Sankt Gallen"}, {"id": 343, "name": "Konolfingen Dorf", "name_ru": "Konolfingen Dorf", "tz": "", "district": "Bern"}, {"id": 344, "name": "Zermatt", "name_ru": "Zermatt", "tz": "", "district": "Valais"}, {"id": 345, "name": "Root", "name_ru": "Root", "tz": "", "district": "Luzern"}, {"id": 346, "name": "Glattfelden", "name_ru": "Glattfelden", "tz": "", "district": "Zürich"}, {"id": 347, "name": "Feusisberg", "name_ru": "Feusisberg", "tz": "", "district": "Schwyz"}, {"id": 348, "name": "Saint Legier-La Chiesaz", "name_ru": "Saint Légier-La Chiésaz", "tz": "", "district": "Vaud"}, {"id": 349, "name": "Wangen", "name_ru": "Wangen", "tz": "", "district": "Schwyz"}, {"id": 350, "name": "Vechigen", "name_ru": "Vechigen", "tz": "", "district": "Bern"}, {"id": 351, "name": "Hagendorf", "name_ru": "Hägendorf", "tz": "", "district": "Solothurn"}, {"id": 352, "name": "Hitzkirch", "name_ru": "Hitzkirch", "tz": "", "district": "Luzern"}, {"id": 353, "name": "Gommiswald", "name_ru": "Gommiswald", "tz": "", "district": "Sankt Gallen"}, {"id": 354, "name": "Sevelen", "name_ru": "Sevelen", "tz": "", "district": "Sankt Gallen"}, {"id": 355, "name": "Baretswil", "name_ru": "Bäretswil", "tz": "", "district": "Zürich"}, {"id": 356, "name": "Sachseln", "name_ru": "Sachseln", "tz": "", "district": "Obwalden"}, {"id": 357, "name": "Ebnat-Kappel", "name_ru": "Ebnat-Kappel", "tz": "", "district": "Sankt Gallen"}, {"id": 358, "name": "Sumiswald", "name_ru": "Sumiswald", "tz": "", "district": "Bern"}]