[{"id": 1, "name": "Abidjan", "name_ru": "Abidjan", "tz": "", "district": "Abidjan"}, {"id": 2, "name": "Yamoussoukro", "name_ru": "Yamoussoukro", "tz": "", "district": "Yamoussoukro"}, {"id": 3, "name": "Bouake", "name_ru": "Bouaké", "tz": "", "district": "Vallée du Bandama"}, {"id": 4, "name": "Korhogo", "name_ru": "Korhogo", "tz": "", "district": "Savanes"}, {"id": 5, "name": "Daloa", "name_ru": "Daloa", "tz": "", "district": "Sassandra-Marahoué"}, {"id": 6, "name": "San-Pedro", "name_ru": "San-Pédro", "tz": "", "district": "Bas-Sassandra"}, {"id": 7, "name": "Divo", "name_ru": "Divo", "tz": "", "district": "Gôh-Djiboua"}, {"id": 8, "name": "Man", "name_ru": "Man", "tz": "", "district": "Montagnes"}, {"id": 9, "name": "Gagnoa", "name_ru": "Gagnoa", "tz": "", "district": "Gôh-Djiboua"}, {"id": 10, "name": "Soubre", "name_ru": "Soubré", "tz": "", "district": "Bas-Sassandra"}, {"id": 11, "name": "Abengourou", "name_ru": "Abengourou", "tz": "", "district": "Comoé"}, {"id": 12, "name": "Dabou", "name_ru": "Dabou", "tz": "", "district": "Lagunes"}, {"id": 13, "name": "Dimbokro", "name_ru": "Dimbokro", "tz": "", "district": "Lacs"}, {"id": 14, "name": "Bondoukou", "name_ru": "Bondoukou", "tz": "", "district": "Zanzan"}, {"id": 15, "name": "Seguela", "name_ru": "Séguéla", "tz": "", "district": "Woroba"}, {"id": 16, "name": "Odienne", "name_ru": "Odienné", "tz": "", "district": "Denguélé"}, {"id": 17, "name": "Bangolo", "name_ru": "Bangolo", "tz": "", "district": "Montagnes"}, {"id": 18, "name": "Agboville", "name_ru": "Agboville", "tz": "", "district": "Lagunes"}, {"id": 19, "name": "Grand-Bassam", "name_ru": "Grand-Bassam", "tz": "", "district": "Comoé"}, {"id": 20, "name": "Bouafle", "name_ru": "Bouaflé", "tz": "", "district": "Sassandra-Marahoué"}, {"id": 21, "name": "Guiglo", "name_ru": "Guiglo", "tz": "", "district": "Montagnes"}, {"id": 22, "name": "Ferkessedougou", "name_ru": "Ferkessédougou", "tz": "", "district": "Savanes"}, {"id": 23, "name": "Toumodi", "name_ru": "Toumodi", "tz": "", "district": "Lacs"}, {"id": 24, "name": "Sassandra", "name_ru": "Sassandra", "tz": "", "district": "Bas-Sassandra"}, {"id": 25, "name": "Aboisso", "name_ru": "Aboisso", "tz": "", "district": "Comoé"}, {"id": 26, "name": "Touba", "name_ru": "Touba", "tz": "", "district": "Woroba"}]