[{"id": 1, "name": "Santiago", "name_ru": "Santiago", "tz": "America/Santiago", "district": "Región Metropolitana"}, {"id": 2, "name": "Puente Alto", "name_ru": "Puente Alto", "tz": "America/Santiago", "district": "Región Metropolitana"}, {"id": 3, "name": "Maipu", "name_ru": "Maipú", "tz": "America/Santiago", "district": "Región Metropolitana"}, {"id": 4, "name": "La Florida", "name_ru": "La Florida", "tz": "America/Santiago", "district": "Región Metropolitana"}, {"id": 5, "name": "Antofagasta", "name_ru": "Antofagasta", "tz": "America/Santiago", "district": "Antofagasta"}, {"id": 6, "name": "Vina del Mar", "name_ru": "Viña del Mar", "tz": "America/Santiago", "district": "Valparaíso"}, {"id": 7, "name": "San Bernardo", "name_ru": "San Bernardo", "tz": "America/Santiago", "district": "Región Metropolitana"}, {"id": 8, "name": "Valparaiso", "name_ru": "Valparaíso", "tz": "America/Santiago", "district": "Valparaíso"}, {"id": 9, "name": "Temuco", "name_ru": "Temuco", "tz": "America/Santiago", "district": "Araucanía"}, {"id": 10, "name": "Las Condes", "name_ru": "Las Condes", "tz": "America/Santiago", "district": "Región Metropolitana"}, {"id": 11, "name": "Rancagua", "name_ru": "Rancagua", "tz": "America/Santiago", "district": "Libertador General Bernardo O’Higgins"}, {"id": 12, "name": "Concepcion", "name_ru": "Concepción", "tz": "America/Santiago", "district": "Biobío"}, {"id": 13, "name": "Talca", "name_ru": "Talca", "tz": "America/Santiago", "district": "Maule"}, {"id": 14, "name": "Coquimbo", "name_ru": "Coquimbo", "tz": "America/Santiago", "district": "Coquimbo"}, {"id": 15, "name": "Arica", "name_ru": "Arica", "tz": "America/Santiago", "district": "Arica y Parinacota"}, {"id": 16, "name": "La Serena", "name_ru": "La Serena", "tz": "America/Santiago", "district": "Coquimbo"}, {"id": 17, "name": "Iquique", "name_ru": "Iquique", "tz": "America/Santiago", "district": "Tarapacá"}, {"id": 18, "name": "Puerto Montt", "name_ru": "Puerto Montt", "tz": "America/Santiago", "district": "Los Lagos"}, {"id": 19, "name": "Chillan", "name_ru": "Chillán", "tz": "America/Santiago", "district": "Ñuble"}, {"id": 20, "name": "Calama", "name_ru": "Calama", "tz": "America/Santiago", "district": "Antofagasta"}, {"id": 21, "name": "Talcahuano", "name_ru": "Talcahuano", "tz": "America/Santiago", "district": "Biobío"}, {"id": 22, "name": "Copiapo", "name_ru": "Copiapó", "tz": "America/Santiago", "district": "Atacama"}, {"id": 23, "name": "Valdivia", "name_ru": "Valdivia", "tz": "America/Santiago", "district": "Los Ríos"}, {"id": 24, "name": "Quilpue", "name_ru": "Quilpué", "tz": "America/Santiago", "district": "Valparaíso"}, {"id": 25, "name": "Osorno", "name_ru": "Osorno", "tz": "America/Santiago", "district": "Los Lagos"}, {"id": 26, "name": "Colina", "name_ru": "Colina", "tz": "America/Santiago", "district": "Región Metropolitana"}, {"id": 27, "name": "Los Angeles", "name_ru": "Los Ángeles", "tz": "America/Santiago", "district": "Biobío"}, {"id": 28, "name": "Curico", "name_ru": "Curicó", "tz": "America/Santiago", "district": "Maule"}, {"id": 29, "name": "Villa Alemana", "name_ru": "Villa Alemana", "tz": "America/Santiago", "district": "Valparaíso"}, {"id": 30, "name": "La Granja", "name_ru": "La Granja", "tz": "America/Santiago", "district": "Región Metropolitana"}, {"id": 31, "name": "Melipilla", "name_ru": "Melipilla", "tz": "America/Santiago", "district": "Región Metropolitana"}, {"id": 32, "name": "Punta Arenas", "name_ru": "Punta Arenas", "tz": "America/Punta_Arenas", "district": "Magallanes y de la Antártica Chilena"}, {"id": 33, "name": "Coronel", "name_ru": "Coronel", "tz": "America/Santiago", "district": "Biobío"}, {"id": 34, "name": "Espejo", "name_ru": "Espejo", "tz": "America/Santiago", "district": "Región Metropolitana"}, {"id": 35, "name": "Alto Hospicio", "name_ru": "Alto Hospicio", "tz": "America/Santiago", "district": "Tarapacá"}, {"id": 36, "name": "Lo Barnechea", "name_ru": "Lo Barnechea", "tz": "America/Santiago", "district": "Región Metropolitana"}, {"id": 37, "name": "San Joaquin", "name_ru": "San Joaquín", "tz": "America/Santiago", "district": "Región Metropolitana"}, {"id": 38, "name": "La Reina", "name_ru": "La Reina", "tz": "America/Santiago", "district": "Región Metropolitana"}, {"id": 39, "name": "Coyhaique", "name_ru": "Coyhaique", "tz": "America/Santiago", "district": "Aysén"}, {"id": 40, "name": "Placilla de Penuelas", "name_ru": "Placilla de Peñuelas", "tz": "America/Santiago", "district": "Valparaíso"}, {"id": 41, "name": "Buin", "name_ru": "Buin", "tz": "America/Santiago", "district": "Región Metropolitana"}, {"id": 42, "name": "Penaflor", "name_ru": "Peñaflor", "tz": "America/Santiago", "district": "Región Metropolitana"}, {"id": 43, "name": "Chiguayante", "name_ru": "Chiguayante", "tz": "America/Santiago", "district": "Biobío"}, {"id": 44, "name": "San Antonio", "name_ru": "San Antonio", "tz": "America/Santiago", "district": "Valparaíso"}, {"id": 45, "name": "Ovalle", "name_ru": "Ovalle", "tz": "America/Santiago", "district": "Coquimbo"}, {"id": 46, "name": "Linares", "name_ru": "Linares", "tz": "America/Santiago", "district": "Maule"}, {"id": 47, "name": "Quillota", "name_ru": "Quillota", "tz": "America/Santiago", "district": "Valparaíso"}, {"id": 48, "name": "San Felipe", "name_ru": "San Felipe", "tz": "America/Santiago", "district": "Valparaíso"}, {"id": 49, "name": "Los Andes", "name_ru": "Los Andes", "tz": "America/Santiago", "district": "Valparaíso"}, {"id": 50, "name": "San Fernando", "name_ru": "San Fernando", "tz": "America/Santiago", "district": "Libertador General Bernardo O’Higgins"}, {"id": 51, "name": "Talagante", "name_ru": "Talagante", "tz": "America/Santiago", "district": "Región Metropolitana"}, {"id": 52, "name": "Villarrica", "name_ru": "Villarrica", "tz": "America/Santiago", "district": "Araucanía"}, {"id": 53, "name": "La Calera", "name_ru": "La Calera", "tz": "America/Santiago", "district": "Valparaíso"}, {"id": 54, "name": "Angol", "name_ru": "Angol", "tz": "America/Santiago", "district": "Araucanía"}, {"id": 55, "name": "Penco", "name_ru": "Penco", "tz": "America/Santiago", "district": "Biobío"}, {"id": 56, "name": "Vallenar", "name_ru": "Vallenar", "tz": "America/Santiago", "district": "Atacama"}, {"id": 57, "name": "Lota", "name_ru": "Lota", "tz": "America/Santiago", "district": "Biobío"}, {"id": 58, "name": "San Clemente", "name_ru": "San Clemente", "tz": "America/Santiago", "district": "Maule"}, {"id": 59, "name": "Alerce", "name_ru": "Alerce", "tz": "America/Santiago", "district": "Los Lagos"}, {"id": 60, "name": "Tome", "name_ru": "Tomé", "tz": "America/Santiago", "district": "Biobío"}, {"id": 61, "name": "Parral", "name_ru": "Parral", "tz": "America/Santiago", "district": "Maule"}, {"id": 62, "name": "Ancud", "name_ru": "Ancud", "tz": "America/Santiago", "district": "Los Lagos"}, {"id": 63, "name": "Constitucion", "name_ru": "Constitución", "tz": "America/Santiago", "district": "Maule"}, {"id": 64, "name": "Lampa", "name_ru": "Lampa", "tz": "America/Santiago", "district": "Región Metropolitana"}, {"id": 65, "name": "Isla de Maipo", "name_ru": "Isla de Maipo", "tz": "America/Santiago", "district": "Región Metropolitana"}, {"id": 66, "name": "Victoria", "name_ru": "Victoria", "tz": "America/Santiago", "district": "Araucanía"}, {"id": 67, "name": "Canete", "name_ru": "Cañete", "tz": "America/Santiago", "district": "Biobío"}, {"id": 68, "name": "Castro", "name_ru": "Castro", "tz": "America/Santiago", "district": "Los Lagos"}, {"id": 69, "name": "Concon", "name_ru": "Concón", "tz": "America/Santiago", "district": "Valparaíso"}, {"id": 70, "name": "Curanilahue", "name_ru": "Curanilahue", "tz": "America/Santiago", "district": "Biobío"}, {"id": 71, "name": "Quintero", "name_ru": "Quintero", "tz": "America/Santiago", "district": "Valparaíso"}, {"id": 72, "name": "Nueva Imperial", "name_ru": "Nueva Imperial", "tz": "America/Santiago", "district": "Araucanía"}, {"id": 73, "name": "Cauquenes", "name_ru": "Cauquenes", "tz": "America/Santiago", "district": "Maule"}, {"id": 74, "name": "San Javier", "name_ru": "San Javier", "tz": "America/Santiago", "district": "Maule"}, {"id": 75, "name": "Pucon", "name_ru": "Pucón", "tz": "America/Santiago", "district": "Araucanía"}, {"id": 76, "name": "Chillan Viejo", "name_ru": "Chillán Viejo", "tz": "America/Santiago", "district": "Ñuble"}, {"id": 77, "name": "La Union", "name_ru": "La Unión", "tz": "America/Santiago", "district": "Los Ríos"}, {"id": 78, "name": "Puerto Varas", "name_ru": "Puerto Varas", "tz": "America/Santiago", "district": "Los Lagos"}, {"id": 79, "name": "Carahue", "name_ru": "Carahue", "tz": "America/Santiago", "district": "Araucanía"}, {"id": 80, "name": "Salamanca", "name_ru": "Salamanca", "tz": "America/Santiago", "district": "Coquimbo"}, {"id": 81, "name": "Las Cabras", "name_ru": "Las Cabras", "tz": "America/Santiago", "district": "Libertador General Bernardo O’Higgins"}, {"id": 82, "name": "Tocopilla", "name_ru": "Tocopilla", "tz": "America/Santiago", "district": "Antofagasta"}, {"id": 83, "name": "Cartagena", "name_ru": "Cartagena", "tz": "America/Santiago", "district": "Valparaíso"}, {"id": 84, "name": "Lebu", "name_ru": "Lebu", "tz": "America/Santiago", "district": "Biobío"}, {"id": 85, "name": "La Cruz", "name_ru": "La Cruz", "tz": "America/Santiago", "district": "Valparaíso"}, {"id": 86, "name": "Casablanca", "name_ru": "Casablanca", "tz": "America/Santiago", "district": "Región Metropolitana"}, {"id": 87, "name": "Puerto Natales", "name_ru": "Puerto Natales", "tz": "America/Punta_Arenas", "district": "Magallanes y de la Antártica Chilena"}, {"id": 88, "name": "Los Vilos", "name_ru": "Los Vilos", "tz": "America/Santiago", "district": "Coquimbo"}, {"id": 89, "name": "Hualqui", "name_ru": "Hualqui", "tz": "America/Santiago", "district": "Biobío"}, {"id": 90, "name": "Purranque", "name_ru": "Purranque", "tz": "America/Santiago", "district": "Los Lagos"}, {"id": 91, "name": "Illapel", "name_ru": "Illapel", "tz": "America/Santiago", "district": "Coquimbo"}, {"id": 92, "name": "Bulnes", "name_ru": "Bulnes", "tz": "America/Santiago", "district": "Ñuble"}, {"id": 93, "name": "Pichidegua", "name_ru": "Pichidegua", "tz": "America/Santiago", "district": "Libertador General Bernardo O’Higgins"}, {"id": 94, "name": "Cabildo", "name_ru": "Cabildo", "tz": "America/Santiago", "district": "Valparaíso"}, {"id": 95, "name": "La Ligua", "name_ru": "La Ligua", "tz": "America/Santiago", "district": "Valparaíso"}, {"id": 96, "name": "Hijuelas", "name_ru": "Hijuelas", "tz": "America/Santiago", "district": "Valparaíso"}, {"id": 97, "name": "Arauco", "name_ru": "Arauco", "tz": "America/Santiago", "district": "Biobío"}, {"id": 98, "name": "Puerto Aysen", "name_ru": "Puerto Aysén", "tz": "America/Santiago", "district": "Aysén"}, {"id": 99, "name": "Batuco", "name_ru": "Batuco", "tz": "America/Santiago", "district": "Región Metropolitana"}, {"id": 100, "name": "Rio Bueno", "name_ru": "Río Bueno", "tz": "America/Santiago", "district": "Los Ríos"}, {"id": 101, "name": "Curacautin", "name_ru": "Curacautín", "tz": "America/Santiago", "district": "Araucanía"}, {"id": 102, "name": "Collipulli", "name_ru": "Collipulli", "tz": "America/Santiago", "district": "Araucanía"}, {"id": 103, "name": "Calbuco", "name_ru": "Calbuco", "tz": "America/Santiago", "district": "Los Lagos"}, {"id": 104, "name": "Loncoche", "name_ru": "Loncoche", "tz": "America/Santiago", "district": "Araucanía"}, {"id": 105, "name": "Chepica", "name_ru": "Chépica", "tz": "America/Santiago", "district": "Libertador General Bernardo O’Higgins"}, {"id": 106, "name": "Peumo", "name_ru": "Peumo", "tz": "America/Santiago", "district": "Libertador General Bernardo O’Higgins"}, {"id": 107, "name": "Diego de Almagro", "name_ru": "Diego de Almagro", "tz": "America/Santiago", "district": "Atacama"}, {"id": 108, "name": "Futrono", "name_ru": "Futrono", "tz": "America/Santiago", "district": "Los Ríos"}, {"id": 109, "name": "Chanaral", "name_ru": "Chañaral", "tz": "America/Santiago", "district": "Atacama"}, {"id": 110, "name": "Vicuna", "name_ru": "Vicuña", "tz": "America/Santiago", "district": "Coquimbo"}, {"id": 111, "name": "El Tabo", "name_ru": "El Tabo", "tz": "America/Santiago", "district": "Valparaíso"}, {"id": 112, "name": "San Jose de Maipo", "name_ru": "San José de Maipo", "tz": "America/Santiago", "district": "Región Metropolitana"}, {"id": 113, "name": "Frutillar", "name_ru": "Frutillar", "tz": "America/Santiago", "district": "Los Lagos"}, {"id": 114, "name": "Puren", "name_ru": "Purén", "tz": "America/Santiago", "district": "Araucanía"}, {"id": 115, "name": "Tierra Amarilla", "name_ru": "Tierra Amarilla", "tz": "America/Santiago", "district": "Atacama"}, {"id": 116, "name": "Los Lagos", "name_ru": "Los Lagos", "tz": "America/Santiago", "district": "Los Ríos"}, {"id": 117, "name": "Pichilemu", "name_ru": "Pichilemu", "tz": "America/Santiago", "district": "Libertador General Bernardo O’Higgins"}, {"id": 118, "name": "San Francisco de Mostazal", "name_ru": "San Francisco de Mostazal", "tz": "America/Santiago", "district": "Libertador General Bernardo O’Higgins"}, {"id": 119, "name": "Galvarino", "name_ru": "Galvarino", "tz": "America/Santiago", "district": "Araucanía"}, {"id": 120, "name": "Palmilla", "name_ru": "Palmilla", "tz": "America/Santiago", "district": "Libertador General Bernardo O’Higgins"}, {"id": 121, "name": "Chicureo Abajo", "name_ru": "Chicureo Abajo", "tz": "America/Santiago", "district": "Región Metropolitana"}, {"id": 122, "name": "Panguipulli", "name_ru": "Panguipulli", "tz": "America/Santiago", "district": "Araucanía"}, {"id": 123, "name": "Andacollo", "name_ru": "Andacollo", "tz": "America/Santiago", "district": "Coquimbo"}, {"id": 124, "name": "Punitaqui", "name_ru": "Punitaqui", "tz": "America/Santiago", "district": "Coquimbo"}, {"id": 125, "name": "Yungay", "name_ru": "Yungay", "tz": "America/Santiago", "district": "Ñuble"}, {"id": 126, "name": "Pinto", "name_ru": "Pinto", "tz": "America/Santiago", "district": "Ñuble"}, {"id": 127, "name": "Maria Pinto", "name_ru": "María Pinto", "tz": "America/Santiago", "district": "Región Metropolitana"}, {"id": 128, "name": "Caldera", "name_ru": "Caldera", "tz": "America/Santiago", "district": "Atacama"}, {"id": 129, "name": "Lonquimay", "name_ru": "Lonquimay", "tz": "America/Santiago", "district": "Araucanía"}, {"id": 130, "name": "Taltal", "name_ru": "Taltal", "tz": "America/Santiago", "district": "Antofagasta"}, {"id": 131, "name": "Lago Ranco", "name_ru": "Lago Ranco", "tz": "America/Santiago", "district": "Los Ríos"}, {"id": 132, "name": "San Pedro", "name_ru": "San Pedro", "tz": "America/Santiago", "district": "Región Metropolitana"}, {"id": 133, "name": "Lo Miranda", "name_ru": "Lo Miranda", "tz": "America/Santiago", "district": "Libertador General Bernardo O’Higgins"}, {"id": 134, "name": "Pozo Almonte", "name_ru": "Pozo Almonte", "tz": "America/Santiago", "district": "Tarapacá"}, {"id": 135, "name": "Puerto Octay", "name_ru": "Puerto Octay", "tz": "America/Santiago", "district": "Los Lagos"}, {"id": 136, "name": "Lanco", "name_ru": "Lanco", "tz": "America/Santiago", "district": "Araucanía"}, {"id": 137, "name": "Ventanas", "name_ru": "Ventanas", "tz": "America/Santiago", "district": "Valparaíso"}, {"id": 138, "name": "Quinchao", "name_ru": "Quinchao", "tz": "America/Santiago", "district": "Los Lagos"}, {"id": 139, "name": "Curarrehue", "name_ru": "Curarrehue", "tz": "America/Santiago", "district": "Araucanía"}, {"id": 140, "name": "Fresia", "name_ru": "Fresia", "tz": "America/Santiago", "district": "Los Lagos"}, {"id": 141, "name": "Pelluhue", "name_ru": "Pelluhue", "tz": "America/Santiago", "district": "Maule"}, {"id": 142, "name": "Hanga Roa", "name_ru": "Hanga Roa", "tz": "Pacific/Easter", "district": "Valparaíso"}, {"id": 143, "name": "Dalcahue", "name_ru": "Dalcahue", "tz": "America/Santiago", "district": "Los Lagos"}, {"id": 144, "name": "Monte Aguila", "name_ru": "Monte Águila", "tz": "America/Santiago", "district": "Biobío"}, {"id": 145, "name": "Quirihue", "name_ru": "Quirihue", "tz": "America/Santiago", "district": "Ñuble"}, {"id": 146, "name": "Oficina Maria Elena", "name_ru": "Oficina María Elena", "tz": "America/Santiago", "district": "Antofagasta"}, {"id": 147, "name": "Papudo", "name_ru": "Papudo", "tz": "America/Santiago", "district": "Valparaíso"}, {"id": 148, "name": "Porvenir", "name_ru": "Porvenir", "tz": "America/Punta_Arenas", "district": "Magallanes y de la Antártica Chilena"}, {"id": 149, "name": "Chonchi", "name_ru": "Chonchi", "tz": "America/Santiago", "district": "Los Lagos"}, {"id": 150, "name": "Contulmo", "name_ru": "Contulmo", "tz": "America/Santiago", "district": "Biobío"}, {"id": 151, "name": "San Pedro de Atacama", "name_ru": "San Pedro de Atacama", "tz": "America/Santiago", "district": "Antofagasta"}, {"id": 152, "name": "Puchuncavi", "name_ru": "Puchuncaví", "tz": "America/Santiago", "district": "Valparaíso"}, {"id": 153, "name": "Alto del Carmen", "name_ru": "Alto del Carmen", "tz": "America/Santiago", "district": "Atacama"}, {"id": 154, "name": "Combarbala", "name_ru": "Combarbalá", "tz": "America/Santiago", "district": "Coquimbo"}, {"id": 155, "name": "Laraquete", "name_ru": "Laraquete", "tz": "America/Santiago", "district": "Biobío"}, {"id": 156, "name": "Chaiten", "name_ru": "Chaitén", "tz": "America/Santiago", "district": "Los Lagos"}, {"id": 157, "name": "Santa Barbara", "name_ru": "Santa Bárbara", "tz": "America/Santiago", "district": "Biobío"}, {"id": 158, "name": "Cochrane", "name_ru": "Cochrane", "tz": "America/Santiago", "district": "Aysén"}, {"id": 159, "name": "Huasco", "name_ru": "Huasco", "tz": "America/Santiago", "district": "Atacama"}, {"id": 160, "name": "Mejillones", "name_ru": "Mejillones", "tz": "America/Santiago", "district": "Antofagasta"}, {"id": 161, "name": "Puerto Williams", "name_ru": "Puerto Williams", "tz": "America/Punta_Arenas", "district": "Magallanes y de la Antártica Chilena"}, {"id": 162, "name": "La Punta", "name_ru": "La Punta", "tz": "America/Santiago", "district": "Libertador General Bernardo O’Higgins"}, {"id": 163, "name": "Quellon", "name_ru": "Quellón", "tz": "America/Santiago", "district": "Los Lagos"}, {"id": 164, "name": "El Palqui", "name_ru": "El Palqui", "tz": "America/Santiago", "district": "Coquimbo"}, {"id": 165, "name": "Tolten", "name_ru": "Toltén", "tz": "America/Santiago", "district": "Araucanía"}, {"id": 166, "name": "Toconao", "name_ru": "Toconao", "tz": "America/Santiago", "district": "Antofagasta"}, {"id": 167, "name": "Balsadero Rio Verde", "name_ru": "Balsadero Río Verde", "tz": "America/Punta_Arenas", "district": "Magallanes y de la Antártica Chilena"}, {"id": 168, "name": "Villa O'Higgins", "name_ru": "Villa O’Higgins", "tz": "America/Santiago", "district": "Aysén"}, {"id": 169, "name": "Cuya", "name_ru": "Cuya", "tz": "America/Santiago", "district": "Tarapacá"}, {"id": 170, "name": "Chuquicamata", "name_ru": "Chuquicamata", "tz": "America/Santiago", "district": "Antofagasta"}, {"id": 171, "name": "Lagunas", "name_ru": "Lagunas", "tz": "America/Santiago", "district": "Tarapacá"}]