[{"id": 1, "name": "Yaounde", "name_ru": "Yaoundé", "tz": "", "district": "Centre"}, {"id": 2, "name": "Douala", "name_ru": "Douala", "tz": "", "district": "Littoral"}, {"id": 3, "name": "Maroua", "name_ru": "Maroua", "tz": "", "district": "Extrême-Nord"}, {"id": 4, "name": "Bafoussam", "name_ru": "Bafoussam", "tz": "", "district": "Ouest"}, {"id": 5, "name": "Bamenda", "name_ru": "Bamenda", "tz": "", "district": "North-West"}, {"id": 6, "name": "Garoua", "name_ru": "Garoua", "tz": "", "district": "Nord"}, {"id": 7, "name": "Limbe", "name_ru": "Limbe", "tz": "", "district": "South-West"}, {"id": 8, "name": "Ngaoundere", "name_ru": "Ngaoundéré", "tz": "", "district": "Adamaoua"}, {"id": 9, "name": "Kumba", "name_ru": "Kumba", "tz": "", "district": "South-West"}, {"id": 10, "name": "Buea", "name_ru": "Buea", "tz": "", "district": "South-West"}, {"id": 11, "name": "Kumbo", "name_ru": "Kumbo", "tz": "", "district": "North-West"}, {"id": 12, "name": "Edea", "name_ru": "Edéa", "tz": "", "district": "Littoral"}, {"id": 13, "name": "Nkongsamba", "name_ru": "Nkongsamba", "tz": "", "district": "Littoral"}, {"id": 14, "name": "Kousseri", "name_ru": "Kousséri", "tz": "", "district": "Extrême-Nord"}, {"id": 15, "name": "Bertoua", "name_ru": "Bertoua", "tz": "", "district": "Est"}, {"id": 16, "name": "Ebolowa", "name_ru": "Ébolowa", "tz": "", "district": "Sud"}, {"id": 17, "name": "Bogo", "name_ru": "Bogo", "tz": "", "district": "Extrême-Nord"}, {"id": 18, "name": "Bafang", "name_ru": "Bafang", "tz": "", "district": "Ouest"}, {"id": 19, "name": "Foumban", "name_ru": "Foumban", "tz": "", "district": "Ouest"}, {"id": 20, "name": "Guider", "name_ru": "Guider", "tz": "", "district": "Nord"}, {"id": 21, "name": "Mbalmayo", "name_ru": "Mbalmayo", "tz": "", "district": "Centre"}, {"id": 22, "name": "Meiganga", "name_ru": "Meïganga", "tz": "", "district": "Adamaoua"}, {"id": 23, "name": "Dschang", "name_ru": "Dschang", "tz": "", "district": "Ouest"}, {"id": 24, "name": "Tibati", "name_ru": "Tibati", "tz": "", "district": "Adamaoua"}, {"id": 25, "name": "Bafia", "name_ru": "Bafia", "tz": "", "district": "Centre"}, {"id": 26, "name": "Wum", "name_ru": "Wum", "tz": "", "district": "North-West"}, {"id": 27, "name": "Kribi", "name_ru": "Kribi", "tz": "", "district": "Sud"}, {"id": 28, "name": "Batouri", "name_ru": "Batouri", "tz": "", "district": "Est"}, {"id": 29, "name": "Kalfou", "name_ru": "Kalfou", "tz": "", "district": "Extrême-Nord"}, {"id": 30, "name": "Belabo", "name_ru": "Bélabo", "tz": "", "district": "Est"}, {"id": 31, "name": "Eseka", "name_ru": "Eséka", "tz": "", "district": "Centre"}, {"id": 32, "name": "Abong Mbang", "name_ru": "Abong Mbang", "tz": "", "district": "Est"}, {"id": 33, "name": "Bandjoun", "name_ru": "Bandjoun", "tz": "", "district": "Ouest"}, {"id": 34, "name": "Kontcha", "name_ru": "Kontcha", "tz": "", "district": "Adamaoua"}, {"id": 35, "name": "Aiyomojok", "name_ru": "Aiyomojok", "tz": "", "district": "South-West"}, {"id": 36, "name": "Mbe", "name_ru": "Mbé", "tz": "", "district": "Nord"}]