[{"id": 1, "name": "Shanghai", "name_ru": "Shanghai", "tz": "Asia/Shanghai", "district": "Shanghai"}, {"id": 2, "name": "Guangzhou", "name_ru": "Guangzhou", "tz": "Asia/Shanghai", "district": "Guangdong"}, {"id": 3, "name": "Beijing", "name_ru": "Beijing", "tz": "Asia/Shanghai", "district": "Beijing"}, {"id": 4, "name": "Shenzhen", "name_ru": "Shenzhen", "tz": "Asia/Shanghai", "district": "Guangdong"}, {"id": 5, "name": "Chengdu", "name_ru": "Chengdu", "tz": "Asia/Shanghai", "district": "Sichuan"}, {"id": 6, "name": "Baoding", "name_ru": "Baoding", "tz": "Asia/Shanghai", "district": "Hebei"}, {"id": 7, "name": "Tianjin", "name_ru": "Tianjin", "tz": "Asia/Shanghai", "district": "Tianjin"}, {"id": 8, "name": "Linyi", "name_ru": "Linyi", "tz": "Asia/Shanghai", "district": "Shandong"}, {"id": 9, "name": "Shijiazhuang", "name_ru": "Shijiazhuang", "tz": "Asia/Shanghai", "district": "Hebei"}, {"id": 10, "name": "Zhengzhou", "name_ru": "Zhengzhou", "tz": "Asia/Shanghai", "district": "Henan"}, {"id": 11, "name": "Nanyang", "name_ru": "Nanyang", "tz": "Asia/Shanghai", "district": "Henan"}, {"id": 12, "name": "Wuhan", "name_ru": "Wuhan", "tz": "Asia/Shanghai", "district": "Hubei"}, {"id": 13, "name": "Handan", "name_ru": "Handan", "tz": "Asia/Shanghai", "district": "Hebei"}, {"id": 14, "name": "Weifang", "name_ru": "Weifang", "tz": "Asia/Shanghai", "district": "Shandong"}, {"id": 15, "name": "Zhoukou", "name_ru": "Zhoukou", "tz": "Asia/Shanghai", "district": "Henan"}, {"id": 16, "name": "Ganzhou", "name_ru": "Ganzhou", "tz": "Asia/Shanghai", "district": "Jiangxi"}, {"id": 17, "name": "Tongshan", "name_ru": "Tongshan", "tz": "Asia/Shanghai", "district": "Jiangsu"}, {"id": 18, "name": "Heze", "name_ru": "Heze", "tz": "Asia/Shanghai", "district": "Shandong"}, {"id": 19, "name": "Chongqing", "name_ru": "Chongqing", "tz": "Asia/Shanghai", "district": "Chongqing"}, {"id": 20, "name": "Fuyang", "name_ru": "Fuyang", "tz": "Asia/Shanghai", "district": "Anhui"}, {"id": 21, "name": "Changsha", "name_ru": "Changsha", "tz": "Asia/Shanghai", "district": "Hunan"}, {"id": 22, "name": "Dongguan", "name_ru": "Dongguan", "tz": "Asia/Shanghai", "district": "Guangdong"}, {"id": 23, "name": "Jining", "name_ru": "Jining", "tz": "Asia/Shanghai", "district": "Shandong"}, {"id": 24, "name": "Jinan", "name_ru": "Jinan", "tz": "Asia/Shanghai", "district": "Shandong"}, {"id": 25, "name": "Foshan", "name_ru": "Foshan", "tz": "Asia/Shanghai", "district": "Guangdong"}, {"id": 26, "name": "Nanjing", "name_ru": "Nanjing", "tz": "Asia/Shanghai", "district": "Jiangsu"}, {"id": 27, "name": "Changchun", "name_ru": "Changchun", "tz": "Asia/Shanghai", "district": "Jilin"}, {"id": 28, "name": "Tangshan", "name_ru": "Tangshan", "tz": "Asia/Shanghai", "district": "Hebei"}, {"id": 29, "name": "Cangzhou", "name_ru": "Cangzhou", "tz": "Asia/Shanghai", "district": "Hebei"}, {"id": 30, "name": "Hefei", "name_ru": "Hefei", "tz": "Asia/Shanghai", "district": "Anhui"}, {"id": 31, "name": "Shaoyang", "name_ru": "Shaoyang", "tz": "Asia/Shanghai", "district": "Hunan"}, {"id": 32, "name": "Zhanjiang", "name_ru": "Zhanjiang", "tz": "Asia/Shanghai", "district": "Guangdong"}, {"id": 33, "name": "Shangqiu", "name_ru": "Shangqiu", "tz": "Asia/Shanghai", "district": "Henan"}, {"id": 34, "name": "Nantong", "name_ru": "Nantong", "tz": "Asia/Shanghai", "district": "Jiangsu"}, {"id": 35, "name": "Yancheng", "name_ru": "Yancheng", "tz": "Asia/Shanghai", "district": "Jiangsu"}, {"id": 36, "name": "Nanning", "name_ru": "Nanning", "tz": "Asia/Shanghai", "district": "Guangxi"}, {"id": 37, "name": "Hengyang", "name_ru": "Hengyang", "tz": "Asia/Shanghai", "district": "Hunan"}, {"id": 38, "name": "Zhumadian", "name_ru": "Zhumadian", "tz": "Asia/Shanghai", "district": "Henan"}, {"id": 39, "name": "Shenyang", "name_ru": "Shenyang", "tz": "Asia/Shanghai", "district": "Liaoning"}, {"id": 40, "name": "Xingtai", "name_ru": "Xingtai", "tz": "Asia/Shanghai", "district": "Hebei"}, {"id": 41, "name": "Xi'an", "name_ru": "Xi’an", "tz": "Asia/Shanghai", "district": "Shaanxi"}, {"id": 42, "name": "Yantai", "name_ru": "Yantai", "tz": "Asia/Shanghai", "district": "Shandong"}, {"id": 43, "name": "Luoyang", "name_ru": "Luoyang", "tz": "Asia/Shanghai", "district": "Henan"}, {"id": 44, "name": "Kunming", "name_ru": "Kunming", "tz": "Asia/Shanghai", "district": "Yunnan"}, {"id": 45, "name": "Shangrao", "name_ru": "Shangrao", "tz": "Asia/Shanghai", "district": "Jiangxi"}, {"id": 46, "name": "Hangzhou", "name_ru": "Hangzhou", "tz": "Asia/Shanghai", "district": "Zhejiang"}, {"id": 47, "name": "Bijie", "name_ru": "Bijie", "tz": "Asia/Shanghai", "district": "Guizhou"}, {"id": 48, "name": "Quanzhou", "name_ru": "Quanzhou", "tz": "Asia/Shanghai", "district": "Fujian"}, {"id": 49, "name": "Wuxi", "name_ru": "Wuxi", "tz": "Asia/Shanghai", "district": "Jiangsu"}, {"id": 50, "name": "Huanggang", "name_ru": "Huanggang", "tz": "Asia/Shanghai", "district": "Hubei"}, {"id": 51, "name": "Maoming", "name_ru": "Maoming", "tz": "Asia/Shanghai", "district": "Guangdong"}, {"id": 52, "name": "Nanchong", "name_ru": "Nanchong", "tz": "Asia/Shanghai", "district": "Sichuan"}, {"id": 53, "name": "Zunyi", "name_ru": "Zunyi", "tz": "Asia/Shanghai", "district": "Guizhou"}, {"id": 54, "name": "Qujing", "name_ru": "Qujing", "tz": "Asia/Shanghai", "district": "Yunnan"}, {"id": 55, "name": "Xinyang", "name_ru": "Xinyang", "tz": "Asia/Shanghai", "district": "Henan"}, {"id": 56, "name": "Jieyang", "name_ru": "Jieyang", "tz": "Asia/Shanghai", "district": "Guangdong"}, {"id": 57, "name": "Yulin", "name_ru": "Yulin", "tz": "Asia/Shanghai", "district": "Guangxi"}, {"id": 58, "name": "Changde", "name_ru": "Changde", "tz": "Asia/Shanghai", "district": "Hunan"}, {"id": 59, "name": "Liaocheng", "name_ru": "Liaocheng", "tz": "Asia/Shanghai", "district": "Shandong"}, {"id": 60, "name": "Qingdao", "name_ru": "Qingdao", "tz": "Asia/Shanghai", "district": "Shandong"}, {"id": 61, "name": "Nangandao", "name_ru": "Nangandao", "tz": "Asia/Shanghai", "district": "Henan"}, {"id": 62, "name": "Xiangyang", "name_ru": "Xiangyang", "tz": "Asia/Shanghai", "district": "Hubei"}, {"id": 63, "name": "Lu'an", "name_ru": "Lu’an", "tz": "Asia/Shanghai", "district": "Anhui"}, {"id": 64, "name": "Zhaotong", "name_ru": "Zhaotong", "tz": "Asia/Shanghai", "district": "Yunnan"}, {"id": 65, "name": "Yichun", "name_ru": "Yichun", "tz": "Asia/Shanghai", "district": "Jiangxi"}, {"id": 66, "name": "Dezhou", "name_ru": "Dezhou", "tz": "Asia/Shanghai", "district": "Shandong"}, {"id": 67, "name": "Nanchang", "name_ru": "Nanchang", "tz": "Asia/Shanghai", "district": "Jiangxi"}, {"id": 68, "name": "Tai'an", "name_ru": "Tai’an", "tz": "Asia/Shanghai", "district": "Shandong"}, {"id": 69, "name": "Dazhou", "name_ru": "Dazhou", "tz": "Asia/Shanghai", "district": "Sichuan"}, {"id": 70, "name": "Yongzhou", "name_ru": "Yongzhou", "tz": "Asia/Shanghai", "district": "Hunan"}, {"id": 71, "name": "Suihua", "name_ru": "Suihua", "tz": "Asia/Shanghai", "district": "Heilongjiang"}, {"id": 72, "name": "Qiqihar", "name_ru": "Qiqihar", "tz": "Asia/Shanghai", "district": "Heilongjiang"}, {"id": 73, "name": "Suzhou", "name_ru": "Suzhou", "tz": "Asia/Shanghai", "district": "Anhui"}, {"id": 74, "name": "Shantou", "name_ru": "Shantou", "tz": "Asia/Shanghai", "district": "Guangdong"}, {"id": 75, "name": "Weinan", "name_ru": "Weinan", "tz": "Asia/Shanghai", "district": "Shaanxi"}, {"id": 76, "name": "Changzhou", "name_ru": "Changzhou", "tz": "Asia/Shanghai", "district": "Jiangsu"}, {"id": 77, "name": "Fuzhou", "name_ru": "Fuzhou", "tz": "Asia/Shanghai", "district": "Fujian"}, {"id": 78, "name": "Pudong", "name_ru": "Pudong", "tz": "Asia/Shanghai", "district": "Shanghai"}, {"id": 79, "name": "Zhangzhou", "name_ru": "Zhangzhou", "tz": "Asia/Shanghai", "district": "Fujian"}, {"id": 80, "name": "Yuncheng", "name_ru": "Yuncheng", "tz": "Asia/Shanghai", "district": "Shanxi"}, {"id": 81, "name": "Suzhou", "name_ru": "Suzhou", "tz": "Asia/Shanghai", "district": "Jiangsu"}, {"id": 82, "name": "Xianyang", "name_ru": "Xianyang", "tz": "Asia/Shanghai", "district": "Shaanxi"}, {"id": 83, "name": "Guilin", "name_ru": "Guilin", "tz": "Asia/Shanghai", "district": "Guangxi"}, {"id": 84, "name": "Taizhou", "name_ru": "Taizhou", "tz": "Asia/Shanghai", "district": "Jiangsu"}, {"id": 85, "name": "Huaihua", "name_ru": "Huaihua", "tz": "Asia/Shanghai", "district": "Hunan"}, {"id": 86, "name": "Ji'an", "name_ru": "Ji’an", "tz": "Asia/Shanghai", "district": "Jiangxi"}, {"id": 87, "name": "Xiaoganzhan", "name_ru": "Xiaoganzhan", "tz": "Asia/Shanghai", "district": "Hubei"}, {"id": 88, "name": "Pingdingshan", "name_ru": "Pingdingshan", "tz": "Asia/Shanghai", "district": "Henan"}, {"id": 89, "name": "Jiujiang", "name_ru": "Jiujiang", "tz": "Asia/Shanghai", "district": "Jiangxi"}, {"id": 90, "name": "Guiyang", "name_ru": "Guiyang", "tz": "Asia/Shanghai", "district": "Guizhou"}, {"id": 91, "name": "Bozhou", "name_ru": "Bozhou", "tz": "Asia/Shanghai", "district": "Anhui"}, {"id": 92, "name": "Huizhou", "name_ru": "Huizhou", "tz": "Asia/Shanghai", "district": "Guangdong"}, {"id": 93, "name": "Huai'an", "name_ru": "Huai’an", "tz": "Asia/Shanghai", "district": "Jiangsu"}, {"id": 94, "name": "Chenzhou", "name_ru": "Chenzhou", "tz": "Asia/Shanghai", "district": "Hunan"}, {"id": 95, "name": "Anqing", "name_ru": "Anqing", "tz": "Asia/Shanghai", "district": "Anhui"}, {"id": 96, "name": "Suqian", "name_ru": "Suqian", "tz": "Asia/Shanghai", "district": "Jiangsu"}, {"id": 97, "name": "Jiangmen", "name_ru": "Jiangmen", "tz": "Asia/Shanghai", "district": "Guangdong"}, {"id": 98, "name": "Mianyang", "name_ru": "Mianyang", "tz": "Asia/Shanghai", "district": "Sichuan"}, {"id": 99, "name": "Harbin", "name_ru": "Harbin", "tz": "Asia/Shanghai", "district": "Heilongjiang"}, {"id": 100, "name": "Huanglongsi", "name_ru": "Huanglongsi", "tz": "Asia/Shanghai", "district": "Henan"}, {"id": 101, "name": "Zibo", "name_ru": "Zibo", "tz": "Asia/Shanghai", "district": "Shandong"}, {"id": 102, "name": "Dalian", "name_ru": "Dalian", "tz": "Asia/Shanghai", "district": "Liaoning"}, {"id": 103, "name": "Hengshui", "name_ru": "Hengshui", "tz": "Asia/Shanghai", "district": "Hebei"}, {"id": 104, "name": "Yibin", "name_ru": "Yibin", "tz": "Asia/Shanghai", "district": "Sichuan"}, {"id": 105, "name": "Yangzhou", "name_ru": "Yangzhou", "tz": "Asia/Shanghai", "district": "Jiangsu"}, {"id": 106, "name": "Yiyang", "name_ru": "Yiyang", "tz": "Asia/Shanghai", "district": "Hunan"}, {"id": 107, "name": "Guigang", "name_ru": "Guigang", "tz": "Asia/Shanghai", "district": "Guangxi"}, {"id": 108, "name": "Xinpu", "name_ru": "Xinpu", "tz": "Asia/Shanghai", "district": "Jiangsu"}, {"id": 109, "name": "Meizhou", "name_ru": "Meizhou", "tz": "Asia/Shanghai", "district": "Guangdong"}, {"id": 110, "name": "Langfang", "name_ru": "Langfang", "tz": "Asia/Shanghai", "district": "Hebei"}, {"id": 111, "name": "Zhangjiakou", "name_ru": "Zhangjiakou", "tz": "Asia/Shanghai", "district": "Hebei"}, {"id": 112, "name": "Chifeng", "name_ru": "Chifeng", "tz": "Asia/Shanghai", "district": "Inner Mongolia"}, {"id": 113, "name": "Linfen", "name_ru": "Linfen", "tz": "Asia/Shanghai", "district": "Shanxi"}, {"id": 114, "name": "Jiangguanchi", "name_ru": "Jiangguanchi", "tz": "Asia/Shanghai", "district": "Henan"}, {"id": 115, "name": "Luzhou", "name_ru": "Luzhou", "tz": "Asia/Shanghai", "district": "Sichuan"}, {"id": 116, "name": "Taiyuan", "name_ru": "Taiyuan", "tz": "Asia/Shanghai", "district": "Shanxi"}, {"id": 117, "name": "Zhaoqing", "name_ru": "Zhaoqing", "tz": "Asia/Shanghai", "district": "Guangdong"}, {"id": 118, "name": "Xiaoxita", "name_ru": "Xiaoxita", "tz": "Asia/Shanghai", "district": "Hubei"}, {"id": 119, "name": "Xiamen", "name_ru": "Xiamen", "tz": "Asia/Shanghai", "district": "Fujian"}, {"id": 120, "name": "Fuzhou", "name_ru": "Fuzhou", "tz": "Asia/Shanghai", "district": "Jiangxi"}, {"id": 121, "name": "Liuzhou", "name_ru": "Liuzhou", "tz": "Asia/Shanghai", "district": "Guangxi"}, {"id": 122, "name": "Zhuzhou", "name_ru": "Zhuzhou", "tz": "Asia/Shanghai", "district": "Hunan"}, {"id": 123, "name": "Chuzhou", "name_ru": "Chuzhou", "tz": "Asia/Shanghai", "district": "Anhui"}, {"id": 124, "name": "Loudi", "name_ru": "Loudi", "tz": "Asia/Shanghai", "district": "Hunan"}, {"id": 125, "name": "Deyang", "name_ru": "Deyang", "tz": "Asia/Shanghai", "district": "Sichuan"}, {"id": 126, "name": "Qingyuan", "name_ru": "Qingyuan", "tz": "Asia/Shanghai", "district": "Guangdong"}, {"id": 127, "name": "Wuhu", "name_ru": "Wuhu", "tz": "Asia/Shanghai", "district": "Anhui"}, {"id": 128, "name": "Binzhou", "name_ru": "Binzhou", "tz": "Asia/Shanghai", "district": "Shandong"}, {"id": 129, "name": "Baojishi", "name_ru": "Baojishi", "tz": "Asia/Shanghai", "district": "Shaanxi"}, {"id": 130, "name": "Zaozhuang", "name_ru": "Zaozhuang", "tz": "Asia/Shanghai", "district": "Shandong"}, {"id": 131, "name": "Neijiang", "name_ru": "Neijiang", "tz": "Asia/Shanghai", "district": "Sichuan"}, {"id": 132, "name": "Baicheng", "name_ru": "Baicheng", "tz": "Asia/Shanghai", "district": "Guangxi"}, {"id": 133, "name": "Anshan", "name_ru": "Anshan", "tz": "Asia/Shanghai", "district": "Liaoning"}, {"id": 134, "name": "Lanzhou", "name_ru": "Lanzhou", "tz": "Asia/Shanghai", "district": "Gansu"}, {"id": 135, "name": "Puyang", "name_ru": "Puyang", "tz": "Asia/Shanghai", "district": "Henan"}, {"id": 136, "name": "Jiaozuo", "name_ru": "Jiaozuo", "tz": "Asia/Shanghai", "district": "Henan"}, {"id": 137, "name": "Hechi", "name_ru": "Hechi", "tz": "Asia/Shanghai", "district": "Guangxi"}, {"id": 138, "name": "Chengde", "name_ru": "Chengde", "tz": "Asia/Shanghai", "district": "Hebei"}, {"id": 139, "name": "Hanzhong", "name_ru": "Hanzhong", "tz": "Asia/Shanghai", "district": "Shaanxi"}, {"id": 140, "name": "Shiyan", "name_ru": "Shiyan", "tz": "Asia/Shanghai", "district": "Hubei"}, {"id": 141, "name": "Siping", "name_ru": "Siping", "tz": "Asia/Shanghai", "district": "Jilin"}, {"id": 142, "name": "Yulinshi", "name_ru": "Yulinshi", "tz": "Asia/Shanghai", "district": "Shaanxi"}, {"id": 143, "name": "Changzhi", "name_ru": "Changzhi", "tz": "Asia/Shanghai", "district": "Shanxi"}, {"id": 144, "name": "Qinzhou", "name_ru": "Qinzhou", "tz": "Asia/Shanghai", "district": "Guangxi"}, {"id": 145, "name": "Bazhou", "name_ru": "Bazhou", "tz": "Asia/Shanghai", "district": "Sichuan"}, {"id": 146, "name": "Qincheng", "name_ru": "Qincheng", "tz": "Asia/Shanghai", "district": "Gansu"}, {"id": 147, "name": "Zhongshan", "name_ru": "Zhongshan", "tz": "Asia/Shanghai", "district": "Guangdong"}, {"id": 148, "name": "Suining", "name_ru": "Suining", "tz": "Asia/Shanghai", "district": "Sichuan"}, {"id": 149, "name": "Leshan", "name_ru": "Leshan", "tz": "Asia/Shanghai", "district": "Sichuan"}, {"id": 150, "name": "Guang'an", "name_ru": "Guang’an", "tz": "Asia/Shanghai", "district": "Sichuan"}, {"id": 151, "name": "Tongren", "name_ru": "Tongren", "tz": "Asia/Shanghai", "district": "Guizhou"}, {"id": 152, "name": "Bengbu", "name_ru": "Bengbu", "tz": "Asia/Shanghai", "district": "Anhui"}, {"id": 153, "name": "Qinhuangdao", "name_ru": "Qinhuangdao", "tz": "Asia/Shanghai", "district": "Hebei"}, {"id": 154, "name": "Tongliao", "name_ru": "Tongliao", "tz": "Asia/Shanghai", "district": "Inner Mongolia"}, {"id": 155, "name": "Jinzhou", "name_ru": "Jinzhou", "tz": "Asia/Shanghai", "district": "Liaoning"}, {"id": 156, "name": "Zhenjiang", "name_ru": "Zhenjiang", "tz": "Asia/Shanghai", "district": "Jiangsu"}, {"id": 157, "name": "Urumqi", "name_ru": "Ürümqi", "tz": "Asia/Urumqi", "district": "Xinjiang"}, {"id": 158, "name": "Heyuan", "name_ru": "Heyuan", "tz": "Asia/Shanghai", "district": "Guangdong"}, {"id": 159, "name": "Xinzhou", "name_ru": "Xinzhou", "tz": "Asia/Shanghai", "district": "Shanxi"}, {"id": 160, "name": "Wuzhou", "name_ru": "Wuzhou", "tz": "Asia/Shanghai", "district": "Guangxi"}, {"id": 161, "name": "Chaoyang", "name_ru": "Chaoyang", "tz": "Asia/Shanghai", "district": "Liaoning"}, {"id": 162, "name": "Shaoguan", "name_ru": "Shaoguan", "tz": "Asia/Shanghai", "district": "Guangdong"}, {"id": 163, "name": "Shanwei", "name_ru": "Shanwei", "tz": "Asia/Shanghai", "district": "Guangdong"}, {"id": 164, "name": "Meishan", "name_ru": "Meishan", "tz": "Asia/Shanghai", "district": "Sichuan"}, {"id": 165, "name": "Ningde", "name_ru": "Ningde", "tz": "Asia/Shanghai", "district": "Fujian"}, {"id": 166, "name": "Daqing", "name_ru": "Daqing", "tz": "Asia/Shanghai", "district": "Heilongjiang"}, {"id": 167, "name": "Putian", "name_ru": "Putian", "tz": "Asia/Shanghai", "district": "Fujian"}, {"id": 168, "name": "Hohhot", "name_ru": "Hohhot", "tz": "Asia/Shanghai", "district": "Inner Mongolia"}, {"id": 169, "name": "Xiangtan", "name_ru": "Xiangtan", "tz": "Asia/Shanghai", "district": "Hunan"}, {"id": 170, "name": "Weihai", "name_ru": "Weihai", "tz": "Asia/Shanghai", "district": "Shandong"}, {"id": 171, "name": "Rizhao", "name_ru": "Rizhao", "tz": "Asia/Shanghai", "district": "Shandong"}, {"id": 172, "name": "Mudanjiang", "name_ru": "Mudanjiang", "tz": "Asia/Shanghai", "district": "Heilongjiang"}, {"id": 173, "name": "Tieling", "name_ru": "Tieling", "tz": "Asia/Shanghai", "district": "Liaoning"}, {"id": 174, "name": "Dingxi", "name_ru": "Dingxi", "tz": "Asia/Shanghai", "district": "Gansu"}, {"id": 175, "name": "Nanping", "name_ru": "Nanping", "tz": "Asia/Shanghai", "district": "Fujian"}, {"id": 176, "name": "Zigong", "name_ru": "Zigong", "tz": "Asia/Shanghai", "district": "Sichuan"}, {"id": 177, "name": "Chaozhou", "name_ru": "Chaozhou", "tz": "Asia/Shanghai", "district": "Guangdong"}, {"id": 178, "name": "Baotou", "name_ru": "Baotou", "tz": "Asia/Shanghai", "district": "Inner Mongolia"}, {"id": 179, "name": "Gulou", "name_ru": "Gulou", "tz": "Asia/Shanghai", "district": "Fujian"}, {"id": 180, "name": "Longyan", "name_ru": "Longyan", "tz": "Asia/Shanghai", "district": "Fujian"}, {"id": 181, "name": "Ankang", "name_ru": "Ankang", "tz": "Asia/Shanghai", "district": "Shaanxi"}, {"id": 182, "name": "Baoshan", "name_ru": "Baoshan", "tz": "Asia/Shanghai", "district": "Yunnan"}, {"id": 183, "name": "Huludao", "name_ru": "Huludao", "tz": "Asia/Shanghai", "district": "Liaoning"}, {"id": 184, "name": "Yanjiang", "name_ru": "Yanjiang", "tz": "Asia/Shanghai", "district": "Sichuan"}, {"id": 185, "name": "Sanming", "name_ru": "Sanming", "tz": "Asia/Shanghai", "district": "Fujian"}, {"id": 186, "name": "Longba", "name_ru": "Longba", "tz": "Asia/Shanghai", "district": "Gansu"}, {"id": 187, "name": "Yangjiang", "name_ru": "Yangjiang", "tz": "Asia/Shanghai", "district": "Guangdong"}, {"id": 188, "name": "Jiamusi", "name_ru": "Jiamusi", "tz": "Asia/Shanghai", "district": "Heilongjiang"}, {"id": 189, "name": "Luohe", "name_ru": "Luohe", "tz": "Asia/Shanghai", "district": "Henan"}, {"id": 190, "name": "Lincang", "name_ru": "Lincang", "tz": "Asia/Shanghai", "district": "Yunnan"}, {"id": 191, "name": "Xuanzhou", "name_ru": "Xuanzhou", "tz": "Asia/Shanghai", "district": "Anhui"}, {"id": 192, "name": "Yunfu", "name_ru": "Yunfu", "tz": "Asia/Shanghai", "district": "Guangdong"}, {"id": 193, "name": "Guangyuan", "name_ru": "Guangyuan", "tz": "Asia/Shanghai", "district": "Sichuan"}, {"id": 194, "name": "Huangshi", "name_ru": "Huangshi", "tz": "Asia/Shanghai", "district": "Hubei"}, {"id": 195, "name": "Jilin", "name_ru": "Jilin", "tz": "Asia/Shanghai", "district": "Jilin"}, {"id": 196, "name": "Dandong", "name_ru": "Dandong", "tz": "Asia/Shanghai", "district": "Liaoning"}, {"id": 197, "name": "Lianshan", "name_ru": "Lianshan", "tz": "Asia/Shanghai", "district": "Liaoning"}, {"id": 198, "name": "Yingkou", "name_ru": "Yingkou", "tz": "Asia/Shanghai", "district": "Liaoning"}, {"id": 199, "name": "Yuxi", "name_ru": "Yuxi", "tz": "Asia/Shanghai", "district": "Yunnan"}, {"id": 200, "name": "Anshun", "name_ru": "Anshun", "tz": "Asia/Shanghai", "district": "Guizhou"}, {"id": 201, "name": "Shangzhou", "name_ru": "Shangzhou", "tz": "Asia/Shanghai", "district": "Shaanxi"}, {"id": 202, "name": "Huainan", "name_ru": "Huainan", "tz": "Asia/Shanghai", "district": "Anhui"}, {"id": 203, "name": "Kuaidamao", "name_ru": "Kuaidamao", "tz": "Asia/Shanghai", "district": "Jilin"}, {"id": 204, "name": "Jincheng", "name_ru": "Jincheng", "tz": "Asia/Shanghai", "district": "Shanxi"}, {"id": 205, "name": "Sanmenxia", "name_ru": "Sanmenxia", "tz": "Asia/Shanghai", "district": "Henan"}, {"id": 206, "name": "Laibin", "name_ru": "Laibin", "tz": "Asia/Shanghai", "district": "Guangxi"}, {"id": 207, "name": "Qinbaling", "name_ru": "Qinbaling", "tz": "Asia/Shanghai", "district": "Gansu"}, {"id": 208, "name": "Xining", "name_ru": "Xining", "tz": "Asia/Shanghai", "district": "Qinghai"}, {"id": 209, "name": "Ma'anshan", "name_ru": "Ma’anshan", "tz": "Asia/Shanghai", "district": "Anhui"}, {"id": 210, "name": "Yan'an", "name_ru": "Yan’an", "tz": "Asia/Shanghai", "district": "Shaanxi"}, {"id": 211, "name": "Gaoping", "name_ru": "Gaoping", "tz": "Asia/Shanghai", "district": "Sichuan"}, {"id": 212, "name": "Ningbo", "name_ru": "Ningbo", "tz": "Asia/Shanghai", "district": "Zhejiang"}, {"id": 213, "name": "Puning", "name_ru": "Puning", "tz": "Asia/Shanghai", "district": "Guangdong"}, {"id": 214, "name": "Huaibei", "name_ru": "Huaibei", "tz": "Asia/Shanghai", "district": "Anhui"}, {"id": 215, "name": "Qingyang", "name_ru": "Qingyang", "tz": "Asia/Shanghai", "district": "Fujian"}, {"id": 216, "name": "Chongzuo", "name_ru": "Chongzuo", "tz": "Asia/Shanghai", "district": "Guangxi"}, {"id": 217, "name": "Hezhou", "name_ru": "Hezhou", "tz": "Asia/Shanghai", "district": "Guangxi"}, {"id": 218, "name": "Pingliang", "name_ru": "Pingliang", "tz": "Asia/Shanghai", "district": "Gansu"}, {"id": 219, "name": "Shengli", "name_ru": "Shengli", "tz": "Asia/Shanghai", "district": "Shandong"}, {"id": 220, "name": "Baicheng", "name_ru": "Baicheng", "tz": "Asia/Shanghai", "district": "Jilin"}, {"id": 221, "name": "Fushun", "name_ru": "Fushun", "tz": "Asia/Shanghai", "district": "Liaoning"}, {"id": 222, "name": "Yinchuan", "name_ru": "Yinchuan", "tz": "Asia/Shanghai", "district": "Ningxia"}, {"id": 223, "name": "Pingxiang", "name_ru": "Pingxiang", "tz": "Asia/Shanghai", "district": "Jiangxi"}, {"id": 224, "name": "Zhuhai", "name_ru": "Zhuhai", "tz": "Asia/Shanghai", "district": "Guangdong"}, {"id": 225, "name": "Xiping", "name_ru": "Xiping", "tz": "Asia/Shanghai", "district": "Shanxi"}, {"id": 226, "name": "Jixi", "name_ru": "Jixi", "tz": "Asia/Shanghai", "district": "Heilongjiang"}, {"id": 227, "name": "Liaoyang", "name_ru": "Liaoyang", "tz": "Asia/Shanghai", "district": "Liaoning"}, {"id": 228, "name": "Fuxin", "name_ru": "Fuxin", "tz": "Asia/Shanghai", "district": "Liaoning"}, {"id": 229, "name": "Wuwei", "name_ru": "Wuwei", "tz": "Asia/Shanghai", "district": "Gansu"}, {"id": 230, "name": "Haikou", "name_ru": "Haikou", "tz": "Asia/Shanghai", "district": "Hainan"}, {"id": 231, "name": "Shuyangzha", "name_ru": "Shuyangzha", "tz": "Asia/Shanghai", "district": "Jiangsu"}, {"id": 232, "name": "Shuozhou", "name_ru": "Shuozhou", "tz": "Asia/Shanghai", "district": "Shanxi"}, {"id": 233, "name": "Benxi", "name_ru": "Benxi", "tz": "Asia/Shanghai", "district": "Liaoning"}, {"id": 234, "name": "Baiyin", "name_ru": "Baiyin", "tz": "Asia/Shanghai", "district": "Gansu"}, {"id": 235, "name": "Sanzhou", "name_ru": "Sanzhou", "tz": "Asia/Shanghai", "district": "Chongqing"}, {"id": 236, "name": "Beihai", "name_ru": "Beihai", "tz": "Asia/Shanghai", "district": "Guangxi"}, {"id": 237, "name": "Heihe", "name_ru": "Heihe", "tz": "Asia/Shanghai", "district": "Heilongjiang"}, {"id": 238, "name": "Jingdezhen", "name_ru": "Jingdezhen", "tz": "Asia/Shanghai", "district": "Jiangxi"}, {"id": 239, "name": "Yushan", "name_ru": "Yushan", "tz": "Asia/Shanghai", "district": "Jiangsu"}, {"id": 240, "name": "Chengtangcun", "name_ru": "Chengtangcun", "tz": "Asia/Shanghai", "district": "Shandong"}, {"id": 241, "name": "Wenzhou", "name_ru": "Wenzhou", "tz": "Asia/Shanghai", "district": "Zhejiang"}, {"id": 242, "name": "Hebi", "name_ru": "Hebi", "tz": "Asia/Shanghai", "district": "Henan"}, {"id": 243, "name": "Zhangjiajie", "name_ru": "Zhangjiajie", "tz": "Asia/Shanghai", "district": "Hunan"}, {"id": 244, "name": "Changshu", "name_ru": "Changshu", "tz": "Asia/Shanghai", "district": "Jiangsu"}, {"id": 245, "name": "Lianjiang", "name_ru": "Lianjiang", "tz": "Asia/Shanghai", "district": "Guangdong"}, {"id": 246, "name": "Ximeicun", "name_ru": "Ximeicun", "tz": "Asia/Shanghai", "district": "Fujian"}, {"id": 247, "name": "Jianguang", "name_ru": "Jianguang", "tz": "Asia/Shanghai", "district": "Jiangxi"}, {"id": 248, "name": "Yucheng", "name_ru": "Yucheng", "tz": "Asia/Shanghai", "district": "Sichuan"}, {"id": 249, "name": "Guiping", "name_ru": "Guiping", "tz": "Asia/Shanghai", "district": "Guangxi"}, {"id": 250, "name": "Leizhou", "name_ru": "Leizhou", "tz": "Asia/Shanghai", "district": "Guangdong"}, {"id": 251, "name": "Huazhou", "name_ru": "Huazhou", "tz": "Asia/Shanghai", "district": "Henan"}, {"id": 252, "name": "Shuangyashan", "name_ru": "Shuangyashan", "tz": "Asia/Shanghai", "district": "Heilongjiang"}, {"id": 253, "name": "Pizhou", "name_ru": "Pizhou", "tz": "Asia/Shanghai", "district": "Jiangsu"}, {"id": 254, "name": "Yangshe", "name_ru": "Yangshe", "tz": "Asia/Shanghai", "district": "Jiangsu"}, {"id": 255, "name": "Guyuan", "name_ru": "Guyuan", "tz": "Asia/Shanghai", "district": "Ningxia"}, {"id": 256, "name": "Gaozhou", "name_ru": "Gaozhou", "tz": "Asia/Shanghai", "district": "Guangdong"}, {"id": 257, "name": "Chizhou", "name_ru": "Chizhou", "tz": "Asia/Shanghai", "district": "Anhui"}, {"id": 258, "name": "Fuqing", "name_ru": "Fuqing", "tz": "Asia/Shanghai", "district": "Fujian"}, {"id": 259, "name": "Pingdu", "name_ru": "Pingdu", "tz": "Asia/Shanghai", "district": "Shandong"}, {"id": 260, "name": "Yutan", "name_ru": "Yutan", "tz": "Asia/Shanghai", "district": "Hunan"}, {"id": 261, "name": "Huangshan", "name_ru": "Huangshan", "tz": "Asia/Shanghai", "district": "Anhui"}, {"id": 262, "name": "Liangshi", "name_ru": "Liangshi", "tz": "Asia/Shanghai", "district": "Hunan"}, {"id": 263, "name": "Xintai", "name_ru": "Xintai", "tz": "Asia/Shanghai", "district": "Shandong"}, {"id": 264, "name": "Wusong", "name_ru": "Wusong", "tz": "Asia/Shanghai", "district": "Anhui"}, {"id": 265, "name": "Yushu", "name_ru": "Yushu", "tz": "Asia/Shanghai", "district": "Jilin"}, {"id": 266, "name": "Rongcheng", "name_ru": "Rongcheng", "tz": "Asia/Shanghai", "district": "Yunnan"}, {"id": 267, "name": "Huazhou", "name_ru": "Huazhou", "tz": "Asia/Shanghai", "district": "Guangdong"}, {"id": 268, "name": "Yangquan", "name_ru": "Yangquan", "tz": "Asia/Shanghai", "district": "Shanxi"}, {"id": 269, "name": "Baishan", "name_ru": "Baishan", "tz": "Asia/Shanghai", "district": "Jilin"}, {"id": 270, "name": "Dayan", "name_ru": "Dayan", "tz": "Asia/Shanghai", "district": "Yunnan"}, {"id": 271, "name": "Haicheng", "name_ru": "Haicheng", "tz": "Asia/Shanghai", "district": "Liaoning"}, {"id": 272, "name": "Jiangyin", "name_ru": "Jiangyin", "tz": "Asia/Shanghai", "district": "Jiangsu"}, {"id": 273, "name": "Huaiyin", "name_ru": "Huaiyin", "tz": "Asia/Shanghai", "district": "Jiangsu"}, {"id": 274, "name": "Wuzhong", "name_ru": "Wuzhong", "tz": "Asia/Shanghai", "district": "Ningxia"}, {"id": 275, "name": "Rucheng", "name_ru": "Rucheng", "tz": "Asia/Shanghai", "district": "Jiangsu"}, {"id": 276, "name": "Shaoyang", "name_ru": "Shaoyang", "tz": "Asia/Shanghai", "district": "Jiangsu"}, {"id": 277, "name": "Laiwu", "name_ru": "Laiwu", "tz": "Asia/Shanghai", "district": "Shandong"}, {"id": 278, "name": "Jingling", "name_ru": "Jingling", "tz": "Asia/Shanghai", "district": "Hubei"}, {"id": 279, "name": "Yongcheng", "name_ru": "Yongcheng", "tz": "Asia/Shanghai", "district": "Henan"}, {"id": 280, "name": "Beidao", "name_ru": "Beidao", "tz": "Asia/Shanghai", "district": "Gansu"}, {"id": 281, "name": "Xiangshui", "name_ru": "Xiangshui", "tz": "Asia/Shanghai", "district": "Guizhou"}, {"id": 282, "name": "Dadukou", "name_ru": "Dadukou", "tz": "Asia/Shanghai", "district": "Sichuan"}, {"id": 283, "name": "Zhangye", "name_ru": "Zhangye", "tz": "Asia/Shanghai", "district": "Gansu"}, {"id": 284, "name": "Xinyu", "name_ru": "Xinyu", "tz": "Asia/Shanghai", "district": "Jiangxi"}, {"id": 285, "name": "Liaoyuan", "name_ru": "Liaoyuan", "tz": "Asia/Shanghai", "district": "Jilin"}, {"id": 286, "name": "Yingtan", "name_ru": "Yingtan", "tz": "Asia/Shanghai", "district": "Jiangxi"}, {"id": 287, "name": "Guankou", "name_ru": "Guankou", "tz": "Asia/Shanghai", "district": "Hunan"}, {"id": 288, "name": "Dingzhou", "name_ru": "Dingzhou", "tz": "Asia/Shanghai", "district": "Hebei"}, {"id": 289, "name": "Lianyuan", "name_ru": "Lianyuan", "tz": "Asia/Shanghai", "district": "Hunan"}, {"id": 290, "name": "Rongcheng", "name_ru": "Rongcheng", "tz": "Asia/Shanghai", "district": "Hubei"}, {"id": 291, "name": "Kaiyuan", "name_ru": "Kaiyuan", "tz": "Asia/Shanghai", "district": "Henan"}, {"id": 292, "name": "Leiyang", "name_ru": "Leiyang", "tz": "Asia/Shanghai", "district": "Hunan"}, {"id": 293, "name": "Yichun", "name_ru": "Yichun", "tz": "Asia/Shanghai", "district": "Heilongjiang"}, {"id": 294, "name": "Xiantao", "name_ru": "Xiantao", "tz": "Asia/Shanghai", "district": "Hubei"}, {"id": 295, "name": "Yingchuan", "name_ru": "Yingchuan", "tz": "Asia/Shanghai", "district": "Henan"}, {"id": 296, "name": "Xibeijie", "name_ru": "Xibeijie", "tz": "Asia/Shanghai", "district": "Gansu"}, {"id": 297, "name": "Hanchuan", "name_ru": "Hanchuan", "tz": "Asia/Shanghai", "district": "Hubei"}, {"id": 298, "name": "Gongzhuling", "name_ru": "Gongzhuling", "tz": "Asia/Shanghai", "district": "Jilin"}, {"id": 299, "name": "Yicheng", "name_ru": "Yicheng", "tz": "Asia/Shanghai", "district": "Jiangsu"}, {"id": 300, "name": "Zhufeng", "name_ru": "Zhufeng", "tz": "Asia/Shanghai", "district": "Shandong"}, {"id": 301, "name": "Taixing", "name_ru": "Taixing", "tz": "Asia/Shanghai", "district": "Jiangsu"}, {"id": 302, "name": "Mizhou", "name_ru": "Mizhou", "tz": "Asia/Shanghai", "district": "Shandong"}, {"id": 303, "name": "Xishan", "name_ru": "Xishan", "tz": "Asia/Shanghai", "district": "Hunan"}, {"id": 304, "name": "Ezhou", "name_ru": "Ezhou", "tz": "Asia/Shanghai", "district": "Hubei"}, {"id": 305, "name": "Hegang", "name_ru": "Hegang", "tz": "Asia/Shanghai", "district": "Heilongjiang"}, {"id": 306, "name": "Zhongwei", "name_ru": "Zhongwei", "tz": "Asia/Shanghai", "district": "Ningxia"}, {"id": 307, "name": "Shouguang", "name_ru": "Shouguang", "tz": "Asia/Shanghai", "district": "Shandong"}, {"id": 308, "name": "Taizhou", "name_ru": "Taizhou", "tz": "Asia/Shanghai", "district": "Zhejiang"}, {"id": 309, "name": "Wafangdian", "name_ru": "Wafangdian", "tz": "Asia/Shanghai", "district": "Liaoning"}, {"id": 310, "name": "Zhongxiang", "name_ru": "Zhongxiang", "tz": "Asia/Shanghai", "district": "Hubei"}, {"id": 311, "name": "Xinyi", "name_ru": "Xinyi", "tz": "Asia/Shanghai", "district": "Guangdong"}, {"id": 312, "name": "Zaoyang", "name_ru": "Zaoyang", "tz": "Asia/Shanghai", "district": "Hubei"}, {"id": 313, "name": "Shuizhai", "name_ru": "Shuizhai", "tz": "Asia/Shanghai", "district": "Henan"}, {"id": 314, "name": "Xingyi", "name_ru": "Xingyi", "tz": "Asia/Shanghai", "district": "Guizhou"}, {"id": 315, "name": "Xingcheng", "name_ru": "Xingcheng", "tz": "Asia/Shanghai", "district": "Guangdong"}, {"id": 316, "name": "Dongtai", "name_ru": "Dongtai", "tz": "Asia/Shanghai", "district": "Jiangsu"}, {"id": 317, "name": "Yingcheng", "name_ru": "Yingcheng", "tz": "Asia/Shanghai", "district": "Guangdong"}, {"id": 318, "name": "Luocheng", "name_ru": "Luocheng", "tz": "Asia/Shanghai", "district": "Guangdong"}, {"id": 319, "name": "Danyang", "name_ru": "Danyang", "tz": "Asia/Shanghai", "district": "Jiangsu"}, {"id": 320, "name": "Nada", "name_ru": "Nada", "tz": "Asia/Shanghai", "district": "Hainan"}, {"id": 321, "name": "Wuchuan", "name_ru": "Wuchuan", "tz": "Asia/Shanghai", "district": "Guangdong"}, {"id": 322, "name": "Huilong", "name_ru": "Huilong", "tz": "Asia/Shanghai", "district": "Jiangsu"}, {"id": 323, "name": "Shaoxing", "name_ru": "Shaoxing", "tz": "Asia/Shanghai", "district": "Zhejiang"}, {"id": 324, "name": "Taishan", "name_ru": "Taishan", "tz": "Asia/Shanghai", "district": "Guangdong"}, {"id": 325, "name": "Fangchenggang", "name_ru": "Fangchenggang", "tz": "Asia/Shanghai", "district": "Guangxi"}, {"id": 326, "name": "Anqiu", "name_ru": "Anqiu", "tz": "Asia/Shanghai", "district": "Shandong"}, {"id": 327, "name": "Feicheng", "name_ru": "Feicheng", "tz": "Asia/Shanghai", "district": "Shandong"}, {"id": 328, "name": "Meishan", "name_ru": "Meishan", "tz": "Asia/Shanghai", "district": "Henan"}, {"id": 329, "name": "Taihe", "name_ru": "Taihe", "tz": "Asia/Shanghai", "district": "Sichuan"}, {"id": 330, "name": "Xin'an", "name_ru": "Xin’an", "tz": "Asia/Shanghai", "district": "Jiangsu"}, {"id": 331, "name": "Taihecun", "name_ru": "Taihecun", "tz": "Asia/Shanghai", "district": "Heilongjiang"}, {"id": 332, "name": "Qingzhou", "name_ru": "Qingzhou", "tz": "Asia/Shanghai", "district": "Shandong"}, {"id": 333, "name": "Lichuan", "name_ru": "Lichuan", "tz": "Asia/Shanghai", "district": "Hubei"}, {"id": 334, "name": "Daye", "name_ru": "Daye", "tz": "Asia/Shanghai", "district": "Hubei"}, {"id": 335, "name": "Hengzhou", "name_ru": "Hengzhou", "tz": "Asia/Shanghai", "district": "Guangxi"}, {"id": 336, "name": "Zhuanghe", "name_ru": "Zhuanghe", "tz": "Asia/Shanghai", "district": "Liaoning"}, {"id": 337, "name": "Lhasa", "name_ru": "Lhasa", "tz": "Asia/Shanghai", "district": "Tibet"}, {"id": 338, "name": "Jiaozhou", "name_ru": "Jiaozhou", "tz": "Asia/Shanghai", "district": "Shandong"}, {"id": 339, "name": "Yangchun", "name_ru": "Yangchun", "tz": "Asia/Shanghai", "district": "Guangdong"}, {"id": 340, "name": "Dengtalu", "name_ru": "Dengtalu", "tz": "Asia/Shanghai", "district": "Henan"}, {"id": 341, "name": "Laiyang", "name_ru": "Laiyang", "tz": "Asia/Shanghai", "district": "Shandong"}, {"id": 342, "name": "Kaifeng Chengguanzhen", "name_ru": "Kaifeng Chengguanzhen", "tz": "Asia/Shanghai", "district": "Henan"}, {"id": 343, "name": "Gaomi", "name_ru": "Gaomi", "tz": "Asia/Shanghai", "district": "Shandong"}, {"id": 344, "name": "Hai'an", "name_ru": "Hai’an", "tz": "Asia/Shanghai", "district": "Jiangsu"}, {"id": 345, "name": "Weichanglu", "name_ru": "Weichanglu", "tz": "Asia/Shanghai", "district": "Shandong"}, {"id": 346, "name": "Shache", "name_ru": "Shache", "tz": "Asia/Urumqi", "district": "Xinjiang"}, {"id": 347, "name": "Leping", "name_ru": "Leping", "tz": "Asia/Shanghai", "district": "Jiangxi"}, {"id": 348, "name": "Hailun", "name_ru": "Hailun", "tz": "Asia/Shanghai", "district": "Heilongjiang"}, {"id": 349, "name": "Macheng", "name_ru": "Macheng", "tz": "Asia/Shanghai", "district": "Hubei"}, {"id": 350, "name": "Yuci", "name_ru": "Yuci", "tz": "Asia/Shanghai", "district": "Shanxi"}, {"id": 351, "name": "Dehui", "name_ru": "Dehui", "tz": "Asia/Shanghai", "district": "Jilin"}, {"id": 352, "name": "Tongchuan", "name_ru": "Tongchuan", "tz": "Asia/Shanghai", "district": "Shaanxi"}, {"id": 353, "name": "Rongjiawan", "name_ru": "Rongjiawan", "tz": "Asia/Shanghai", "district": "Hunan"}, {"id": 354, "name": "Renqiu", "name_ru": "Renqiu", "tz": "Asia/Shanghai", "district": "Hebei"}, {"id": 355, "name": "Xindi", "name_ru": "Xindi", "tz": "Asia/Shanghai", "district": "Hubei"}, {"id": 356, "name": "Wu'an", "name_ru": "Wu’an", "tz": "Asia/Shanghai", "district": "Hebei"}, {"id": 357, "name": "Gaoyou", "name_ru": "Gaoyou", "tz": "Asia/Shanghai", "district": "Jiangsu"}, {"id": 358, "name": "Hejian", "name_ru": "Hejian", "tz": "Asia/Shanghai", "district": "Hebei"}, {"id": 359, "name": "Yiyang", "name_ru": "Yiyang", "tz": "Asia/Shanghai", "district": "Hunan"}, {"id": 360, "name": "Puxi", "name_ru": "Puxi", "tz": "Asia/Shanghai", "district": "Henan"}, {"id": 361, "name": "Zijinglu", "name_ru": "Zijinglu", "tz": "Asia/Shanghai", "district": "Henan"}, {"id": 362, "name": "Qingping", "name_ru": "Qingping", "tz": "Asia/Shanghai", "district": "Henan"}, {"id": 363, "name": "Xiangxiang", "name_ru": "Xiangxiang", "tz": "Asia/Shanghai", "district": "Hunan"}, {"id": 364, "name": "Chaohucun", "name_ru": "Chaohucun", "tz": "Asia/Shanghai", "district": "Anhui"}, {"id": 365, "name": "Fuyang", "name_ru": "Fuyang", "tz": "Asia/Shanghai", "district": "Zhejiang"}, {"id": 366, "name": "Cencheng", "name_ru": "Cencheng", "tz": "Asia/Shanghai", "district": "Guangxi"}, {"id": 367, "name": "Dali", "name_ru": "Dali", "tz": "Asia/Shanghai", "district": "Yunnan"}, {"id": 368, "name": "Songzi", "name_ru": "Songzi", "tz": "Asia/Shanghai", "district": "Hubei"}, {"id": 369, "name": "Laixi", "name_ru": "Laixi", "tz": "Asia/Shanghai", "district": "Shandong"}, {"id": 370, "name": "Zhongba", "name_ru": "Zhongba", "tz": "Asia/Shanghai", "district": "Sichuan"}, {"id": 371, "name": "Qingnian", "name_ru": "Qingnian", "tz": "Asia/Shanghai", "district": "Shandong"}, {"id": 372, "name": "Xinhualu", "name_ru": "Xinhualu", "tz": "Asia/Shanghai", "district": "Henan"}, {"id": 373, "name": "Guangshui", "name_ru": "Guangshui", "tz": "Asia/Shanghai", "district": "Hubei"}, {"id": 374, "name": "Sizhan", "name_ru": "Sizhan", "tz": "Asia/Shanghai", "district": "Ningxia"}, {"id": 375, "name": "Licheng", "name_ru": "Licheng", "tz": "Asia/Shanghai", "district": "Jiangsu"}, {"id": 376, "name": "Chengguan", "name_ru": "Chengguan", "tz": "Asia/Shanghai", "district": "Henan"}, {"id": 377, "name": "Nehe", "name_ru": "Nehe", "tz": "Asia/Shanghai", "district": "Heilongjiang"}, {"id": 378, "name": "Zunhua", "name_ru": "Zunhua", "tz": "Asia/Shanghai", "district": "Hebei"}, {"id": 379, "name": "Wugang", "name_ru": "Wugang", "tz": "Asia/Shanghai", "district": "Hunan"}, {"id": 380, "name": "Shuangqiao", "name_ru": "Shuangqiao", "tz": "Asia/Shanghai", "district": "Henan"}, {"id": 381, "name": "Langzhong", "name_ru": "Langzhong", "tz": "Asia/Shanghai", "district": "Sichuan"}, {"id": 382, "name": "Qian'an", "name_ru": "Qian’an", "tz": "Asia/Shanghai", "district": "Hebei"}, {"id": 383, "name": "Zouping", "name_ru": "Zouping", "tz": "Asia/Shanghai", "district": "Shandong"}, {"id": 384, "name": "Anlu", "name_ru": "Anlu", "tz": "Asia/Shanghai", "district": "Hubei"}, {"id": 385, "name": "Changsha", "name_ru": "Changsha", "tz": "Asia/Shanghai", "district": "Guangdong"}, {"id": 386, "name": "Shihezi", "name_ru": "Shihezi", "tz": "Asia/Urumqi", "district": "Xinjiang"}, {"id": 387, "name": "Yatou", "name_ru": "Yatou", "tz": "Asia/Shanghai", "district": "Shandong"}, {"id": 388, "name": "Xichang", "name_ru": "Xichang", "tz": "Asia/Shanghai", "district": "Sichuan"}, {"id": 389, "name": "Chengxiang", "name_ru": "Chengxiang", "tz": "Asia/Shanghai", "district": "Jiangsu"}, {"id": 390, "name": "Dashiqiao", "name_ru": "Dashiqiao", "tz": "Asia/Shanghai", "district": "Liaoning"}, {"id": 391, "name": "Shishi", "name_ru": "Shishi", "tz": "Asia/Shanghai", "district": "Fujian"}, {"id": 392, "name": "Qianxi", "name_ru": "Qianxi", "tz": "Asia/Shanghai", "district": "Guizhou"}, {"id": 393, "name": "Miluo Chengguanzhen", "name_ru": "Miluo Chengguanzhen", "tz": "Asia/Shanghai", "district": "Hunan"}, {"id": 394, "name": "Gaizhou", "name_ru": "Gaizhou", "tz": "Asia/Shanghai", "district": "Liaoning"}, {"id": 395, "name": "Leling", "name_ru": "Leling", "tz": "Asia/Shanghai", "district": "Shandong"}, {"id": 396, "name": "Jianshe", "name_ru": "Jianshe", "tz": "Asia/Shanghai", "district": "Henan"}, {"id": 397, "name": "Jingcheng", "name_ru": "Jingcheng", "tz": "Asia/Shanghai", "district": "Jiangsu"}, {"id": 398, "name": "Xinmin", "name_ru": "Xinmin", "tz": "Asia/Shanghai", "district": "Liaoning"}, {"id": 399, "name": "Zhongshu", "name_ru": "Zhongshu", "tz": "Asia/Shanghai", "district": "Guizhou"}, {"id": 400, "name": "Xigaze", "name_ru": "Xigazê", "tz": "Asia/Shanghai", "district": "Tibet"}, {"id": 401, "name": "Guankou", "name_ru": "Guankou", "tz": "Asia/Shanghai", "district": "Sichuan"}, {"id": 402, "name": "Songyang", "name_ru": "Songyang", "tz": "Asia/Shanghai", "district": "Henan"}, {"id": 403, "name": "Puyang Chengguanzhen", "name_ru": "Puyang Chengguanzhen", "tz": "Asia/Shanghai", "district": "Henan"}, {"id": 404, "name": "Qionghu", "name_ru": "Qionghu", "tz": "Asia/Shanghai", "district": "Hunan"}, {"id": 405, "name": "Zhaodong", "name_ru": "Zhaodong", "tz": "Asia/Shanghai", "district": "Heilongjiang"}, {"id": 406, "name": "Wenchang", "name_ru": "Wenchang", "tz": "Asia/Shanghai", "district": "Anhui"}, {"id": 407, "name": "Shulan", "name_ru": "Shulan", "tz": "Asia/Shanghai", "district": "Jilin"}, {"id": 408, "name": "Lingbao Chengguanzhen", "name_ru": "Lingbao Chengguanzhen", "tz": "Asia/Shanghai", "district": "Henan"}, {"id": 409, "name": "Xiping", "name_ru": "Xiping", "tz": "Asia/Shanghai", "district": "Yunnan"}, {"id": 410, "name": "Sanhe", "name_ru": "Sanhe", "tz": "Asia/Shanghai", "district": "Hebei"}, {"id": 411, "name": "Guixi", "name_ru": "Guixi", "tz": "Asia/Shanghai", "district": "Jiangxi"}, {"id": 412, "name": "Tengyue", "name_ru": "Tengyue", "tz": "Asia/Shanghai", "district": "Yunnan"}, {"id": 413, "name": "Wuxue", "name_ru": "Wuxue", "tz": "Asia/Shanghai", "district": "Hubei"}, {"id": 414, "name": "Qufu", "name_ru": "Qufu", "tz": "Asia/Shanghai", "district": "Shandong"}, {"id": 415, "name": "Gaobeidian", "name_ru": "Gaobeidian", "tz": "Asia/Shanghai", "district": "Hebei"}, {"id": 416, "name": "Ruiming", "name_ru": "Ruiming", "tz": "Asia/Shanghai", "district": "Jiangxi"}, {"id": 417, "name": "Xinshi", "name_ru": "Xinshi", "tz": "Asia/Shanghai", "district": "Hubei"}, {"id": 418, "name": "Jin'e", "name_ru": "Jin’e", "tz": "Asia/Shanghai", "district": "Sichuan"}, {"id": 419, "name": "Changping", "name_ru": "Changping", "tz": "Asia/Shanghai", "district": "Beijing"}, {"id": 420, "name": "Xinxing", "name_ru": "Xinxing", "tz": "Asia/Shanghai", "district": "Liaoning"}, {"id": 421, "name": "Suohe", "name_ru": "Suohe", "tz": "Asia/Shanghai", "district": "Henan"}, {"id": 422, "name": "Zhuangyuan", "name_ru": "Zhuangyuan", "tz": "Asia/Shanghai", "district": "Shandong"}, {"id": 423, "name": "Bazhou", "name_ru": "Bazhou", "tz": "Asia/Shanghai", "district": "Hebei"}, {"id": 424, "name": "Turpan", "name_ru": "Turpan", "tz": "Asia/Urumqi", "district": "Xinjiang"}, {"id": 425, "name": "Meihekou", "name_ru": "Meihekou", "tz": "Asia/Shanghai", "district": "Jilin"}, {"id": 426, "name": "Jurong", "name_ru": "Jurong", "tz": "Asia/Shanghai", "district": "Jiangsu"}, {"id": 427, "name": "Xinji", "name_ru": "Xinji", "tz": "Asia/Shanghai", "district": "Hebei"}, {"id": 428, "name": "Sanya", "name_ru": "Sanya", "tz": "Asia/Shanghai", "district": "Hainan"}, {"id": 429, "name": "Zhangshu", "name_ru": "Zhangshu", "tz": "Asia/Shanghai", "district": "Jiangxi"}, {"id": 430, "name": "Zhuozhou", "name_ru": "Zhuozhou", "tz": "Asia/Shanghai", "district": "Hebei"}, {"id": 431, "name": "Tianchang", "name_ru": "Tianchang", "tz": "Asia/Shanghai", "district": "Anhui"}, {"id": 432, "name": "Qamdo", "name_ru": "Qamdo", "tz": "Asia/Shanghai", "district": "Tibet"}, {"id": 433, "name": "Sihui", "name_ru": "Sihui", "tz": "Asia/Shanghai", "district": "Guangdong"}, {"id": 434, "name": "Luocheng", "name_ru": "Luocheng", "tz": "Asia/Shanghai", "district": "Sichuan"}, {"id": 435, "name": "Chuxiong", "name_ru": "Chuxiong", "tz": "Asia/Shanghai", "district": "Yunnan"}, {"id": 436, "name": "Jinhua", "name_ru": "Jinhua", "tz": "Asia/Shanghai", "district": "Zhejiang"}, {"id": 437, "name": "Shangzhi", "name_ru": "Shangzhi", "tz": "Asia/Shanghai", "district": "Heilongjiang"}, {"id": 438, "name": "Botou", "name_ru": "Botou", "tz": "Asia/Shanghai", "district": "Hebei"}, {"id": 439, "name": "Wancheng", "name_ru": "Wancheng", "tz": "Asia/Shanghai", "district": "Hainan"}, {"id": 440, "name": "Xiulin", "name_ru": "Xiulin", "tz": "Asia/Shanghai", "district": "Hubei"}, {"id": 441, "name": "Fu'an", "name_ru": "Fu’an", "tz": "Asia/Shanghai", "district": "Fujian"}, {"id": 442, "name": "Kumul", "name_ru": "Kumul", "tz": "Asia/Urumqi", "district": "Xinjiang"}, {"id": 443, "name": "Luofeng", "name_ru": "Luofeng", "tz": "Asia/Shanghai", "district": "Shandong"}, {"id": 444, "name": "Lingyuan", "name_ru": "Lingyuan", "tz": "Asia/Shanghai", "district": "Liaoning"}, {"id": 445, "name": "Huzhou", "name_ru": "Huzhou", "tz": "Asia/Shanghai", "district": "Zhejiang"}, {"id": 446, "name": "Wencheng", "name_ru": "Wencheng", "tz": "Asia/Shanghai", "district": "Hainan"}, {"id": 447, "name": "Shenzhou", "name_ru": "Shenzhou", "tz": "Asia/Shanghai", "district": "Hebei"}, {"id": 448, "name": "Kuiju", "name_ru": "Kuiju", "tz": "Asia/Shanghai", "district": "Shandong"}, {"id": 449, "name": "Zhenzhou", "name_ru": "Zhenzhou", "tz": "Asia/Shanghai", "district": "Jiangsu"}, {"id": 450, "name": "Jieshou", "name_ru": "Jieshou", "tz": "Asia/Shanghai", "district": "Anhui"}, {"id": 451, "name": "Dangyang", "name_ru": "Dangyang", "tz": "Asia/Shanghai", "district": "Hubei"}, {"id": 452, "name": "Luanzhou", "name_ru": "Luanzhou", "tz": "Asia/Shanghai", "district": "Hebei"}, {"id": 453, "name": "Korla", "name_ru": "Korla", "tz": "Asia/Urumqi", "district": "Xinjiang"}, {"id": 454, "name": "Huanghua", "name_ru": "Huanghua", "tz": "Asia/Shanghai", "district": "Hebei"}, {"id": 455, "name": "Xingcheng", "name_ru": "Xingcheng", "tz": "Asia/Shanghai", "district": "Liaoning"}, {"id": 456, "name": "Kaiyuan", "name_ru": "Kaiyuan", "tz": "Asia/Shanghai", "district": "Liaoning"}, {"id": 457, "name": "Fengcheng", "name_ru": "Fengcheng", "tz": "Asia/Shanghai", "district": "Liaoning"}, {"id": 458, "name": "Ghulja", "name_ru": "Ghulja", "tz": "Asia/Urumqi", "district": "Xinjiang"}, {"id": 459, "name": "Xiangyang", "name_ru": "Xiangyang", "tz": "Asia/Shanghai", "district": "Shaanxi"}, {"id": 460, "name": "Fuding", "name_ru": "Fuding", "tz": "Asia/Shanghai", "district": "Fujian"}, {"id": 461, "name": "Chang'an", "name_ru": "Chang’an", "tz": "Asia/Shanghai", "district": "Hunan"}, {"id": 462, "name": "Aksu", "name_ru": "Aksu", "tz": "Asia/Urumqi", "district": "Xinjiang"}, {"id": 463, "name": "Wuhai", "name_ru": "Wuhai", "tz": "Asia/Shanghai", "district": "Inner Mongolia"}, {"id": 464, "name": "Mingguang", "name_ru": "Mingguang", "tz": "Asia/Shanghai", "district": "Anhui"}, {"id": 465, "name": "Ailan Mubage", "name_ru": "Ailan Mubage", "tz": "Asia/Urumqi", "district": "Xinjiang"}, {"id": 466, "name": "Yucheng", "name_ru": "Yucheng", "tz": "Asia/Shanghai", "district": "Shandong"}, {"id": 467, "name": "Longzhou", "name_ru": "Longzhou", "tz": "Asia/Shanghai", "district": "Hubei"}, {"id": 468, "name": "Anda", "name_ru": "Anda", "tz": "Asia/Shanghai", "district": "Heilongjiang"}, {"id": 469, "name": "Jinghong", "name_ru": "Jinghong", "tz": "Asia/Shanghai", "district": "Yunnan"}, {"id": 470, "name": "Heshan", "name_ru": "Heshan", "tz": "Asia/Shanghai", "district": "Guangdong"}, {"id": 471, "name": "Zhoushan", "name_ru": "Zhoushan", "tz": "Asia/Shanghai", "district": "Zhejiang"}, {"id": 472, "name": "Jiaji", "name_ru": "Jiaji", "tz": "Asia/Shanghai", "district": "Hainan"}, {"id": 473, "name": "Beining", "name_ru": "Beining", "tz": "Asia/Shanghai", "district": "Liaoning"}, {"id": 474, "name": "Yanji", "name_ru": "Yanji", "tz": "Asia/Shanghai", "district": "Jilin"}, {"id": 475, "name": "Yicheng", "name_ru": "Yicheng", "tz": "Asia/Shanghai", "district": "Hubei"}, {"id": 476, "name": "Encheng", "name_ru": "Encheng", "tz": "Asia/Shanghai", "district": "Guangdong"}, {"id": 477, "name": "Kashgar", "name_ru": "Kashgar", "tz": "Asia/Urumqi", "district": "Xinjiang"}, {"id": 478, "name": "Yiwu", "name_ru": "Yiwu", "tz": "Asia/Shanghai", "district": "Zhejiang"}, {"id": 479, "name": "Jiaxing", "name_ru": "Jiaxing", "tz": "Asia/Shanghai", "district": "Zhejiang"}, {"id": 480, "name": "Meicheng", "name_ru": "Meicheng", "tz": "Asia/Shanghai", "district": "Anhui"}, {"id": 481, "name": "Taozhou", "name_ru": "Taozhou", "tz": "Asia/Shanghai", "district": "Anhui"}, {"id": 482, "name": "Hongjiang", "name_ru": "Hongjiang", "tz": "Asia/Shanghai", "district": "Hunan"}, {"id": 483, "name": "Dengtacun", "name_ru": "Dengtacun", "tz": "Asia/Shanghai", "district": "Liaoning"}, {"id": 484, "name": "Zhijiang", "name_ru": "Zhijiang", "tz": "Asia/Shanghai", "district": "Hubei"}, {"id": 485, "name": "Chengjiao", "name_ru": "Chengjiao", "tz": "Asia/Shanghai", "district": "Henan"}, {"id": 486, "name": "Beipiao", "name_ru": "Beipiao", "tz": "Asia/Shanghai", "district": "Liaoning"}, {"id": 487, "name": "Suoluntun", "name_ru": "Suoluntun", "tz": "Asia/Shanghai", "district": "Jilin"}, {"id": 488, "name": "Duyun", "name_ru": "Duyun", "tz": "Asia/Shanghai", "district": "Guizhou"}, {"id": 489, "name": "Yuanping", "name_ru": "Yuanping", "tz": "Asia/Shanghai", "district": "Shanxi"}, {"id": 490, "name": "Shahe", "name_ru": "Shahe", "tz": "Asia/Shanghai", "district": "Hebei"}, {"id": 491, "name": "Gaoping", "name_ru": "Gaoping", "tz": "Asia/Shanghai", "district": "Shanxi"}, {"id": 492, "name": "Dunhua", "name_ru": "Dunhua", "tz": "Asia/Shanghai", "district": "Jilin"}, {"id": 493, "name": "Kaihua", "name_ru": "Kaihua", "tz": "Asia/Shanghai", "district": "Yunnan"}, {"id": 494, "name": "Fuyuan", "name_ru": "Fuyuan", "tz": "Asia/Shanghai", "district": "Heilongjiang"}, {"id": 495, "name": "Jiannan", "name_ru": "Jiannan", "tz": "Asia/Shanghai", "district": "Sichuan"}, {"id": 496, "name": "Nangong", "name_ru": "Nangong", "tz": "Asia/Shanghai", "district": "Hebei"}, {"id": 497, "name": "Jiaojiangcun", "name_ru": "Jiaojiangcun", "tz": "Asia/Shanghai", "district": "Zhejiang"}, {"id": 498, "name": "Laohekou", "name_ru": "Laohekou", "tz": "Asia/Shanghai", "district": "Hubei"}, {"id": 499, "name": "Beian", "name_ru": "Beian", "tz": "Asia/Shanghai", "district": "Heilongjiang"}, {"id": 500, "name": "Fujin", "name_ru": "Fujin", "tz": "Asia/Shanghai", "district": "Heilongjiang"}, {"id": 501, "name": "Xiaoyi", "name_ru": "Xiaoyi", "tz": "Asia/Shanghai", "district": "Shanxi"}, {"id": 502, "name": "Qingzhen", "name_ru": "Qingzhen", "tz": "Asia/Shanghai", "district": "Guizhou"}, {"id": 503, "name": "Kuqa", "name_ru": "Kuqa", "tz": "Asia/Urumqi", "district": "Xinjiang"}, {"id": 504, "name": "Xicheng", "name_ru": "Xicheng", "tz": "Asia/Shanghai", "district": "Yunnan"}, {"id": 505, "name": "Jian'ou", "name_ru": "Jian’ou", "tz": "Asia/Shanghai", "district": "Fujian"}, {"id": 506, "name": "Huadian", "name_ru": "Huadian", "tz": "Asia/Shanghai", "district": "Jilin"}, {"id": 507, "name": "Minzhu", "name_ru": "Minzhu", "tz": "Asia/Shanghai", "district": "Jilin"}, {"id": 508, "name": "Tanbei", "name_ru": "Tanbei", "tz": "Asia/Shanghai", "district": "Henan"}, {"id": 509, "name": "Yongji", "name_ru": "Yongji", "tz": "Asia/Shanghai", "district": "Shanxi"}, {"id": 510, "name": "Danjiangkou", "name_ru": "Danjiangkou", "tz": "Asia/Shanghai", "district": "Hubei"}, {"id": 511, "name": "Ning'an", "name_ru": "Ning’an", "tz": "Asia/Shanghai", "district": "Heilongjiang"}, {"id": 512, "name": "Zhangjiakou Shi Xuanhua Qu", "name_ru": "Zhangjiakou Shi Xuanhua Qu", "tz": "Asia/Shanghai", "district": "Hebei"}, {"id": 513, "name": "Jinchang", "name_ru": "Jinchang", "tz": "Asia/Shanghai", "district": "Gansu"}, {"id": 514, "name": "Guangming", "name_ru": "Guangming", "tz": "Asia/Shanghai", "district": "Jilin"}, {"id": 515, "name": "Yan'an Beilu", "name_ru": "Yan’an Beilu", "tz": "Asia/Urumqi", "district": "Xinjiang"}, {"id": 516, "name": "Mishan", "name_ru": "Mishan", "tz": "Asia/Shanghai", "district": "Heilongjiang"}, {"id": 517, "name": "Hailin", "name_ru": "Hailin", "tz": "Asia/Shanghai", "district": "Heilongjiang"}, {"id": 518, "name": "Lecheng", "name_ru": "Lecheng", "tz": "Asia/Shanghai", "district": "Guangdong"}, {"id": 519, "name": "Zhengjiatun", "name_ru": "Zhengjiatun", "tz": "Asia/Shanghai", "district": "Jilin"}, {"id": 520, "name": "Pencheng", "name_ru": "Pencheng", "tz": "Asia/Shanghai", "district": "Jiangxi"}, {"id": 521, "name": "Dalai", "name_ru": "Dalai", "tz": "Asia/Shanghai", "district": "Jilin"}, {"id": 522, "name": "Xingren", "name_ru": "Xingren", "tz": "Asia/Shanghai", "district": "Guizhou"}, {"id": 523, "name": "Wenlan", "name_ru": "Wenlan", "tz": "Asia/Shanghai", "district": "Yunnan"}, {"id": 524, "name": "Fenyang", "name_ru": "Fenyang", "tz": "Asia/Shanghai", "district": "Shanxi"}, {"id": 525, "name": "Nagqu", "name_ru": "Nagqu", "tz": "Asia/Shanghai", "district": "Tibet"}, {"id": 526, "name": "Fangting", "name_ru": "Fangting", "tz": "Asia/Shanghai", "district": "Sichuan"}, {"id": 527, "name": "Linghai", "name_ru": "Linghai", "tz": "Asia/Shanghai", "district": "Liaoning"}, {"id": 528, "name": "Taiping", "name_ru": "Taiping", "tz": "Asia/Shanghai", "district": "Sichuan"}, {"id": 529, "name": "Jiexiu", "name_ru": "Jiexiu", "tz": "Asia/Shanghai", "district": "Shanxi"}, {"id": 530, "name": "Jiangjiafan", "name_ru": "Jiangjiafan", "tz": "Asia/Shanghai", "district": "Hubei"}, {"id": 531, "name": "Xushan", "name_ru": "Xushan", "tz": "Asia/Shanghai", "district": "Zhejiang"}, {"id": 532, "name": "Yuyao", "name_ru": "Yuyao", "tz": "Asia/Shanghai", "district": "Zhejiang"}, {"id": 533, "name": "Hejin", "name_ru": "Hejin", "tz": "Asia/Shanghai", "district": "Shanxi"}, {"id": 534, "name": "Hancheng", "name_ru": "Hancheng", "tz": "Asia/Shanghai", "district": "Shaanxi"}, {"id": 535, "name": "Karamay", "name_ru": "Karamay", "tz": "Asia/Urumqi", "district": "Xinjiang"}, {"id": 536, "name": "Tieli", "name_ru": "Tieli", "tz": "Asia/Shanghai", "district": "Heilongjiang"}, {"id": 537, "name": "Yidu", "name_ru": "Yidu", "tz": "Asia/Shanghai", "district": "Hubei"}, {"id": 538, "name": "Lianzhou", "name_ru": "Lianzhou", "tz": "Asia/Shanghai", "district": "Guangdong"}, {"id": 539, "name": "Helixi", "name_ru": "Helixi", "tz": "Asia/Shanghai", "district": "Anhui"}, {"id": 540, "name": "Lengshuijiang", "name_ru": "Lengshuijiang", "tz": "Asia/Shanghai", "district": "Hunan"}, {"id": 541, "name": "Anguo", "name_ru": "Anguo", "tz": "Asia/Shanghai", "district": "Hebei"}, {"id": 542, "name": "Panshi", "name_ru": "Panshi", "tz": "Asia/Shanghai", "district": "Jilin"}, {"id": 543, "name": "Huichang", "name_ru": "Huichang", "tz": "Asia/Shanghai", "district": "Henan"}, {"id": 544, "name": "Yanjiao", "name_ru": "Yanjiao", "tz": "Asia/Shanghai", "district": "Hebei"}, {"id": 545, "name": "Shuanghejiedao", "name_ru": "Shuanghejiedao", "tz": "Asia/Shanghai", "district": "Sichuan"}, {"id": 546, "name": "Wudalianchi", "name_ru": "Wudalianchi", "tz": "Asia/Shanghai", "district": "Heilongjiang"}, {"id": 547, "name": "Yong'an", "name_ru": "Yong’an", "tz": "Asia/Shanghai", "district": "Fujian"}, {"id": 548, "name": "Hongzhai", "name_ru": "Hongzhai", "tz": "Asia/Shanghai", "district": "Gansu"}, {"id": 549, "name": "Licheng", "name_ru": "Licheng", "tz": "Asia/Shanghai", "district": "Guangxi"}, {"id": 550, "name": "Yueqing", "name_ru": "Yueqing", "tz": "Asia/Shanghai", "district": "Zhejiang"}, {"id": 551, "name": "Yakeshi", "name_ru": "Yakeshi", "tz": "Asia/Shanghai", "district": "Inner Mongolia"}, {"id": 552, "name": "Yingmen", "name_ru": "Yingmen", "tz": "Asia/Shanghai", "district": "Gansu"}, {"id": 553, "name": "Lianran", "name_ru": "Lianran", "tz": "Asia/Shanghai", "district": "Yunnan"}, {"id": 554, "name": "Tangdong", "name_ru": "Tangdong", "tz": "Asia/Shanghai", "district": "Hunan"}, {"id": 555, "name": "Hangu", "name_ru": "Hangu", "tz": "Asia/Shanghai", "district": "Tianjin"}, {"id": 556, "name": "Yingzhong", "name_ru": "Yingzhong", "tz": "Asia/Shanghai", "district": "Jiangsu"}, {"id": 557, "name": "Bamiantong", "name_ru": "Bamiantong", "tz": "Asia/Shanghai", "district": "Heilongjiang"}, {"id": 558, "name": "Ulanhot", "name_ru": "Ulanhot", "tz": "Asia/Shanghai", "district": "Inner Mongolia"}, {"id": 559, "name": "Yunzhong", "name_ru": "Yunzhong", "tz": "Asia/Shanghai", "district": "Shanxi"}, {"id": 560, "name": "Binxian", "name_ru": "Binxian", "tz": "Asia/Shanghai", "district": "Shaanxi"}, {"id": 561, "name": "Hotan", "name_ru": "Hotan", "tz": "Asia/Urumqi", "district": "Xinjiang"}, {"id": 562, "name": "Dongyang", "name_ru": "Dongyang", "tz": "Asia/Shanghai", "district": "Zhejiang"}, {"id": 563, "name": "Kaiyuan", "name_ru": "Kaiyuan", "tz": "Asia/Shanghai", "district": "Yunnan"}, {"id": 564, "name": "Zalantun", "name_ru": "Zalantun", "tz": "Asia/Shanghai", "district": "Inner Mongolia"}, {"id": 565, "name": "Yakou", "name_ru": "Yakou", "tz": "Asia/Shanghai", "district": "Henan"}, {"id": 566, "name": "Datang", "name_ru": "Datang", "tz": "Asia/Shanghai", "district": "Guangdong"}, {"id": 567, "name": "Qianzhou", "name_ru": "Qianzhou", "tz": "Asia/Shanghai", "district": "Hunan"}, {"id": 568, "name": "Quzhou", "name_ru": "Quzhou", "tz": "Asia/Shanghai", "district": "Zhejiang"}, {"id": 569, "name": "Linhai", "name_ru": "Linhai", "tz": "Asia/Shanghai", "district": "Zhejiang"}, {"id": 570, "name": "Hong'an", "name_ru": "Hong’an", "tz": "Asia/Shanghai", "district": "Heilongjiang"}, {"id": 571, "name": "Hulin", "name_ru": "Hulin", "tz": "Asia/Shanghai", "district": "Heilongjiang"}, {"id": 572, "name": "Fuquan", "name_ru": "Fuquan", "tz": "Asia/Shanghai", "district": "Guizhou"}, {"id": 573, "name": "Tongchuanshi", "name_ru": "Tongchuanshi", "tz": "Asia/Shanghai", "district": "Shaanxi"}, {"id": 574, "name": "Huozhou", "name_ru": "Huozhou", "tz": "Asia/Shanghai", "district": "Shanxi"}, {"id": 575, "name": "Jining", "name_ru": "Jining", "tz": "Asia/Shanghai", "district": "Inner Mongolia"}, {"id": 576, "name": "Zhuji", "name_ru": "Zhuji", "tz": "Asia/Shanghai", "district": "Zhejiang"}, {"id": 577, "name": "Shaowu", "name_ru": "Shaowu", "tz": "Asia/Shanghai", "district": "Fujian"}, {"id": 578, "name": "Linxia Chengguanzhen", "name_ru": "Linxia Chengguanzhen", "tz": "Asia/Shanghai", "district": "Gansu"}, {"id": 579, "name": "Bijiao", "name_ru": "Bijiao", "tz": "Asia/Shanghai", "district": "Guangdong"}, {"id": 580, "name": "Wenling", "name_ru": "Wenling", "tz": "Asia/Shanghai", "district": "Zhejiang"}, {"id": 581, "name": "Wutong", "name_ru": "Wutong", "tz": "Asia/Shanghai", "district": "Zhejiang"}, {"id": 582, "name": "Huayin", "name_ru": "Huayin", "tz": "Asia/Shanghai", "district": "Shaanxi"}, {"id": 583, "name": "Jinshi", "name_ru": "Jinshi", "tz": "Asia/Shanghai", "district": "Hunan"}, {"id": 584, "name": "Manzhouli", "name_ru": "Manzhouli", "tz": "Asia/Shanghai", "district": "Inner Mongolia"}, {"id": 585, "name": "Beichengqu", "name_ru": "Beichengqu", "tz": "Asia/Shanghai", "district": "Inner Mongolia"}, {"id": 586, "name": "Diaobingshancun", "name_ru": "Diaobingshancun", "tz": "Asia/Shanghai", "district": "Liaoning"}, {"id": 587, "name": "Zhangping", "name_ru": "Zhangping", "tz": "Asia/Shanghai", "district": "Fujian"}, {"id": 588, "name": "Shanhu", "name_ru": "Shanhu", "tz": "Asia/Shanghai", "district": "Zhejiang"}, {"id": 589, "name": "Atushi", "name_ru": "Atushi", "tz": "Asia/Urumqi", "district": "Xinjiang"}, {"id": 590, "name": "Shenmu", "name_ru": "Shenmu", "tz": "Asia/Shanghai", "district": "Shaanxi"}, {"id": 591, "name": "Lishui", "name_ru": "Lishui", "tz": "Asia/Shanghai", "district": "Zhejiang"}, {"id": 592, "name": "Wuyishan", "name_ru": "Wuyishan", "tz": "Asia/Shanghai", "district": "Fujian"}, {"id": 593, "name": "Chishui", "name_ru": "Chishui", "tz": "Asia/Shanghai", "district": "Guizhou"}, {"id": 594, "name": "Bole", "name_ru": "Bole", "tz": "Asia/Urumqi", "district": "Xinjiang"}, {"id": 595, "name": "Jiayuguan", "name_ru": "Jiayuguan", "tz": "Asia/Shanghai", "district": "Gansu"}, {"id": 596, "name": "Hunchun", "name_ru": "Hunchun", "tz": "Asia/Shanghai", "district": "Jilin"}, {"id": 597, "name": "Longjin", "name_ru": "Longjin", "tz": "Asia/Shanghai", "district": "Guangdong"}, {"id": 598, "name": "Ji'an Shi", "name_ru": "Ji’an Shi", "tz": "Asia/Shanghai", "district": "Jilin"}, {"id": 599, "name": "Gujiao", "name_ru": "Gujiao", "tz": "Asia/Shanghai", "district": "Shanxi"}, {"id": 600, "name": "Golmud", "name_ru": "Golmud", "tz": "Asia/Shanghai", "district": "Qinghai"}, {"id": 601, "name": "Rui'an", "name_ru": "Rui’an", "tz": "Asia/Shanghai", "district": "Zhejiang"}, {"id": 602, "name": "Taisheng", "name_ru": "Taisheng", "tz": "Asia/Shanghai", "district": "Guangdong"}, {"id": 603, "name": "Dongning", "name_ru": "Dongning", "tz": "Asia/Shanghai", "district": "Heilongjiang"}, {"id": 604, "name": "Pinghu", "name_ru": "Pinghu", "tz": "Asia/Shanghai", "district": "Zhejiang"}, {"id": 605, "name": "Huangyan", "name_ru": "Huangyan", "tz": "Asia/Shanghai", "district": "Zhejiang"}, {"id": 606, "name": "Jiutai", "name_ru": "Jiutai", "tz": "Asia/Shanghai", "district": "Jilin"}, {"id": 607, "name": "Puqi", "name_ru": "Puqi", "tz": "Asia/Shanghai", "district": "Hubei"}, {"id": 608, "name": "Lanxi", "name_ru": "Lanxi", "tz": "Asia/Shanghai", "district": "Zhejiang"}, {"id": 609, "name": "Zhugang", "name_ru": "Zhugang", "tz": "Asia/Shanghai", "district": "Zhejiang"}, {"id": 610, "name": "Helong", "name_ru": "Helong", "tz": "Asia/Shanghai", "district": "Jilin"}, {"id": 611, "name": "Donghua", "name_ru": "Donghua", "tz": "Asia/Shanghai", "district": "Gansu"}, {"id": 612, "name": "Xiashi", "name_ru": "Xiashi", "tz": "Asia/Shanghai", "district": "Zhejiang"}, {"id": 613, "name": "Dunhuang", "name_ru": "Dunhuang", "tz": "Asia/Shanghai", "district": "Gansu"}, {"id": 614, "name": "Luzhang", "name_ru": "Luzhang", "tz": "Asia/Shanghai", "district": "Yunnan"}, {"id": 615, "name": "Longjing", "name_ru": "Longjing", "tz": "Asia/Shanghai", "district": "Jilin"}, {"id": 616, "name": "Tongjiang", "name_ru": "Tongjiang", "tz": "Asia/Shanghai", "district": "Heilongjiang"}, {"id": 617, "name": "Guli", "name_ru": "Guli", "tz": "Asia/Shanghai", "district": "Zhejiang"}, {"id": 618, "name": "Lin'an", "name_ru": "Lin’an", "tz": "Asia/Shanghai", "district": "Yunnan"}, {"id": 619, "name": "Tiantoujiao", "name_ru": "Tiantoujiao", "tz": "Asia/Shanghai", "district": "Guangdong"}, {"id": 620, "name": "Linjiang", "name_ru": "Linjiang", "tz": "Asia/Shanghai", "district": "Jilin"}, {"id": 621, "name": "Fenglu", "name_ru": "Fenglu", "tz": "Asia/Shanghai", "district": "Yunnan"}, {"id": 622, "name": "Basuo", "name_ru": "Basuo", "tz": "Asia/Shanghai", "district": "Hainan"}, {"id": 623, "name": "Kuytun", "name_ru": "Kuytun", "tz": "Asia/Urumqi", "district": "Xinjiang"}, {"id": 624, "name": "Zhanlicun", "name_ru": "Zhanlicun", "tz": "Asia/Shanghai", "district": "Guangdong"}, {"id": 625, "name": "Fukang", "name_ru": "Fukang", "tz": "Asia/Urumqi", "district": "Xinjiang"}, {"id": 626, "name": "Simao", "name_ru": "Simao", "tz": "Asia/Shanghai", "district": "Yunnan"}, {"id": 627, "name": "Jinggang", "name_ru": "Jinggang", "tz": "Asia/Shanghai", "district": "Guangdong"}, {"id": 628, "name": "Tacheng", "name_ru": "Tacheng", "tz": "Asia/Urumqi", "district": "Xinjiang"}, {"id": 629, "name": "Zhengding", "name_ru": "Zhengding", "tz": "Asia/Shanghai", "district": "Hebei"}, {"id": 630, "name": "Nan Zhuang", "name_ru": "Nan Zhuang", "tz": "Asia/Shanghai", "district": "Guangdong"}, {"id": 631, "name": "Chaoshan", "name_ru": "Chaoshan", "tz": "Asia/Shanghai", "district": "Guangdong"}, {"id": 632, "name": "Xiaping", "name_ru": "Xiaping", "tz": "Asia/Shanghai", "district": "Jiangxi"}, {"id": 633, "name": "Dahuaishu", "name_ru": "Dahuaishu", "tz": "Asia/Shanghai", "district": "Shanxi"}, {"id": 634, "name": "Fengyicun", "name_ru": "Fengyicun", "tz": "Asia/Shanghai", "district": "Guangdong"}, {"id": 635, "name": "Dongsheng", "name_ru": "Dongsheng", "tz": "Asia/Shanghai", "district": "Guangdong"}, {"id": 636, "name": "Yima", "name_ru": "Yima", "tz": "Asia/Shanghai", "district": "Henan"}, {"id": 637, "name": "Xintang", "name_ru": "Xintang", "tz": "Asia/Shanghai", "district": "Guangdong"}, {"id": 638, "name": "Dongxing", "name_ru": "Dongxing", "tz": "Asia/Shanghai", "district": "Guangxi"}, {"id": 639, "name": "Altay", "name_ru": "Altay", "tz": "Asia/Urumqi", "district": "Xinjiang"}, {"id": 640, "name": "Jinjiang", "name_ru": "Jinjiang", "tz": "Asia/Shanghai", "district": "Hainan"}, {"id": 641, "name": "Nong'an", "name_ru": "Nong’an", "tz": "Asia/Shanghai", "district": "Jilin"}, {"id": 642, "name": "Shizhaobi", "name_ru": "Shizhaobi", "tz": "Asia/Shanghai", "district": "Guangdong"}, {"id": 643, "name": "Shizuishan", "name_ru": "Shizuishan", "tz": "Asia/Shanghai", "district": "Ningxia"}, {"id": 644, "name": "Yunxian Chengguanzhen", "name_ru": "Yunxian Chengguanzhen", "tz": "Asia/Shanghai", "district": "Hubei"}, {"id": 645, "name": "Shuangcheng", "name_ru": "Shuangcheng", "tz": "Asia/Shanghai", "district": "Heilongjiang"}, {"id": 646, "name": "Zhangmu Touwei", "name_ru": "Zhangmu Touwei", "tz": "Asia/Shanghai", "district": "Guangdong"}, {"id": 647, "name": "Jiangshan", "name_ru": "Jiangshan", "tz": "Asia/Shanghai", "district": "Zhejiang"}, {"id": 648, "name": "Nanqiaotou", "name_ru": "Nanqiaotou", "tz": "Asia/Shanghai", "district": "Guangdong"}, {"id": 649, "name": "Zhaozhou", "name_ru": "Zhaozhou", "tz": "Asia/Shanghai", "district": "Hebei"}, {"id": 650, "name": "Lucheng", "name_ru": "Lucheng", "tz": "Asia/Shanghai", "district": "Sichuan"}, {"id": 651, "name": "Fengcheng", "name_ru": "Fengcheng", "tz": "Asia/Shanghai", "district": "Shanxi"}, {"id": 652, "name": "Baigou", "name_ru": "Baigou", "tz": "Asia/Shanghai", "district": "Hebei"}, {"id": 653, "name": "Shiyan", "name_ru": "Shiyan", "tz": "Asia/Shanghai", "district": ""}, {"id": 654, "name": "Tumen", "name_ru": "Tumen", "tz": "Asia/Shanghai", "district": "Jilin"}, {"id": 655, "name": "Jizhou", "name_ru": "Jizhou", "tz": "Asia/Shanghai", "district": "Hebei"}, {"id": 656, "name": "Fugu", "name_ru": "Fugu", "tz": "Asia/Shanghai", "district": "Shaanxi"}, {"id": 657, "name": "Zhaxi", "name_ru": "Zhaxi", "tz": "Asia/Shanghai", "district": "Yunnan"}, {"id": 658, "name": "Gexianzhuang", "name_ru": "Gexianzhuang", "tz": "Asia/Shanghai", "district": "Hebei"}, {"id": 659, "name": "Longtian", "name_ru": "Longtian", "tz": "Asia/Shanghai", "district": "Guangdong"}, {"id": 660, "name": "Lianhe", "name_ru": "Lianhe", "tz": "Asia/Shanghai", "district": "Heilongjiang"}, {"id": 661, "name": "Xiangcheng", "name_ru": "Xiangcheng", "tz": "Asia/Shanghai", "district": "Yunnan"}, {"id": 662, "name": "Shuixi", "name_ru": "Shuixi", "tz": "Asia/Shanghai", "district": "Guangdong"}, {"id": 663, "name": "Wuling", "name_ru": "Wuling", "tz": "Asia/Shanghai", "district": "Shanxi"}, {"id": 664, "name": "Baisha", "name_ru": "Baisha", "tz": "Asia/Shanghai", "district": "Zhejiang"}, {"id": 665, "name": "Xuqiaocun", "name_ru": "Xuqiaocun", "tz": "Asia/Shanghai", "district": "Zhejiang"}, {"id": 666, "name": "Dongsheng", "name_ru": "Dongsheng", "tz": "Asia/Shanghai", "district": "Guangdong"}, {"id": 667, "name": "Yongqing", "name_ru": "Yongqing", "tz": "Asia/Shanghai", "district": "Hebei"}, {"id": 668, "name": "Yulu", "name_ru": "Yulu", "tz": "Asia/Shanghai", "district": "Guangdong"}, {"id": 669, "name": "Huanren", "name_ru": "Huanren", "tz": "Asia/Shanghai", "district": "Liaoning"}, {"id": 670, "name": "Qiaotou", "name_ru": "Qiaotou", "tz": "Asia/Shanghai", "district": "Qinghai"}, {"id": 671, "name": "Shacheng", "name_ru": "Shacheng", "tz": "Asia/Shanghai", "district": "Hebei"}, {"id": 672, "name": "Zhijiang", "name_ru": "Zhijiang", "tz": "Asia/Shanghai", "district": "Hunan"}, {"id": 673, "name": "Heshan", "name_ru": "Heshan", "tz": "Asia/Shanghai", "district": "Guangxi"}, {"id": 674, "name": "Mazhang", "name_ru": "Mazhang", "tz": "Asia/Shanghai", "district": "Guangdong"}, {"id": 675, "name": "Tangjia", "name_ru": "Tangjia", "tz": "Asia/Shanghai", "district": "Guangdong"}, {"id": 676, "name": "Changbang", "name_ru": "Changbang", "tz": "Asia/Shanghai", "district": "Zhejiang"}, {"id": 677, "name": "Pingquan", "name_ru": "Pingquan", "tz": "Asia/Shanghai", "district": "Hebei"}, {"id": 678, "name": "Dali", "name_ru": "Dali", "tz": "Asia/Shanghai", "district": "Shaanxi"}, {"id": 679, "name": "Genhe", "name_ru": "Genhe", "tz": "Asia/Shanghai", "district": "Inner Mongolia"}, {"id": 680, "name": "Xishancun", "name_ru": "Xishancun", "tz": "Asia/Shanghai", "district": "Guangdong"}, {"id": 681, "name": "Taoyang", "name_ru": "Taoyang", "tz": "Asia/Shanghai", "district": "Gansu"}, {"id": 682, "name": "Chongshan", "name_ru": "Chongshan", "tz": "Asia/Shanghai", "district": "Hainan"}, {"id": 683, "name": "Longjiang", "name_ru": "Longjiang", "tz": "Asia/Shanghai", "district": "Heilongjiang"}, {"id": 684, "name": "Jincheng", "name_ru": "Jincheng", "tz": "Asia/Shanghai", "district": "Shanxi"}, {"id": 685, "name": "Aihua", "name_ru": "Aihua", "tz": "Asia/Shanghai", "district": "Yunnan"}, {"id": 686, "name": "Fugangcun", "name_ru": "Fugangcun", "tz": "Asia/Shanghai", "district": "Guangdong"}, {"id": 687, "name": "Yunfu", "name_ru": "Yunfu", "tz": "Asia/Shanghai", "district": "Yunnan"}, {"id": 688, "name": "Dongguazhen", "name_ru": "Dongguazhen", "tz": "Asia/Shanghai", "district": "Yunnan"}, {"id": 689, "name": "Yishi", "name_ru": "Yishi", "tz": "Asia/Shanghai", "district": "Shanxi"}, {"id": 690, "name": "Yilong", "name_ru": "Yilong", "tz": "Asia/Shanghai", "district": "Yunnan"}, {"id": 691, "name": "Houzhuang", "name_ru": "Houzhuang", "tz": "Asia/Shanghai", "district": "Shanxi"}, {"id": 692, "name": "Mengdingjie", "name_ru": "Mengdingjie", "tz": "Asia/Shanghai", "district": "Yunnan"}, {"id": 693, "name": "Hengnan", "name_ru": "Hengnan", "tz": "Asia/Shanghai", "district": "Guangdong"}, {"id": 694, "name": "Mositai", "name_ru": "Mositai", "tz": "Asia/Shanghai", "district": "Inner Mongolia"}, {"id": 695, "name": "Jingping", "name_ru": "Jingping", "tz": "Asia/Shanghai", "district": "Shanxi"}, {"id": 696, "name": "Liancheng", "name_ru": "Liancheng", "tz": "Asia/Shanghai", "district": "Yunnan"}, {"id": 697, "name": "Weifen", "name_ru": "Weifen", "tz": "Asia/Shanghai", "district": "Shanxi"}, {"id": 698, "name": "Nanxicun", "name_ru": "Nanxicun", "tz": "Asia/Shanghai", "district": "Guangdong"}, {"id": 699, "name": "Wangqing", "name_ru": "Wangqing", "tz": "Asia/Shanghai", "district": "Jilin"}, {"id": 700, "name": "Yishui", "name_ru": "Yishui", "tz": "Asia/Shanghai", "district": "Shandong"}, {"id": 701, "name": "Lingtang", "name_ru": "Lingtang", "tz": "Asia/Shanghai", "district": "Guangdong"}, {"id": 702, "name": "Fenggang", "name_ru": "Fenggang", "tz": "Asia/Shanghai", "district": "Guangdong"}, {"id": 703, "name": "Xiancun", "name_ru": "Xiancun", "tz": "Asia/Shanghai", "district": "Guangdong"}, {"id": 704, "name": "Kargilik", "name_ru": "Kargilik", "tz": "Asia/Urumqi", "district": "Xinjiang"}, {"id": 705, "name": "Tangxing", "name_ru": "Tangxing", "tz": "Asia/Shanghai", "district": "Shanxi"}, {"id": 706, "name": "Daxincun", "name_ru": "Daxincun", "tz": "Asia/Shanghai", "district": "Ningxia"}, {"id": 707, "name": "Xishancun", "name_ru": "Xishancun", "tz": "Asia/Shanghai", "district": "Guangdong"}, {"id": 708, "name": "Mingxing", "name_ru": "Mingxing", "tz": "Asia/Shanghai", "district": "Shanxi"}, {"id": 709, "name": "Huolu", "name_ru": "Huolu", "tz": "Asia/Shanghai", "district": "Hebei"}, {"id": 710, "name": "Shancheng", "name_ru": "Shancheng", "tz": "Asia/Shanghai", "district": "Shandong"}, {"id": 711, "name": "Jinsha", "name_ru": "Jinsha", "tz": "Asia/Shanghai", "district": "Guangdong"}, {"id": 712, "name": "Longkoucun", "name_ru": "Longkoucun", "tz": "Asia/Shanghai", "district": "Guangdong"}, {"id": 713, "name": "Karakax", "name_ru": "Karakax", "tz": "Asia/Urumqi", "district": "Xinjiang"}, {"id": 714, "name": "Jinxing", "name_ru": "Jinxing", "tz": "Asia/Shanghai", "district": "Ningxia"}, {"id": 715, "name": "Lechang", "name_ru": "Lechang", "tz": "Asia/Shanghai", "district": "Shanxi"}, {"id": 716, "name": "Suileng", "name_ru": "Suileng", "tz": "Asia/Shanghai", "district": "Heilongjiang"}, {"id": 717, "name": "Longxing", "name_ru": "Longxing", "tz": "Asia/Shanghai", "district": "Shanxi"}, {"id": 718, "name": "Liuhu", "name_ru": "Liuhu", "tz": "Asia/Shanghai", "district": "Gansu"}, {"id": 719, "name": "Gutao", "name_ru": "Gutao", "tz": "Asia/Shanghai", "district": "Shanxi"}, {"id": 720, "name": "Guozhen", "name_ru": "Guozhen", "tz": "Asia/Shanghai", "district": "Shaanxi"}, {"id": 721, "name": "Yuchengcun", "name_ru": "Yuchengcun", "tz": "Asia/Shanghai", "district": "Guangdong"}, {"id": 722, "name": "Daijiazhuang", "name_ru": "Daijiazhuang", "tz": "Asia/Shanghai", "district": "Hebei"}, {"id": 723, "name": "Donggangli", "name_ru": "Donggangli", "tz": "Asia/Shanghai", "district": "Hebei"}, {"id": 724, "name": "Matoupu", "name_ru": "Matoupu", "tz": "Asia/Shanghai", "district": "Hebei"}, {"id": 725, "name": "Shengli", "name_ru": "Shengli", "tz": "Asia/Shanghai", "district": "Ningxia"}, {"id": 726, "name": "Shangzhuangcun", "name_ru": "Shangzhuangcun", "tz": "Asia/Shanghai", "district": "Guangdong"}, {"id": 727, "name": "Yihezhuang", "name_ru": "Yihezhuang", "tz": "Asia/Shanghai", "district": "Hebei"}, {"id": 728, "name": "Beidaying", "name_ru": "Beidaying", "tz": "Asia/Shanghai", "district": "Hebei"}, {"id": 729, "name": "Zhaoyu", "name_ru": "Zhaoyu", "tz": "Asia/Shanghai", "district": "Shanxi"}, {"id": 730, "name": "Dongta", "name_ru": "Dongta", "tz": "Asia/Shanghai", "district": "Ningxia"}, {"id": 731, "name": "Xingangli", "name_ru": "Xingangli", "tz": "Asia/Shanghai", "district": "Hebei"}, {"id": 732, "name": "Fengdeng", "name_ru": "Fengdeng", "tz": "Asia/Shanghai", "district": "Ningxia"}, {"id": 733, "name": "Fulin", "name_ru": "Fulin", "tz": "Asia/Shanghai", "district": "Sichuan"}, {"id": 734, "name": "Xiongzhou", "name_ru": "Xiongzhou", "tz": "Asia/Shanghai", "district": "Hebei"}, {"id": 735, "name": "Xiegang", "name_ru": "Xiegang", "tz": "Asia/Shanghai", "district": "Guangdong"}, {"id": 736, "name": "Fengning", "name_ru": "Fengning", "tz": "Asia/Shanghai", "district": "Hebei"}, {"id": 737, "name": "Fanyang", "name_ru": "Fanyang", "tz": "Asia/Shanghai", "district": "Anhui"}, {"id": 738, "name": "Wujiaqu", "name_ru": "Wujiaqu", "tz": "Asia/Urumqi", "district": "Xinjiang"}, {"id": 739, "name": "Longquan", "name_ru": "Longquan", "tz": "Asia/Shanghai", "district": "Shanxi"}, {"id": 740, "name": "Longkeng", "name_ru": "Longkeng", "tz": "Asia/Shanghai", "district": "Guangdong"}, {"id": 741, "name": "Jinbi", "name_ru": "Jinbi", "tz": "Asia/Shanghai", "district": "Yunnan"}, {"id": 742, "name": "Xiluodu", "name_ru": "Xiluodu", "tz": "Asia/Shanghai", "district": "Yunnan"}, {"id": 743, "name": "Boli", "name_ru": "Boli", "tz": "Asia/Shanghai", "district": "Heilongjiang"}, {"id": 744, "name": "Yi Xian", "name_ru": "Yi Xian", "tz": "Asia/Shanghai", "district": "Hebei"}, {"id": 745, "name": "Jinshan", "name_ru": "Jinshan", "tz": "Asia/Shanghai", "district": "Yunnan"}, {"id": 746, "name": "Bayan Hot", "name_ru": "Bayan Hot", "tz": "Asia/Shanghai", "district": "Inner Mongolia"}, {"id": 747, "name": "Wangjia", "name_ru": "Wangjia", "tz": "Asia/Shanghai", "district": "Zhejiang"}, {"id": 748, "name": "Yunnanyi", "name_ru": "Yunnanyi", "tz": "Asia/Shanghai", "district": "Yunnan"}, {"id": 749, "name": "Linquan", "name_ru": "Linquan", "tz": "Asia/Shanghai", "district": "Shanxi"}, {"id": 750, "name": "Laiyuan", "name_ru": "Laiyuan", "tz": "Asia/Shanghai", "district": "Hebei"}, {"id": 751, "name": "Weiyuan", "name_ru": "Weiyuan", "tz": "Asia/Shanghai", "district": "Yunnan"}, {"id": 752, "name": "Julu", "name_ru": "Julu", "tz": "Asia/Shanghai", "district": "Hebei"}, {"id": 753, "name": "Hezuo", "name_ru": "Hezuo", "tz": "Asia/Shanghai", "district": "Gansu"}, {"id": 754, "name": "Leping", "name_ru": "Leping", "tz": "Asia/Shanghai", "district": "Shanxi"}, {"id": 755, "name": "Qiantangcun", "name_ru": "Qiantangcun", "tz": "Asia/Shanghai", "district": "Guangdong"}, {"id": 756, "name": "Dongchuan", "name_ru": "Dongchuan", "tz": "Asia/Shanghai", "district": "Yunnan"}, {"id": 757, "name": "Pingyuanjie", "name_ru": "Pingyuanjie", "tz": "Asia/Shanghai", "district": "Yunnan"}, {"id": 758, "name": "Changting", "name_ru": "Changting", "tz": "Asia/Shanghai", "district": "Fujian"}, {"id": 759, "name": "Leshou", "name_ru": "Leshou", "tz": "Asia/Shanghai", "district": "Hebei"}, {"id": 760, "name": "Heyunkeng", "name_ru": "Heyunkeng", "tz": "Asia/Shanghai", "district": "Guangdong"}, {"id": 761, "name": "Wulan", "name_ru": "Wulan", "tz": "Asia/Shanghai", "district": "Gansu"}, {"id": 762, "name": "Menglang", "name_ru": "Menglang", "tz": "Asia/Shanghai", "district": "Yunnan"}, {"id": 763, "name": "Dingcheng", "name_ru": "Dingcheng", "tz": "Asia/Shanghai", "district": "Hainan"}, {"id": 764, "name": "Tuncheng", "name_ru": "Tuncheng", "tz": "Asia/Shanghai", "district": "Hainan"}, {"id": 765, "name": "Yaofeng", "name_ru": "Yaofeng", "tz": "Asia/Shanghai", "district": "Shanxi"}, {"id": 766, "name": "Ducheng", "name_ru": "Ducheng", "tz": "Asia/Shanghai", "district": "Guangdong"}, {"id": 767, "name": "Shaoshanzhan", "name_ru": "Shaoshanzhan", "tz": "Asia/Shanghai", "district": "Hunan"}, {"id": 768, "name": "Longchuan", "name_ru": "Longchuan", "tz": "Asia/Shanghai", "district": "Yunnan"}, {"id": 769, "name": "Longhua", "name_ru": "Longhua", "tz": "Asia/Shanghai", "district": "Hebei"}, {"id": 770, "name": "Luancheng", "name_ru": "Luancheng", "tz": "Asia/Shanghai", "district": "Hebei"}, {"id": 771, "name": "Korgas", "name_ru": "Korgas", "tz": "Asia/Urumqi", "district": "Xinjiang"}, {"id": 772, "name": "Nantingcun", "name_ru": "Nantingcun", "tz": "Asia/Shanghai", "district": "Guangdong"}, {"id": 773, "name": "Wutiancun", "name_ru": "Wutiancun", "tz": "Asia/Shanghai", "district": "Guangdong"}, {"id": 774, "name": "Wuyi", "name_ru": "Wuyi", "tz": "Asia/Shanghai", "district": "Hebei"}, {"id": 775, "name": "Xiedian", "name_ru": "Xiedian", "tz": "Asia/Shanghai", "district": "Shanxi"}, {"id": 776, "name": "Kongjiazhuang", "name_ru": "Kongjiazhuang", "tz": "Asia/Shanghai", "district": "Hebei"}, {"id": 777, "name": "Hengkou", "name_ru": "Hengkou", "tz": "Asia/Shanghai", "district": "Shaanxi"}, {"id": 778, "name": "Xindian", "name_ru": "Xindian", "tz": "Asia/Shanghai", "district": "Yunnan"}, {"id": 779, "name": "Shuibian", "name_ru": "Shuibian", "tz": "Asia/Shanghai", "district": "Guangdong"}, {"id": 780, "name": "Yanggao", "name_ru": "Yanggao", "tz": "Asia/Shanghai", "district": "Guangdong"}, {"id": 781, "name": "Shiji", "name_ru": "Shiji", "tz": "Asia/Shanghai", "district": "Guangdong"}, {"id": 782, "name": "Koktokay", "name_ru": "Koktokay", "tz": "Asia/Urumqi", "district": "Xinjiang"}, {"id": 783, "name": "Mabai", "name_ru": "Mabai", "tz": "Asia/Shanghai", "district": "Yunnan"}, {"id": 784, "name": "Jinhe", "name_ru": "Jinhe", "tz": "Asia/Shanghai", "district": "Yunnan"}, {"id": 785, "name": "Jiangna", "name_ru": "Jiangna", "tz": "Asia/Shanghai", "district": "Yunnan"}, {"id": 786, "name": "Pingyi", "name_ru": "Pingyi", "tz": "Asia/Shanghai", "district": "Shandong"}, {"id": 787, "name": "Hengbei", "name_ru": "Hengbei", "tz": "Asia/Shanghai", "district": "Guangdong"}, {"id": 788, "name": "Chengbin", "name_ru": "Chengbin", "tz": "Asia/Shanghai", "district": "Hainan"}, {"id": 789, "name": "Linkou", "name_ru": "Linkou", "tz": "Asia/Shanghai", "district": "Heilongjiang"}, {"id": 790, "name": "Funing", "name_ru": "Funing", "tz": "Asia/Shanghai", "district": "Hebei"}, {"id": 791, "name": "Daying", "name_ru": "Daying", "tz": "Asia/Shanghai", "district": "Hebei"}, {"id": 792, "name": "Dongguan", "name_ru": "Dongguan", "tz": "Asia/Shanghai", "district": "Shanxi"}, {"id": 793, "name": "E'erguna", "name_ru": "E’erguna", "tz": "Asia/Shanghai", "district": "Inner Mongolia"}, {"id": 794, "name": "Fancheng", "name_ru": "Fancheng", "tz": "Asia/Shanghai", "district": "Shanxi"}, {"id": 795, "name": "Tailai", "name_ru": "Tailai", "tz": "Asia/Shanghai", "district": "Heilongjiang"}, {"id": 796, "name": "Longquan", "name_ru": "Longquan", "tz": "Asia/Shanghai", "district": "Zhejiang"}, {"id": 797, "name": "Xinglong", "name_ru": "Xinglong", "tz": "Asia/Shanghai", "district": "Hebei"}, {"id": 798, "name": "Zhongcheng", "name_ru": "Zhongcheng", "tz": "Asia/Shanghai", "district": "Yunnan"}, {"id": 799, "name": "Puqiancun", "name_ru": "Puqiancun", "tz": "Asia/Shanghai", "district": "Guangdong"}, {"id": 800, "name": "Tongye", "name_ru": "Tongye", "tz": "Asia/Shanghai", "district": "Hebei"}, {"id": 801, "name": "Chaigoubu", "name_ru": "Chaigoubu", "tz": "Asia/Shanghai", "district": "Hebei"}, {"id": 802, "name": "Jingzhou", "name_ru": "Jingzhou", "tz": "Asia/Shanghai", "district": "Hebei"}, {"id": 803, "name": "Lanxi", "name_ru": "Lanxi", "tz": "Asia/Shanghai", "district": "Heilongjiang"}, {"id": 804, "name": "Zhuolu", "name_ru": "Zhuolu", "tz": "Asia/Shanghai", "district": "Hebei"}, {"id": 805, "name": "Wenping", "name_ru": "Wenping", "tz": "Asia/Shanghai", "district": "Yunnan"}, {"id": 806, "name": "Xiangjiaba", "name_ru": "Xiangjiaba", "tz": "Asia/Shanghai", "district": "Yunnan"}, {"id": 807, "name": "Keshan", "name_ru": "Keshan", "tz": "Asia/Shanghai", "district": "Heilongjiang"}, {"id": 808, "name": "Yinying", "name_ru": "Yinying", "tz": "Asia/Shanghai", "district": "Shanxi"}, {"id": 809, "name": "Baiquan", "name_ru": "Baiquan", "tz": "Asia/Shanghai", "district": "Heilongjiang"}, {"id": 810, "name": "Pan'an", "name_ru": "Pan’an", "tz": "Asia/Shanghai", "district": "Gansu"}, {"id": 811, "name": "Guzhou", "name_ru": "Guzhou", "tz": "Asia/Shanghai", "district": "Guizhou"}, {"id": 812, "name": "Rongcheng", "name_ru": "Rongcheng", "tz": "Asia/Shanghai", "district": "Hebei"}, {"id": 813, "name": "Zhanggu", "name_ru": "Zhanggu", "tz": "Asia/Shanghai", "district": "Sichuan"}, {"id": 814, "name": "Fanzhuang", "name_ru": "Fanzhuang", "tz": "Asia/Shanghai", "district": "Hebei"}, {"id": 815, "name": "Shangchuankou", "name_ru": "Shangchuankou", "tz": "Asia/Shanghai", "district": "Qinghai"}, {"id": 816, "name": "Qingquan", "name_ru": "Qingquan", "tz": "Asia/Shanghai", "district": "Gansu"}, {"id": 817, "name": "Yitiaoshan", "name_ru": "Yitiaoshan", "tz": "Asia/Shanghai", "district": "Gansu"}, {"id": 818, "name": "Yanghe", "name_ru": "Yanghe", "tz": "Asia/Shanghai", "district": "Ningxia"}, {"id": 819, "name": "Liuhe", "name_ru": "Liuhe", "tz": "Asia/Shanghai", "district": "Jilin"}, {"id": 820, "name": "Huishi", "name_ru": "Huishi", "tz": "Asia/Shanghai", "district": "Gansu"}, {"id": 821, "name": "Chengjiao Chengguanzhen", "name_ru": "Chengjiao Chengguanzhen", "tz": "Asia/Shanghai", "district": "Gansu"}, {"id": 822, "name": "Xinhua", "name_ru": "Xinhua", "tz": "Asia/Shanghai", "district": "Yunnan"}, {"id": 823, "name": "Wanzhuang", "name_ru": "Wanzhuang", "tz": "Asia/Shanghai", "district": "Hebei"}, {"id": 824, "name": "Zanhuang", "name_ru": "Zanhuang", "tz": "Asia/Shanghai", "district": "Hebei"}, {"id": 825, "name": "Longshan", "name_ru": "Longshan", "tz": "Asia/Shanghai", "district": "Guizhou"}, {"id": 826, "name": "Yuquan", "name_ru": "Yuquan", "tz": "Asia/Shanghai", "district": "Shanxi"}, {"id": 827, "name": "Lushar", "name_ru": "Lushar", "tz": "Asia/Shanghai", "district": "Qinghai"}, {"id": 828, "name": "Guangping", "name_ru": "Guangping", "tz": "Asia/Shanghai", "district": "Hebei"}, {"id": 829, "name": "Weiyuan", "name_ru": "Weiyuan", "tz": "Asia/Shanghai", "district": "Qinghai"}, {"id": 830, "name": "Qarqan", "name_ru": "Qarqan", "tz": "Asia/Urumqi", "district": "Xinjiang"}, {"id": 831, "name": "Huinan", "name_ru": "Huinan", "tz": "Asia/Shanghai", "district": "Jilin"}, {"id": 832, "name": "Xieqiaocun", "name_ru": "Xieqiaocun", "tz": "Asia/Shanghai", "district": "Zhejiang"}, {"id": 833, "name": "Huquan", "name_ru": "Huquan", "tz": "Asia/Shanghai", "district": "Shanxi"}, {"id": 834, "name": "Xibang", "name_ru": "Xibang", "tz": "Asia/Shanghai", "district": "Jiangsu"}, {"id": 835, "name": "Qinggang", "name_ru": "Qinggang", "tz": "Asia/Shanghai", "district": "Heilongjiang"}, {"id": 836, "name": "Lingshou", "name_ru": "Lingshou", "tz": "Asia/Shanghai", "district": "Hebei"}, {"id": 837, "name": "Bamei", "name_ru": "Bamei", "tz": "Asia/Shanghai", "district": "Yunnan"}, {"id": 838, "name": "Kangbao", "name_ru": "Kangbao", "tz": "Asia/Shanghai", "district": "Hebei"}, {"id": 839, "name": "Yangqingcun", "name_ru": "Yangqingcun", "tz": "Asia/Shanghai", "district": "Guangdong"}, {"id": 840, "name": "Wenxicun", "name_ru": "Wenxicun", "tz": "Asia/Shanghai", "district": "Zhejiang"}, {"id": 841, "name": "Shangtangcun", "name_ru": "Shangtangcun", "tz": "Asia/Shanghai", "district": "Guangdong"}, {"id": 842, "name": "Meihua", "name_ru": "Meihua", "tz": "Asia/Shanghai", "district": "Hebei"}, {"id": 843, "name": "Xinmin", "name_ru": "Xinmin", "tz": "Asia/Shanghai", "district": "Shaanxi"}, {"id": 844, "name": "Yongyang", "name_ru": "Yongyang", "tz": "Asia/Shanghai", "district": "Guizhou"}, {"id": 845, "name": "Shihe", "name_ru": "Shihe", "tz": "Asia/Shanghai", "district": "Shanxi"}, {"id": 846, "name": "Dongcun", "name_ru": "Dongcun", "tz": "Asia/Shanghai", "district": "Shanxi"}, {"id": 847, "name": "Yongbei", "name_ru": "Yongbei", "tz": "Asia/Shanghai", "district": "Yunnan"}, {"id": 848, "name": "Lianzhuang", "name_ru": "Lianzhuang", "tz": "Asia/Shanghai", "district": "Hebei"}, {"id": 849, "name": "Suifenhe", "name_ru": "Suifenhe", "tz": "Asia/Shanghai", "district": "Heilongjiang"}, {"id": 850, "name": "Huajiang", "name_ru": "Huajiang", "tz": "Asia/Shanghai", "district": "Guizhou"}, {"id": 851, "name": "Zhoujiajing", "name_ru": "Zhoujiajing", "tz": "Asia/Shanghai", "district": "Jiangsu"}, {"id": 852, "name": "Gannan", "name_ru": "Gannan", "tz": "Asia/Shanghai", "district": "Heilongjiang"}, {"id": 853, "name": "Tianningcun", "name_ru": "Tianningcun", "tz": "Asia/Shanghai", "district": "Zhejiang"}, {"id": 854, "name": "Zengcun", "name_ru": "Zengcun", "tz": "Asia/Shanghai", "district": "Hebei"}, {"id": 855, "name": "Xikeng", "name_ru": "Xikeng", "tz": "Asia/Shanghai", "district": "Guangdong"}, {"id": 856, "name": "Wuyang", "name_ru": "Wuyang", "tz": "Asia/Shanghai", "district": "Guizhou"}, {"id": 857, "name": "Sucun", "name_ru": "Sucun", "tz": "Asia/Shanghai", "district": "Anhui"}, {"id": 858, "name": "Yanguancun", "name_ru": "Yanguancun", "tz": "Asia/Shanghai", "district": "Zhejiang"}, {"id": 859, "name": "Sunshi", "name_ru": "Sunshi", "tz": "Asia/Shanghai", "district": "Hebei"}, {"id": 860, "name": "Ma'erkang", "name_ru": "Ma’erkang", "tz": "Asia/Shanghai", "district": "Sichuan"}, {"id": 861, "name": "Jiantang", "name_ru": "Jiantang", "tz": "Asia/Shanghai", "district": "Yunnan"}, {"id": 862, "name": "Huaniu", "name_ru": "Huaniu", "tz": "Asia/Shanghai", "district": "Gansu"}, {"id": 863, "name": "Gengzhuangqiao", "name_ru": "Gengzhuangqiao", "tz": "Asia/Shanghai", "district": "Hebei"}, {"id": 864, "name": "Xiezhou", "name_ru": "Xiezhou", "tz": "Asia/Shanghai", "district": "Shanxi"}, {"id": 865, "name": "Ping'an", "name_ru": "Ping’an", "tz": "Asia/Shanghai", "district": "Qinghai"}, {"id": 866, "name": "Qianwu", "name_ru": "Qianwu", "tz": "Asia/Shanghai", "district": "Guangdong"}, {"id": 867, "name": "Shicun", "name_ru": "Shicun", "tz": "Asia/Shanghai", "district": "Hebei"}, {"id": 868, "name": "Chini", "name_ru": "Chini", "tz": "Asia/Shanghai", "district": "Guangdong"}, {"id": 869, "name": "Mengla", "name_ru": "Mengla", "tz": "Asia/Shanghai", "district": "Yunnan"}, {"id": 870, "name": "Cui'erzhuang", "name_ru": "Cui’erzhuang", "tz": "Asia/Shanghai", "district": "Hebei"}, {"id": 871, "name": "Bianyang", "name_ru": "Bianyang", "tz": "Asia/Shanghai", "district": "Guizhou"}, {"id": 872, "name": "Xinqing", "name_ru": "Xinqing", "tz": "Asia/Shanghai", "district": "Heilongjiang"}, {"id": 873, "name": "Longmen", "name_ru": "Longmen", "tz": "Asia/Shanghai", "district": "Shaanxi"}, {"id": 874, "name": "Yongqing", "name_ru": "Yongqing", "tz": "Asia/Shanghai", "district": "Gansu"}, {"id": 875, "name": "Wangguanzhuang", "name_ru": "Wangguanzhuang", "tz": "Asia/Shanghai", "district": "Hebei"}, {"id": 876, "name": "Changling", "name_ru": "Changling", "tz": "Asia/Shanghai", "district": "Jilin"}, {"id": 877, "name": "Songlindian", "name_ru": "Songlindian", "tz": "Asia/Shanghai", "district": "Hebei"}, {"id": 878, "name": "Huaishu", "name_ru": "Huaishu", "tz": "Asia/Shanghai", "district": "Hebei"}, {"id": 879, "name": "Mali", "name_ru": "Mali", "tz": "Asia/Shanghai", "district": "Yunnan"}, {"id": 880, "name": "Xielu", "name_ru": "Xielu", "tz": "Asia/Shanghai", "district": "Hebei"}, {"id": 881, "name": "Jinchang", "name_ru": "Jinchang", "tz": "Asia/Shanghai", "district": "Shanxi"}, {"id": 882, "name": "Dayin", "name_ru": "Dayin", "tz": "Asia/Shanghai", "district": "Hebei"}, {"id": 883, "name": "Shidong", "name_ru": "Shidong", "tz": "Asia/Shanghai", "district": "Guangdong"}, {"id": 884, "name": "Qingan", "name_ru": "Qingan", "tz": "Asia/Shanghai", "district": "Heilongjiang"}, {"id": 885, "name": "Xingcheng", "name_ru": "Xingcheng", "tz": "Asia/Shanghai", "district": "Hebei"}, {"id": 886, "name": "Zhangjiazhuang", "name_ru": "Zhangjiazhuang", "tz": "Asia/Shanghai", "district": "Hebei"}, {"id": 887, "name": "Yangmei", "name_ru": "Yangmei", "tz": "Asia/Shanghai", "district": "Guangdong"}, {"id": 888, "name": "Xincheng", "name_ru": "Xincheng", "tz": "Asia/Shanghai", "district": "Shanxi"}, {"id": 889, "name": "Yaozhuangcun", "name_ru": "Yaozhuangcun", "tz": "Asia/Shanghai", "district": "Zhejiang"}, {"id": 890, "name": "Huaiyang", "name_ru": "Huaiyang", "tz": "Asia/Shanghai", "district": "Hebei"}, {"id": 891, "name": "Qabqa", "name_ru": "Qabqa", "tz": "Asia/Shanghai", "district": "Qinghai"}, {"id": 892, "name": "Wangjiazhai", "name_ru": "Wangjiazhai", "tz": "Asia/Shanghai", "district": "Guizhou"}, {"id": 893, "name": "Shimencun", "name_ru": "Shimencun", "tz": "Asia/Shanghai", "district": "Zhejiang"}, {"id": 894, "name": "Huazangsi", "name_ru": "Huazangsi", "tz": "Asia/Shanghai", "district": "Gansu"}, {"id": 895, "name": "Zhexiang", "name_ru": "Zhexiang", "tz": "Asia/Shanghai", "district": "Yunnan"}, {"id": 896, "name": "Douyu", "name_ru": "Douyu", "tz": "Asia/Shanghai", "district": "Hebei"}, {"id": 897, "name": "Fangcun", "name_ru": "Fangcun", "tz": "Asia/Shanghai", "district": "Hebei"}, {"id": 898, "name": "Longwan", "name_ru": "Longwan", "tz": "Asia/Shanghai", "district": "Hebei"}, {"id": 899, "name": "Qinhe", "name_ru": "Qinhe", "tz": "Asia/Shanghai", "district": "Shanxi"}, {"id": 900, "name": "Baicheng", "name_ru": "Baicheng", "tz": "Asia/Urumqi", "district": "Xinjiang"}, {"id": 901, "name": "Huanghuajie", "name_ru": "Huanghuajie", "tz": "Asia/Shanghai", "district": "Yunnan"}, {"id": 902, "name": "Nanjian", "name_ru": "Nanjian", "tz": "Asia/Shanghai", "district": "Yunnan"}, {"id": 903, "name": "Xiazhai", "name_ru": "Xiazhai", "tz": "Asia/Shanghai", "district": "Guizhou"}, {"id": 904, "name": "Lindong", "name_ru": "Lindong", "tz": "Asia/Shanghai", "district": "Inner Mongolia"}, {"id": 905, "name": "Shankou", "name_ru": "Shankou", "tz": "Asia/Shanghai", "district": "Guangdong"}, {"id": 906, "name": "Nenjiang", "name_ru": "Nenjiang", "tz": "Asia/Shanghai", "district": "Heilongjiang"}, {"id": 907, "name": "Jiuzhou", "name_ru": "Jiuzhou", "tz": "Asia/Shanghai", "district": "Hebei"}, {"id": 908, "name": "Zongshizhuang", "name_ru": "Zongshizhuang", "tz": "Asia/Shanghai", "district": "Hebei"}, {"id": 909, "name": "Liujiaxia", "name_ru": "Liujiaxia", "tz": "Asia/Shanghai", "district": "Gansu"}, {"id": 910, "name": "Wofotang", "name_ru": "Wofotang", "tz": "Asia/Shanghai", "district": "Hebei"}, {"id": 911, "name": "Jiashizhuang", "name_ru": "Jiashizhuang", "tz": "Asia/Shanghai", "district": "Hebei"}, {"id": 912, "name": "Donglizhuang", "name_ru": "Donglizhuang", "tz": "Asia/Shanghai", "district": "Hebei"}, {"id": 913, "name": "Yong'an", "name_ru": "Yong’an", "tz": "Asia/Shanghai", "district": "Chongqing"}, {"id": 914, "name": "Dongshan", "name_ru": "Dongshan", "tz": "Asia/Shanghai", "district": "Guangdong"}, {"id": 915, "name": "Longtoushan Jiezi", "name_ru": "Longtoushan Jiezi", "tz": "Asia/Shanghai", "district": "Yunnan"}, {"id": 916, "name": "Pangkou", "name_ru": "Pangkou", "tz": "Asia/Shanghai", "district": "Hebei"}, {"id": 917, "name": "Zhujiacun", "name_ru": "Zhujiacun", "tz": "Asia/Shanghai", "district": "Yunnan"}, {"id": 918, "name": "Yongping", "name_ru": "Yongping", "tz": "Asia/Shanghai", "district": "Shaanxi"}, {"id": 919, "name": "Mengmeng", "name_ru": "Mengmeng", "tz": "Asia/Shanghai", "district": "Yunnan"}, {"id": 920, "name": "Yecun", "name_ru": "Yecun", "tz": "Asia/Shanghai", "district": "Shaanxi"}, {"id": 921, "name": "Jitaicun", "name_ru": "Jitaicun", "tz": "Asia/Shanghai", "district": "Hebei"}, {"id": 922, "name": "Qingyuan", "name_ru": "Qingyuan", "tz": "Asia/Shanghai", "district": "Guangxi"}, {"id": 923, "name": "Liulin", "name_ru": "Liulin", "tz": "Asia/Shanghai", "district": "Shaanxi"}, {"id": 924, "name": "Tangdukou", "name_ru": "Tangdukou", "tz": "Asia/Shanghai", "district": "Hunan"}, {"id": 925, "name": "Daxiang", "name_ru": "Daxiang", "tz": "Asia/Shanghai", "district": "Guangdong"}, {"id": 926, "name": "Yehe", "name_ru": "Yehe", "tz": "Asia/Shanghai", "district": "Hebei"}, {"id": 927, "name": "Qiutouzhen", "name_ru": "Qiutouzhen", "tz": "Asia/Shanghai", "district": "Hebei"}, {"id": 928, "name": "Wangtan", "name_ru": "Wangtan", "tz": "Asia/Shanghai", "district": "Hebei"}, {"id": 929, "name": "Nanzhuangzhen", "name_ru": "Nanzhuangzhen", "tz": "Asia/Shanghai", "district": "Yunnan"}, {"id": 930, "name": "Yashan", "name_ru": "Yashan", "tz": "Asia/Shanghai", "district": "Guangdong"}, {"id": 931, "name": "Dongzhuosu", "name_ru": "Dongzhuosu", "tz": "Asia/Shanghai", "district": "Hebei"}, {"id": 932, "name": "Fangguan", "name_ru": "Fangguan", "tz": "Asia/Shanghai", "district": "Hebei"}, {"id": 933, "name": "Shimenzhai", "name_ru": "Shimenzhai", "tz": "Asia/Shanghai", "district": "Hebei"}, {"id": 934, "name": "Zhongzhai", "name_ru": "Zhongzhai", "tz": "Asia/Shanghai", "district": "Guizhou"}, {"id": 935, "name": "Anshan", "name_ru": "Anshan", "tz": "Asia/Shanghai", "district": "Hebei"}, {"id": 936, "name": "Xingji", "name_ru": "Xingji", "tz": "Asia/Shanghai", "district": "Hebei"}, {"id": 937, "name": "Caiguantun", "name_ru": "Caiguantun", "tz": "Asia/Shanghai", "district": "Guizhou"}, {"id": 938, "name": "Changchong", "name_ru": "Changchong", "tz": "Asia/Shanghai", "district": "Guizhou"}, {"id": 939, "name": "Xisa", "name_ru": "Xisa", "tz": "Asia/Shanghai", "district": "Yunnan"}, {"id": 940, "name": "Baiji", "name_ru": "Baiji", "tz": "Asia/Shanghai", "district": "Guizhou"}, {"id": 941, "name": "Nongzhangjie", "name_ru": "Nongzhangjie", "tz": "Asia/Shanghai", "district": "Yunnan"}, {"id": 942, "name": "Shazhou", "name_ru": "Shazhou", "tz": "Asia/Shanghai", "district": "Gansu"}, {"id": 943, "name": "Bingmei", "name_ru": "Bingmei", "tz": "Asia/Shanghai", "district": "Guizhou"}, {"id": 944, "name": "Beiwanglizhen", "name_ru": "Beiwanglizhen", "tz": "Asia/Shanghai", "district": "Hebei"}, {"id": 945, "name": "Shangshan", "name_ru": "Shangshan", "tz": "Asia/Shanghai", "district": "Guangdong"}, {"id": 946, "name": "Tangjiacun", "name_ru": "Tangjiacun", "tz": "Asia/Shanghai", "district": "Guangdong"}, {"id": 947, "name": "Liuquan", "name_ru": "Liuquan", "tz": "Asia/Shanghai", "district": "Hebei"}, {"id": 948, "name": "Yaopu", "name_ru": "Yaopu", "tz": "Asia/Shanghai", "district": "Guizhou"}, {"id": 949, "name": "Houbu", "name_ru": "Houbu", "tz": "Asia/Shanghai", "district": "Shanxi"}, {"id": 950, "name": "Yaoquan", "name_ru": "Yaoquan", "tz": "Asia/Shanghai", "district": "Gansu"}, {"id": 951, "name": "Qingfengdian", "name_ru": "Qingfengdian", "tz": "Asia/Shanghai", "district": "Hebei"}, {"id": 952, "name": "Changtoushang", "name_ru": "Changtoushang", "tz": "Asia/Shanghai", "district": "Hainan"}, {"id": 953, "name": "Tuodian", "name_ru": "Tuodian", "tz": "Asia/Shanghai", "district": "Yunnan"}, {"id": 954, "name": "Hanerik", "name_ru": "Hanerik", "tz": "Asia/Urumqi", "district": "Xinjiang"}, {"id": 955, "name": "Jinku", "name_ru": "Jinku", "tz": "Asia/Shanghai", "district": "Guangdong"}, {"id": 956, "name": "Xinjun", "name_ru": "Xinjun", "tz": "Asia/Shanghai", "district": "Zhejiang"}, {"id": 957, "name": "Menghan", "name_ru": "Menghan", "tz": "Asia/Shanghai", "district": "Yunnan"}, {"id": 958, "name": "Jiaohe", "name_ru": "Jiaohe", "tz": "Asia/Shanghai", "district": "Hebei"}, {"id": 959, "name": "Khutubi", "name_ru": "Khutubi", "tz": "Asia/Urumqi", "district": "Xinjiang"}, {"id": 960, "name": "Nandazhang", "name_ru": "Nandazhang", "tz": "Asia/Shanghai", "district": "Hebei"}, {"id": 961, "name": "Zhangliangcun", "name_ru": "Zhangliangcun", "tz": "Asia/Shanghai", "district": "Shanxi"}, {"id": 962, "name": "Xihuachi", "name_ru": "Xihuachi", "tz": "Asia/Shanghai", "district": "Gansu"}, {"id": 963, "name": "Zhangcun", "name_ru": "Zhangcun", "tz": "Asia/Shanghai", "district": "Hebei"}, {"id": 964, "name": "Wangyuanqiao", "name_ru": "Wangyuanqiao", "tz": "Asia/Shanghai", "district": "Ningxia"}, {"id": 965, "name": "Shuilou", "name_ru": "Shuilou", "tz": "Asia/Shanghai", "district": "Guangdong"}, {"id": 966, "name": "Nansan", "name_ru": "Nansan", "tz": "Asia/Shanghai", "district": "Yunnan"}, {"id": 967, "name": "Loufan", "name_ru": "Loufan", "tz": "Asia/Shanghai", "district": "Shanxi"}, {"id": 968, "name": "Shenjiatun", "name_ru": "Shenjiatun", "tz": "Asia/Shanghai", "district": "Hebei"}, {"id": 969, "name": "Dusheng", "name_ru": "Dusheng", "tz": "Asia/Shanghai", "district": "Hebei"}, {"id": 970, "name": "Cuihua", "name_ru": "Cuihua", "tz": "Asia/Shanghai", "district": "Yunnan"}, {"id": 971, "name": "Yangcunzai", "name_ru": "Yangcunzai", "tz": "Asia/Shanghai", "district": "Guangdong"}, {"id": 972, "name": "Liantang", "name_ru": "Liantang", "tz": "Asia/Shanghai", "district": "Guangdong"}, {"id": 973, "name": "Wancheng", "name_ru": "Wancheng", "tz": "Asia/Shanghai", "district": "Hebei"}, {"id": 974, "name": "Machang", "name_ru": "Machang", "tz": "Asia/Shanghai", "district": "Guizhou"}, {"id": 975, "name": "Dacun", "name_ru": "Dacun", "tz": "Asia/Shanghai", "district": "Shaanxi"}, {"id": 976, "name": "Lingquan", "name_ru": "Lingquan", "tz": "Asia/Shanghai", "district": "Shanxi"}, {"id": 977, "name": "Litian Gezhuang", "name_ru": "Litian Gezhuang", "tz": "Asia/Shanghai", "district": "Hebei"}, {"id": 978, "name": "Xinleitou", "name_ru": "Xinleitou", "tz": "Asia/Shanghai", "district": "Hebei"}, {"id": 979, "name": "Yinggen", "name_ru": "Yinggen", "tz": "Asia/Shanghai", "district": "Hainan"}, {"id": 980, "name": "Nanbaishezhen", "name_ru": "Nanbaishezhen", "tz": "Asia/Shanghai", "district": "Hebei"}, {"id": 981, "name": "Nanmeng", "name_ru": "Nanmeng", "tz": "Asia/Shanghai", "district": "Hebei"}, {"id": 982, "name": "Yangtangxu", "name_ru": "Yangtangxu", "tz": "Asia/Shanghai", "district": "Guangdong"}, {"id": 983, "name": "Gaolincun", "name_ru": "Gaolincun", "tz": "Asia/Shanghai", "district": "Hebei"}, {"id": 984, "name": "Baichigan", "name_ru": "Baichigan", "tz": "Asia/Shanghai", "district": "Hebei"}, {"id": 985, "name": "Tanxia", "name_ru": "Tanxia", "tz": "Asia/Shanghai", "district": "Guangdong"}, {"id": 986, "name": "Tiegan", "name_ru": "Tiegan", "tz": "Asia/Shanghai", "district": "Hebei"}, {"id": 987, "name": "Anyuan", "name_ru": "Anyuan", "tz": "Asia/Shanghai", "district": "Gansu"}, {"id": 988, "name": "Yingzhou Linchang", "name_ru": "Yingzhou Linchang", "tz": "Asia/Shanghai", "district": "Hainan"}, {"id": 989, "name": "Shanhe", "name_ru": "Shanhe", "tz": "Asia/Shanghai", "district": "Gansu"}, {"id": 990, "name": "Taicheng", "name_ru": "Taicheng", "tz": "Asia/Shanghai", "district": "Shanxi"}, {"id": 991, "name": "Zhujiezhen", "name_ru": "Zhujiezhen", "tz": "Asia/Shanghai", "district": "Yunnan"}, {"id": 992, "name": "Yian", "name_ru": "Yian", "tz": "Asia/Shanghai", "district": "Heilongjiang"}, {"id": 993, "name": "Longtang", "name_ru": "Longtang", "tz": "Asia/Shanghai", "district": "Guizhou"}, {"id": 994, "name": "Oroqen Zizhiqi", "name_ru": "Oroqen Zizhiqi", "tz": "Asia/Shanghai", "district": "Inner Mongolia"}, {"id": 995, "name": "Zhongbai", "name_ru": "Zhongbai", "tz": "Asia/Shanghai", "district": "Guizhou"}, {"id": 996, "name": "Alashankou", "name_ru": "Alashankou", "tz": "Asia/Urumqi", "district": "Xinjiang"}, {"id": 997, "name": "Jiaozishan", "name_ru": "Jiaozishan", "tz": "Asia/Shanghai", "district": "Guizhou"}, {"id": 998, "name": "Xinlizhuang", "name_ru": "Xinlizhuang", "tz": "Asia/Shanghai", "district": "Hebei"}, {"id": 999, "name": "Weibo", "name_ru": "Weibo", "tz": "Asia/Shanghai", "district": "Hebei"}, {"id": 1000, "name": "Tianchang", "name_ru": "Tianchang", "tz": "Asia/Shanghai", "district": "Hebei"}, {"id": 1001, "name": "Sanjiang", "name_ru": "Sanjiang", "tz": "Asia/Shanghai", "district": "Guangdong"}, {"id": 1002, "name": "Yangfang", "name_ru": "Yangfang", "tz": "Asia/Shanghai", "district": "Hebei"}, {"id": 1003, "name": "Niutuo", "name_ru": "Niutuo", "tz": "Asia/Shanghai", "district": "Hebei"}, {"id": 1004, "name": "Shijiazhuangnan", "name_ru": "Shijiazhuangnan", "tz": "Asia/Shanghai", "district": "Hebei"}, {"id": 1005, "name": "Sungandiancun", "name_ru": "Sungandiancun", "tz": "Asia/Shanghai", "district": "Hebei"}, {"id": 1006, "name": "Xiwanzi", "name_ru": "Xiwanzi", "tz": "Asia/Shanghai", "district": "Hebei"}, {"id": 1007, "name": "Changchunpu", "name_ru": "Changchunpu", "tz": "Asia/Shanghai", "district": "Guizhou"}, {"id": 1008, "name": "Bayan", "name_ru": "Bayan", "tz": "Asia/Shanghai", "district": "Qinghai"}, {"id": 1009, "name": "Xiaguanying", "name_ru": "Xiaguanying", "tz": "Asia/Shanghai", "district": "Gansu"}, {"id": 1010, "name": "Lanyi", "name_ru": "Lanyi", "tz": "Asia/Shanghai", "district": "Shanxi"}, {"id": 1011, "name": "Monan", "name_ru": "Monan", "tz": "Asia/Shanghai", "district": "Hebei"}, {"id": 1012, "name": "Siyang", "name_ru": "Siyang", "tz": "Asia/Shanghai", "district": "Guizhou"}, {"id": 1013, "name": "Yanqi", "name_ru": "Yanqi", "tz": "Asia/Urumqi", "district": "Xinjiang"}, {"id": 1014, "name": "Dengtangcun", "name_ru": "Dengtangcun", "tz": "Asia/Shanghai", "district": "Guangdong"}, {"id": 1015, "name": "Xinpo", "name_ru": "Xinpo", "tz": "Asia/Shanghai", "district": "Guangdong"}, {"id": 1016, "name": "Xinqiao", "name_ru": "Xinqiao", "tz": "Asia/Shanghai", "district": "Hebei"}, {"id": 1017, "name": "Yamen", "name_ru": "Yamen", "tz": "Asia/Shanghai", "district": "Guangdong"}, {"id": 1018, "name": "Sanchahe", "name_ru": "Sanchahe", "tz": "Asia/Shanghai", "district": "Ningxia"}, {"id": 1019, "name": "Dajiecun", "name_ru": "Dajiecun", "tz": "Asia/Shanghai", "district": "Hebei"}, {"id": 1020, "name": "Daiyue", "name_ru": "Daiyue", "tz": "Asia/Shanghai", "district": "Shanxi"}, {"id": 1021, "name": "Jelilyuzi", "name_ru": "Jelilyüzi", "tz": "Asia/Urumqi", "district": "Xinjiang"}, {"id": 1022, "name": "Wangsicun", "name_ru": "Wangsicun", "tz": "Asia/Shanghai", "district": "Hebei"}, {"id": 1023, "name": "Shiji", "name_ru": "Shiji", "tz": "Asia/Shanghai", "district": "Guangdong"}, {"id": 1024, "name": "Fengguangcun", "name_ru": "Fengguangcun", "tz": "Asia/Shanghai", "district": "Guangdong"}, {"id": 1025, "name": "Shaxi", "name_ru": "Shaxi", "tz": "Asia/Shanghai", "district": "Guangdong"}, {"id": 1026, "name": "Pingxiangcheng", "name_ru": "Pingxiangcheng", "tz": "Asia/Shanghai", "district": "Hebei"}, {"id": 1027, "name": "Daying", "name_ru": "Daying", "tz": "Asia/Shanghai", "district": "Hebei"}, {"id": 1028, "name": "Tunzi", "name_ru": "Tunzi", "tz": "Asia/Shanghai", "district": "Gansu"}, {"id": 1029, "name": "Akto", "name_ru": "Akto", "tz": "Asia/Urumqi", "district": "Xinjiang"}, {"id": 1030, "name": "Anzhou", "name_ru": "Anzhou", "tz": "Asia/Shanghai", "district": "Hebei"}, {"id": 1031, "name": "Baishi Airikecun", "name_ru": "Baishi Airikecun", "tz": "Asia/Urumqi", "district": "Xinjiang"}, {"id": 1032, "name": "Zuojiawu", "name_ru": "Zuojiawu", "tz": "Asia/Shanghai", "district": "Hebei"}, {"id": 1033, "name": "Elixku", "name_ru": "Elixku", "tz": "Asia/Urumqi", "district": "Xinjiang"}, {"id": 1034, "name": "Dabutou", "name_ru": "Dabutou", "tz": "Asia/Shanghai", "district": "Shanxi"}, {"id": 1035, "name": "Xindian", "name_ru": "Xindian", "tz": "Asia/Shanghai", "district": "Hebei"}, {"id": 1036, "name": "Beiya", "name_ru": "Beiya", "tz": "Asia/Shanghai", "district": "Gansu"}, {"id": 1037, "name": "Yejituo", "name_ru": "Yejituo", "tz": "Asia/Shanghai", "district": "Hebei"}, {"id": 1038, "name": "Zhaoqiao", "name_ru": "Zhaoqiao", "tz": "Asia/Shanghai", "district": "Hebei"}, {"id": 1039, "name": "Wangtuan", "name_ru": "Wangtuan", "tz": "Asia/Shanghai", "district": "Ningxia"}, {"id": 1040, "name": "Danihe", "name_ru": "Danihe", "tz": "Asia/Shanghai", "district": "Hebei"}, {"id": 1041, "name": "Bulicun", "name_ru": "Bulicun", "tz": "Asia/Shanghai", "district": "Guangdong"}, {"id": 1042, "name": "Haomen", "name_ru": "Haomen", "tz": "Asia/Shanghai", "district": "Qinghai"}, {"id": 1043, "name": "Dama", "name_ru": "Dama", "tz": "Asia/Shanghai", "district": "Zhejiang"}, {"id": 1044, "name": "Pingshang", "name_ru": "Pingshang", "tz": "Asia/Shanghai", "district": "Guangdong"}, {"id": 1045, "name": "Rongwo", "name_ru": "Rongwo", "tz": "Asia/Shanghai", "district": "Qinghai"}, {"id": 1046, "name": "Zhentang", "name_ru": "Zhentang", "tz": "Asia/Shanghai", "district": "Guangdong"}, {"id": 1047, "name": "Mengdong", "name_ru": "Mengdong", "tz": "Asia/Shanghai", "district": "Yunnan"}, {"id": 1048, "name": "Lixingcun", "name_ru": "Lixingcun", "tz": "Asia/Shanghai", "district": "Guangdong"}, {"id": 1049, "name": "Tilingzhai", "name_ru": "Tilingzhai", "tz": "Asia/Shanghai", "district": "Hebei"}, {"id": 1050, "name": "Douzhuang", "name_ru": "Douzhuang", "tz": "Asia/Shanghai", "district": "Hebei"}, {"id": 1051, "name": "Nanzhiqiu", "name_ru": "Nanzhiqiu", "tz": "Asia/Shanghai", "district": "Hebei"}, {"id": 1052, "name": "Shenjiabang", "name_ru": "Shenjiabang", "tz": "Asia/Shanghai", "district": "Zhejiang"}, {"id": 1053, "name": "Jieshang", "name_ru": "Jieshang", "tz": "Asia/Shanghai", "district": "Guizhou"}, {"id": 1054, "name": "Matou", "name_ru": "Matou", "tz": "Asia/Shanghai", "district": "Hebei"}, {"id": 1055, "name": "Diaowo", "name_ru": "Diaowo", "tz": "Asia/Shanghai", "district": "Hebei"}, {"id": 1056, "name": "Guying", "name_ru": "Guying", "tz": "Asia/Shanghai", "district": "Hebei"}, {"id": 1057, "name": "Yangquan", "name_ru": "Yangquan", "tz": "Asia/Shanghai", "district": "Shanxi"}, {"id": 1058, "name": "Shangzhen", "name_ru": "Shangzhen", "tz": "Asia/Shanghai", "district": "Shaanxi"}, {"id": 1059, "name": "Zhangzhengqiao", "name_ru": "Zhangzhengqiao", "tz": "Asia/Shanghai", "district": "Ningxia"}, {"id": 1060, "name": "Songcaozhen", "name_ru": "Songcaozhen", "tz": "Asia/Shanghai", "district": "Hebei"}, {"id": 1061, "name": "Xincheng", "name_ru": "Xincheng", "tz": "Asia/Shanghai", "district": "Hebei"}, {"id": 1062, "name": "Youwangjie", "name_ru": "Youwangjie", "tz": "Asia/Shanghai", "district": "Yunnan"}, {"id": 1063, "name": "Qingyang", "name_ru": "Qingyang", "tz": "Asia/Shanghai", "district": "Shanxi"}, {"id": 1064, "name": "Datang", "name_ru": "Datang", "tz": "Asia/Shanghai", "district": "Guizhou"}, {"id": 1065, "name": "Peyziwat", "name_ru": "Peyziwat", "tz": "Asia/Urumqi", "district": "Xinjiang"}, {"id": 1066, "name": "Cishan", "name_ru": "Cishan", "tz": "Asia/Shanghai", "district": "Hebei"}, {"id": 1067, "name": "Zhaitangcun", "name_ru": "Zhaitangcun", "tz": "Asia/Shanghai", "district": "Guangdong"}, {"id": 1068, "name": "Yinchengpu", "name_ru": "Yinchengpu", "tz": "Asia/Shanghai", "district": "Hebei"}, {"id": 1069, "name": "Tekes", "name_ru": "Tekes", "tz": "Asia/Urumqi", "district": "Xinjiang"}, {"id": 1070, "name": "Xiadian", "name_ru": "Xiadian", "tz": "Asia/Shanghai", "district": "Hebei"}, {"id": 1071, "name": "Jishi", "name_ru": "Jishi", "tz": "Asia/Shanghai", "district": "Qinghai"}, {"id": 1072, "name": "Lianmuqin Kancun", "name_ru": "Lianmuqin Kancun", "tz": "Asia/Urumqi", "district": "Xinjiang"}, {"id": 1073, "name": "Zhanjia", "name_ru": "Zhanjia", "tz": "Asia/Shanghai", "district": "Shaanxi"}, {"id": 1074, "name": "Shangcaiyuan", "name_ru": "Shangcaiyuan", "tz": "Asia/Shanghai", "district": "Yunnan"}, {"id": 1075, "name": "Shaliuhe", "name_ru": "Shaliuhe", "tz": "Asia/Shanghai", "district": "Hebei"}, {"id": 1076, "name": "Huangzhuang", "name_ru": "Huangzhuang", "tz": "Asia/Shanghai", "district": "Hebei"}, {"id": 1077, "name": "Fucheng", "name_ru": "Fucheng", "tz": "Asia/Shanghai", "district": "Gansu"}, {"id": 1078, "name": "Laojiezi", "name_ru": "Laojiezi", "tz": "Asia/Shanghai", "district": "Yunnan"}, {"id": 1079, "name": "Baiyan", "name_ru": "Baiyan", "tz": "Asia/Shanghai", "district": "Guizhou"}, {"id": 1080, "name": "Yankou", "name_ru": "Yankou", "tz": "Asia/Shanghai", "district": "Guizhou"}, {"id": 1081, "name": "Beixinzhuang", "name_ru": "Beixinzhuang", "tz": "Asia/Shanghai", "district": "Hebei"}, {"id": 1082, "name": "Zangang", "name_ru": "Zangang", "tz": "Asia/Shanghai", "district": "Hebei"}, {"id": 1083, "name": "Zaojiao", "name_ru": "Zaojiao", "tz": "Asia/Shanghai", "district": "Gansu"}, {"id": 1084, "name": "Menglie", "name_ru": "Menglie", "tz": "Asia/Shanghai", "district": "Yunnan"}, {"id": 1085, "name": "Xangda", "name_ru": "Xangda", "tz": "Asia/Shanghai", "district": "Qinghai"}, {"id": 1086, "name": "Dongxianpo", "name_ru": "Dongxianpo", "tz": "Asia/Shanghai", "district": "Hebei"}, {"id": 1087, "name": "Jiming", "name_ru": "Jiming", "tz": "Asia/Shanghai", "district": "Hebei"}, {"id": 1088, "name": "Donggou", "name_ru": "Donggou", "tz": "Asia/Shanghai", "district": "Shanxi"}, {"id": 1089, "name": "Shentang", "name_ru": "Shentang", "tz": "Asia/Shanghai", "district": "Guangdong"}, {"id": 1090, "name": "Tongkou", "name_ru": "Tongkou", "tz": "Asia/Shanghai", "district": "Hebei"}, {"id": 1091, "name": "Nilka", "name_ru": "Nilka", "tz": "Asia/Urumqi", "district": "Xinjiang"}, {"id": 1092, "name": "Shahedian", "name_ru": "Shahedian", "tz": "Asia/Shanghai", "district": "Hebei"}, {"id": 1093, "name": "Fengrenxu", "name_ru": "Fengrenxu", "tz": "Asia/Shanghai", "district": "Guangdong"}, {"id": 1094, "name": "Dongmaying", "name_ru": "Dongmaying", "tz": "Asia/Shanghai", "district": "Hebei"}, {"id": 1095, "name": "Tanmen", "name_ru": "Tanmen", "tz": "Asia/Shanghai", "district": "Hainan"}, {"id": 1096, "name": "Wanghong Yidui", "name_ru": "Wanghong Yidui", "tz": "Asia/Shanghai", "district": "Ningxia"}, {"id": 1097, "name": "Huangxicun", "name_ru": "Huangxicun", "tz": "Asia/Shanghai", "district": "Guangdong"}, {"id": 1098, "name": "Yingyangcun", "name_ru": "Yingyangcun", "tz": "Asia/Shanghai", "district": "Guangxi"}, {"id": 1099, "name": "Wenxian Chengguanzhen", "name_ru": "Wenxian Chengguanzhen", "tz": "Asia/Shanghai", "district": "Gansu"}, {"id": 1100, "name": "Duanshan", "name_ru": "Duanshan", "tz": "Asia/Shanghai", "district": "Guizhou"}, {"id": 1101, "name": "Taozhuangcun", "name_ru": "Taozhuangcun", "tz": "Asia/Shanghai", "district": "Zhejiang"}, {"id": 1102, "name": "Yingshouyingzi", "name_ru": "Yingshouyingzi", "tz": "Asia/Shanghai", "district": "Hebei"}, {"id": 1103, "name": "Duanzhuang", "name_ru": "Duanzhuang", "tz": "Asia/Shanghai", "district": "Shanxi"}, {"id": 1104, "name": "Xinzhaidian", "name_ru": "Xinzhaidian", "tz": "Asia/Shanghai", "district": "Hebei"}, {"id": 1105, "name": "Nanwucun", "name_ru": "Nanwucun", "tz": "Asia/Shanghai", "district": "Hebei"}, {"id": 1106, "name": "Wuyuan", "name_ru": "Wuyuan", "tz": "Asia/Shanghai", "district": "Inner Mongolia"}, {"id": 1107, "name": "Xinpo", "name_ru": "Xinpo", "tz": "Asia/Shanghai", "district": "Hainan"}, {"id": 1108, "name": "Shetang", "name_ru": "Shetang", "tz": "Asia/Shanghai", "district": "Gansu"}, {"id": 1109, "name": "Daheba", "name_ru": "Daheba", "tz": "Asia/Shanghai", "district": "Guizhou"}, {"id": 1110, "name": "Xunjiansi", "name_ru": "Xunjiansi", "tz": "Asia/Shanghai", "district": "Yunnan"}, {"id": 1111, "name": "Shangpa", "name_ru": "Shangpa", "tz": "Asia/Shanghai", "district": "Yunnan"}, {"id": 1112, "name": "Guotang", "name_ru": "Guotang", "tz": "Asia/Shanghai", "district": "Guangdong"}, {"id": 1113, "name": "Xiaba", "name_ru": "Xiaba", "tz": "Asia/Shanghai", "district": "Guizhou"}, {"id": 1114, "name": "Shibancun", "name_ru": "Shibancun", "tz": "Asia/Shanghai", "district": "Guangdong"}, {"id": 1115, "name": "Nan'ao", "name_ru": "Nan’ao", "tz": "Asia/Shanghai", "district": "Hebei"}, {"id": 1116, "name": "Zhangguzhuang", "name_ru": "Zhangguzhuang", "tz": "Asia/Shanghai", "district": "Hebei"}, {"id": 1117, "name": "Shuangtian", "name_ru": "Shuangtian", "tz": "Asia/Shanghai", "district": "Guangdong"}, {"id": 1118, "name": "Mangdongshan", "name_ru": "Mangdongshan", "tz": "Asia/Shanghai", "district": "Yunnan"}, {"id": 1119, "name": "Mashan", "name_ru": "Mashan", "tz": "Asia/Shanghai", "district": "Shanxi"}, {"id": 1120, "name": "Xinmin", "name_ru": "Xinmin", "tz": "Asia/Shanghai", "district": "Guizhou"}, {"id": 1121, "name": "Toksun", "name_ru": "Toksun", "tz": "Asia/Urumqi", "district": "Xinjiang"}, {"id": 1122, "name": "Yangshuling", "name_ru": "Yangshuling", "tz": "Asia/Shanghai", "district": "Hebei"}, {"id": 1123, "name": "Xiaobazi", "name_ru": "Xiaobazi", "tz": "Asia/Shanghai", "district": "Guizhou"}, {"id": 1124, "name": "Benhao", "name_ru": "Benhao", "tz": "Asia/Shanghai", "district": "Hainan"}, {"id": 1125, "name": "Matouying", "name_ru": "Matouying", "tz": "Asia/Shanghai", "district": "Hebei"}, {"id": 1126, "name": "Duzhuang", "name_ru": "Duzhuang", "tz": "Asia/Shanghai", "district": "Hebei"}, {"id": 1127, "name": "Shiqiao", "name_ru": "Shiqiao", "tz": "Asia/Shanghai", "district": "Gansu"}, {"id": 1128, "name": "Ciying", "name_ru": "Ciying", "tz": "Asia/Shanghai", "district": "Yunnan"}, {"id": 1129, "name": "Gonglang", "name_ru": "Gonglang", "tz": "Asia/Shanghai", "district": "Yunnan"}, {"id": 1130, "name": "Dongwang", "name_ru": "Dongwang", "tz": "Asia/Shanghai", "district": "Hebei"}, {"id": 1131, "name": "Tanglou", "name_ru": "Tanglou", "tz": "Asia/Shanghai", "district": "Guangdong"}, {"id": 1132, "name": "Toqsu", "name_ru": "Toqsu", "tz": "Asia/Urumqi", "district": "Xinjiang"}, {"id": 1133, "name": "Chahe", "name_ru": "Chahe", "tz": "Asia/Shanghai", "district": "Guizhou"}, {"id": 1134, "name": "Heshancun", "name_ru": "Heshancun", "tz": "Asia/Shanghai", "district": "Zhejiang"}, {"id": 1135, "name": "Zhonghechang", "name_ru": "Zhonghechang", "tz": "Asia/Shanghai", "district": "Guizhou"}, {"id": 1136, "name": "Shangluhu", "name_ru": "Shangluhu", "tz": "Asia/Shanghai", "district": "Guangdong"}, {"id": 1137, "name": "Laoaoba", "name_ru": "Laoaoba", "tz": "Asia/Shanghai", "district": "Guizhou"}, {"id": 1138, "name": "Zhongtai", "name_ru": "Zhongtai", "tz": "Asia/Shanghai", "district": "Gansu"}, {"id": 1139, "name": "Zhailuo", "name_ru": "Zhailuo", "tz": "Asia/Shanghai", "district": "Guizhou"}, {"id": 1140, "name": "Qincun", "name_ru": "Qincun", "tz": "Asia/Shanghai", "district": "Hebei"}, {"id": 1141, "name": "Baishaling", "name_ru": "Baishaling", "tz": "Asia/Shanghai", "district": "Guangdong"}, {"id": 1142, "name": "Huanghuajing", "name_ru": "Huanghuajing", "tz": "Asia/Shanghai", "district": "Guangdong"}, {"id": 1143, "name": "Gaotan", "name_ru": "Gaotan", "tz": "Asia/Shanghai", "district": "Shaanxi"}, {"id": 1144, "name": "Toli", "name_ru": "Toli", "tz": "Asia/Urumqi", "district": "Xinjiang"}, {"id": 1145, "name": "Qujingpu", "name_ru": "Qujingpu", "tz": "Asia/Shanghai", "district": "Ningxia"}, {"id": 1146, "name": "Guma", "name_ru": "Guma", "tz": "Asia/Urumqi", "district": "Xinjiang"}, {"id": 1147, "name": "Shuiding", "name_ru": "Shuiding", "tz": "Asia/Urumqi", "district": "Xinjiang"}, {"id": 1148, "name": "Langdu", "name_ru": "Langdu", "tz": "Asia/Shanghai", "district": "Yunnan"}, {"id": 1149, "name": "Yangyuhe", "name_ru": "Yangyuhe", "tz": "Asia/Shanghai", "district": "Shaanxi"}, {"id": 1150, "name": "Uchturpan", "name_ru": "Uchturpan", "tz": "Asia/Urumqi", "district": "Xinjiang"}, {"id": 1151, "name": "Niuchangqiao", "name_ru": "Niuchangqiao", "tz": "Asia/Shanghai", "district": "Guizhou"}, {"id": 1152, "name": "Shilan", "name_ru": "Shilan", "tz": "Asia/Shanghai", "district": "Guangdong"}, {"id": 1153, "name": "Lufeng", "name_ru": "Lufeng", "tz": "Asia/Shanghai", "district": "Yunnan"}, {"id": 1154, "name": "Gabasumdo", "name_ru": "Gabasumdo", "tz": "Asia/Shanghai", "district": "Qinghai"}, {"id": 1155, "name": "Zongdi", "name_ru": "Zongdi", "tz": "Asia/Shanghai", "district": "Guizhou"}, {"id": 1156, "name": "Longtan", "name_ru": "Longtan", "tz": "Asia/Shanghai", "district": "Hebei"}, {"id": 1157, "name": "Narat", "name_ru": "Narat", "tz": "Asia/Urumqi", "district": "Xinjiang"}, {"id": 1158, "name": "Wangtang", "name_ru": "Wangtang", "tz": "Asia/Shanghai", "district": "Hainan"}, {"id": 1159, "name": "Xima", "name_ru": "Xima", "tz": "Asia/Shanghai", "district": "Hebei"}, {"id": 1160, "name": "Tongyangdao", "name_ru": "Tongyangdao", "tz": "Asia/Shanghai", "district": "Inner Mongolia"}, {"id": 1161, "name": "Haiyang", "name_ru": "Haiyang", "tz": "Asia/Shanghai", "district": "Hebei"}, {"id": 1162, "name": "Manbengtang", "name_ru": "Manbengtang", "tz": "Asia/Shanghai", "district": "Yunnan"}, {"id": 1163, "name": "Bo'ao", "name_ru": "Bo’ao", "tz": "Asia/Shanghai", "district": "Hainan"}, {"id": 1164, "name": "Longdian", "name_ru": "Longdian", "tz": "Asia/Shanghai", "district": "Hebei"}, {"id": 1165, "name": "Kedu", "name_ru": "Kedu", "tz": "Asia/Shanghai", "district": "Guizhou"}, {"id": 1166, "name": "Zhongshan", "name_ru": "Zhongshan", "tz": "Asia/Shanghai", "district": "Gansu"}, {"id": 1167, "name": "Qingshan", "name_ru": "Qingshan", "tz": "Asia/Shanghai", "district": "Yunnan"}, {"id": 1168, "name": "Liqizhuang", "name_ru": "Liqizhuang", "tz": "Asia/Shanghai", "district": "Hebei"}, {"id": 1169, "name": "Jiangdi", "name_ru": "Jiangdi", "tz": "Asia/Shanghai", "district": "Yunnan"}, {"id": 1170, "name": "Zuitou", "name_ru": "Zuitou", "tz": "Asia/Shanghai", "district": "Shaanxi"}, {"id": 1171, "name": "Chuimatan", "name_ru": "Chuimatan", "tz": "Asia/Shanghai", "district": "Gansu"}, {"id": 1172, "name": "Hancun", "name_ru": "Hancun", "tz": "Asia/Shanghai", "district": "Hebei"}, {"id": 1173, "name": "Jinju", "name_ru": "Jinju", "tz": "Asia/Shanghai", "district": "Guangdong"}, {"id": 1174, "name": "Shangxiao", "name_ru": "Shangxiao", "tz": "Asia/Shanghai", "district": "Gansu"}, {"id": 1175, "name": "Chuanliaocun", "name_ru": "Chuanliaocun", "tz": "Asia/Shanghai", "district": "Zhejiang"}, {"id": 1176, "name": "Yuanyangzhen", "name_ru": "Yuanyangzhen", "tz": "Asia/Shanghai", "district": "Gansu"}, {"id": 1177, "name": "Ganjing", "name_ru": "Ganjing", "tz": "Asia/Shanghai", "district": "Shaanxi"}, {"id": 1178, "name": "Zhaicun", "name_ru": "Zhaicun", "tz": "Asia/Shanghai", "district": "Guangdong"}, {"id": 1179, "name": "Lilancheng", "name_ru": "Lilancheng", "tz": "Asia/Shanghai", "district": "Hebei"}, {"id": 1180, "name": "Liushuquan", "name_ru": "Liushuquan", "tz": "Asia/Shanghai", "district": "Hebei"}, {"id": 1181, "name": "Shuanghe", "name_ru": "Shuanghe", "tz": "Asia/Shanghai", "district": "Shaanxi"}, {"id": 1182, "name": "Bangzha", "name_ru": "Bangzha", "tz": "Asia/Shanghai", "district": "Guizhou"}, {"id": 1183, "name": "Dengjiazhuang", "name_ru": "Dengjiazhuang", "tz": "Asia/Shanghai", "district": "Hebei"}, {"id": 1184, "name": "Xishan", "name_ru": "Xishan", "tz": "Asia/Shanghai", "district": "Guangdong"}, {"id": 1185, "name": "Dongfeng", "name_ru": "Dongfeng", "tz": "Asia/Shanghai", "district": "Guangdong"}, {"id": 1186, "name": "Haoping", "name_ru": "Haoping", "tz": "Asia/Shanghai", "district": "Shaanxi"}, {"id": 1187, "name": "Gaoya", "name_ru": "Gaoya", "tz": "Asia/Shanghai", "district": "Gansu"}, {"id": 1188, "name": "Maozhou", "name_ru": "Maozhou", "tz": "Asia/Shanghai", "district": "Hebei"}, {"id": 1189, "name": "Yinajia", "name_ru": "Yinajia", "tz": "Asia/Shanghai", "district": "Guizhou"}, {"id": 1190, "name": "Nanpingcun", "name_ru": "Nanpingcun", "tz": "Asia/Shanghai", "district": "Shanxi"}, {"id": 1191, "name": "Lanling", "name_ru": "Lanling", "tz": "Asia/Shanghai", "district": "Guangdong"}, {"id": 1192, "name": "Haiwei", "name_ru": "Haiwei", "tz": "Asia/Shanghai", "district": "Hainan"}, {"id": 1193, "name": "Fengruncun", "name_ru": "Fengruncun", "tz": "Asia/Shanghai", "district": "Shaanxi"}, {"id": 1194, "name": "Yanyan", "name_ru": "Yanyan", "tz": "Asia/Shanghai", "district": "Guangdong"}, {"id": 1195, "name": "Zhongcun", "name_ru": "Zhongcun", "tz": "Asia/Shanghai", "district": "Gansu"}, {"id": 1196, "name": "Wumayingcun", "name_ru": "Wumayingcun", "tz": "Asia/Shanghai", "district": "Hebei"}, {"id": 1197, "name": "Mengdan", "name_ru": "Mengdan", "tz": "Asia/Shanghai", "district": "Yunnan"}, {"id": 1198, "name": "Xiaolongtan", "name_ru": "Xiaolongtan", "tz": "Asia/Shanghai", "district": "Yunnan"}, {"id": 1199, "name": "Dalupo", "name_ru": "Dalupo", "tz": "Asia/Shanghai", "district": "Hainan"}, {"id": 1200, "name": "Wujiaying", "name_ru": "Wujiaying", "tz": "Asia/Shanghai", "district": "Shaanxi"}, {"id": 1201, "name": "Yuzhang", "name_ru": "Yuzhang", "tz": "Asia/Shanghai", "district": "Guizhou"}, {"id": 1202, "name": "Malanguan", "name_ru": "Malanguan", "tz": "Asia/Shanghai", "district": "Hebei"}, {"id": 1203, "name": "Shitan", "name_ru": "Shitan", "tz": "Asia/Shanghai", "district": "Guangdong"}, {"id": 1204, "name": "Liangwu", "name_ru": "Liangwu", "tz": "Asia/Shanghai", "district": "Guangdong"}, {"id": 1205, "name": "Zhuchangba", "name_ru": "Zhuchangba", "tz": "Asia/Shanghai", "district": "Guizhou"}, {"id": 1206, "name": "Dongxiaozhai", "name_ru": "Dongxiaozhai", "tz": "Asia/Shanghai", "district": "Hebei"}, {"id": 1207, "name": "Zhenbeibu", "name_ru": "Zhenbeibu", "tz": "Asia/Shanghai", "district": "Ningxia"}, {"id": 1208, "name": "Ziketan", "name_ru": "Ziketan", "tz": "Asia/Shanghai", "district": "Qinghai"}, {"id": 1209, "name": "Tanglin", "name_ru": "Tanglin", "tz": "Asia/Shanghai", "district": "Hebei"}, {"id": 1210, "name": "Shangtianba", "name_ru": "Shangtianba", "tz": "Asia/Shanghai", "district": "Yunnan"}, {"id": 1211, "name": "Xinxing", "name_ru": "Xinxing", "tz": "Asia/Shanghai", "district": "Heilongjiang"}, {"id": 1212, "name": "Liushui", "name_ru": "Liushui", "tz": "Asia/Shanghai", "district": "Shaanxi"}, {"id": 1213, "name": "Hujiachi", "name_ru": "Hujiachi", "tz": "Asia/Shanghai", "district": "Hebei"}, {"id": 1214, "name": "Qiaomaichuan", "name_ru": "Qiaomaichuan", "tz": "Asia/Shanghai", "district": "Shanxi"}, {"id": 1215, "name": "Dazhuang", "name_ru": "Dazhuang", "tz": "Asia/Shanghai", "district": "Hebei"}, {"id": 1216, "name": "Pingtang", "name_ru": "Pingtang", "tz": "Asia/Shanghai", "district": "Guizhou"}, {"id": 1217, "name": "Huilongping", "name_ru": "Huilongping", "tz": "Asia/Shanghai", "district": "Guizhou"}, {"id": 1218, "name": "Baiheqiao", "name_ru": "Baiheqiao", "tz": "Asia/Shanghai", "district": "Yunnan"}, {"id": 1219, "name": "Lihe", "name_ru": "Lihe", "tz": "Asia/Shanghai", "district": "Gansu"}, {"id": 1220, "name": "Suonan", "name_ru": "Suonan", "tz": "Asia/Shanghai", "district": "Gansu"}, {"id": 1221, "name": "Hoh Ereg", "name_ru": "Hoh Ereg", "tz": "Asia/Shanghai", "district": "Inner Mongolia"}, {"id": 1222, "name": "Nanxingguo", "name_ru": "Nanxingguo", "tz": "Asia/Shanghai", "district": "Hebei"}, {"id": 1223, "name": "Dongsheng", "name_ru": "Dongsheng", "tz": "Asia/Shanghai", "district": "Gansu"}, {"id": 1224, "name": "Bazhajiemicun", "name_ru": "Bazhajiemicun", "tz": "Asia/Urumqi", "district": "Xinjiang"}, {"id": 1225, "name": "Jurh", "name_ru": "Jurh", "tz": "Asia/Shanghai", "district": "Inner Mongolia"}, {"id": 1226, "name": "Qianmotou", "name_ru": "Qianmotou", "tz": "Asia/Shanghai", "district": "Hebei"}, {"id": 1227, "name": "Xiaping", "name_ru": "Xiaping", "tz": "Asia/Shanghai", "district": "Guangdong"}, {"id": 1228, "name": "Jieshang", "name_ru": "Jieshang", "tz": "Asia/Shanghai", "district": "Guizhou"}, {"id": 1229, "name": "Neihuzhai", "name_ru": "Neihuzhai", "tz": "Asia/Shanghai", "district": "Guangdong"}, {"id": 1230, "name": "Jiucangzhou", "name_ru": "Jiucangzhou", "tz": "Asia/Shanghai", "district": "Hebei"}, {"id": 1231, "name": "Shiling", "name_ru": "Shiling", "tz": "Asia/Shanghai", "district": "Guizhou"}, {"id": 1232, "name": "Nanyangcun", "name_ru": "Nanyangcun", "tz": "Asia/Shanghai", "district": "Shaanxi"}, {"id": 1233, "name": "Yuli", "name_ru": "Yuli", "tz": "Asia/Urumqi", "district": "Xinjiang"}, {"id": 1234, "name": "Wulongpu", "name_ru": "Wulongpu", "tz": "Asia/Shanghai", "district": "Shaanxi"}, {"id": 1235, "name": "Gyegu", "name_ru": "Gyêgu", "tz": "Asia/Shanghai", "district": "Qinghai"}, {"id": 1236, "name": "Huaibaijie", "name_ru": "Huaibaijie", "tz": "Asia/Shanghai", "district": "Shaanxi"}, {"id": 1237, "name": "Xinsi", "name_ru": "Xinsi", "tz": "Asia/Shanghai", "district": "Gansu"}, {"id": 1238, "name": "Yanshanbu", "name_ru": "Yanshanbu", "tz": "Asia/Shanghai", "district": "Guizhou"}, {"id": 1239, "name": "Beixingzhuang", "name_ru": "Beixingzhuang", "tz": "Asia/Shanghai", "district": "Shanxi"}, {"id": 1240, "name": "Maying", "name_ru": "Maying", "tz": "Asia/Shanghai", "district": "Qinghai"}, {"id": 1241, "name": "Shaomi", "name_ru": "Shaomi", "tz": "Asia/Shanghai", "district": "Guizhou"}, {"id": 1242, "name": "Zhengtun", "name_ru": "Zhengtun", "tz": "Asia/Shanghai", "district": "Guizhou"}, {"id": 1243, "name": "Huangzhai", "name_ru": "Huangzhai", "tz": "Asia/Shanghai", "district": "Shanxi"}, {"id": 1244, "name": "Gonghe", "name_ru": "Gonghe", "tz": "Asia/Shanghai", "district": "Gansu"}, {"id": 1245, "name": "Gaoguzhuang", "name_ru": "Gaoguzhuang", "tz": "Asia/Shanghai", "district": "Hebei"}, {"id": 1246, "name": "Zhedao", "name_ru": "Zhedao", "tz": "Asia/Shanghai", "district": "Yunnan"}, {"id": 1247, "name": "Daxin", "name_ru": "Daxin", "tz": "Asia/Shanghai", "district": "Guizhou"}, {"id": 1248, "name": "Zhucaoying", "name_ru": "Zhucaoying", "tz": "Asia/Shanghai", "district": "Hebei"}, {"id": 1249, "name": "Chankou", "name_ru": "Chankou", "tz": "Asia/Shanghai", "district": "Gansu"}, {"id": 1250, "name": "Pingtan", "name_ru": "Pingtan", "tz": "Asia/Shanghai", "district": "Guangxi"}, {"id": 1251, "name": "Lihuzhuang", "name_ru": "Lihuzhuang", "tz": "Asia/Shanghai", "district": "Hebei"}, {"id": 1252, "name": "Caojiachuan", "name_ru": "Caojiachuan", "tz": "Asia/Shanghai", "district": "Shanxi"}, {"id": 1253, "name": "Luofa", "name_ru": "Luofa", "tz": "Asia/Shanghai", "district": "Hebei"}, {"id": 1254, "name": "Qapqal", "name_ru": "Qapqal", "tz": "Asia/Urumqi", "district": "Xinjiang"}, {"id": 1255, "name": "Yaojiafen", "name_ru": "Yaojiafen", "tz": "Asia/Shanghai", "district": "Hebei"}, {"id": 1256, "name": "Tongzhou", "name_ru": "Tongzhou", "tz": "Asia/Shanghai", "district": "Guizhou"}, {"id": 1257, "name": "Xinzhai", "name_ru": "Xinzhai", "tz": "Asia/Shanghai", "district": "Guizhou"}, {"id": 1258, "name": "Zhoucun", "name_ru": "Zhoucun", "tz": "Asia/Shanghai", "district": "Hebei"}, {"id": 1259, "name": "Tong'anyi", "name_ru": "Tong’anyi", "tz": "Asia/Shanghai", "district": "Gansu"}, {"id": 1260, "name": "Qia'erbagecun", "name_ru": "Qia’erbagecun", "tz": "Asia/Urumqi", "district": "Xinjiang"}, {"id": 1261, "name": "Xintian", "name_ru": "Xintian", "tz": "Asia/Shanghai", "district": "Yunnan"}, {"id": 1262, "name": "Sanhe", "name_ru": "Sanhe", "tz": "Asia/Shanghai", "district": "Ningxia"}, {"id": 1263, "name": "Youganning", "name_ru": "Youganning", "tz": "Asia/Shanghai", "district": "Qinghai"}, {"id": 1264, "name": "Jiangjiadong", "name_ru": "Jiangjiadong", "tz": "Asia/Shanghai", "district": "Guangdong"}, {"id": 1265, "name": "Agan", "name_ru": "Agan", "tz": "Asia/Shanghai", "district": "Gansu"}, {"id": 1266, "name": "Hancha", "name_ru": "Hancha", "tz": "Asia/Shanghai", "district": "Shaanxi"}, {"id": 1267, "name": "Anping", "name_ru": "Anping", "tz": "Asia/Shanghai", "district": "Hebei"}, {"id": 1268, "name": "Xinnongcun", "name_ru": "Xinnongcun", "tz": "Asia/Shanghai", "district": "Liaoning"}, {"id": 1269, "name": "Zhangjiazhuang", "name_ru": "Zhangjiazhuang", "tz": "Asia/Shanghai", "district": "Hebei"}, {"id": 1270, "name": "Yangping", "name_ru": "Yangping", "tz": "Asia/Shanghai", "district": "Yunnan"}, {"id": 1271, "name": "Hexiang", "name_ru": "Hexiang", "tz": "Asia/Shanghai", "district": "Hainan"}, {"id": 1272, "name": "Hanmayingcun", "name_ru": "Hanmayingcun", "tz": "Asia/Shanghai", "district": "Hebei"}, {"id": 1273, "name": "Gandujie", "name_ru": "Gandujie", "tz": "Asia/Shanghai", "district": "Qinghai"}, {"id": 1274, "name": "Donggou", "name_ru": "Donggou", "tz": "Asia/Shanghai", "district": "Hainan"}, {"id": 1275, "name": "Qagan Us", "name_ru": "Qagan Us", "tz": "Asia/Shanghai", "district": "Qinghai"}, {"id": 1276, "name": "Diguapo", "name_ru": "Diguapo", "tz": "Asia/Shanghai", "district": "Guizhou"}, {"id": 1277, "name": "Guding", "name_ru": "Guding", "tz": "Asia/Shanghai", "district": "Guizhou"}, {"id": 1278, "name": "Yuancun", "name_ru": "Yuancun", "tz": "Asia/Shanghai", "district": "Guizhou"}, {"id": 1279, "name": "Jiangjiehe", "name_ru": "Jiangjiehe", "tz": "Asia/Shanghai", "district": "Guizhou"}, {"id": 1280, "name": "Zhaodianzi", "name_ru": "Zhaodianzi", "tz": "Asia/Shanghai", "district": "Hebei"}, {"id": 1281, "name": "Xiaqiaotou", "name_ru": "Xiaqiaotou", "tz": "Asia/Shanghai", "district": "Yunnan"}, {"id": 1282, "name": "Liuliang", "name_ru": "Liuliang", "tz": "Asia/Shanghai", "district": "Gansu"}, {"id": 1283, "name": "Liuguang", "name_ru": "Liuguang", "tz": "Asia/Shanghai", "district": "Guizhou"}, {"id": 1284, "name": "Guantiankan", "name_ru": "Guantiankan", "tz": "Asia/Shanghai", "district": "Guizhou"}, {"id": 1285, "name": "Hongshui", "name_ru": "Hongshui", "tz": "Asia/Shanghai", "district": "Gansu"}, {"id": 1286, "name": "Doujing", "name_ru": "Doujing", "tz": "Asia/Shanghai", "district": "Guizhou"}, {"id": 1287, "name": "Yuanhucun", "name_ru": "Yuanhucun", "tz": "Asia/Urumqi", "district": "Xinjiang"}, {"id": 1288, "name": "Hoxut", "name_ru": "Hoxut", "tz": "Asia/Urumqi", "district": "Xinjiang"}, {"id": 1289, "name": "Xihuangcun", "name_ru": "Xihuangcun", "tz": "Asia/Shanghai", "district": "Hebei"}, {"id": 1290, "name": "Heishanzuicun", "name_ru": "Heishanzuicun", "tz": "Asia/Shanghai", "district": "Hebei"}, {"id": 1291, "name": "Magitang", "name_ru": "Magitang", "tz": "Asia/Shanghai", "district": "Qinghai"}, {"id": 1292, "name": "Heishuikeng", "name_ru": "Heishuikeng", "tz": "Asia/Shanghai", "district": "Shaanxi"}, {"id": 1293, "name": "Tangbian", "name_ru": "Tangbian", "tz": "Asia/Shanghai", "district": "Guizhou"}, {"id": 1294, "name": "Mingjiujie", "name_ru": "Mingjiujie", "tz": "Asia/Shanghai", "district": "Yunnan"}, {"id": 1295, "name": "Zerong", "name_ru": "Zerong", "tz": "Asia/Shanghai", "district": "Guizhou"}, {"id": 1296, "name": "Tazishan", "name_ru": "Tazishan", "tz": "Asia/Shanghai", "district": "Hebei"}, {"id": 1297, "name": "Xinhua", "name_ru": "Xinhua", "tz": "Asia/Shanghai", "district": "Gansu"}, {"id": 1298, "name": "Caowotan", "name_ru": "Caowotan", "tz": "Asia/Shanghai", "district": "Gansu"}, {"id": 1299, "name": "Qitai", "name_ru": "Qitai", "tz": "Asia/Shanghai", "district": "Inner Mongolia"}, {"id": 1300, "name": "Jiaoxiyakou", "name_ru": "Jiaoxiyakou", "tz": "Asia/Shanghai", "district": "Yunnan"}, {"id": 1301, "name": "Hala", "name_ru": "Hala", "tz": "Asia/Shanghai", "district": "Guizhou"}, {"id": 1302, "name": "Longjia", "name_ru": "Longjia", "tz": "Asia/Shanghai", "district": "Hainan"}, {"id": 1303, "name": "Sanpaicun", "name_ru": "Sanpaicun", "tz": "Asia/Shanghai", "district": "Guangdong"}, {"id": 1304, "name": "Liuma", "name_ru": "Liuma", "tz": "Asia/Shanghai", "district": "Guizhou"}, {"id": 1305, "name": "Guanzhai", "name_ru": "Guanzhai", "tz": "Asia/Shanghai", "district": "Guizhou"}, {"id": 1306, "name": "Shaogang", "name_ru": "Shaogang", "tz": "Asia/Shanghai", "district": "Ningxia"}, {"id": 1307, "name": "Shaoyu", "name_ru": "Shaoyu", "tz": "Asia/Shanghai", "district": "Gansu"}, {"id": 1308, "name": "Qishe", "name_ru": "Qishe", "tz": "Asia/Shanghai", "district": "Guizhou"}, {"id": 1309, "name": "Shaying", "name_ru": "Shaying", "tz": "Asia/Shanghai", "district": "Guizhou"}, {"id": 1310, "name": "Gangwuzhen", "name_ru": "Gangwuzhen", "tz": "Asia/Shanghai", "district": "Guizhou"}, {"id": 1311, "name": "Mengjiacun", "name_ru": "Mengjiacun", "tz": "Asia/Shanghai", "district": "Liaoning"}, {"id": 1312, "name": "Matigou", "name_ru": "Matigou", "tz": "Asia/Shanghai", "district": "Shaanxi"}, {"id": 1313, "name": "Quanzhang", "name_ru": "Quanzhang", "tz": "Asia/Shanghai", "district": "Shanxi"}, {"id": 1314, "name": "Gaoniang", "name_ru": "Gaoniang", "tz": "Asia/Shanghai", "district": "Guizhou"}, {"id": 1315, "name": "Yuanquan", "name_ru": "Yuanquan", "tz": "Asia/Shanghai", "district": "Gansu"}, {"id": 1316, "name": "Yanggezhuang", "name_ru": "Yanggezhuang", "tz": "Asia/Shanghai", "district": "Hebei"}, {"id": 1317, "name": "Shangjing", "name_ru": "Shangjing", "tz": "Asia/Shanghai", "district": "Guangdong"}, {"id": 1318, "name": "Zhongguyue", "name_ru": "Zhongguyue", "tz": "Asia/Shanghai", "district": "Hebei"}, {"id": 1319, "name": "Miaojiaping", "name_ru": "Miaojiaping", "tz": "Asia/Shanghai", "district": "Shaanxi"}, {"id": 1320, "name": "Longjia", "name_ru": "Longjia", "tz": "Asia/Shanghai", "district": "Shanxi"}, {"id": 1321, "name": "Minquan", "name_ru": "Minquan", "tz": "Asia/Shanghai", "district": "Gansu"}, {"id": 1322, "name": "Dingjiagouxiang", "name_ru": "Dingjiagouxiang", "tz": "Asia/Shanghai", "district": "Gansu"}, {"id": 1323, "name": "Duijiang", "name_ru": "Duijiang", "tz": "Asia/Shanghai", "district": "Guizhou"}, {"id": 1324, "name": "Zhoujia", "name_ru": "Zhoujia", "tz": "Asia/Shanghai", "district": "Gansu"}, {"id": 1325, "name": "Chedaopo", "name_ru": "Chedaopo", "tz": "Asia/Shanghai", "district": "Gansu"}, {"id": 1326, "name": "Dijiasuoxiang", "name_ru": "Dijiasuoxiang", "tz": "Asia/Shanghai", "district": "Gansu"}, {"id": 1327, "name": "Dazhangzi", "name_ru": "Dazhangzi", "tz": "Asia/Shanghai", "district": "Hebei"}, {"id": 1328, "name": "Xintangcun", "name_ru": "Xintangcun", "tz": "Asia/Shanghai", "district": "Guangdong"}, {"id": 1329, "name": "Manlin", "name_ru": "Manlin", "tz": "Asia/Shanghai", "district": "Yunnan"}, {"id": 1330, "name": "Xixinzhuangzhen", "name_ru": "Xixinzhuangzhen", "tz": "Asia/Shanghai", "district": "Shanxi"}, {"id": 1331, "name": "Xinlong", "name_ru": "Xinlong", "tz": "Asia/Shanghai", "district": "Hainan"}, {"id": 1332, "name": "Long'e", "name_ru": "Long’e", "tz": "Asia/Shanghai", "district": "Guizhou"}, {"id": 1333, "name": "Xinying", "name_ru": "Xinying", "tz": "Asia/Shanghai", "district": "Gansu"}, {"id": 1334, "name": "Miqiao", "name_ru": "Miqiao", "tz": "Asia/Shanghai", "district": "Gansu"}, {"id": 1335, "name": "Dongjiangshui", "name_ru": "Dongjiangshui", "tz": "Asia/Shanghai", "district": "Gansu"}, {"id": 1336, "name": "Dacaozhuang", "name_ru": "Dacaozhuang", "tz": "Asia/Shanghai", "district": "Hebei"}, {"id": 1337, "name": "Liuchuan", "name_ru": "Liuchuan", "tz": "Asia/Shanghai", "district": "Guizhou"}, {"id": 1338, "name": "Liuguoju", "name_ru": "Liuguoju", "tz": "Asia/Shanghai", "district": "Shaanxi"}, {"id": 1339, "name": "Fuying", "name_ru": "Fuying", "tz": "Asia/Shanghai", "district": "Hebei"}, {"id": 1340, "name": "Liangyi", "name_ru": "Liangyi", "tz": "Asia/Shanghai", "district": "Gansu"}, {"id": 1341, "name": "Kaiwen", "name_ru": "Kaiwen", "tz": "Asia/Shanghai", "district": "Yunnan"}, {"id": 1342, "name": "Wentang", "name_ru": "Wentang", "tz": "Asia/Shanghai", "district": "Guangdong"}, {"id": 1343, "name": "Zequ", "name_ru": "Zequ", "tz": "Asia/Shanghai", "district": "Qinghai"}, {"id": 1344, "name": "Jinji", "name_ru": "Jinji", "tz": "Asia/Shanghai", "district": "Guangdong"}, {"id": 1345, "name": "Xinyuan", "name_ru": "Xinyuan", "tz": "Asia/Shanghai", "district": "Qinghai"}, {"id": 1346, "name": "Longchang", "name_ru": "Longchang", "tz": "Asia/Shanghai", "district": "Guizhou"}, {"id": 1347, "name": "Zhongzai", "name_ru": "Zhongzai", "tz": "Asia/Shanghai", "district": "Guizhou"}, {"id": 1348, "name": "Changji", "name_ru": "Changji", "tz": "Asia/Shanghai", "district": "Guizhou"}, {"id": 1349, "name": "Yunshan", "name_ru": "Yunshan", "tz": "Asia/Shanghai", "district": "Gansu"}, {"id": 1350, "name": "Taohongpozhen", "name_ru": "Taohongpozhen", "tz": "Asia/Shanghai", "district": "Shanxi"}, {"id": 1351, "name": "Baipingshan", "name_ru": "Baipingshan", "tz": "Asia/Shanghai", "district": "Guizhou"}, {"id": 1352, "name": "Bikou", "name_ru": "Bikou", "tz": "Asia/Shanghai", "district": "Gansu"}, {"id": 1353, "name": "Chaona", "name_ru": "Chaona", "tz": "Asia/Shanghai", "district": "Gansu"}, {"id": 1354, "name": "Nanzuo", "name_ru": "Nanzuo", "tz": "Asia/Shanghai", "district": "Hebei"}, {"id": 1355, "name": "Xiaozhengzhuang", "name_ru": "Xiaozhengzhuang", "tz": "Asia/Shanghai", "district": "Hebei"}, {"id": 1356, "name": "Yaojia", "name_ru": "Yaojia", "tz": "Asia/Shanghai", "district": "Chongqing"}, {"id": 1357, "name": "Hongsi", "name_ru": "Hongsi", "tz": "Asia/Shanghai", "district": "Gansu"}, {"id": 1358, "name": "Chinggil", "name_ru": "Chinggil", "tz": "Asia/Urumqi", "district": "Xinjiang"}, {"id": 1359, "name": "Dalachi", "name_ru": "Dalachi", "tz": "Asia/Shanghai", "district": "Gansu"}, {"id": 1360, "name": "Dianga", "name_ru": "Dianga", "tz": "Asia/Shanghai", "district": "Gansu"}, {"id": 1361, "name": "Xixucun", "name_ru": "Xixucun", "tz": "Asia/Shanghai", "district": "Hebei"}, {"id": 1362, "name": "Luzhou", "name_ru": "Luzhou", "tz": "Asia/Shanghai", "district": "Guangdong"}, {"id": 1363, "name": "Hedongcun", "name_ru": "Hedongcun", "tz": "Asia/Shanghai", "district": "Gansu"}, {"id": 1364, "name": "Machang", "name_ru": "Machang", "tz": "Asia/Shanghai", "district": "Shaanxi"}, {"id": 1365, "name": "Chenlu", "name_ru": "Chenlu", "tz": "Asia/Shanghai", "district": "Shaanxi"}, {"id": 1366, "name": "Wenwu", "name_ru": "Wenwu", "tz": "Asia/Shanghai", "district": "Guangdong"}, {"id": 1367, "name": "Jiaojiazhuang", "name_ru": "Jiaojiazhuang", "tz": "Asia/Shanghai", "district": "Gansu"}, {"id": 1368, "name": "Mangqu", "name_ru": "Mangqu", "tz": "Asia/Shanghai", "district": "Qinghai"}, {"id": 1369, "name": "Banqiao", "name_ru": "Banqiao", "tz": "Asia/Shanghai", "district": "Gansu"}, {"id": 1370, "name": "Baiceng", "name_ru": "Baiceng", "tz": "Asia/Shanghai", "district": "Guizhou"}, {"id": 1371, "name": "Erjie", "name_ru": "Erjie", "tz": "Asia/Shanghai", "district": "Yunnan"}, {"id": 1372, "name": "Liangwancun", "name_ru": "Liangwancun", "tz": "Asia/Shanghai", "district": "Yunnan"}, {"id": 1373, "name": "Xihuangni", "name_ru": "Xihuangni", "tz": "Asia/Shanghai", "district": "Hebei"}, {"id": 1374, "name": "Yinhua", "name_ru": "Yinhua", "tz": "Asia/Shanghai", "district": "Shaanxi"}, {"id": 1375, "name": "Majiagoucha", "name_ru": "Majiagoucha", "tz": "Asia/Shanghai", "district": "Shaanxi"}, {"id": 1376, "name": "Humayingcun", "name_ru": "Humayingcun", "tz": "Asia/Shanghai", "district": "Hebei"}, {"id": 1377, "name": "Huchuan", "name_ru": "Huchuan", "tz": "Asia/Shanghai", "district": "Gansu"}, {"id": 1378, "name": "Qiaoyang", "name_ru": "Qiaoyang", "tz": "Asia/Shanghai", "district": "Gansu"}, {"id": 1379, "name": "Jinta", "name_ru": "Jinta", "tz": "Asia/Shanghai", "district": "Gansu"}, {"id": 1380, "name": "Shuichecun", "name_ru": "Shuichecun", "tz": "Asia/Shanghai", "district": "Guangdong"}, {"id": 1381, "name": "Huasuo", "name_ru": "Huasuo", "tz": "Asia/Shanghai", "district": "Gansu"}, {"id": 1382, "name": "Sanjiang Nongchang", "name_ru": "Sanjiang Nongchang", "tz": "Asia/Shanghai", "district": "Hainan"}, {"id": 1383, "name": "Shimubi", "name_ru": "Shimubi", "tz": "Asia/Shanghai", "district": "Hainan"}, {"id": 1384, "name": "Xincun", "name_ru": "Xincun", "tz": "Asia/Shanghai", "district": "Yunnan"}, {"id": 1385, "name": "Majia", "name_ru": "Majia", "tz": "Asia/Shanghai", "district": "Gansu"}, {"id": 1386, "name": "Yanhewan", "name_ru": "Yanhewan", "tz": "Asia/Shanghai", "district": "Shaanxi"}, {"id": 1387, "name": "Wangjiaxian", "name_ru": "Wangjiaxian", "tz": "Asia/Shanghai", "district": "Gansu"}, {"id": 1388, "name": "Sanpozhen", "name_ru": "Sanpozhen", "tz": "Asia/Shanghai", "district": "Hebei"}, {"id": 1389, "name": "Wulong", "name_ru": "Wulong", "tz": "Asia/Shanghai", "district": "Guangdong"}, {"id": 1390, "name": "Yanshuiguan", "name_ru": "Yanshuiguan", "tz": "Asia/Shanghai", "district": "Shaanxi"}, {"id": 1391, "name": "Wang'anzhen", "name_ru": "Wang’anzhen", "tz": "Asia/Shanghai", "district": "Hebei"}, {"id": 1392, "name": "Lakoucun", "name_ru": "Lakoucun", "tz": "Asia/Shanghai", "district": "Zhejiang"}, {"id": 1393, "name": "Zhipingxiang", "name_ru": "Zhipingxiang", "tz": "Asia/Shanghai", "district": "Gansu"}, {"id": 1394, "name": "Wanding", "name_ru": "Wanding", "tz": "Asia/Shanghai", "district": "Yunnan"}, {"id": 1395, "name": "Chumpak", "name_ru": "Chumpak", "tz": "Asia/Urumqi", "district": "Xinjiang"}, {"id": 1396, "name": "Taiyong", "name_ru": "Taiyong", "tz": "Asia/Shanghai", "district": "Guizhou"}, {"id": 1397, "name": "Huangyadong", "name_ru": "Huangyadong", "tz": "Asia/Shanghai", "district": "Shanxi"}, {"id": 1398, "name": "Ping'anbao", "name_ru": "Ping’anbao", "tz": "Asia/Shanghai", "district": "Hebei"}, {"id": 1399, "name": "Chaoyangdicun", "name_ru": "Chaoyangdicun", "tz": "Asia/Shanghai", "district": "Hebei"}, {"id": 1400, "name": "Jinmingsi", "name_ru": "Jinmingsi", "tz": "Asia/Shanghai", "district": "Shaanxi"}, {"id": 1401, "name": "Xireg", "name_ru": "Xireg", "tz": "Asia/Shanghai", "district": "Qinghai"}, {"id": 1402, "name": "Mangha", "name_ru": "Mangha", "tz": "Asia/Shanghai", "district": "Yunnan"}, {"id": 1403, "name": "Yongcong", "name_ru": "Yongcong", "tz": "Asia/Shanghai", "district": "Guizhou"}, {"id": 1404, "name": "Sunjiayan", "name_ru": "Sunjiayan", "tz": "Asia/Shanghai", "district": "Guizhou"}, {"id": 1405, "name": "Qingxicun", "name_ru": "Qingxicun", "tz": "Asia/Shanghai", "district": "Guangdong"}, {"id": 1406, "name": "Shangping", "name_ru": "Shangping", "tz": "Asia/Shanghai", "district": "Guangdong"}, {"id": 1407, "name": "Qigexingcun", "name_ru": "Qigexingcun", "tz": "Asia/Urumqi", "district": "Xinjiang"}, {"id": 1408, "name": "Shanyincun", "name_ru": "Shanyincun", "tz": "Asia/Shanghai", "district": "Hebei"}, {"id": 1409, "name": "Bugugoucun", "name_ru": "Bugugoucun", "tz": "Asia/Shanghai", "district": "Hebei"}, {"id": 1410, "name": "Mahao", "name_ru": "Mahao", "tz": "Asia/Shanghai", "district": "Guizhou"}, {"id": 1411, "name": "Damaishan", "name_ru": "Damaishan", "tz": "Asia/Shanghai", "district": "Guangdong"}, {"id": 1412, "name": "Ceyu", "name_ru": "Ceyu", "tz": "Asia/Shanghai", "district": "Hebei"}, {"id": 1413, "name": "Huguan Nongchang", "name_ru": "Huguan Nongchang", "tz": "Asia/Shanghai", "district": "Guangdong"}, {"id": 1414, "name": "Honggu", "name_ru": "Honggu", "tz": "Asia/Shanghai", "district": "Gansu"}, {"id": 1415, "name": "Pingtiancun", "name_ru": "Pingtiancun", "tz": "Asia/Shanghai", "district": "Guangdong"}, {"id": 1416, "name": "Kaji", "name_ru": "Kaji", "tz": "Asia/Shanghai", "district": "Yunnan"}, {"id": 1417, "name": "Shiwan", "name_ru": "Shiwan", "tz": "Asia/Shanghai", "district": "Shaanxi"}, {"id": 1418, "name": "Tashi", "name_ru": "Tashi", "tz": "Asia/Shanghai", "district": "Shaanxi"}, {"id": 1419, "name": "Zhongling", "name_ru": "Zhongling", "tz": "Asia/Shanghai", "district": "Guizhou"}, {"id": 1420, "name": "Qiaotouba", "name_ru": "Qiaotouba", "tz": "Asia/Shanghai", "district": "Gansu"}, {"id": 1421, "name": "Dongyuancun", "name_ru": "Dongyuancun", "tz": "Asia/Shanghai", "district": "Zhejiang"}, {"id": 1422, "name": "Xiaping", "name_ru": "Xiaping", "tz": "Asia/Shanghai", "district": "Shaanxi"}, {"id": 1423, "name": "Reshuijie", "name_ru": "Reshuijie", "tz": "Asia/Shanghai", "district": "Guangdong"}, {"id": 1424, "name": "Nanzhai", "name_ru": "Nanzhai", "tz": "Asia/Shanghai", "district": "Guizhou"}, {"id": 1425, "name": "Xinyingheyan", "name_ru": "Xinyingheyan", "tz": "Asia/Shanghai", "district": "Gansu"}, {"id": 1426, "name": "Shichuanxiang", "name_ru": "Shichuanxiang", "tz": "Asia/Shanghai", "district": "Gansu"}, {"id": 1427, "name": "Shuangxianxiang", "name_ru": "Shuangxianxiang", "tz": "Asia/Shanghai", "district": "Gansu"}, {"id": 1428, "name": "Xinchangcun", "name_ru": "Xinchangcun", "tz": "Asia/Shanghai", "district": "Guizhou"}, {"id": 1429, "name": "Xinbocun", "name_ru": "Xinbocun", "tz": "Asia/Shanghai", "district": "Hebei"}, {"id": 1430, "name": "Maqu", "name_ru": "Maqu", "tz": "Asia/Shanghai", "district": "Gansu"}, {"id": 1431, "name": "Zhengdong", "name_ru": "Zhengdong", "tz": "Asia/Shanghai", "district": "Yunnan"}, {"id": 1432, "name": "Bajiao", "name_ru": "Bajiao", "tz": "Asia/Shanghai", "district": "Guizhou"}, {"id": 1433, "name": "Liuba", "name_ru": "Liuba", "tz": "Asia/Shanghai", "district": "Gansu"}, {"id": 1434, "name": "Baohe", "name_ru": "Baohe", "tz": "Asia/Shanghai", "district": "Shaanxi"}, {"id": 1435, "name": "Baxiangshan", "name_ru": "Baxiangshan", "tz": "Asia/Shanghai", "district": "Guangdong"}, {"id": 1436, "name": "Xincheng", "name_ru": "Xincheng", "tz": "Asia/Shanghai", "district": "Shanxi"}, {"id": 1437, "name": "Lajia", "name_ru": "Lajia", "tz": "Asia/Shanghai", "district": "Qinghai"}, {"id": 1438, "name": "Erbaocun", "name_ru": "Erbaocun", "tz": "Asia/Urumqi", "district": "Xinjiang"}, {"id": 1439, "name": "Jiajin", "name_ru": "Jiajin", "tz": "Asia/Shanghai", "district": "Guizhou"}, {"id": 1440, "name": "Aheqi", "name_ru": "Aheqi", "tz": "Asia/Urumqi", "district": "Xinjiang"}, {"id": 1441, "name": "Diao'ecun", "name_ru": "Diao’ecun", "tz": "Asia/Shanghai", "district": "Hebei"}, {"id": 1442, "name": "Xiaoba", "name_ru": "Xiaoba", "tz": "Asia/Shanghai", "district": "Guizhou"}, {"id": 1443, "name": "Shengping", "name_ru": "Shengping", "tz": "Asia/Shanghai", "district": "Yunnan"}, {"id": 1444, "name": "Huanian", "name_ru": "Huanian", "tz": "Asia/Shanghai", "district": "Yunnan"}, {"id": 1445, "name": "Hejiaji", "name_ru": "Hejiaji", "tz": "Asia/Shanghai", "district": "Shaanxi"}, {"id": 1446, "name": "Lijiacha", "name_ru": "Lijiacha", "tz": "Asia/Shanghai", "district": "Shaanxi"}, {"id": 1447, "name": "Caotan", "name_ru": "Caotan", "tz": "Asia/Shanghai", "district": "Gansu"}, {"id": 1448, "name": "Bailin", "name_ru": "Bailin", "tz": "Asia/Shanghai", "district": "Gansu"}, {"id": 1449, "name": "Sanjiaocheng", "name_ru": "Sanjiaocheng", "tz": "Asia/Shanghai", "district": "Qinghai"}, {"id": 1450, "name": "Xintianfeng", "name_ru": "Xintianfeng", "tz": "Asia/Shanghai", "district": "Guangdong"}, {"id": 1451, "name": "Xinyaoshang", "name_ru": "Xinyaoshang", "tz": "Asia/Shanghai", "district": "Guizhou"}, {"id": 1452, "name": "Longtaixiang", "name_ru": "Longtaixiang", "tz": "Asia/Shanghai", "district": "Gansu"}, {"id": 1453, "name": "Gucheng", "name_ru": "Gucheng", "tz": "Asia/Shanghai", "district": "Gansu"}, {"id": 1454, "name": "Wen'anyi", "name_ru": "Wen’anyi", "tz": "Asia/Shanghai", "district": "Shaanxi"}, {"id": 1455, "name": "Wangjiabian", "name_ru": "Wangjiabian", "tz": "Asia/Shanghai", "district": "Shaanxi"}, {"id": 1456, "name": "Mawu", "name_ru": "Mawu", "tz": "Asia/Shanghai", "district": "Gansu"}, {"id": 1457, "name": "Pingtouchuanxiang", "name_ru": "Pingtouchuanxiang", "tz": "Asia/Shanghai", "district": "Gansu"}, {"id": 1458, "name": "Ma'ai", "name_ru": "Ma’ai", "tz": "Asia/Shanghai", "district": "Gansu"}, {"id": 1459, "name": "Guantingzhan", "name_ru": "Guantingzhan", "tz": "Asia/Shanghai", "district": "Hebei"}, {"id": 1460, "name": "Sanjiangkou", "name_ru": "Sanjiangkou", "tz": "Asia/Shanghai", "district": "Yunnan"}, {"id": 1461, "name": "Gaohucun", "name_ru": "Gaohucun", "tz": "Asia/Shanghai", "district": "Zhejiang"}, {"id": 1462, "name": "Xiaozui", "name_ru": "Xiaozui", "tz": "Asia/Shanghai", "district": "Gansu"}, {"id": 1463, "name": "Chuqung", "name_ru": "Chuqung", "tz": "Asia/Shanghai", "district": "Qinghai"}, {"id": 1464, "name": "Kuiyibagecun", "name_ru": "Kuiyibagecun", "tz": "Asia/Urumqi", "district": "Xinjiang"}, {"id": 1465, "name": "Bangshang", "name_ru": "Bangshang", "tz": "Asia/Shanghai", "district": "Sichuan"}, {"id": 1466, "name": "Nanfang", "name_ru": "Nanfang", "tz": "Asia/Shanghai", "district": "Guangdong"}, {"id": 1467, "name": "Kangning", "name_ru": "Kangning", "tz": "Asia/Shanghai", "district": "Gansu"}, {"id": 1468, "name": "Shenjiaba", "name_ru": "Shenjiaba", "tz": "Asia/Shanghai", "district": "Shaanxi"}, {"id": 1469, "name": "Haikoucun", "name_ru": "Haikoucun", "tz": "Asia/Shanghai", "district": "Zhejiang"}, {"id": 1470, "name": "Qiushanxiang", "name_ru": "Qiushanxiang", "tz": "Asia/Shanghai", "district": "Gansu"}, {"id": 1471, "name": "Biandanshan", "name_ru": "Biandanshan", "tz": "Asia/Shanghai", "district": "Guizhou"}, {"id": 1472, "name": "Fenggeling", "name_ru": "Fenggeling", "tz": "Asia/Shanghai", "district": "Shaanxi"}, {"id": 1473, "name": "Fanzhao", "name_ru": "Fanzhao", "tz": "Asia/Shanghai", "district": "Guizhou"}, {"id": 1474, "name": "Tanggemu Nongchang", "name_ru": "Tanggemu Nongchang", "tz": "Asia/Shanghai", "district": "Qinghai"}, {"id": 1475, "name": "Hongliuwan", "name_ru": "Hongliuwan", "tz": "Asia/Shanghai", "district": "Gansu"}, {"id": 1476, "name": "Gar", "name_ru": "Gar", "tz": "Asia/Shanghai", "district": "Tibet"}, {"id": 1477, "name": "Dongcha", "name_ru": "Dongcha", "tz": "Asia/Shanghai", "district": "Gansu"}, {"id": 1478, "name": "Ruoqiang", "name_ru": "Ruoqiang", "tz": "Asia/Urumqi", "district": "Xinjiang"}, {"id": 1479, "name": "Pagqen", "name_ru": "Pagqên", "tz": "Asia/Shanghai", "district": "Qinghai"}, {"id": 1480, "name": "Baluntaicun", "name_ru": "Baluntaicun", "tz": "Asia/Urumqi", "district": "Xinjiang"}, {"id": 1481, "name": "Dashouping", "name_ru": "Dashouping", "tz": "Asia/Shanghai", "district": "Guangdong"}, {"id": 1482, "name": "Taxkorgan", "name_ru": "Taxkorgan", "tz": "Asia/Urumqi", "district": "Xinjiang"}, {"id": 1483, "name": "Nanzhangcheng", "name_ru": "Nanzhangcheng", "tz": "Asia/Shanghai", "district": "Hebei"}, {"id": 1484, "name": "Gyumai", "name_ru": "Gyümai", "tz": "Asia/Shanghai", "district": "Qinghai"}, {"id": 1485, "name": "Hongwansi", "name_ru": "Hongwansi", "tz": "Asia/Shanghai", "district": "Gansu"}, {"id": 1486, "name": "Shankoucun", "name_ru": "Shankoucun", "tz": "Asia/Shanghai", "district": "Zhejiang"}, {"id": 1487, "name": "Hongmao", "name_ru": "Hongmao", "tz": "Asia/Shanghai", "district": "Hainan"}, {"id": 1488, "name": "Heyin", "name_ru": "Heyin", "tz": "Asia/Shanghai", "district": "Qinghai"}, {"id": 1489, "name": "Xiaoshengcun", "name_ru": "Xiaoshengcun", "tz": "Asia/Shanghai", "district": "Guangdong"}, {"id": 1490, "name": "Dongping", "name_ru": "Dongping", "tz": "Asia/Shanghai", "district": "Guangdong"}, {"id": 1491, "name": "Hongliuyuan", "name_ru": "Hongliuyuan", "tz": "Asia/Shanghai", "district": "Gansu"}, {"id": 1492, "name": "Cangyanshanzhen", "name_ru": "Cangyanshanzhen", "tz": "Asia/Shanghai", "district": "Hebei"}, {"id": 1493, "name": "Seraitang", "name_ru": "Sêraitang", "tz": "Asia/Shanghai", "district": "Qinghai"}, {"id": 1494, "name": "Chugqensumdo", "name_ru": "Chugqênsumdo", "tz": "Asia/Shanghai", "district": "Qinghai"}, {"id": 1495, "name": "Jiaotanzhuang", "name_ru": "Jiaotanzhuang", "tz": "Asia/Shanghai", "district": "Hebei"}, {"id": 1496, "name": "Gyangze", "name_ru": "Gyangzê", "tz": "Asia/Shanghai", "district": "Tibet"}, {"id": 1497, "name": "Zhongcha", "name_ru": "Zhongcha", "tz": "Asia/Shanghai", "district": "Sichuan"}, {"id": 1498, "name": "Mengjiazhuang", "name_ru": "Mengjiazhuang", "tz": "Asia/Shanghai", "district": "Hebei"}, {"id": 1499, "name": "Dabancheng", "name_ru": "Dabancheng", "tz": "Asia/Urumqi", "district": "Xinjiang"}, {"id": 1500, "name": "Xibaipo", "name_ru": "Xibaipo", "tz": "Asia/Shanghai", "district": "Hebei"}, {"id": 1501, "name": "Jinzhong", "name_ru": "Jinzhong", "tz": "Asia/Shanghai", "district": "Yunnan"}, {"id": 1502, "name": "Dachi", "name_ru": "Dachi", "tz": "Asia/Shanghai", "district": "Shaanxi"}, {"id": 1503, "name": "Kailu", "name_ru": "Kailu", "tz": "Asia/Shanghai", "district": "Inner Mongolia"}, {"id": 1504, "name": "Linxi", "name_ru": "Linxi", "tz": "Asia/Shanghai", "district": "Inner Mongolia"}, {"id": 1505, "name": "Dujiashigou", "name_ru": "Dujiashigou", "tz": "Asia/Shanghai", "district": "Shaanxi"}, {"id": 1506, "name": "Yueyaquan", "name_ru": "Yueyaquan", "tz": "Asia/Shanghai", "district": "Gansu"}, {"id": 1507, "name": "Jixian", "name_ru": "Jixian", "tz": "Asia/Shanghai", "district": "Gansu"}, {"id": 1508, "name": "Dangcheng", "name_ru": "Dangcheng", "tz": "Asia/Shanghai", "district": "Gansu"}, {"id": 1509, "name": "Xiba", "name_ru": "Xiba", "tz": "Asia/Shanghai", "district": "Gansu"}, {"id": 1510, "name": "Shiyuan", "name_ru": "Shiyuan", "tz": "Asia/Shanghai", "district": "Gansu"}, {"id": 1511, "name": "Zengjiaba", "name_ru": "Zengjiaba", "tz": "Asia/Shanghai", "district": "Shaanxi"}, {"id": 1512, "name": "Aweitancun", "name_ru": "Aweitancun", "tz": "Asia/Urumqi", "district": "Xinjiang"}, {"id": 1513, "name": "Xiada", "name_ru": "Xiada", "tz": "Asia/Shanghai", "district": "Guangdong"}, {"id": 1514, "name": "Zhangping", "name_ru": "Zhangping", "tz": "Asia/Shanghai", "district": "Shanxi"}, {"id": 1515, "name": "Benbutucun", "name_ru": "Benbutucun", "tz": "Asia/Urumqi", "district": "Xinjiang"}, {"id": 1516, "name": "Xiangping", "name_ru": "Xiangping", "tz": "Asia/Shanghai", "district": "Guangdong"}, {"id": 1517, "name": "Leichi", "name_ru": "Leichi", "tz": "Asia/Shanghai", "district": "Shaanxi"}, {"id": 1518, "name": "Dazhuangzi", "name_ru": "Dazhuangzi", "tz": "Asia/Shanghai", "district": "Gansu"}, {"id": 1519, "name": "Daping", "name_ru": "Daping", "tz": "Asia/Shanghai", "district": "Guangdong"}, {"id": 1520, "name": "Zhujiagua", "name_ru": "Zhujiagua", "tz": "Asia/Shanghai", "district": "Shaanxi"}, {"id": 1521, "name": "Hukou", "name_ru": "Hukou", "tz": "Asia/Shanghai", "district": "Shaanxi"}, {"id": 1522, "name": "Huohua", "name_ru": "Huohua", "tz": "Asia/Shanghai", "district": "Guizhou"}, {"id": 1523, "name": "Baili", "name_ru": "Baili", "tz": "Asia/Shanghai", "district": "Gansu"}, {"id": 1524, "name": "Guazhoucun", "name_ru": "Guazhoucun", "tz": "Asia/Shanghai", "district": "Gansu"}, {"id": 1525, "name": "Gucheng", "name_ru": "Gucheng", "tz": "Asia/Shanghai", "district": "Gansu"}, {"id": 1526, "name": "Datian", "name_ru": "Datian", "tz": "Asia/Shanghai", "district": "Guangdong"}, {"id": 1527, "name": "Guanzhuang", "name_ru": "Guanzhuang", "tz": "Asia/Shanghai", "district": "Shaanxi"}, {"id": 1528, "name": "Azitan", "name_ru": "Azitan", "tz": "Asia/Shanghai", "district": "Gansu"}, {"id": 1529, "name": "Yangjiagetai", "name_ru": "Yangjiagetai", "tz": "Asia/Shanghai", "district": "Shaanxi"}, {"id": 1530, "name": "Dagou", "name_ru": "Dagou", "tz": "Asia/Shanghai", "district": "Gansu"}, {"id": 1531, "name": "Shechengtan", "name_ru": "Shechengtan", "tz": "Asia/Shanghai", "district": "Shanxi"}, {"id": 1532, "name": "Bingzhongluo", "name_ru": "Bingzhongluo", "tz": "Asia/Shanghai", "district": "Yunnan"}, {"id": 1533, "name": "Jiyek", "name_ru": "Jiyek", "tz": "Asia/Urumqi", "district": "Xinjiang"}, {"id": 1534, "name": "Fangjiata", "name_ru": "Fangjiata", "tz": "Asia/Shanghai", "district": "Shaanxi"}, {"id": 1535, "name": "Jinshan", "name_ru": "Jinshan", "tz": "Asia/Shanghai", "district": "Gansu"}, {"id": 1536, "name": "Jiajiaping", "name_ru": "Jiajiaping", "tz": "Asia/Shanghai", "district": "Shaanxi"}, {"id": 1537, "name": "Renzhuangcun", "name_ru": "Renzhuangcun", "tz": "Asia/Shanghai", "district": "Zhejiang"}, {"id": 1538, "name": "Cairima", "name_ru": "Cairima", "tz": "Asia/Shanghai", "district": "Gansu"}, {"id": 1539, "name": "Hejiachuan", "name_ru": "Hejiachuan", "tz": "Asia/Shanghai", "district": "Shaanxi"}, {"id": 1540, "name": "Sanmucha", "name_ru": "Sanmucha", "tz": "Asia/Shanghai", "district": "Gansu"}, {"id": 1541, "name": "Taoyan", "name_ru": "Taoyan", "tz": "Asia/Shanghai", "district": "Gansu"}, {"id": 1542, "name": "Jingping", "name_ru": "Jingping", "tz": "Asia/Shanghai", "district": "Gansu"}, {"id": 1543, "name": "Dayi", "name_ru": "Dayi", "tz": "Asia/Shanghai", "district": "Gansu"}, {"id": 1544, "name": "Biancang", "name_ru": "Biancang", "tz": "Asia/Shanghai", "district": "Gansu"}, {"id": 1545, "name": "Nichicun", "name_ru": "Nichicun", "tz": "Asia/Shanghai", "district": "Tibet"}]