[{"id": 1, "name": "Bogota", "name_ru": "Bogotá", "tz": "", "district": "Bogotá"}, {"id": 2, "name": "Timbio", "name_ru": "Timbío", "tz": "", "district": "Cauca"}, {"id": 3, "name": "Medellin", "name_ru": "Medellín", "tz": "", "district": "Antioquia"}, {"id": 4, "name": "Cali", "name_ru": "Cali", "tz": "", "district": "Valle del Cauca"}, {"id": 5, "name": "Barranquilla", "name_ru": "Barranquilla", "tz": "", "district": "Atlántico"}, {"id": 6, "name": "Cartagena", "name_ru": "Cartagena", "tz": "", "district": "Bolívar"}, {"id": 7, "name": "Palermo", "name_ru": "Palermo", "tz": "", "district": "Huila"}, {"id": 8, "name": "Cucuta", "name_ru": "Cúcuta", "tz": "", "district": "Norte de Santander"}, {"id": 9, "name": "Soledad", "name_ru": "Soledad", "tz": "", "district": "Atlántico"}, {"id": 10, "name": "Pereira", "name_ru": "Pereira", "tz": "", "district": "Risaralda"}, {"id": 11, "name": "Bucaramanga", "name_ru": "Bucaramanga", "tz": "", "district": "Santander"}, {"id": 12, "name": "Valledupar", "name_ru": "Valledupar", "tz": "", "district": "Cesar"}, {"id": 13, "name": "Ibague", "name_ru": "Ibagué", "tz": "", "district": "Tolima"}, {"id": 14, "name": "Villavicencio", "name_ru": "Villavicencio", "tz": "", "district": "Meta"}, {"id": 15, "name": "Soacha", "name_ru": "Soacha", "tz": "", "district": "Cundinamarca"}, {"id": 16, "name": "Santa Marta", "name_ru": "Santa Marta", "tz": "", "district": "Magdalena"}, {"id": 17, "name": "Monteria", "name_ru": "Montería", "tz": "", "district": "Córdoba"}, {"id": 18, "name": "Manizales", "name_ru": "Manizales", "tz": "", "district": "Caldas"}, {"id": 19, "name": "Buenaventura", "name_ru": "Buenaventura", "tz": "", "district": "Valle del Cauca"}, {"id": 20, "name": "Pasto", "name_ru": "Pasto", "tz": "", "district": "Nariño"}, {"id": 21, "name": "Bello", "name_ru": "Bello", "tz": "", "district": "Antioquia"}, {"id": 22, "name": "Neiva", "name_ru": "Neiva", "tz": "", "district": "Huila"}, {"id": 23, "name": "Palmira", "name_ru": "Palmira", "tz": "", "district": "Valle del Cauca"}, {"id": 24, "name": "Zarzal", "name_ru": "Zarzal", "tz": "", "district": "Valle del Cauca"}, {"id": 25, "name": "Armenia", "name_ru": "Armenia", "tz": "", "district": "Quindío"}, {"id": 26, "name": "Popayan", "name_ru": "Popayán", "tz": "", "district": "Cauca"}, {"id": 27, "name": "Itagui", "name_ru": "Itagüí", "tz": "", "district": "Antioquia"}, {"id": 28, "name": "Sincelejo", "name_ru": "Sincelejo", "tz": "", "district": "Sucre"}, {"id": 29, "name": "Floridablanca", "name_ru": "Floridablanca", "tz": "", "district": "Santander"}, {"id": 30, "name": "Envigado", "name_ru": "Envigado", "tz": "", "district": "Antioquia"}, {"id": 31, "name": "Tulua", "name_ru": "Tuluá", "tz": "", "district": "Valle del Cauca"}, {"id": 32, "name": "Tunja", "name_ru": "Tunja", "tz": "", "district": "Boyacá"}, {"id": 33, "name": "Barrancabermeja", "name_ru": "Barrancabermeja", "tz": "", "district": "Santander"}, {"id": 34, "name": "Zipaquira", "name_ru": "Zipaquirá", "tz": "", "district": "Cundinamarca"}, {"id": 35, "name": "Dosquebradas", "name_ru": "Dosquebradas", "tz": "", "district": "Risaralda"}, {"id": 36, "name": "Turbo", "name_ru": "Turbo", "tz": "", "district": "Antioquia"}, {"id": 37, "name": "Riohacha", "name_ru": "Ríohacha", "tz": "", "district": "La Guajira"}, {"id": 38, "name": "Giron", "name_ru": "Girón", "tz": "", "district": "Santander"}, {"id": 39, "name": "Florencia", "name_ru": "Florencia", "tz": "", "district": "Caquetá"}, {"id": 40, "name": "Fusagasuga", "name_ru": "Fusagasugá", "tz": "", "district": "Cundinamarca"}, {"id": 41, "name": "Rionegro", "name_ru": "Rionegro", "tz": "", "district": "Antioquia"}, {"id": 42, "name": "Cartago", "name_ru": "Cartago", "tz": "", "district": "Valle del Cauca"}, {"id": 43, "name": "Pitalito", "name_ru": "Pitalito", "tz": "", "district": "Huila"}, {"id": 44, "name": "Quibdo", "name_ru": "Quibdó", "tz": "", "district": "Chocó"}, {"id": 45, "name": "Girardot", "name_ru": "Girardot", "tz": "", "district": "Cundinamarca"}, {"id": 46, "name": "Cienaga", "name_ru": "Ciénaga", "tz": "", "district": "Magdalena"}, {"id": 47, "name": "Duitama", "name_ru": "Duitama", "tz": "", "district": "Boyacá"}, {"id": 48, "name": "Magangue", "name_ru": "Magangué", "tz": "", "district": "Bolívar"}, {"id": 49, "name": "Maicao", "name_ru": "Maicao", "tz": "", "district": "La Guajira"}, {"id": 50, "name": "Apartado", "name_ru": "Apartadó", "tz": "", "district": "Antioquia"}, {"id": 51, "name": "Uribia", "name_ru": "Uribia", "tz": "", "district": "La Guajira"}, {"id": 52, "name": "Piedecuesta", "name_ru": "Piedecuesta", "tz": "", "district": "Santander"}, {"id": 53, "name": "Facatativa", "name_ru": "Facatativá", "tz": "", "district": "Cundinamarca"}, {"id": 54, "name": "Guadalajara de Buga", "name_ru": "Guadalajara de Buga", "tz": "", "district": "Valle del Cauca"}, {"id": 55, "name": "Santander de Quilichao", "name_ru": "Santander de Quilichao", "tz": "", "district": "Cauca"}, {"id": 56, "name": "Sogamoso", "name_ru": "Sogamoso", "tz": "", "district": "Boyacá"}, {"id": 57, "name": "Madrid", "name_ru": "Madrid", "tz": "", "district": "Cundinamarca"}, {"id": 58, "name": "Aguachica", "name_ru": "Aguachica", "tz": "", "district": "Cesar"}, {"id": 59, "name": "Ipiales", "name_ru": "Ipiales", "tz": "", "district": "Nariño"}, {"id": 60, "name": "Yopal", "name_ru": "Yopal", "tz": "", "district": "Casanare"}, {"id": 61, "name": "Arauca", "name_ru": "Arauca", "tz": "", "district": "Arauca"}, {"id": 62, "name": "Sabaneta", "name_ru": "Sabaneta", "tz": "", "district": "Antioquia"}, {"id": 63, "name": "San Andres", "name_ru": "San Andrés", "tz": "", "district": "San Andrés y Providencia"}, {"id": 64, "name": "San Jose del Guaviare", "name_ru": "San José del Guaviare", "tz": "", "district": "Guaviare"}, {"id": 65, "name": "Leticia", "name_ru": "Leticia", "tz": "", "district": "Amazonas"}, {"id": 66, "name": "Mitu", "name_ru": "Mitú", "tz": "", "district": "Vaupés"}, {"id": 67, "name": "Mocoa", "name_ru": "Mocoa", "tz": "", "district": "Putumayo"}, {"id": 68, "name": "Inirida", "name_ru": "Inírida", "tz": "", "district": "Guainía"}, {"id": 69, "name": "Puerto Carreno", "name_ru": "Puerto Carreño", "tz": "", "district": "Vichada"}, {"id": 70, "name": "Chia", "name_ru": "Chía", "tz": "", "district": "Cundinamarca"}, {"id": 71, "name": "Jamundi", "name_ru": "Jamundí", "tz": "", "district": "Valle del Cauca"}, {"id": 72, "name": "Yumbo", "name_ru": "Yumbo", "tz": "", "district": "Valle del Cauca"}, {"id": 73, "name": "Mosquera", "name_ru": "Mosquera", "tz": "", "district": "Cundinamarca"}, {"id": 74, "name": "Fundacion", "name_ru": "Fundación", "tz": "", "district": "Magdalena"}, {"id": 75, "name": "Ocana", "name_ru": "Ocaña", "tz": "", "district": "Norte de Santander"}, {"id": 76, "name": "Montelibano", "name_ru": "Montelíbano", "tz": "", "district": "Córdoba"}, {"id": 77, "name": "Tumaco", "name_ru": "Tumaco", "tz": "", "district": "Nariño"}, {"id": 78, "name": "Chiquinquira", "name_ru": "Chiquinquirá", "tz": "", "district": "Boyacá"}, {"id": 79, "name": "Sabanalarga", "name_ru": "Sabanalarga", "tz": "", "district": "Atlántico"}, {"id": 80, "name": "Chigorodo", "name_ru": "Chigorodó", "tz": "", "district": "Antioquia"}, {"id": 81, "name": "Cerete", "name_ru": "Cereté", "tz": "", "district": "Córdoba"}, {"id": 82, "name": "Funza", "name_ru": "Funza", "tz": "", "district": "Cundinamarca"}, {"id": 83, "name": "Caldas", "name_ru": "Caldas", "tz": "", "district": "Antioquia"}, {"id": 84, "name": "Los Patios", "name_ru": "Los Patios", "tz": "", "district": "Norte de Santander"}, {"id": 85, "name": "Tierralta", "name_ru": "Tierralta", "tz": "", "district": "Córdoba"}, {"id": 86, "name": "Arjona", "name_ru": "Arjona", "tz": "", "district": "Bolívar"}, {"id": 87, "name": "Espinal", "name_ru": "Espinal", "tz": "", "district": "Tolima"}, {"id": 88, "name": "Acacias", "name_ru": "Acacías", "tz": "", "district": "Meta"}, {"id": 89, "name": "Copacabana", "name_ru": "Copacabana", "tz": "", "district": "Antioquia"}, {"id": 90, "name": "Santa Rosa de Cabal", "name_ru": "Santa Rosa de Cabal", "tz": "", "district": "Risaralda"}, {"id": 91, "name": "La Dorada", "name_ru": "La Dorada", "tz": "", "district": "Caldas"}, {"id": 92, "name": "San Vicente del Caguan", "name_ru": "San Vicente del Caguán", "tz": "", "district": "Caquetá"}, {"id": 93, "name": "Corozal", "name_ru": "Corozal", "tz": "", "district": "Sucre"}, {"id": 94, "name": "Villa del Rosario", "name_ru": "Villa del Rosario", "tz": "", "district": "Norte de Santander"}, {"id": 95, "name": "Garzon", "name_ru": "Garzón", "tz": "", "district": "Huila"}, {"id": 96, "name": "Planeta Rica", "name_ru": "Planeta Rica", "tz": "", "district": "Córdoba"}, {"id": 97, "name": "Necocli", "name_ru": "Necoclí", "tz": "", "district": "Antioquia"}, {"id": 98, "name": "Manaure", "name_ru": "Manaure", "tz": "", "district": "La Guajira"}, {"id": 99, "name": "El Carmen de Bolivar", "name_ru": "El Carmen de Bolívar", "tz": "", "district": "Bolívar"}, {"id": 100, "name": "Marinilla", "name_ru": "Marinilla", "tz": "", "district": "Antioquia"}, {"id": 101, "name": "Cienaga de Oro", "name_ru": "Ciénaga de Oro", "tz": "", "district": "Córdoba"}, {"id": 102, "name": "Turbaco", "name_ru": "Turbaco", "tz": "", "district": "Bolívar"}, {"id": 103, "name": "Puerto Asis", "name_ru": "Puerto Asís", "tz": "", "district": "Putumayo"}, {"id": 104, "name": "Riosucio", "name_ru": "Riosucio", "tz": "", "district": "Caldas"}, {"id": 105, "name": "Plato", "name_ru": "Plato", "tz": "", "district": "Magdalena"}, {"id": 106, "name": "Villamaria", "name_ru": "Villamaría", "tz": "", "district": "Caldas"}, {"id": 107, "name": "San Marcos", "name_ru": "San Marcos", "tz": "", "district": "Sucre"}, {"id": 108, "name": "Pamplona", "name_ru": "Pamplona", "tz": "", "district": "Norte de Santander"}, {"id": 109, "name": "Florida", "name_ru": "Florida", "tz": "", "district": "Valle del Cauca"}, {"id": 110, "name": "Pradera", "name_ru": "Pradera", "tz": "", "district": "Valle del Cauca"}, {"id": 111, "name": "Orito", "name_ru": "Orito", "tz": "", "district": "Putumayo"}, {"id": 112, "name": "Riosucio", "name_ru": "Riosucio", "tz": "", "district": "Chocó"}, {"id": 113, "name": "Puerto Boyaca", "name_ru": "Puerto Boyacá", "tz": "", "district": "Boyacá"}, {"id": 114, "name": "El Banco", "name_ru": "El Banco", "tz": "", "district": "Magdalena"}, {"id": 115, "name": "San Gil", "name_ru": "San Gil", "tz": "", "district": "Santander"}, {"id": 116, "name": "Valle del Guamuez", "name_ru": "Valle del Guamuez", "tz": "", "district": "Putumayo"}, {"id": 117, "name": "Puerto Libertador", "name_ru": "Puerto Libertador", "tz": "", "district": "Córdoba"}, {"id": 118, "name": "Barbosa", "name_ru": "Barbosa", "tz": "", "district": "Antioquia"}, {"id": 119, "name": "Tame", "name_ru": "Tame", "tz": "", "district": "Arauca"}, {"id": 120, "name": "Lorica", "name_ru": "Lorica", "tz": "", "district": "Córdoba"}, {"id": 121, "name": "Girardota", "name_ru": "Girardota", "tz": "", "district": "Antioquia"}, {"id": 122, "name": "San Onofre", "name_ru": "San Onofre", "tz": "", "district": "Sucre"}, {"id": 123, "name": "El Bagre", "name_ru": "El Bagre", "tz": "", "district": "Antioquia"}, {"id": 124, "name": "Guarne", "name_ru": "Guarne", "tz": "", "district": "Antioquia"}, {"id": 125, "name": "Baranoa", "name_ru": "Baranoa", "tz": "", "district": "Atlántico"}, {"id": 126, "name": "Chinu", "name_ru": "Chinú", "tz": "", "district": "Córdoba"}, {"id": 127, "name": "Cimitarra", "name_ru": "Cimitarra", "tz": "", "district": "Santander"}, {"id": 128, "name": "Maria la Baja", "name_ru": "María la Baja", "tz": "", "district": "Bolívar"}, {"id": 129, "name": "Samaniego", "name_ru": "Samaniego", "tz": "", "district": "Nariño"}, {"id": 130, "name": "Agustin Codazzi", "name_ru": "Agustín Codazzi", "tz": "", "district": "Cesar"}, {"id": 131, "name": "Carepa", "name_ru": "Carepa", "tz": "", "district": "Antioquia"}, {"id": 132, "name": "La Vega", "name_ru": "La Vega", "tz": "", "district": "Cauca"}, {"id": 133, "name": "San Andres de Sotavento", "name_ru": "San Andrés de Sotavento", "tz": "", "district": "Córdoba"}, {"id": 134, "name": "Chaparral", "name_ru": "Chaparral", "tz": "", "district": "Tolima"}, {"id": 135, "name": "Ayapel", "name_ru": "Ayapel", "tz": "", "district": "Córdoba"}, {"id": 136, "name": "Urrao", "name_ru": "Urrao", "tz": "", "district": "Antioquia"}, {"id": 137, "name": "Roldanillo", "name_ru": "Roldanillo", "tz": "", "district": "Valle del Cauca"}, {"id": 138, "name": "Valencia", "name_ru": "Valencia", "tz": "", "district": "Córdoba"}, {"id": 139, "name": "Puerto Tejada", "name_ru": "Puerto Tejada", "tz": "", "district": "Cauca"}, {"id": 140, "name": "Cajica", "name_ru": "Cajicá", "tz": "", "district": "Cundinamarca"}, {"id": 141, "name": "San Pelayo", "name_ru": "San Pelayo", "tz": "", "district": "Córdoba"}, {"id": 142, "name": "Arboletes", "name_ru": "Arboletes", "tz": "", "district": "Antioquia"}, {"id": 143, "name": "Villeta", "name_ru": "Villeta", "tz": "", "district": "Cundinamarca"}, {"id": 144, "name": "Andes", "name_ru": "Andes", "tz": "", "district": "Antioquia"}, {"id": 145, "name": "Aguazul", "name_ru": "Aguazul", "tz": "", "district": "Casanare"}, {"id": 146, "name": "Cumaribo", "name_ru": "Cumaribo", "tz": "", "district": "Vichada"}, {"id": 147, "name": "Miranda", "name_ru": "Miranda", "tz": "", "district": "Cauca"}, {"id": 148, "name": "El Charco", "name_ru": "El Charco", "tz": "", "district": "Nariño"}, {"id": 149, "name": "Montenegro", "name_ru": "Montenegro", "tz": "", "district": "Quindío"}, {"id": 150, "name": "Caceres", "name_ru": "Cáceres", "tz": "", "district": "Antioquia"}, {"id": 151, "name": "Santa Rosa del Sur", "name_ru": "Santa Rosa del Sur", "tz": "", "district": "Bolívar"}, {"id": 152, "name": "Pueblo Nuevo", "name_ru": "Pueblo Nuevo", "tz": "", "district": "Córdoba"}, {"id": 153, "name": "Tuchin", "name_ru": "Tuchín", "tz": "", "district": "Córdoba"}, {"id": 154, "name": "Yarumal", "name_ru": "Yarumal", "tz": "", "district": "Antioquia"}, {"id": 155, "name": "Arauquita", "name_ru": "Arauquita", "tz": "", "district": "Arauca"}, {"id": 156, "name": "Guaduas", "name_ru": "Guaduas", "tz": "", "district": "Cundinamarca"}, {"id": 157, "name": "Segovia", "name_ru": "Segovia", "tz": "", "district": "Antioquia"}, {"id": 158, "name": "Pie de Pato", "name_ru": "Pie de Pató", "tz": "", "district": "Chocó"}, {"id": 159, "name": "La Union", "name_ru": "La Unión", "tz": "", "district": "Valle del Cauca"}, {"id": 160, "name": "Cumbal", "name_ru": "Cumbal", "tz": "", "district": "Nariño"}, {"id": 161, "name": "Aracataca", "name_ru": "Aracataca", "tz": "", "district": "Magdalena"}, {"id": 162, "name": "Tuquerres", "name_ru": "Túquerres", "tz": "", "district": "Nariño"}, {"id": 163, "name": "Acevedo", "name_ru": "Acevedo", "tz": "", "district": "Huila"}, {"id": 164, "name": "Villa de San Diego de Ubate", "name_ru": "Villa de San Diego de Ubaté", "tz": "", "district": "Cundinamarca"}, {"id": 165, "name": "Libano", "name_ru": "Líbano", "tz": "", "district": "Tolima"}, {"id": 166, "name": "Bosconia", "name_ru": "Bosconia", "tz": "", "district": "Cesar"}, {"id": 167, "name": "San Juan del Cesar", "name_ru": "San Juan del Cesar", "tz": "", "district": "La Guajira"}, {"id": 168, "name": "Puerto Berrio", "name_ru": "Puerto Berrío", "tz": "", "district": "Antioquia"}, {"id": 169, "name": "Taraza", "name_ru": "Tarazá", "tz": "", "district": "Antioquia"}, {"id": 170, "name": "Cajibio", "name_ru": "Cajibío", "tz": "", "district": "Cauca"}, {"id": 171, "name": "Sibate", "name_ru": "Sibaté", "tz": "", "district": "Cundinamarca"}, {"id": 172, "name": "Sampues", "name_ru": "Sampués", "tz": "", "district": "Sucre"}, {"id": 173, "name": "Dibulla", "name_ru": "Dibulla", "tz": "", "district": "La Guajira"}, {"id": 174, "name": "El Bordo", "name_ru": "El Bordo", "tz": "", "district": "Cauca"}, {"id": 175, "name": "Santa Rosa de Osos", "name_ru": "Santa Rosa de Osos", "tz": "", "district": "Antioquia"}, {"id": 176, "name": "Melgar", "name_ru": "Melgar", "tz": "", "district": "Tolima"}, {"id": 177, "name": "Tibu", "name_ru": "Tibú", "tz": "", "district": "Norte de Santander"}, {"id": 178, "name": "Dagua", "name_ru": "Dagua", "tz": "", "district": "Valle del Cauca"}, {"id": 179, "name": "La Macarena", "name_ru": "La Macarena", "tz": "", "district": "Meta"}, {"id": 180, "name": "Belalcazar", "name_ru": "Belalcázar", "tz": "", "district": "Cauca"}, {"id": 181, "name": "Tocancipa", "name_ru": "Tocancipá", "tz": "", "district": "Cundinamarca"}, {"id": 182, "name": "Sonson", "name_ru": "Sonsón", "tz": "", "district": "Antioquia"}, {"id": 183, "name": "San Pablo", "name_ru": "San Pablo", "tz": "", "district": "Bolívar"}, {"id": 184, "name": "San Bernardo del Viento", "name_ru": "San Bernardo del Viento", "tz": "", "district": "Córdoba"}, {"id": 185, "name": "Guacari", "name_ru": "Guacarí", "tz": "", "district": "Valle del Cauca"}, {"id": 186, "name": "Santiago de Tolu", "name_ru": "Santiago de Tolú", "tz": "", "district": "Sucre"}, {"id": 187, "name": "Gigante", "name_ru": "Gigante", "tz": "", "district": "Huila"}, {"id": 188, "name": "Quimbaya", "name_ru": "Quimbaya", "tz": "", "district": "Quindío"}, {"id": 189, "name": "Cartagena del Chaira", "name_ru": "Cartagena del Chairá", "tz": "", "district": "Caquetá"}, {"id": 190, "name": "Yarumal", "name_ru": "Yarumal", "tz": "", "district": "Antioquia"}, {"id": 191, "name": "Fonseca", "name_ru": "Fonseca", "tz": "", "district": "La Guajira"}, {"id": 192, "name": "San Vicente de Chucuri", "name_ru": "San Vicente de Chucurí", "tz": "", "district": "Santander"}, {"id": 193, "name": "San Luis de Since", "name_ru": "San Luis de Sincé", "tz": "", "district": "Sucre"}, {"id": 194, "name": "Puerto Lopez", "name_ru": "Puerto López", "tz": "", "district": "Meta"}, {"id": 195, "name": "Campoalegre", "name_ru": "Campoalegre", "tz": "", "district": "Huila"}, {"id": 196, "name": "Buenos Aires", "name_ru": "Buenos Aires", "tz": "", "district": "Cauca"}, {"id": 197, "name": "Caldono", "name_ru": "Caldono", "tz": "", "district": "Cauca"}, {"id": 198, "name": "Quinchia", "name_ru": "Quinchía", "tz": "", "district": "Risaralda"}, {"id": 199, "name": "San Agustin", "name_ru": "San Agustín", "tz": "", "district": "Huila"}, {"id": 200, "name": "San Juan Nepomuceno", "name_ru": "San Juan Nepomuceno", "tz": "", "district": "Bolívar"}, {"id": 201, "name": "Majagual", "name_ru": "Majagual", "tz": "", "district": "Sucre"}, {"id": 202, "name": "Puerto Rico", "name_ru": "Puerto Rico", "tz": "", "district": "Caquetá"}, {"id": 203, "name": "San Antero", "name_ru": "San Antero", "tz": "", "district": "Córdoba"}, {"id": 204, "name": "Corinto", "name_ru": "Corinto", "tz": "", "district": "Cauca"}, {"id": 205, "name": "La Virginia", "name_ru": "La Virginia", "tz": "", "district": "Risaralda"}, {"id": 206, "name": "Pivijay", "name_ru": "Pivijay", "tz": "", "district": "Magdalena"}, {"id": 207, "name": "Puebloviejo", "name_ru": "Puebloviejo", "tz": "", "district": "Magdalena"}, {"id": 208, "name": "Puerto Escondido", "name_ru": "Puerto Escondido", "tz": "", "district": "Córdoba"}, {"id": 209, "name": "Bocas de Satinga", "name_ru": "Bocas de Satinga", "tz": "", "district": "Nariño"}, {"id": 210, "name": "Silvia", "name_ru": "Silvia", "tz": "", "district": "Cauca"}, {"id": 211, "name": "El Dificil", "name_ru": "El Difícil", "tz": "", "district": "Magdalena"}, {"id": 212, "name": "Inza", "name_ru": "Inzá", "tz": "", "district": "Cauca"}, {"id": 213, "name": "San Pedro de Uraba", "name_ru": "San Pedro de Urabá", "tz": "", "district": "Antioquia"}, {"id": 214, "name": "Remedios", "name_ru": "Remedios", "tz": "", "district": "Antioquia"}, {"id": 215, "name": "Paipa", "name_ru": "Paipa", "tz": "", "district": "Boyacá"}, {"id": 216, "name": "Galapa", "name_ru": "Galapa", "tz": "", "district": "Atlántico"}, {"id": 217, "name": "Guachaves", "name_ru": "Guachavés", "tz": "", "district": "Nariño"}, {"id": 218, "name": "Sitionuevo", "name_ru": "Sitionuevo", "tz": "", "district": "Magdalena"}, {"id": 219, "name": "Puerto Wilches", "name_ru": "Puerto Wilches", "tz": "", "district": "Santander"}, {"id": 220, "name": "Neira", "name_ru": "Neira", "tz": "", "district": "Caldas"}, {"id": 221, "name": "Guamo", "name_ru": "Guamo", "tz": "", "district": "Tolima"}, {"id": 222, "name": "Amaga", "name_ru": "Amagá", "tz": "", "district": "Antioquia"}, {"id": 223, "name": "Chimichagua", "name_ru": "Chimichagua", "tz": "", "district": "Cesar"}, {"id": 224, "name": "Planadas", "name_ru": "Planadas", "tz": "", "district": "Tolima"}, {"id": 225, "name": "Tabio", "name_ru": "Tabio", "tz": "", "district": "Cundinamarca"}, {"id": 226, "name": "Barbosa", "name_ru": "Barbosa", "tz": "", "district": "Santander"}, {"id": 227, "name": "Fresno", "name_ru": "Fresno", "tz": "", "district": "Tolima"}, {"id": 228, "name": "Purificacion", "name_ru": "Purificación", "tz": "", "district": "Tolima"}, {"id": 229, "name": "Flandes", "name_ru": "Flandes", "tz": "", "district": "Tolima"}, {"id": 230, "name": "Sopo", "name_ru": "Sopó", "tz": "", "district": "Cundinamarca"}, {"id": 231, "name": "Monitos", "name_ru": "Moñitos", "tz": "", "district": "Córdoba"}, {"id": 232, "name": "Aipe", "name_ru": "Aipe", "tz": "", "district": "Huila"}, {"id": 233, "name": "La Dorada", "name_ru": "La Dorada", "tz": "", "district": "Putumayo"}, {"id": 234, "name": "La Calera", "name_ru": "La Calera", "tz": "", "district": "Cundinamarca"}, {"id": 235, "name": "Caicedonia", "name_ru": "Caicedonia", "tz": "", "district": "Valle del Cauca"}, {"id": 236, "name": "Hatonuevo", "name_ru": "Hatonuevo", "tz": "", "district": "La Guajira"}, {"id": 237, "name": "San Carlos", "name_ru": "San Carlos", "tz": "", "district": "Córdoba"}, {"id": 238, "name": "Isnos", "name_ru": "Isnos", "tz": "", "district": "Huila"}, {"id": 239, "name": "Coyaima", "name_ru": "Coyaima", "tz": "", "district": "Tolima"}, {"id": 240, "name": "Circasia", "name_ru": "Circasia", "tz": "", "district": "Quindío"}, {"id": 241, "name": "Guamal", "name_ru": "Guamal", "tz": "", "district": "Magdalena"}, {"id": 242, "name": "Supia", "name_ru": "Supía", "tz": "", "district": "Caldas"}, {"id": 243, "name": "Argelia", "name_ru": "Argelia", "tz": "", "district": "Cauca"}, {"id": 244, "name": "Ciudad Bolivar", "name_ru": "Ciudad Bolívar", "tz": "", "district": "Antioquia"}, {"id": 245, "name": "San Juan de Uraba", "name_ru": "San Juan de Urabá", "tz": "", "district": "Antioquia"}, {"id": 246, "name": "Tauramena", "name_ru": "Tauramena", "tz": "", "district": "Casanare"}, {"id": 247, "name": "Pueblo Bello", "name_ru": "Pueblo Bello", "tz": "", "district": "Cesar"}, {"id": 248, "name": "Puerto Colombia", "name_ru": "Puerto Colombia", "tz": "", "district": "Atlántico"}, {"id": 249, "name": "Fortul", "name_ru": "Fortul", "tz": "", "district": "Arauca"}, {"id": 250, "name": "Los Cordobas", "name_ru": "Los Córdobas", "tz": "", "district": "Córdoba"}, {"id": 251, "name": "Morales", "name_ru": "Morales", "tz": "", "district": "Cauca"}, {"id": 252, "name": "San Benito Abad", "name_ru": "San Benito Abad", "tz": "", "district": "Sucre"}, {"id": 253, "name": "San Alberto", "name_ru": "San Alberto", "tz": "", "district": "Cesar"}, {"id": 254, "name": "Balboa", "name_ru": "Balboa", "tz": "", "district": "Cauca"}, {"id": 255, "name": "Pensilvania", "name_ru": "Pensilvania", "tz": "", "district": "Caldas"}, {"id": 256, "name": "Buesaco", "name_ru": "Buesaco", "tz": "", "district": "Nariño"}, {"id": 257, "name": "Paz de Ariporo", "name_ru": "Paz de Ariporo", "tz": "", "district": "Casanare"}, {"id": 258, "name": "Mahates", "name_ru": "Mahates", "tz": "", "district": "Bolívar"}, {"id": 259, "name": "Istmina", "name_ru": "Istmina", "tz": "", "district": "Chocó"}, {"id": 260, "name": "Santa Ana", "name_ru": "Santa Ana", "tz": "", "district": "Magdalena"}, {"id": 261, "name": "San Martin", "name_ru": "San Martín", "tz": "", "district": "Meta"}, {"id": 262, "name": "Nechi", "name_ru": "Nechí", "tz": "", "district": "Antioquia"}, {"id": 263, "name": "Pinillos", "name_ru": "Pinillos", "tz": "", "district": "Bolívar"}, {"id": 264, "name": "Yolombo", "name_ru": "Yolombó", "tz": "", "district": "Antioquia"}, {"id": 265, "name": "Solano", "name_ru": "Solano", "tz": "", "district": "Caquetá"}, {"id": 266, "name": "Sandona", "name_ru": "Sandoná", "tz": "", "district": "Nariño"}, {"id": 267, "name": "Vistahermosa", "name_ru": "Vistahermosa", "tz": "", "district": "Meta"}, {"id": 268, "name": "Sabanagrande", "name_ru": "Sabanagrande", "tz": "", "district": "Atlántico"}, {"id": 269, "name": "San Jose", "name_ru": "San José", "tz": "", "district": "Nariño"}, {"id": 270, "name": "La Union", "name_ru": "La Unión", "tz": "", "district": "Nariño"}, {"id": 271, "name": "Choconta", "name_ru": "Chocontá", "tz": "", "district": "Cundinamarca"}, {"id": 272, "name": "Socorro", "name_ru": "Socorro", "tz": "", "district": "Santander"}, {"id": 273, "name": "Santa Rosa", "name_ru": "Santa Rosa", "tz": "", "district": "Bolívar"}, {"id": 274, "name": "Villanueva", "name_ru": "Villanueva", "tz": "", "district": "Casanare"}, {"id": 275, "name": "Algeciras", "name_ru": "Algeciras", "tz": "", "district": "Huila"}, {"id": 276, "name": "Calamar", "name_ru": "Calamar", "tz": "", "district": "Bolívar"}, {"id": 277, "name": "Valdivia", "name_ru": "Valdivia", "tz": "", "district": "Antioquia"}, {"id": 278, "name": "El Retorno", "name_ru": "El Retorno", "tz": "", "district": "Guaviare"}, {"id": 279, "name": "Puerto Guzman", "name_ru": "Puerto Guzmán", "tz": "", "district": "Putumayo"}, {"id": 280, "name": "La Montanita", "name_ru": "La Montañita", "tz": "", "district": "Caquetá"}, {"id": 281, "name": "Donmatias", "name_ru": "Donmatías", "tz": "", "district": "Antioquia"}, {"id": 282, "name": "Cogua", "name_ru": "Cogua", "tz": "", "district": "Cundinamarca"}, {"id": 283, "name": "Marsella", "name_ru": "Marsella", "tz": "", "district": "Risaralda"}, {"id": 284, "name": "Rioblanco", "name_ru": "Rioblanco", "tz": "", "district": "Tolima"}, {"id": 285, "name": "El Zulia", "name_ru": "El Zulia", "tz": "", "district": "Norte de Santander"}, {"id": 286, "name": "Honda", "name_ru": "Honda", "tz": "", "district": "Tolima"}, {"id": 287, "name": "San Jose", "name_ru": "San José", "tz": "", "district": "Nariño"}, {"id": 288, "name": "Canalete", "name_ru": "Canalete", "tz": "", "district": "Córdoba"}, {"id": 289, "name": "Alcala", "name_ru": "Alcalá", "tz": "", "district": "Valle del Cauca"}, {"id": 290, "name": "El Paso", "name_ru": "El Paso", "tz": "", "district": "Cesar"}, {"id": 291, "name": "Santo Tomas", "name_ru": "Santo Tomás", "tz": "", "district": "Atlántico"}, {"id": 292, "name": "Teorama", "name_ru": "Teorama", "tz": "", "district": "Norte de Santander"}, {"id": 293, "name": "Palmar de Varela", "name_ru": "Palmar de Varela", "tz": "", "district": "Atlántico"}, {"id": 294, "name": "Puerto Concordia", "name_ru": "Puerto Concordia", "tz": "", "district": "Meta"}, {"id": 295, "name": "Achi", "name_ru": "Achí", "tz": "", "district": "Bolívar"}, {"id": 296, "name": "Curumani", "name_ru": "Curumaní", "tz": "", "district": "Cesar"}, {"id": 297, "name": "Guadalupe", "name_ru": "Guadalupe", "tz": "", "district": "Huila"}, {"id": 298, "name": "Luruaco", "name_ru": "Luruaco", "tz": "", "district": "Atlántico"}, {"id": 299, "name": "Dabeiba", "name_ru": "Dabeiba", "tz": "", "district": "Antioquia"}, {"id": 300, "name": "Santa Fe de Antioquia", "name_ru": "Santa Fe de Antioquia", "tz": "", "district": "Antioquia"}, {"id": 301, "name": "Buenavista", "name_ru": "Buenavista", "tz": "", "district": "Córdoba"}, {"id": 302, "name": "Amalfi", "name_ru": "Amalfi", "tz": "", "district": "Antioquia"}, {"id": 303, "name": "Manzanares", "name_ru": "Manzanares", "tz": "", "district": "Caldas"}, {"id": 304, "name": "Sardinata", "name_ru": "Sardinata", "tz": "", "district": "Norte de Santander"}, {"id": 305, "name": "Mutata", "name_ru": "Mutatá", "tz": "", "district": "Antioquia"}, {"id": 306, "name": "El Colegio", "name_ru": "El Colegio", "tz": "", "district": "Cundinamarca"}, {"id": 307, "name": "La Jagua de Ibirico", "name_ru": "La Jagua de Ibirico", "tz": "", "district": "Cesar"}, {"id": 308, "name": "Natagaima", "name_ru": "Natagaima", "tz": "", "district": "Tolima"}, {"id": 309, "name": "El Doncello", "name_ru": "El Doncello", "tz": "", "district": "Caquetá"}, {"id": 310, "name": "Repelon", "name_ru": "Repelón", "tz": "", "district": "Atlántico"}, {"id": 311, "name": "Silvania", "name_ru": "Silvania", "tz": "", "district": "Cundinamarca"}, {"id": 312, "name": "Pailitas", "name_ru": "Pailitas", "tz": "", "district": "Cesar"}, {"id": 313, "name": "Villa de Leyva", "name_ru": "Villa de Leyva", "tz": "", "district": "Boyacá"}, {"id": 314, "name": "Timbiqui", "name_ru": "Timbiquí", "tz": "", "district": "Cauca"}, {"id": 315, "name": "Tiquisio", "name_ru": "Tiquisio", "tz": "", "district": "Bolívar"}, {"id": 316, "name": "Taminango", "name_ru": "Taminango", "tz": "", "district": "Nariño"}, {"id": 317, "name": "Ginebra", "name_ru": "Ginebra", "tz": "", "district": "Valle del Cauca"}, {"id": 318, "name": "Puerto Triunfo", "name_ru": "Puerto Triunfo", "tz": "", "district": "Antioquia"}, {"id": 319, "name": "San Bernardo", "name_ru": "San Bernardo", "tz": "", "district": "Nariño"}, {"id": 320, "name": "San Jacinto", "name_ru": "San Jacinto", "tz": "", "district": "Bolívar"}, {"id": 321, "name": "Nueva Granada", "name_ru": "Nueva Granada", "tz": "", "district": "Magdalena"}, {"id": 322, "name": "Galeras", "name_ru": "Galeras", "tz": "", "district": "Sucre"}, {"id": 323, "name": "Santa Barbara", "name_ru": "Santa Bárbara", "tz": "", "district": "Antioquia"}, {"id": 324, "name": "Villagarzon", "name_ru": "Villagarzón", "tz": "", "district": "Putumayo"}, {"id": 325, "name": "Moniquira", "name_ru": "Moniquirá", "tz": "", "district": "Boyacá"}, {"id": 326, "name": "Almaguer", "name_ru": "Almaguer", "tz": "", "district": "Cauca"}, {"id": 327, "name": "El Paujil", "name_ru": "El Paujíl", "tz": "", "district": "Caquetá"}, {"id": 328, "name": "Aguadas", "name_ru": "Aguadas", "tz": "", "district": "Caldas"}, {"id": 329, "name": "Montecristo", "name_ru": "Montecristo", "tz": "", "district": "Bolívar"}, {"id": 330, "name": "Suaza", "name_ru": "Suaza", "tz": "", "district": "Huila"}, {"id": 331, "name": "Villapinzon", "name_ru": "Villapinzón", "tz": "", "district": "Cundinamarca"}, {"id": 332, "name": "Fredonia", "name_ru": "Fredonia", "tz": "", "district": "Antioquia"}, {"id": 333, "name": "El Reten", "name_ru": "El Retén", "tz": "", "district": "Magdalena"}, {"id": 334, "name": "Bugalagrande", "name_ru": "Bugalagrande", "tz": "", "district": "Valle del Cauca"}, {"id": 335, "name": "Samaca", "name_ru": "Samacá", "tz": "", "district": "Boyacá"}, {"id": 336, "name": "Ovejas", "name_ru": "Ovejas", "tz": "", "district": "Sucre"}, {"id": 337, "name": "Sotomayor", "name_ru": "Sotomayor", "tz": "", "district": "Nariño"}, {"id": 338, "name": "Timana", "name_ru": "Timaná", "tz": "", "district": "Huila"}, {"id": 339, "name": "San Lorenzo", "name_ru": "San Lorenzo", "tz": "", "district": "Nariño"}, {"id": 340, "name": "Tenjo", "name_ru": "Tenjo", "tz": "", "district": "Cundinamarca"}, {"id": 341, "name": "Concordia", "name_ru": "Concordia", "tz": "", "district": "Antioquia"}, {"id": 342, "name": "Simiti", "name_ru": "Simití", "tz": "", "district": "Bolívar"}, {"id": 343, "name": "Rovira", "name_ru": "Rovira", "tz": "", "district": "Tolima"}, {"id": 344, "name": "Polonuevo", "name_ru": "Polonuevo", "tz": "", "district": "Atlántico"}, {"id": 345, "name": "Urumita", "name_ru": "Urumita", "tz": "", "district": "La Guajira"}, {"id": 346, "name": "La Union", "name_ru": "La Unión", "tz": "", "district": "Antioquia"}, {"id": 347, "name": "Tado", "name_ru": "Tadó", "tz": "", "district": "Chocó"}, {"id": 348, "name": "Velez", "name_ru": "Vélez", "tz": "", "district": "Santander"}, {"id": 349, "name": "Tocaima", "name_ru": "Tocaima", "tz": "", "district": "Cundinamarca"}, {"id": 350, "name": "Campo de la Cruz", "name_ru": "Campo de la Cruz", "tz": "", "district": "Atlántico"}, {"id": 351, "name": "Ponedera", "name_ru": "Ponedera", "tz": "", "district": "Atlántico"}, {"id": 352, "name": "Sabana de Torres", "name_ru": "Sabana de Torres", "tz": "", "district": "Santander"}, {"id": 353, "name": "Pelaya", "name_ru": "Pelaya", "tz": "", "district": "Cesar"}, {"id": 354, "name": "Salgar", "name_ru": "Salgar", "tz": "", "district": "Antioquia"}, {"id": 355, "name": "Totoro", "name_ru": "Totoró", "tz": "", "district": "Cauca"}, {"id": 356, "name": "La Primavera", "name_ru": "La Primavera", "tz": "", "district": "Vichada"}, {"id": 357, "name": "Guaranda", "name_ru": "Guaranda", "tz": "", "district": "Sucre"}, {"id": 358, "name": "El Rosal", "name_ru": "El Rosal", "tz": "", "district": "Cundinamarca"}, {"id": 359, "name": "Suesca", "name_ru": "Suesca", "tz": "", "district": "Cundinamarca"}, {"id": 360, "name": "Betulia", "name_ru": "Betulia", "tz": "", "district": "Antioquia"}, {"id": 361, "name": "Retiro", "name_ru": "Retiro", "tz": "", "district": "Antioquia"}, {"id": 362, "name": "El Pinon", "name_ru": "El Piñón", "tz": "", "district": "Magdalena"}, {"id": 363, "name": "Anori", "name_ru": "Anorí", "tz": "", "district": "Antioquia"}, {"id": 364, "name": "Aquitania", "name_ru": "Aquitania", "tz": "", "district": "Boyacá"}, {"id": 365, "name": "Chivolo", "name_ru": "Chivolo", "tz": "", "district": "Magdalena"}, {"id": 366, "name": "Guasca", "name_ru": "Guasca", "tz": "", "district": "Cundinamarca"}, {"id": 367, "name": "Landazuri", "name_ru": "Landázuri", "tz": "", "district": "Santander"}, {"id": 368, "name": "Tamesis", "name_ru": "Támesis", "tz": "", "district": "Antioquia"}, {"id": 369, "name": "La Apartada", "name_ru": "La Apartada", "tz": "", "district": "Córdoba"}, {"id": 370, "name": "Obando", "name_ru": "Obando", "tz": "", "district": "Valle del Cauca"}, {"id": 371, "name": "Condoto", "name_ru": "Condoto", "tz": "", "district": "Chocó"}, {"id": 372, "name": "Anapoima", "name_ru": "Anapoima", "tz": "", "district": "Cundinamarca"}, {"id": 373, "name": "Sopetran", "name_ru": "Sopetrán", "tz": "", "district": "Antioquia"}, {"id": 374, "name": "Tenerife", "name_ru": "Tenerife", "tz": "", "district": "Magdalena"}, {"id": 375, "name": "Juan de Acosta", "name_ru": "Juan de Acosta", "tz": "", "district": "Atlántico"}, {"id": 376, "name": "Titiribi", "name_ru": "Titiribí", "tz": "", "district": "Antioquia"}, {"id": 377, "name": "Rio de Oro", "name_ru": "Río de Oro", "tz": "", "district": "Cesar"}, {"id": 378, "name": "El Carmen de Atrato", "name_ru": "El Carmen de Atrato", "tz": "", "district": "Chocó"}, {"id": 379, "name": "Cordoba", "name_ru": "Córdoba", "tz": "", "district": "Nariño"}, {"id": 380, "name": "Guapi", "name_ru": "Guapí", "tz": "", "district": "Cauca"}, {"id": 381, "name": "Jardin", "name_ru": "Jardín", "tz": "", "district": "Antioquia"}, {"id": 382, "name": "Filandia", "name_ru": "Filandia", "tz": "", "district": "Quindío"}, {"id": 383, "name": "Altos del Rosario", "name_ru": "Altos del Rosario", "tz": "", "district": "Bolívar"}, {"id": 384, "name": "Manati", "name_ru": "Manatí", "tz": "", "district": "Atlántico"}, {"id": 385, "name": "San Jacinto del Cauca", "name_ru": "San Jacinto del Cauca", "tz": "", "district": "Bolívar"}, {"id": 386, "name": "Rosas", "name_ru": "Rosas", "tz": "", "district": "Cauca"}, {"id": 387, "name": "Anolaima", "name_ru": "Anolaima", "tz": "", "district": "Cundinamarca"}, {"id": 388, "name": "Los Santos", "name_ru": "Los Santos", "tz": "", "district": "Santander"}, {"id": 389, "name": "Santa Barbara de Pinto", "name_ru": "Santa Bárbara de Pinto", "tz": "", "district": "Magdalena"}, {"id": 390, "name": "Saboya", "name_ru": "Saboyá", "tz": "", "district": "Boyacá"}, {"id": 391, "name": "Hatillo de Loba", "name_ru": "Hatillo de Loba", "tz": "", "district": "Bolívar"}, {"id": 392, "name": "Cordoba", "name_ru": "Córdoba", "tz": "", "district": "Bolívar"}, {"id": 393, "name": "Ebejico", "name_ru": "Ebéjico", "tz": "", "district": "Antioquia"}, {"id": 394, "name": "Curiti", "name_ru": "Curití", "tz": "", "district": "Santander"}, {"id": 395, "name": "Caimito", "name_ru": "Caimito", "tz": "", "district": "Sucre"}, {"id": 396, "name": "Oiba", "name_ru": "Oiba", "tz": "", "district": "Santander"}, {"id": 397, "name": "Santa Lucia", "name_ru": "Santa Lucía", "tz": "", "district": "Atlántico"}, {"id": 398, "name": "Cisneros", "name_ru": "Cisneros", "tz": "", "district": "Antioquia"}, {"id": 399, "name": "Puente Nacional", "name_ru": "Puente Nacional", "tz": "", "district": "Santander"}, {"id": 400, "name": "Candelaria", "name_ru": "Candelaria", "tz": "", "district": "Atlántico"}, {"id": 401, "name": "La Union", "name_ru": "La Unión", "tz": "", "district": "Sucre"}, {"id": 402, "name": "Guayabal", "name_ru": "Guayabal", "tz": "", "district": "Tolima"}, {"id": 403, "name": "Covenas", "name_ru": "Coveñas", "tz": "", "district": "Sucre"}, {"id": 404, "name": "Talaigua Nuevo", "name_ru": "Talaigua Nuevo", "tz": "", "district": "Bolívar"}, {"id": 405, "name": "El Playon", "name_ru": "El Playón", "tz": "", "district": "Santander"}, {"id": 406, "name": "Agua de Dios", "name_ru": "Agua de Dios", "tz": "", "district": "Cundinamarca"}, {"id": 407, "name": "El Aguila", "name_ru": "El Águila", "tz": "", "district": "Valle del Cauca"}, {"id": 408, "name": "Belen de los Andaquies", "name_ru": "Belén de los Andaquíes", "tz": "", "district": "Caquetá"}, {"id": 409, "name": "El Tarra", "name_ru": "El Tarra", "tz": "", "district": "Norte de Santander"}, {"id": 410, "name": "Mogotes", "name_ru": "Mogotes", "tz": "", "district": "Santander"}, {"id": 411, "name": "Santo Domingo", "name_ru": "Santo Domingo", "tz": "", "district": "Antioquia"}, {"id": 412, "name": "Tubara", "name_ru": "Tubará", "tz": "", "district": "Atlántico"}, {"id": 413, "name": "Regidor", "name_ru": "Regidor", "tz": "", "district": "Bolívar"}, {"id": 414, "name": "Lenguazaque", "name_ru": "Lenguazaque", "tz": "", "district": "Cundinamarca"}, {"id": 415, "name": "Charala", "name_ru": "Charalá", "tz": "", "district": "Santander"}, {"id": 416, "name": "Medina", "name_ru": "Medina", "tz": "", "district": "Cundinamarca"}, {"id": 417, "name": "Granada", "name_ru": "Granada", "tz": "", "district": "Antioquia"}, {"id": 418, "name": "Suaita", "name_ru": "Suaita", "tz": "", "district": "Santander"}, {"id": 419, "name": "Margarita", "name_ru": "Margarita", "tz": "", "district": "Bolívar"}, {"id": 420, "name": "Norosi", "name_ru": "Norosí", "tz": "", "district": "Bolívar"}, {"id": 421, "name": "Puerto Narino", "name_ru": "Puerto Nariño", "tz": "", "district": "Amazonas"}, {"id": 422, "name": "Chita", "name_ru": "Chita", "tz": "", "district": "Boyacá"}, {"id": 423, "name": "Granada", "name_ru": "Granada", "tz": "", "district": "Cundinamarca"}, {"id": 424, "name": "Pesca", "name_ru": "Pesca", "tz": "", "district": "Boyacá"}, {"id": 425, "name": "Tibana", "name_ru": "Tibaná", "tz": "", "district": "Boyacá"}, {"id": 426, "name": "San Zenon", "name_ru": "San Zenón", "tz": "", "district": "Magdalena"}, {"id": 427, "name": "Guatape", "name_ru": "Guatapé", "tz": "", "district": "Antioquia"}, {"id": 428, "name": "Nuqui", "name_ru": "Nuquí", "tz": "", "district": "Chocó"}, {"id": 429, "name": "Alvarado", "name_ru": "Alvarado", "tz": "", "district": "Tolima"}, {"id": 430, "name": "Bojaca", "name_ru": "Bojacá", "tz": "", "district": "Cundinamarca"}, {"id": 431, "name": "Iles", "name_ru": "Iles", "tz": "", "district": "Nariño"}, {"id": 432, "name": "Zapatoca", "name_ru": "Zapatoca", "tz": "", "district": "Santander"}, {"id": 433, "name": "Junin", "name_ru": "Junín", "tz": "", "district": "Cundinamarca"}, {"id": 434, "name": "Usiacuri", "name_ru": "Usiacurí", "tz": "", "district": "Atlántico"}, {"id": 435, "name": "La Belleza", "name_ru": "La Belleza", "tz": "", "district": "Santander"}, {"id": 436, "name": "Muzo", "name_ru": "Muzo", "tz": "", "district": "Boyacá"}, {"id": 437, "name": "Orocue", "name_ru": "Orocué", "tz": "", "district": "Casanare"}, {"id": 438, "name": "Puerres", "name_ru": "Puerres", "tz": "", "district": "Nariño"}, {"id": 439, "name": "Aratoca", "name_ru": "Aratoca", "tz": "", "district": "Santander"}, {"id": 440, "name": "San Francisco", "name_ru": "San Francisco", "tz": "", "district": "Cundinamarca"}, {"id": 441, "name": "Uramita", "name_ru": "Uramita", "tz": "", "district": "Antioquia"}, {"id": 442, "name": "Motavita", "name_ru": "Motavita", "tz": "", "district": "Boyacá"}, {"id": 443, "name": "Uribe", "name_ru": "Uribe", "tz": "", "district": "Meta"}, {"id": 444, "name": "Pedraza", "name_ru": "Pedraza", "tz": "", "district": "Magdalena"}, {"id": 445, "name": "Puerto Parra", "name_ru": "Puerto Parra", "tz": "", "district": "Santander"}, {"id": 446, "name": "San Luis de Palenque", "name_ru": "San Luis de Palenque", "tz": "", "district": "Casanare"}, {"id": 447, "name": "Paratebueno", "name_ru": "Paratebueno", "tz": "", "district": "Cundinamarca"}, {"id": 448, "name": "Santana", "name_ru": "Santana", "tz": "", "district": "Boyacá"}, {"id": 449, "name": "Coromoro", "name_ru": "Coromoro", "tz": "", "district": "Santander"}, {"id": 450, "name": "Tarso", "name_ru": "Tarso", "tz": "", "district": "Antioquia"}, {"id": 451, "name": "Ambalema", "name_ru": "Ambalema", "tz": "", "district": "Tolima"}, {"id": 452, "name": "Maripi", "name_ru": "Maripí", "tz": "", "district": "Boyacá"}, {"id": 453, "name": "Simacota", "name_ru": "Simacota", "tz": "", "district": "Santander"}, {"id": 454, "name": "Soata", "name_ru": "Soatá", "tz": "", "district": "Boyacá"}, {"id": 455, "name": "Tona", "name_ru": "Tona", "tz": "", "district": "Santander"}, {"id": 456, "name": "Socha", "name_ru": "Socha", "tz": "", "district": "Boyacá"}, {"id": 457, "name": "Boavita", "name_ru": "Boavita", "tz": "", "district": "Boyacá"}, {"id": 458, "name": "Salento", "name_ru": "Salento", "tz": "", "district": "Quindío"}, {"id": 459, "name": "Guatavita", "name_ru": "Guatavita", "tz": "", "district": "Cundinamarca"}, {"id": 460, "name": "Guican", "name_ru": "Güicán", "tz": "", "district": "Boyacá"}, {"id": 461, "name": "Cubara", "name_ru": "Cubará", "tz": "", "district": "Boyacá"}, {"id": 462, "name": "Albania", "name_ru": "Albania", "tz": "", "district": "Caquetá"}, {"id": 463, "name": "Tasco", "name_ru": "Tasco", "tz": "", "district": "Boyacá"}, {"id": 464, "name": "Florian", "name_ru": "Florián", "tz": "", "district": "Santander"}, {"id": 465, "name": "Heliconia", "name_ru": "Heliconia", "tz": "", "district": "Antioquia"}, {"id": 466, "name": "Alban", "name_ru": "Albán", "tz": "", "district": "Cundinamarca"}, {"id": 467, "name": "Coloso", "name_ru": "Colosó", "tz": "", "district": "Sucre"}, {"id": 468, "name": "Sutamarchan", "name_ru": "Sutamarchán", "tz": "", "district": "Boyacá"}, {"id": 469, "name": "Chitaraque", "name_ru": "Chitaraque", "tz": "", "district": "Boyacá"}, {"id": 470, "name": "Zipacon", "name_ru": "Zipacón", "tz": "", "district": "Cundinamarca"}, {"id": 471, "name": "Villanueva", "name_ru": "Villanueva", "tz": "", "district": "Santander"}, {"id": 472, "name": "Chiquiza", "name_ru": "Chíquiza", "tz": "", "district": "Boyacá"}, {"id": 473, "name": "Caramanta", "name_ru": "Caramanta", "tz": "", "district": "Antioquia"}, {"id": 474, "name": "Tota", "name_ru": "Tota", "tz": "", "district": "Boyacá"}, {"id": 475, "name": "Cordoba", "name_ru": "Córdoba", "tz": "", "district": "Quindío"}, {"id": 476, "name": "San Jose de Pare", "name_ru": "San José de Pare", "tz": "", "district": "Boyacá"}, {"id": 477, "name": "Arcabuco", "name_ru": "Arcabuco", "tz": "", "district": "Boyacá"}, {"id": 478, "name": "El Cocuy", "name_ru": "El Cocuy", "tz": "", "district": "Boyacá"}, {"id": 479, "name": "Betulia", "name_ru": "Betulia", "tz": "", "district": "Santander"}, {"id": 480, "name": "Labranzagrande", "name_ru": "Labranzagrande", "tz": "", "district": "Boyacá"}, {"id": 481, "name": "Jurado", "name_ru": "Juradó", "tz": "", "district": "Chocó"}]