[{"id": 1, "name": "San Jose", "name_ru": "San José", "tz": "", "district": "San José"}, {"id": 2, "name": "Puerto Limon", "name_ru": "Puerto Limón", "tz": "", "district": "Limón"}, {"id": 3, "name": "Alajuela", "name_ru": "Alajuela", "tz": "", "district": "Alajuela"}, {"id": 4, "name": "Liberia", "name_ru": "Liberia", "tz": "", "district": "Guanacaste"}, {"id": 5, "name": "Puntarenas", "name_ru": "Puntarenas", "tz": "", "district": "Puntarenas"}, {"id": 6, "name": "San Juan", "name_ru": "San Juan", "tz": "", "district": "San José"}, {"id": 7, "name": "Cartago", "name_ru": "Cartago", "tz": "", "district": "Cartago"}, {"id": 8, "name": "Heredia", "name_ru": "Heredia", "tz": "", "district": "Heredia"}, {"id": 9, "name": "Santa Ana", "name_ru": "Santa Ana", "tz": "", "district": "San José"}, {"id": 10, "name": "Quesada", "name_ru": "Quesada", "tz": "", "district": "Alajuela"}, {"id": 11, "name": "Buenos Aires", "name_ru": "Buenos Aires", "tz": "", "district": "Puntarenas"}, {"id": 12, "name": "Canas", "name_ru": "Cañas", "tz": "", "district": "Guanacaste"}, {"id": 13, "name": "Colon", "name_ru": "Colón", "tz": "", "district": "San José"}, {"id": 14, "name": "Santiago", "name_ru": "Santiago", "tz": "", "district": "San José"}, {"id": 15, "name": "Sixaola", "name_ru": "Sixaola", "tz": "", "district": "Limón"}, {"id": 16, "name": "Golfito", "name_ru": "Golfito", "tz": "", "district": "Puntarenas"}, {"id": 17, "name": "La Cruz", "name_ru": "La Cruz", "tz": "", "district": "Guanacaste"}, {"id": 18, "name": "Ciudad Cortes", "name_ru": "Ciudad Cortés", "tz": "", "district": "Puntarenas"}]