[{"id": 1, "name": "Havana", "name_ru": "Havana", "tz": "", "district": "La Habana"}, {"id": 2, "name": "Santiago de Cuba", "name_ru": "Santiago de Cuba", "tz": "", "district": "Santiago de Cuba"}, {"id": 3, "name": "Holguin", "name_ru": "Holguín", "tz": "", "district": "Holguín"}, {"id": 4, "name": "Camaguey", "name_ru": "Camagüey", "tz": "", "district": "Camagüey"}, {"id": 5, "name": "Santa Clara", "name_ru": "Santa Clara", "tz": "", "district": "Villa Clara"}, {"id": 6, "name": "Bayamo", "name_ru": "Bayamo", "tz": "", "district": "Granma"}, {"id": 7, "name": "Guantanamo", "name_ru": "Guantánamo", "tz": "", "district": "Guantánamo"}, {"id": 8, "name": "Carlos Manuel de Cespedes", "name_ru": "Carlos Manuel de Céspedes", "tz": "", "district": "Camagüey"}, {"id": 9, "name": "Arroyo Naranjo", "name_ru": "Arroyo Naranjo", "tz": "", "district": "La Habana"}, {"id": 10, "name": "Las Tunas", "name_ru": "Las Tunas", "tz": "", "district": "Las Tunas"}, {"id": 11, "name": "Pinar del Rio", "name_ru": "Pinar del Río", "tz": "", "district": "Pinar del Río"}, {"id": 12, "name": "Cienfuegos", "name_ru": "Cienfuegos", "tz": "", "district": "Cienfuegos"}, {"id": 13, "name": "Manzanillo", "name_ru": "Manzanillo", "tz": "", "district": "Granma"}, {"id": 14, "name": "Centro Habana", "name_ru": "Centro Habana", "tz": "", "district": "La Habana"}, {"id": 15, "name": "Matanzas", "name_ru": "Matanzas", "tz": "", "district": "Matanzas"}, {"id": 16, "name": "Ciego de Avila", "name_ru": "Ciego de Ávila", "tz": "", "district": "Ciego de Ávila"}, {"id": 17, "name": "Sancti Spiritus", "name_ru": "Sancti Spíritus", "tz": "", "district": "Sancti Spíritus"}, {"id": 18, "name": "Guanabacoa", "name_ru": "Guanabacoa", "tz": "", "district": "La Habana"}, {"id": 19, "name": "Contramaestre", "name_ru": "Contramaestre", "tz": "", "district": "Santiago de Cuba"}, {"id": 20, "name": "Mayari", "name_ru": "Mayarí", "tz": "", "district": "Holguín"}, {"id": 21, "name": "San Jose de las Lajas", "name_ru": "San José de las Lajas", "tz": "", "district": "Mayabeque"}, {"id": 22, "name": "Artemisa", "name_ru": "Artemisa", "tz": "", "district": "Artemisa"}, {"id": 23, "name": "Nueva Gerona", "name_ru": "Nueva Gerona", "tz": "", "district": "Isla de la Juventud"}, {"id": 24, "name": "San Luis", "name_ru": "San Luis", "tz": "", "district": "Santiago de Cuba"}, {"id": 25, "name": "Jaguey Grande", "name_ru": "Jagüey Grande", "tz": "", "district": "Matanzas"}, {"id": 26, "name": "Consolacion del Sur", "name_ru": "Consolación del Sur", "tz": "", "district": "Pinar del Río"}, {"id": 27, "name": "Cardenas", "name_ru": "Cárdenas", "tz": "", "district": "Matanzas"}, {"id": 28, "name": "Baracoa", "name_ru": "Baracoa", "tz": "", "district": "Guantánamo"}, {"id": 29, "name": "Palma Soriano", "name_ru": "Palma Soriano", "tz": "", "district": "Santiago de Cuba"}, {"id": 30, "name": "Moa", "name_ru": "Moa", "tz": "", "district": "Holguín"}, {"id": 31, "name": "Colon", "name_ru": "Colón", "tz": "", "district": "Matanzas"}, {"id": 32, "name": "Florida", "name_ru": "Florida", "tz": "", "district": "Camagüey"}, {"id": 33, "name": "Placetas", "name_ru": "Placetas", "tz": "", "district": "Villa Clara"}, {"id": 34, "name": "Gibara", "name_ru": "Gibara", "tz": "", "district": "Holguín"}, {"id": 35, "name": "Guines", "name_ru": "Güines", "tz": "", "district": "Mayabeque"}, {"id": 36, "name": "Yara", "name_ru": "Yara", "tz": "", "district": "Granma"}, {"id": 37, "name": "Moron", "name_ru": "Morón", "tz": "", "district": "Ciego de Ávila"}, {"id": 38, "name": "Jovellanos", "name_ru": "Jovellanos", "tz": "", "district": "Matanzas"}, {"id": 39, "name": "Bartolome Maso", "name_ru": "Bartolomé Masó", "tz": "", "district": "Granma"}, {"id": 40, "name": "Sagua la Grande", "name_ru": "Sagua la Grande", "tz": "", "district": "Villa Clara"}, {"id": 41, "name": "Trinidad", "name_ru": "Trinidad", "tz": "", "district": "Sancti Spíritus"}, {"id": 42, "name": "Jobabo", "name_ru": "Jobabo", "tz": "", "district": "Las Tunas"}, {"id": 43, "name": "Salvador", "name_ru": "Salvador", "tz": "", "district": "Guantánamo"}, {"id": 44, "name": "Remedios", "name_ru": "Remedios", "tz": "", "district": "Villa Clara"}, {"id": 45, "name": "San Juan y Martinez", "name_ru": "San Juan y Martínez", "tz": "", "district": "Pinar del Río"}, {"id": 46, "name": "Bahia Honda", "name_ru": "Bahía Honda", "tz": "", "district": "Artemisa"}, {"id": 47, "name": "Jatibonico", "name_ru": "Jatibonico", "tz": "", "district": "Sancti Spíritus"}, {"id": 48, "name": "Mariel", "name_ru": "Mariel", "tz": "", "district": "Artemisa"}, {"id": 49, "name": "Niquero", "name_ru": "Niquero", "tz": "", "district": "Granma"}, {"id": 50, "name": "Chambas", "name_ru": "Chambas", "tz": "", "district": "Ciego de Ávila"}, {"id": 51, "name": "Nuevitas", "name_ru": "Nuevitas", "tz": "", "district": "Camagüey"}, {"id": 52, "name": "Los Palacios", "name_ru": "Los Palacios", "tz": "", "district": "Pinar del Río"}, {"id": 53, "name": "Caibarien", "name_ru": "Caibarién", "tz": "", "district": "Villa Clara"}, {"id": 54, "name": "Guira de Melena", "name_ru": "Güira de Melena", "tz": "", "district": "Artemisa"}, {"id": 55, "name": "Caimito", "name_ru": "Caimito", "tz": "", "district": "Artemisa"}, {"id": 56, "name": "Guane", "name_ru": "Guane", "tz": "", "district": "Pinar del Río"}, {"id": 57, "name": "Guama Abajo", "name_ru": "Guamá Abajo", "tz": "", "district": "Santiago de Cuba"}, {"id": 58, "name": "La Palma", "name_ru": "La Palma", "tz": "", "district": "Pinar del Río"}, {"id": 59, "name": "Banes", "name_ru": "Banes", "tz": "", "district": "Holguín"}, {"id": 60, "name": "San Antonio de los Banos", "name_ru": "San Antonio de los Baños", "tz": "", "district": "Artemisa"}, {"id": 61, "name": "Mella", "name_ru": "Mella", "tz": "", "district": "Santiago de Cuba"}, {"id": 62, "name": "San Luis", "name_ru": "San Luis", "tz": "", "district": "Pinar del Río"}, {"id": 63, "name": "Baragua", "name_ru": "Baraguá", "tz": "", "district": "Ciego de Ávila"}, {"id": 64, "name": "Cabaiguan", "name_ru": "Cabaiguán", "tz": "", "district": "Sancti Spíritus"}, {"id": 65, "name": "Madruga", "name_ru": "Madruga", "tz": "", "district": "Mayabeque"}, {"id": 66, "name": "Alquizar", "name_ru": "Alquízar", "tz": "", "district": "Artemisa"}, {"id": 67, "name": "Quivican", "name_ru": "Quivicán", "tz": "", "district": "Mayabeque"}, {"id": 68, "name": "Primero de Enero", "name_ru": "Primero de Enero", "tz": "", "district": "Ciego de Ávila"}, {"id": 69, "name": "San Cristobal", "name_ru": "San Cristóbal", "tz": "", "district": "Artemisa"}, {"id": 70, "name": "Venezuela", "name_ru": "Venezuela", "tz": "", "district": "Ciego de Ávila"}, {"id": 71, "name": "Ciro Redondo", "name_ru": "Ciro Redondo", "tz": "", "district": "Ciego de Ávila"}, {"id": 72, "name": "Vinales", "name_ru": "Viñales", "tz": "", "district": "Pinar del Río"}, {"id": 73, "name": "Majagua", "name_ru": "Majagua", "tz": "", "district": "Ciego de Ávila"}, {"id": 74, "name": "San Antonio del Sur", "name_ru": "San Antonio del Sur", "tz": "", "district": "Guantánamo"}, {"id": 75, "name": "Batabano", "name_ru": "Batabanó", "tz": "", "district": "Mayabeque"}, {"id": 76, "name": "Limonar", "name_ru": "Limonar", "tz": "", "district": "Matanzas"}, {"id": 77, "name": "Nueva Paz", "name_ru": "Nueva Paz", "tz": "", "district": "Mayabeque"}, {"id": 78, "name": "Bauta", "name_ru": "Bauta", "tz": "", "district": "Artemisa"}, {"id": 79, "name": "Abreus", "name_ru": "Abreus", "tz": "", "district": "Cienfuegos"}, {"id": 80, "name": "Guanajay", "name_ru": "Guanajay", "tz": "", "district": "Artemisa"}, {"id": 81, "name": "Lajas", "name_ru": "Lajas", "tz": "", "district": "Cienfuegos"}, {"id": 82, "name": "San Nicolas", "name_ru": "San Nicolás", "tz": "", "district": "Mayabeque"}, {"id": 83, "name": "Varadero", "name_ru": "Varadero", "tz": "", "district": "Matanzas"}, {"id": 84, "name": "Manuel Tames", "name_ru": "Manuel Tames", "tz": "", "district": "Guantánamo"}, {"id": 85, "name": "Florencia", "name_ru": "Florencia", "tz": "", "district": "Ciego de Ávila"}, {"id": 86, "name": "Melena del Sur", "name_ru": "Melena del Sur", "tz": "", "district": "Mayabeque"}, {"id": 87, "name": "Candelaria", "name_ru": "Candelaria", "tz": "", "district": "Artemisa"}, {"id": 88, "name": "Najasa", "name_ru": "Najasa", "tz": "", "district": "Camagüey"}, {"id": 89, "name": "Imias", "name_ru": "Imías", "tz": "", "district": "Guantánamo"}, {"id": 90, "name": "Caimanera", "name_ru": "Caimanera", "tz": "", "district": "Guantánamo"}]