[{"id": 1, "name": "Praia", "name_ru": "Praia", "tz": "", "district": "Praia"}, {"id": 2, "name": "Mindelo", "name_ru": "Mindelo", "tz": "", "district": "São Vicente"}, {"id": 3, "name": "Sao Filipe", "name_ru": "São Filipe", "tz": "", "district": "São Filipe"}, {"id": 4, "name": "Ribeira Grande", "name_ru": "Ribeira Grande", "tz": "", "district": "Ribeira Grande"}, {"id": 5, "name": "Tarrafal", "name_ru": "Tarrafal", "tz": "", "district": "Tarrafal"}, {"id": 6, "name": "Porto Novo", "name_ru": "Porto Novo", "tz": "", "district": "Porto Novo"}, {"id": 7, "name": "Assomada", "name_ru": "Assomada", "tz": "", "district": "Santa Catarina"}, {"id": 8, "name": "Pedra Badejo", "name_ru": "Pedra Badejo", "tz": "", "district": "Santa Cruz"}, {"id": 9, "name": "Sal Rei", "name_ru": "Sal Rei", "tz": "", "district": "Boa Vista"}, {"id": 10, "name": "Espargos", "name_ru": "Espargos", "tz": "", "district": "Sal"}, {"id": 11, "name": "Tarrafal", "name_ru": "Tarrafal", "tz": "", "district": "Tarrafal de São Nicolau"}, {"id": 12, "name": "Joao Teves", "name_ru": "João Teves", "tz": "", "district": "São Lourenço dos Órgãos"}, {"id": 13, "name": "Calheta de Sao Miguel", "name_ru": "Calheta de São Miguel", "tz": "", "district": "São Miguel"}, {"id": 14, "name": "Porto Ingles", "name_ru": "Porto Inglês", "tz": "", "district": "Maio"}, {"id": 15, "name": "Sao Domingos", "name_ru": "São Domingos", "tz": "", "district": "São Domingos"}, {"id": 16, "name": "Cidade Velha", "name_ru": "Cidade Velha", "tz": "", "district": "Ribeira Grande de Santiago"}, {"id": 17, "name": "Picos", "name_ru": "Picos", "tz": "", "district": "São Salvador do Mundo"}, {"id": 18, "name": "Pombas", "name_ru": "Pombas", "tz": "", "district": "Paul"}, {"id": 19, "name": "Ponta do Sol", "name_ru": "Ponta do Sol", "tz": "", "district": "Ribeira Grande"}, {"id": 20, "name": "Nova Sintra", "name_ru": "Nova Sintra", "tz": "", "district": "Brava"}, {"id": 21, "name": "Igreja", "name_ru": "Igreja", "tz": "", "district": "Mosteiros"}, {"id": 22, "name": "Ribeira Brava", "name_ru": "Ribeira Brava", "tz": "", "district": "Ribeira Brava"}, {"id": 23, "name": "Cova Figueira", "name_ru": "Cova Figueira", "tz": "", "district": "Santa Catarina do Fogo"}]