[{"id": 1, "name": "Nicosia", "name_ru": "Nicosia", "tz": "Asia/Nicosia", "district": "Lefkosía"}, {"id": 2, "name": "Limassol", "name_ru": "Limassol", "tz": "Asia/Nicosia", "district": "Lemesós"}, {"id": 3, "name": "Larnaca", "name_ru": "Larnaca", "tz": "Asia/Nicosia", "district": "Lárnaka"}, {"id": 4, "name": "Famagusta", "name_ru": "Famagusta", "tz": "Asia/Famagusta", "district": "Ammóchostos"}, {"id": 5, "name": "Paphos", "name_ru": "Paphos", "tz": "Asia/Nicosia", "district": "Páfos"}, {"id": 6, "name": "Kyrenia", "name_ru": "Kyrenia", "tz": "Asia/Famagusta", "district": "Kerýneia"}, {"id": 7, "name": "Mesa Geitonia", "name_ru": "Mésa Geitoniá", "tz": "Asia/Nicosia", "district": "Lemesós"}, {"id": 8, "name": "Kato Polemidia", "name_ru": "Káto Polemídia", "tz": "Asia/Nicosia", "district": "Lemesós"}, {"id": 9, "name": "Aradippou", "name_ru": "Aradíppou", "tz": "Asia/Nicosia", "district": "Lárnaka"}, {"id": 10, "name": "Latsia", "name_ru": "Latsia", "tz": "Asia/Nicosia", "district": "Lefkosía"}, {"id": 11, "name": "Agios Athanasios", "name_ru": "Ágios Athanásios", "tz": "Asia/Nicosia", "district": "Lemesós"}, {"id": 12, "name": "Paralimni", "name_ru": "Paralímni", "tz": "Asia/Nicosia", "district": "Ammóchostos"}, {"id": 13, "name": "Germasogeia", "name_ru": "Germasógeia", "tz": "Asia/Nicosia", "district": "Lemesós"}, {"id": 14, "name": "Dali", "name_ru": "Dáli", "tz": "Asia/Nicosia", "district": "Lefkosía"}, {"id": 15, "name": "Geroskipou", "name_ru": "Geroskípou", "tz": "Asia/Nicosia", "district": "Páfos"}, {"id": 16, "name": "Geri", "name_ru": "Géri", "tz": "Asia/Nicosia", "district": "Lefkosía"}, {"id": 17, "name": "Livadia", "name_ru": "Livádia", "tz": "Asia/Nicosia", "district": "Lárnaka"}, {"id": 18, "name": "Tseri", "name_ru": "Tséri", "tz": "Asia/Nicosia", "district": "Lefkosía"}, {"id": 19, "name": "Deryneia", "name_ru": "Derýneia", "tz": "Asia/Nicosia", "district": "Ammóchostos"}, {"id": 20, "name": "Sotira", "name_ru": "Sotíra", "tz": "Asia/Nicosia", "district": "Ammóchostos"}]