[{"id": 1, "name": "Prague", "name_ru": "Prague", "tz": "", "district": "Praha, Hlavní Město"}, {"id": 2, "name": "Brno", "name_ru": "Brno", "tz": "", "district": "Jihomoravský Kraj"}, {"id": 3, "name": "Ostrava", "name_ru": "Ostrava", "tz": "", "district": "Moravskoslezský Kraj"}, {"id": 4, "name": "Plzen", "name_ru": "Plzeň", "tz": "", "district": "Plzeňský Kraj"}, {"id": 5, "name": "Liberec", "name_ru": "Liberec", "tz": "", "district": "Liberecký Kraj"}, {"id": 6, "name": "Olomouc", "name_ru": "Olomouc", "tz": "", "district": "Olomoucký Kraj"}, {"id": 7, "name": "Ceske Budejovice", "name_ru": "České Budějovice", "tz": "", "district": "Jihočeský Kraj"}, {"id": 8, "name": "Hradec Kralove", "name_ru": "Hradec Králové", "tz": "", "district": "Královéhradecký Kraj"}, {"id": 9, "name": "Usti nad Labem", "name_ru": "Ústí nad Labem", "tz": "", "district": "Ústecký Kraj"}, {"id": 10, "name": "Pardubice", "name_ru": "Pardubice", "tz": "", "district": "Pardubický Kraj"}, {"id": 11, "name": "Zlin", "name_ru": "Zlín", "tz": "", "district": "Zlínský Kraj"}, {"id": 12, "name": "Havirov", "name_ru": "Havířov", "tz": "", "district": "Moravskoslezský Kraj"}, {"id": 13, "name": "Teplice", "name_ru": "Teplice", "tz": "", "district": "Ústecký Kraj"}, {"id": 14, "name": "Jihlava", "name_ru": "Jihlava", "tz": "", "district": "Vysočina"}, {"id": 15, "name": "Karlovy Vary", "name_ru": "Karlovy Vary", "tz": "", "district": "Karlovarský Kraj"}, {"id": 16, "name": "Brevnov", "name_ru": "Břevnov", "tz": "", "district": "Středočeský Kraj"}, {"id": 17, "name": "Kladno", "name_ru": "Kladno", "tz": "", "district": "Středočeský Kraj"}, {"id": 18, "name": "Most", "name_ru": "Most", "tz": "", "district": "Ústecký Kraj"}, {"id": 19, "name": "Opava", "name_ru": "Opava", "tz": "", "district": "Moravskoslezský Kraj"}, {"id": 20, "name": "Frydek-Mistek", "name_ru": "Frýdek-Místek", "tz": "", "district": "Moravskoslezský Kraj"}, {"id": 21, "name": "Karvina", "name_ru": "Karviná", "tz": "", "district": "Moravskoslezský Kraj"}, {"id": 22, "name": "Chomutov", "name_ru": "Chomutov", "tz": "", "district": "Ústecký Kraj"}, {"id": 23, "name": "Decin", "name_ru": "Děčín", "tz": "", "district": "Ústecký Kraj"}, {"id": 24, "name": "Jablonec nad Nisou", "name_ru": "Jablonec nad Nisou", "tz": "", "district": "Liberecký Kraj"}, {"id": 25, "name": "Mlada Boleslav", "name_ru": "Mladá Boleslav", "tz": "", "district": "Středočeský Kraj"}, {"id": 26, "name": "Prostejov", "name_ru": "Prostějov", "tz": "", "district": "Olomoucký Kraj"}, {"id": 27, "name": "Prerov", "name_ru": "Přerov", "tz": "", "district": "Olomoucký Kraj"}, {"id": 28, "name": "Ceska Lipa", "name_ru": "Česká Lípa", "tz": "", "district": "Liberecký Kraj"}, {"id": 29, "name": "Trebic", "name_ru": "Třebíč", "tz": "", "district": "Vysočina"}, {"id": 30, "name": "Trinec", "name_ru": "Třinec", "tz": "", "district": "Moravskoslezský Kraj"}, {"id": 31, "name": "Tabor", "name_ru": "Tábor", "tz": "", "district": "Jihočeský Kraj"}, {"id": 32, "name": "Znojmo", "name_ru": "Znojmo", "tz": "", "district": "Jihomoravský Kraj"}, {"id": 33, "name": "Kolin", "name_ru": "Kolín", "tz": "", "district": "Středočeský Kraj"}, {"id": 34, "name": "Pribram", "name_ru": "Příbram", "tz": "", "district": "Středočeský Kraj"}, {"id": 35, "name": "Cheb", "name_ru": "Cheb", "tz": "", "district": "Karlovarský Kraj"}, {"id": 36, "name": "Pisek", "name_ru": "Písek", "tz": "", "district": "Jihočeský Kraj"}, {"id": 37, "name": "Trutnov", "name_ru": "Trutnov", "tz": "", "district": "Královéhradecký Kraj"}, {"id": 38, "name": "Orlova", "name_ru": "Orlová", "tz": "", "district": "Moravskoslezský Kraj"}, {"id": 39, "name": "Kromeriz", "name_ru": "Kroměříž", "tz": "", "district": "Zlínský Kraj"}, {"id": 40, "name": "Lisen", "name_ru": "Líšeň", "tz": "", "district": "Jihomoravský Kraj"}, {"id": 41, "name": "Sumperk", "name_ru": "Šumperk", "tz": "", "district": "Olomoucký Kraj"}, {"id": 42, "name": "Vsetin", "name_ru": "Vsetín", "tz": "", "district": "Zlínský Kraj"}, {"id": 43, "name": "Uherske Hradiste", "name_ru": "Uherské Hradiště", "tz": "", "district": "Zlínský Kraj"}, {"id": 44, "name": "Litomerice", "name_ru": "Litoměřice", "tz": "", "district": "Ústecký Kraj"}, {"id": 45, "name": "Breclav", "name_ru": "Břeclav", "tz": "", "district": "Jihomoravský Kraj"}, {"id": 46, "name": "Cesky Tesin", "name_ru": "Český Těšín", "tz": "", "district": "Moravskoslezský Kraj"}, {"id": 47, "name": "Hodonin", "name_ru": "Hodonín", "tz": "", "district": "Jihomoravský Kraj"}, {"id": 48, "name": "Litvinov", "name_ru": "Litvínov", "tz": "", "district": "Ústecký Kraj"}, {"id": 49, "name": "Sokolov", "name_ru": "Sokolov", "tz": "", "district": "Karlovarský Kraj"}, {"id": 50, "name": "Chrudim", "name_ru": "Chrudim", "tz": "", "district": "Pardubický Kraj"}, {"id": 51, "name": "Novy Jicin", "name_ru": "Nový Jičín", "tz": "", "district": "Moravskoslezský Kraj"}, {"id": 52, "name": "Krnov", "name_ru": "Krnov", "tz": "", "district": "Moravskoslezský Kraj"}, {"id": 53, "name": "Havlickuv Brod", "name_ru": "Havlíčkŭv Brod", "tz": "", "district": "Vysočina"}, {"id": 54, "name": "Strakonice", "name_ru": "Strakonice", "tz": "", "district": "Jihočeský Kraj"}, {"id": 55, "name": "Valasske Mezirici", "name_ru": "Valašské Meziříčí", "tz": "", "district": "Zlínský Kraj"}, {"id": 56, "name": "Koprivnice", "name_ru": "Kopřivnice", "tz": "", "district": "Moravskoslezský Kraj"}, {"id": 57, "name": "Klatovy", "name_ru": "Klatovy", "tz": "", "district": "Plzeňský Kraj"}, {"id": 58, "name": "Kutna Hora", "name_ru": "Kutná Hora", "tz": "", "district": "Středočeský Kraj"}, {"id": 59, "name": "Jindrichuv Hradec", "name_ru": "Jindřichŭv Hradec", "tz": "", "district": "Jihočeský Kraj"}, {"id": 60, "name": "Vyskov", "name_ru": "Vyškov", "tz": "", "district": "Jihomoravský Kraj"}, {"id": 61, "name": "Zd'ar nad Sazavou", "name_ru": "Žďár nad Sázavou", "tz": "", "district": "Vysočina"}, {"id": 62, "name": "Bohumin", "name_ru": "Bohumín", "tz": "", "district": "Moravskoslezský Kraj"}, {"id": 63, "name": "Blansko", "name_ru": "Blansko", "tz": "", "district": "Jihomoravský Kraj"}, {"id": 64, "name": "Beroun", "name_ru": "Beroun", "tz": "", "district": "Středočeský Kraj"}, {"id": 65, "name": "Melnik", "name_ru": "Mělník", "tz": "", "district": "Středočeský Kraj"}, {"id": 66, "name": "Jirkov", "name_ru": "Jirkov", "tz": "", "district": "Ústecký Kraj"}, {"id": 67, "name": "Nachod", "name_ru": "Náchod", "tz": "", "district": "Královéhradecký Kraj"}, {"id": 68, "name": "Brandys nad Labem-Stara Boleslav", "name_ru": "Brandýs nad Labem-Stará Boleslav", "tz": "", "district": "Středočeský Kraj"}, {"id": 69, "name": "Kralupy nad Vltavou", "name_ru": "Kralupy nad Vltavou", "tz": "", "district": "Středočeský Kraj"}, {"id": 70, "name": "Zatec", "name_ru": "Žatec", "tz": "", "district": "Ústecký Kraj"}, {"id": 71, "name": "Louny", "name_ru": "Louny", "tz": "", "district": "Ústecký Kraj"}, {"id": 72, "name": "Otrokovice", "name_ru": "Otrokovice", "tz": "", "district": "Zlínský Kraj"}, {"id": 73, "name": "Kadan", "name_ru": "Kadaň", "tz": "", "district": "Ústecký Kraj"}, {"id": 74, "name": "Hranice", "name_ru": "Hranice", "tz": "", "district": "Olomoucký Kraj"}, {"id": 75, "name": "Bilina", "name_ru": "Bílina", "tz": "", "district": "Ústecký Kraj"}, {"id": 76, "name": "Jicin", "name_ru": "Jičín", "tz": "", "district": "Královéhradecký Kraj"}, {"id": 77, "name": "Benesov", "name_ru": "Benešov", "tz": "", "district": "Středočeský Kraj"}, {"id": 78, "name": "Svitavy", "name_ru": "Svitavy", "tz": "", "district": "Pardubický Kraj"}, {"id": 79, "name": "Neratovice", "name_ru": "Neratovice", "tz": "", "district": "Středočeský Kraj"}, {"id": 80, "name": "Ostrov", "name_ru": "Ostrov", "tz": "", "district": "Karlovarský Kraj"}, {"id": 81, "name": "Ricany", "name_ru": "Říčany", "tz": "", "district": "Středočeský Kraj"}, {"id": 82, "name": "Uhersky Brod", "name_ru": "Uherský Brod", "tz": "", "district": "Zlínský Kraj"}, {"id": 83, "name": "Roznov pod Radhostem", "name_ru": "Rožnov pod Radhoštěm", "tz": "", "district": "Zlínský Kraj"}, {"id": 84, "name": "Rakovnik", "name_ru": "Rakovník", "tz": "", "district": "Středočeský Kraj"}, {"id": 85, "name": "Slany", "name_ru": "Slaný", "tz": "", "district": "Středočeský Kraj"}, {"id": 86, "name": "Bruntal", "name_ru": "Bruntál", "tz": "", "district": "Moravskoslezský Kraj"}, {"id": 87, "name": "Pelhrimov", "name_ru": "Pelhřimov", "tz": "", "district": "Vysočina"}, {"id": 88, "name": "Dvur Kralove nad Labem", "name_ru": "Dvůr Králové nad Labem", "tz": "", "district": "Královéhradecký Kraj"}, {"id": 89, "name": "Nymburk", "name_ru": "Nymburk", "tz": "", "district": "Středočeský Kraj"}, {"id": 90, "name": "Varnsdorf", "name_ru": "Varnsdorf", "tz": "", "district": "Ústecký Kraj"}, {"id": 91, "name": "Ceska Trebova", "name_ru": "Česká Třebová", "tz": "", "district": "Pardubický Kraj"}, {"id": 92, "name": "Turnov", "name_ru": "Turnov", "tz": "", "district": "Liberecký Kraj"}, {"id": 93, "name": "Podebrady", "name_ru": "Poděbrady", "tz": "", "district": "Středočeský Kraj"}, {"id": 94, "name": "Rokycany", "name_ru": "Rokycany", "tz": "", "district": "Plzeňský Kraj"}, {"id": 95, "name": "Klasterec nad Ohri", "name_ru": "Klášterec nad Ohří", "tz": "", "district": "Ústecký Kraj"}, {"id": 96, "name": "Usti nad Orlici", "name_ru": "Ústí nad Orlicí", "tz": "", "district": "Pardubický Kraj"}, {"id": 97, "name": "Hlucin", "name_ru": "Hlučín", "tz": "", "district": "Moravskoslezský Kraj"}, {"id": 98, "name": "Chodov", "name_ru": "Chodov", "tz": "", "district": "Karlovarský Kraj"}, {"id": 99, "name": "Zabreh", "name_ru": "Zábřeh", "tz": "", "district": "Olomoucký Kraj"}, {"id": 100, "name": "Sternberk", "name_ru": "Šternberk", "tz": "", "district": "Olomoucký Kraj"}, {"id": 101, "name": "Roudnice nad Labem", "name_ru": "Roudnice nad Labem", "tz": "", "district": "Ústecký Kraj"}, {"id": 102, "name": "Tachov", "name_ru": "Tachov", "tz": "", "district": "Plzeňský Kraj"}, {"id": 103, "name": "Cesky Krumlov", "name_ru": "Český Krumlov", "tz": "", "district": "Jihočeský Kraj"}, {"id": 104, "name": "As", "name_ru": "Aš", "tz": "", "district": "Karlovarský Kraj"}, {"id": 105, "name": "Celakovice", "name_ru": "Čelákovice", "tz": "", "district": "Středočeský Kraj"}, {"id": 106, "name": "Marianske Lazne", "name_ru": "Mariánské Lázně", "tz": "", "district": "Karlovarský Kraj"}, {"id": 107, "name": "Jaromer", "name_ru": "Jaroměř", "tz": "", "district": "Královéhradecký Kraj"}, {"id": 108, "name": "Krupka", "name_ru": "Krupka", "tz": "", "district": "Ústecký Kraj"}, {"id": 109, "name": "Vrchlabi", "name_ru": "Vrchlabí", "tz": "", "district": "Královéhradecký Kraj"}, {"id": 110, "name": "Milovice", "name_ru": "Milovice", "tz": "", "district": "Středočeský Kraj"}, {"id": 111, "name": "Vysoke Myto", "name_ru": "Vysoké Mýto", "tz": "", "district": "Pardubický Kraj"}, {"id": 112, "name": "Novy Bor", "name_ru": "Nový Bor", "tz": "", "district": "Liberecký Kraj"}, {"id": 113, "name": "Boskovice", "name_ru": "Boskovice", "tz": "", "district": "Jihomoravský Kraj"}, {"id": 114, "name": "Holesov", "name_ru": "Holešov", "tz": "", "district": "Zlínský Kraj"}, {"id": 115, "name": "Vlasim", "name_ru": "Vlašim", "tz": "", "district": "Středočeský Kraj"}, {"id": 116, "name": "Velke Mezirici", "name_ru": "Velké Meziříčí", "tz": "", "district": "Vysočina"}, {"id": 117, "name": "Frenstat pod Radhostem", "name_ru": "Frenštát pod Radhoštěm", "tz": "", "district": "Moravskoslezský Kraj"}, {"id": 118, "name": "Kurim", "name_ru": "Kuřim", "tz": "", "district": "Jihomoravský Kraj"}, {"id": 119, "name": "Unicov", "name_ru": "Uničov", "tz": "", "district": "Olomoucký Kraj"}, {"id": 120, "name": "Domazlice", "name_ru": "Domažlice", "tz": "", "district": "Plzeňský Kraj"}, {"id": 121, "name": "Kyjov", "name_ru": "Kyjov", "tz": "", "district": "Jihomoravský Kraj"}, {"id": 122, "name": "Rumburk", "name_ru": "Rumburk", "tz": "", "district": "Ústecký Kraj"}, {"id": 123, "name": "Jesenik", "name_ru": "Jeseník", "tz": "", "district": "Olomoucký Kraj"}, {"id": 124, "name": "Rychnov nad Kneznou", "name_ru": "Rychnov nad Kněžnou", "tz": "", "district": "Královéhradecký Kraj"}, {"id": 125, "name": "Susice", "name_ru": "Sušice", "tz": "", "district": "Plzeňský Kraj"}, {"id": 126, "name": "Humpolec", "name_ru": "Humpolec", "tz": "", "district": "Vysočina"}, {"id": 127, "name": "Veseli nad Moravou", "name_ru": "Veselí nad Moravou", "tz": "", "district": "Jihomoravský Kraj"}, {"id": 128, "name": "Prachatice", "name_ru": "Prachatice", "tz": "", "district": "Jihočeský Kraj"}, {"id": 129, "name": "Caslav", "name_ru": "Čáslav", "tz": "", "district": "Středočeský Kraj"}, {"id": 130, "name": "Kraluv Dvur", "name_ru": "Králŭv Dvŭr", "tz": "", "district": "Středočeský Kraj"}, {"id": 131, "name": "Jesenice", "name_ru": "Jesenice", "tz": "", "district": "Středočeský Kraj"}, {"id": 132, "name": "Litomysl", "name_ru": "Litomyšl", "tz": "", "district": "Pardubický Kraj"}, {"id": 133, "name": "Frydlant nad Ostravici", "name_ru": "Frýdlant nad Ostravicí", "tz": "", "district": "Moravskoslezský Kraj"}, {"id": 134, "name": "Lanskroun", "name_ru": "Lanškroun", "tz": "", "district": "Pardubický Kraj"}, {"id": 135, "name": "Prelouc", "name_ru": "Přelouč", "tz": "", "district": "Pardubický Kraj"}, {"id": 136, "name": "Nove Mesto na Morave", "name_ru": "Nové Město na Moravě", "tz": "", "district": "Vysočina"}, {"id": 137, "name": "Lysa nad Labem", "name_ru": "Lysá nad Labem", "tz": "", "district": "Středočeský Kraj"}, {"id": 138, "name": "Ivancice", "name_ru": "Ivančice", "tz": "", "district": "Jihomoravský Kraj"}, {"id": 139, "name": "Moravska Trebova", "name_ru": "Moravská Třebová", "tz": "", "district": "Pardubický Kraj"}, {"id": 140, "name": "Hlinsko", "name_ru": "Hlinsko", "tz": "", "district": "Pardubický Kraj"}, {"id": 141, "name": "Litovel", "name_ru": "Litovel", "tz": "", "district": "Olomoucký Kraj"}, {"id": 142, "name": "Roztoky", "name_ru": "Roztoky", "tz": "", "district": "Středočeský Kraj"}, {"id": 143, "name": "Tisnov", "name_ru": "Tišnov", "tz": "", "district": "Jihomoravský Kraj"}, {"id": 144, "name": "Studenka", "name_ru": "Studénka", "tz": "", "district": "Moravskoslezský Kraj"}, {"id": 145, "name": "Nove Mesto nad Metuji", "name_ru": "Nové Město nad Metují", "tz": "", "district": "Královéhradecký Kraj"}, {"id": 146, "name": "Hostivice", "name_ru": "Hostivice", "tz": "", "district": "Středočeský Kraj"}, {"id": 147, "name": "Mohelnice", "name_ru": "Mohelnice", "tz": "", "district": "Olomoucký Kraj"}, {"id": 148, "name": "Lovosice", "name_ru": "Lovosice", "tz": "", "district": "Ústecký Kraj"}, {"id": 149, "name": "Nova Paka", "name_ru": "Nová Paka", "tz": "", "district": "Liberecký Kraj"}, {"id": 150, "name": "Chotebor", "name_ru": "Chotěboř", "tz": "", "district": "Vysočina"}, {"id": 151, "name": "Duchcov", "name_ru": "Duchcov", "tz": "", "district": "Ústecký Kraj"}, {"id": 152, "name": "Mnichovo Hradiste", "name_ru": "Mnichovo Hradiště", "tz": "", "district": "Středočeský Kraj"}, {"id": 153, "name": "Policka", "name_ru": "Polička", "tz": "", "district": "Pardubický Kraj"}, {"id": 154, "name": "Dobris", "name_ru": "Dobříš", "tz": "", "district": "Středočeský Kraj"}, {"id": 155, "name": "Chocen", "name_ru": "Choceň", "tz": "", "district": "Pardubický Kraj"}, {"id": 156, "name": "Horice", "name_ru": "Hořice", "tz": "", "district": "Královéhradecký Kraj"}, {"id": 157, "name": "Semily", "name_ru": "Semily", "tz": "", "district": "Liberecký Kraj"}, {"id": 158, "name": "Pribor", "name_ru": "Příbor", "tz": "", "district": "Moravskoslezský Kraj"}, {"id": 159, "name": "Steti", "name_ru": "Štětí", "tz": "", "district": "Ústecký Kraj"}, {"id": 160, "name": "Cerveny Kostelec", "name_ru": "Červený Kostelec", "tz": "", "district": "Královéhradecký Kraj"}, {"id": 161, "name": "Bystrice pod Hostynem", "name_ru": "Bystřice pod Hostýnem", "tz": "", "district": "Zlínský Kraj"}, {"id": 162, "name": "Milevsko", "name_ru": "Milevsko", "tz": "", "district": "Jihočeský Kraj"}, {"id": 163, "name": "Trebon", "name_ru": "Třeboň", "tz": "", "district": "Jihočeský Kraj"}, {"id": 164, "name": "Slapanice", "name_ru": "Šlapanice", "tz": "", "district": "Jihomoravský Kraj"}, {"id": 165, "name": "Rymarov", "name_ru": "Rýmařov", "tz": "", "district": "Moravskoslezský Kraj"}, {"id": 166, "name": "Lipnik nad Becvou", "name_ru": "Lipník nad Bečvou", "tz": "", "district": "Olomoucký Kraj"}, {"id": 167, "name": "Cernosice", "name_ru": "Černošice", "tz": "", "district": "Středočeský Kraj"}, {"id": 168, "name": "Bystrice nad Pernstejnem", "name_ru": "Bystřice nad Pernštejnem", "tz": "", "district": "Vysočina"}, {"id": 169, "name": "Tyn nad Vltavou", "name_ru": "Týn nad Vltavou", "tz": "", "district": "Jihočeský Kraj"}, {"id": 170, "name": "Dubi", "name_ru": "Dubí", "tz": "", "district": "Ústecký Kraj"}, {"id": 171, "name": "Sezimovo Usti", "name_ru": "Sezimovo Ústí", "tz": "", "district": "Jihočeský Kraj"}, {"id": 172, "name": "Rychvald", "name_ru": "Rychvald", "tz": "", "district": "Moravskoslezský Kraj"}, {"id": 173, "name": "Nejdek", "name_ru": "Nejdek", "tz": "", "district": "Karlovarský Kraj"}, {"id": 174, "name": "Hradek nad Nisou", "name_ru": "Hrádek nad Nisou", "tz": "", "district": "Liberecký Kraj"}, {"id": 175, "name": "Vratimov", "name_ru": "Vratimov", "tz": "", "district": "Moravskoslezský Kraj"}, {"id": 176, "name": "Petrvald", "name_ru": "Petřvald", "tz": "", "district": "Moravskoslezský Kraj"}, {"id": 177, "name": "Stribro", "name_ru": "Stříbro", "tz": "", "district": "Plzeňský Kraj"}, {"id": 178, "name": "Benatky nad Jizerou", "name_ru": "Benátky nad Jizerou", "tz": "", "district": "Středočeský Kraj"}, {"id": 179, "name": "Frydlant", "name_ru": "Frýdlant", "tz": "", "district": "Liberecký Kraj"}, {"id": 180, "name": "Horovice", "name_ru": "Hořovice", "tz": "", "district": "Středočeský Kraj"}, {"id": 181, "name": "Uvaly", "name_ru": "Úvaly", "tz": "", "district": "Středočeský Kraj"}, {"id": 182, "name": "Mikulov", "name_ru": "Mikulov", "tz": "", "district": "Jihomoravský Kraj"}, {"id": 183, "name": "Broumov", "name_ru": "Broumov", "tz": "", "district": "Královéhradecký Kraj"}, {"id": 184, "name": "Bilovec", "name_ru": "Bílovec", "tz": "", "district": "Moravskoslezský Kraj"}, {"id": 185, "name": "Slavkov u Brna", "name_ru": "Slavkov u Brna", "tz": "", "district": "Jihomoravský Kraj"}, {"id": 186, "name": "Vimperk", "name_ru": "Vimperk", "tz": "", "district": "Jihočeský Kraj"}, {"id": 187, "name": "Napajedla", "name_ru": "Napajedla", "tz": "", "district": "Zlínský Kraj"}, {"id": 188, "name": "Moravske Budejovice", "name_ru": "Moravské Budějovice", "tz": "", "district": "Vysočina"}, {"id": 189, "name": "Cesky Brod", "name_ru": "Český Brod", "tz": "", "district": "Středočeský Kraj"}, {"id": 190, "name": "Kaplice", "name_ru": "Kaplice", "tz": "", "district": "Jihočeský Kraj"}, {"id": 191, "name": "Odry", "name_ru": "Odry", "tz": "", "district": "Moravskoslezský Kraj"}, {"id": 192, "name": "Prestice", "name_ru": "Přeštice", "tz": "", "district": "Plzeňský Kraj"}, {"id": 193, "name": "Dacice", "name_ru": "Dačice", "tz": "", "district": "Jihočeský Kraj"}, {"id": 194, "name": "Nyrany", "name_ru": "Nýřany", "tz": "", "district": "Plzeňský Kraj"}, {"id": 195, "name": "Sobeslav", "name_ru": "Soběslav", "tz": "", "district": "Jihočeský Kraj"}, {"id": 196, "name": "Vodnany", "name_ru": "Vodňany", "tz": "", "district": "Jihočeský Kraj"}, {"id": 197, "name": "Novy Bydzov", "name_ru": "Nový Bydžov", "tz": "", "district": "Královéhradecký Kraj"}, {"id": 198, "name": "Sedlcany", "name_ru": "Sedlčany", "tz": "", "district": "Středočeský Kraj"}, {"id": 199, "name": "Kravare", "name_ru": "Kravaře", "tz": "", "district": "Moravskoslezský Kraj"}, {"id": 200, "name": "Holice", "name_ru": "Holice", "tz": "", "district": "Pardubický Kraj"}, {"id": 201, "name": "Hulin", "name_ru": "Hulín", "tz": "", "district": "Zlínský Kraj"}, {"id": 202, "name": "Stare Mesto", "name_ru": "Staré Město", "tz": "", "district": "Zlínský Kraj"}, {"id": 203, "name": "Rosice", "name_ru": "Rosice", "tz": "", "district": "Jihomoravský Kraj"}, {"id": 204, "name": "Letovice", "name_ru": "Letovice", "tz": "", "district": "Jihomoravský Kraj"}, {"id": 205, "name": "Dobruska", "name_ru": "Dobruška", "tz": "", "district": "Královéhradecký Kraj"}, {"id": 206, "name": "Senov", "name_ru": "Šenov", "tz": "", "district": "Moravskoslezský Kraj"}, {"id": 207, "name": "Kraslice", "name_ru": "Kraslice", "tz": "", "district": "Karlovarský Kraj"}, {"id": 208, "name": "Mimon", "name_ru": "Mimoň", "tz": "", "district": "Liberecký Kraj"}, {"id": 209, "name": "Odolena Voda", "name_ru": "Odolena Voda", "tz": "", "district": "Středočeský Kraj"}, {"id": 210, "name": "Letohrad", "name_ru": "Letohrad", "tz": "", "district": "Pardubický Kraj"}, {"id": 211, "name": "Bucovice", "name_ru": "Bučovice", "tz": "", "district": "Jihomoravský Kraj"}, {"id": 212, "name": "Blatna", "name_ru": "Blatná", "tz": "", "district": "Jihočeský Kraj"}, {"id": 213, "name": "Tanvald", "name_ru": "Tanvald", "tz": "", "district": "Liberecký Kraj"}, {"id": 214, "name": "Dubnany", "name_ru": "Dubňany", "tz": "", "district": "Jihomoravský Kraj"}, {"id": 215, "name": "Svetla nad Sazavou", "name_ru": "Světlá nad Sázavou", "tz": "", "district": "Vysočina"}, {"id": 216, "name": "Veseli nad Luznici", "name_ru": "Veselí nad Lužnicí", "tz": "", "district": "Jihočeský Kraj"}, {"id": 217, "name": "Chrastava", "name_ru": "Chrastava", "tz": "", "district": "Liberecký Kraj"}, {"id": 218, "name": "Slavicin", "name_ru": "Slavičín", "tz": "", "district": "Zlínský Kraj"}, {"id": 219, "name": "Podborany", "name_ru": "Podbořany", "tz": "", "district": "Ústecký Kraj"}, {"id": 220, "name": "Kostelec nad Orlici", "name_ru": "Kostelec nad Orlicí", "tz": "", "district": "Královéhradecký Kraj"}, {"id": 221, "name": "Zamberk", "name_ru": "Žamberk", "tz": "", "district": "Pardubický Kraj"}, {"id": 222, "name": "Hronov", "name_ru": "Hronov", "tz": "", "district": "Královéhradecký Kraj"}, {"id": 223, "name": "Dobrany", "name_ru": "Dobřany", "tz": "", "district": "Plzeňský Kraj"}, {"id": 224, "name": "Mnisek pod Brdy", "name_ru": "Mníšek pod Brdy", "tz": "", "district": "Středočeský Kraj"}, {"id": 225, "name": "Zelezny Brod", "name_ru": "Železný Brod", "tz": "", "district": "Liberecký Kraj"}, {"id": 226, "name": "Hustopece", "name_ru": "Hustopeče", "tz": "", "district": "Jihomoravský Kraj"}, {"id": 227, "name": "Tyniste nad Orlici", "name_ru": "Týniště nad Orlicí", "tz": "", "district": "Královéhradecký Kraj"}, {"id": 228, "name": "Kojetin", "name_ru": "Kojetín", "tz": "", "district": "Olomoucký Kraj"}, {"id": 229, "name": "Nove Straseci", "name_ru": "Nové Strašecí", "tz": "", "district": "Středočeský Kraj"}, {"id": 230, "name": "Upice", "name_ru": "Úpice", "tz": "", "district": "Královéhradecký Kraj"}, {"id": 231, "name": "Trebechovice pod Orebem", "name_ru": "Třebechovice pod Orebem", "tz": "", "district": "Královéhradecký Kraj"}, {"id": 232, "name": "Rousinov", "name_ru": "Rousínov", "tz": "", "district": "Jihomoravský Kraj"}, {"id": 233, "name": "Jablunkov", "name_ru": "Jablunkov", "tz": "", "district": "Moravskoslezský Kraj"}, {"id": 234, "name": "Modrice", "name_ru": "Modřice", "tz": "", "district": "Jihomoravský Kraj"}, {"id": 235, "name": "Tynec nad Sazavou", "name_ru": "Týnec nad Sázavou", "tz": "", "district": "Středočeský Kraj"}, {"id": 236, "name": "Chlumec nad Cidlinou", "name_ru": "Chlumec nad Cidlinou", "tz": "", "district": "Královéhradecký Kraj"}, {"id": 237, "name": "Sluknov", "name_ru": "Šluknov", "tz": "", "district": "Ústecký Kraj"}, {"id": 238, "name": "Jilemnice", "name_ru": "Jilemnice", "tz": "", "district": "Liberecký Kraj"}, {"id": 239, "name": "Trest'", "name_ru": "Třešť", "tz": "", "district": "Vysočina"}, {"id": 240, "name": "Moravsky Krumlov", "name_ru": "Moravský Krumlov", "tz": "", "district": "Jihomoravský Kraj"}, {"id": 241, "name": "Rudna", "name_ru": "Rudná", "tz": "", "district": "Středočeský Kraj"}, {"id": 242, "name": "Lomnice nad Popelkou", "name_ru": "Lomnice nad Popelkou", "tz": "", "district": "Liberecký Kraj"}, {"id": 243, "name": "Zubri", "name_ru": "Zubří", "tz": "", "district": "Zlínský Kraj"}, {"id": 244, "name": "Vitkov", "name_ru": "Vítkov", "tz": "", "district": "Moravskoslezský Kraj"}, {"id": 245, "name": "Kunovice", "name_ru": "Kunovice", "tz": "", "district": "Zlínský Kraj"}, {"id": 246, "name": "Bystrice", "name_ru": "Bystřice", "tz": "", "district": "Moravskoslezský Kraj"}, {"id": 247, "name": "Fulnek", "name_ru": "Fulnek", "tz": "", "district": "Moravskoslezský Kraj"}, {"id": 248, "name": "Straznice", "name_ru": "Strážnice", "tz": "", "district": "Jihomoravský Kraj"}, {"id": 249, "name": "Kosmonosy", "name_ru": "Kosmonosy", "tz": "", "district": "Středočeský Kraj"}, {"id": 250, "name": "Frantiskovy Lazne", "name_ru": "Františkovy Lázně", "tz": "", "district": "Karlovarský Kraj"}, {"id": 251, "name": "Hradec nad Moravici", "name_ru": "Hradec nad Moravici", "tz": "", "district": "Moravskoslezský Kraj"}, {"id": 252, "name": "Stochov", "name_ru": "Stochov", "tz": "", "district": "Středočeský Kraj"}, {"id": 253, "name": "Horni Slavkov", "name_ru": "Horní Slavkov", "tz": "", "district": "Karlovarský Kraj"}, {"id": 254, "name": "Dolni Lutyne", "name_ru": "Dolní Lutyně", "tz": "", "district": "Moravskoslezský Kraj"}, {"id": 255, "name": "Hluboka nad Vltavou", "name_ru": "Hluboká nad Vltavou", "tz": "", "district": "Jihočeský Kraj"}, {"id": 256, "name": "Plana", "name_ru": "Planá", "tz": "", "district": "Plzeňský Kraj"}, {"id": 257, "name": "Telc", "name_ru": "Telč", "tz": "", "district": "Vysočina"}, {"id": 258, "name": "Stary Plzenec", "name_ru": "Starý Plzenec", "tz": "", "district": "Plzeňský Kraj"}, {"id": 259, "name": "Tremosna", "name_ru": "Třemošná", "tz": "", "district": "Plzeňský Kraj"}, {"id": 260, "name": "Trhove Sviny", "name_ru": "Trhové Sviny", "tz": "", "district": "Jihočeský Kraj"}, {"id": 261, "name": "Pohorelice", "name_ru": "Pohořelice", "tz": "", "district": "Jihomoravský Kraj"}, {"id": 262, "name": "Polna", "name_ru": "Polná", "tz": "", "district": "Vysočina"}, {"id": 263, "name": "Velka Bites", "name_ru": "Velká Bíteš", "tz": "", "district": "Vysočina"}, {"id": 264, "name": "Horazd'ovice", "name_ru": "Horažďovice", "tz": "", "district": "Plzeňský Kraj"}, {"id": 265, "name": "Bakov nad Jizerou", "name_ru": "Bakov nad Jizerou", "tz": "", "district": "Středočeský Kraj"}, {"id": 266, "name": "Ceska Kamenice", "name_ru": "Česká Kamenice", "tz": "", "district": "Ústecký Kraj"}, {"id": 267, "name": "Holysov", "name_ru": "Holýšov", "tz": "", "district": "Plzeňský Kraj"}, {"id": 268, "name": "Kdyne", "name_ru": "Kdyně", "tz": "", "district": "Plzeňský Kraj"}, {"id": 269, "name": "Ceska Skalice", "name_ru": "Česká Skalice", "tz": "", "district": "Královéhradecký Kraj"}, {"id": 270, "name": "Jilove", "name_ru": "Jílové", "tz": "", "district": "Ústecký Kraj"}, {"id": 271, "name": "Doksy", "name_ru": "Doksy", "tz": "", "district": "Liberecký Kraj"}, {"id": 272, "name": "Luhacovice", "name_ru": "Luhačovice", "tz": "", "district": "Zlínský Kraj"}, {"id": 273, "name": "Skutec", "name_ru": "Skuteč", "tz": "", "district": "Pardubický Kraj"}]