[{"id": 1, "name": "Copenhagen", "name_ru": "Copenhagen", "tz": "", "district": "Hovedstaden"}, {"id": 2, "name": "Aarhus", "name_ru": "Aarhus", "tz": "", "district": "Midtjylland"}, {"id": 3, "name": "Odense", "name_ru": "Odense", "tz": "", "district": "Syddanmark"}, {"id": 4, "name": "Aalborg", "name_ru": "Aalborg", "tz": "", "district": "Nordjylland"}, {"id": 5, "name": "Esbjerg", "name_ru": "Esbjerg", "tz": "", "district": "Syddanmark"}, {"id": 6, "name": "Vejle", "name_ru": "Vejle", "tz": "", "district": "Syddanmark"}, {"id": 7, "name": "Viborg", "name_ru": "Viborg", "tz": "", "district": "Midtjylland"}, {"id": 8, "name": "Hillerod", "name_ru": "Hillerød", "tz": "", "district": "Hovedstaden"}, {"id": 9, "name": "Soro", "name_ru": "Sorø", "tz": "", "district": "Sjælland"}, {"id": 10, "name": "Roskilde", "name_ru": "Roskilde", "tz": "", "district": "Sjælland"}, {"id": 11, "name": "Svendborg", "name_ru": "Svendborg", "tz": "", "district": "Syddanmark"}, {"id": 12, "name": "Frederikshavn", "name_ru": "Frederikshavn", "tz": "", "district": "Nordjylland"}]