[{"id": 1, "name": "Santo Domingo", "name_ru": "Santo Domingo", "tz": "", "district": "Ozama"}, {"id": 2, "name": "Santiago", "name_ru": "Santiago", "tz": "", "district": "Cibao Norte"}, {"id": 3, "name": "Santo Domingo Este", "name_ru": "Santo Domingo Este", "tz": "", "district": "Ozama"}, {"id": 4, "name": "Los Alcarrizos", "name_ru": "Los Alcarrizos", "tz": "", "district": "Ozama"}, {"id": 5, "name": "Higuey", "name_ru": "Higüey", "tz": "", "district": "Yuma"}, {"id": 6, "name": "San Cristobal", "name_ru": "San Cristóbal", "tz": "", "district": "Valdesia"}, {"id": 7, "name": "La Vega", "name_ru": "La Vega", "tz": "", "district": "Cibao Sur"}, {"id": 8, "name": "San Pedro de Macoris", "name_ru": "San Pedro de Macorís", "tz": "", "district": "Higuamo"}, {"id": 9, "name": "San Francisco de Macoris", "name_ru": "San Francisco de Macorís", "tz": "", "district": "Cibao Nordeste"}, {"id": 10, "name": "Moca", "name_ru": "Moca", "tz": "", "district": "Cibao Norte"}, {"id": 11, "name": "Puerto Plata", "name_ru": "Puerto Plata", "tz": "", "district": "Cibao Norte"}, {"id": 12, "name": "Bani", "name_ru": "Baní", "tz": "", "district": "Valdesia"}, {"id": 13, "name": "Boca Chica", "name_ru": "Boca Chica", "tz": "", "district": "Ozama"}, {"id": 14, "name": "La Romana", "name_ru": "La Romana", "tz": "", "district": "Yuma"}, {"id": 15, "name": "San Juan", "name_ru": "San Juan", "tz": "", "district": "El Valle"}, {"id": 16, "name": "Bajos de Haina", "name_ru": "Bajos de Haina", "tz": "", "district": "Valdesia"}, {"id": 17, "name": "Bonao", "name_ru": "Bonao", "tz": "", "district": "Cibao Sur"}, {"id": 18, "name": "Barahona", "name_ru": "Barahona", "tz": "", "district": "Enriquillo"}, {"id": 19, "name": "Mao", "name_ru": "Mao", "tz": "", "district": "Cibao Noroeste"}, {"id": 20, "name": "Azua", "name_ru": "Azua", "tz": "", "district": "Valdesia"}, {"id": 21, "name": "Villa Altagracia", "name_ru": "Villa Altagracia", "tz": "", "district": "Valdesia"}, {"id": 22, "name": "Nagua", "name_ru": "Nagua", "tz": "", "district": "Cibao Nordeste"}, {"id": 23, "name": "Cotui", "name_ru": "Cotuí", "tz": "", "district": "Cibao Sur"}, {"id": 24, "name": "Pedro Brand", "name_ru": "Pedro Brand", "tz": "", "district": "Ozama"}, {"id": 25, "name": "El Seibo", "name_ru": "El Seibo", "tz": "", "district": "Yuma"}, {"id": 26, "name": "Hato Mayor", "name_ru": "Hato Mayor", "tz": "", "district": "Higuamo"}, {"id": 27, "name": "Constanza", "name_ru": "Constanza", "tz": "", "district": "Cibao Sur"}, {"id": 28, "name": "Jarabacoa", "name_ru": "Jarabacoa", "tz": "", "district": "Cibao Sur"}, {"id": 29, "name": "Samana", "name_ru": "Samaná", "tz": "", "district": "Cibao Nordeste"}, {"id": 30, "name": "Yamasa", "name_ru": "Yamasá", "tz": "", "district": "Higuamo"}, {"id": 31, "name": "Tamboril", "name_ru": "Tamboril", "tz": "", "district": "Cibao Norte"}, {"id": 32, "name": "Sosua", "name_ru": "Sosúa", "tz": "", "district": "Cibao Norte"}, {"id": 33, "name": "Punal", "name_ru": "Puñal", "tz": "", "district": "Cibao Norte"}, {"id": 34, "name": "Las Matas de Farfan", "name_ru": "Las Matas de Farfán", "tz": "", "district": "El Valle"}, {"id": 35, "name": "Guerra", "name_ru": "Guerra", "tz": "", "district": "Ozama"}, {"id": 36, "name": "Pantanal", "name_ru": "Pantanal", "tz": "", "district": "Yuma"}, {"id": 37, "name": "Comendador", "name_ru": "Comendador", "tz": "", "district": "El Valle"}, {"id": 38, "name": "Yaguate", "name_ru": "Yaguate", "tz": "", "district": "Valdesia"}, {"id": 39, "name": "Villa Bisono", "name_ru": "Villa Bisonó", "tz": "", "district": "Cibao Norte"}, {"id": 40, "name": "Salcedo", "name_ru": "Salcedo", "tz": "", "district": "Cibao Nordeste"}, {"id": 41, "name": "San Jose de Ocoa", "name_ru": "San José de Ocoa", "tz": "", "district": "Valdesia"}, {"id": 42, "name": "San Jose de Las Matas", "name_ru": "San José de Las Matas", "tz": "", "district": "Cibao Norte"}, {"id": 43, "name": "Villa Gonzalez", "name_ru": "Villa González", "tz": "", "district": "Cibao Norte"}, {"id": 44, "name": "Gaspar Hernandez", "name_ru": "Gaspar Hernández", "tz": "", "district": "Cibao Norte"}, {"id": 45, "name": "Neiba", "name_ru": "Neiba", "tz": "", "district": "Enriquillo"}, {"id": 46, "name": "San Lorenzo de Guayubin", "name_ru": "San Lorenzo de Guayubín", "tz": "", "district": "Cibao Noroeste"}, {"id": 47, "name": "Sabaneta", "name_ru": "Sabaneta", "tz": "", "district": "Cibao Noroeste"}, {"id": 48, "name": "Villa Riva", "name_ru": "Villa Riva", "tz": "", "district": "Cibao Nordeste"}, {"id": 49, "name": "Bayaguana", "name_ru": "Bayaguana", "tz": "", "district": "Higuamo"}, {"id": 50, "name": "Cambita Garabitos", "name_ru": "Cambita Garabitos", "tz": "", "district": "Valdesia"}, {"id": 51, "name": "Sabana Grande de Boya", "name_ru": "Sabana Grande de Boyá", "tz": "", "district": "Higuamo"}, {"id": 52, "name": "San Gregorio de Nigua", "name_ru": "San Gregorio de Nigua", "tz": "", "district": "San Cristóbal"}, {"id": 53, "name": "Jima Abajo", "name_ru": "Jima Abajo", "tz": "", "district": "Cibao Sur"}, {"id": 54, "name": "Dajabon", "name_ru": "Dajabón", "tz": "", "district": "Cibao Noroeste"}, {"id": 55, "name": "Tenares", "name_ru": "Tenares", "tz": "", "district": "Cibao Nordeste"}, {"id": 56, "name": "Nizao", "name_ru": "Nizao", "tz": "", "district": "Valdesia"}, {"id": 57, "name": "Tamayo", "name_ru": "Tamayo", "tz": "", "district": "Enriquillo"}, {"id": 58, "name": "Licey al Medio", "name_ru": "Licey al Medio", "tz": "", "district": "Cibao Norte"}, {"id": 59, "name": "Villa Tapia", "name_ru": "Villa Tapia", "tz": "", "district": "Cibao Nordeste"}, {"id": 60, "name": "Monte Cristi", "name_ru": "Monte Cristi", "tz": "", "district": "Cibao Noroeste"}, {"id": 61, "name": "El Factor", "name_ru": "El Factor", "tz": "", "district": "Cibao Nordeste"}, {"id": 62, "name": "Laguna Salada", "name_ru": "Laguna Salada", "tz": "", "district": "Cibao Noroeste"}, {"id": 63, "name": "Los Llanos", "name_ru": "Los Llanos", "tz": "", "district": "Higuamo"}, {"id": 64, "name": "Fantino", "name_ru": "Fantino", "tz": "", "district": "Cibao Sur"}, {"id": 65, "name": "Imbert", "name_ru": "Imbert", "tz": "", "district": "Cibao Norte"}, {"id": 66, "name": "San Rafael del Yuma", "name_ru": "San Rafael del Yuma", "tz": "", "district": "Yuma"}, {"id": 67, "name": "Vicente Noble", "name_ru": "Vicente Noble", "tz": "", "district": "Enriquillo"}, {"id": 68, "name": "San Victor Abajo", "name_ru": "San Víctor Abajo", "tz": "", "district": "Cibao Norte"}, {"id": 69, "name": "Esperalvillo", "name_ru": "Esperalvillo", "tz": "", "district": "Higuamo"}, {"id": 70, "name": "Piedra Blanca", "name_ru": "Piedra Blanca", "tz": "", "district": "Cibao Sur"}, {"id": 71, "name": "Cercado Abajo", "name_ru": "Cercado Abajo", "tz": "", "district": "El Valle"}, {"id": 72, "name": "Miches", "name_ru": "Miches", "tz": "", "district": "Yuma"}, {"id": 73, "name": "Padre Las Casas", "name_ru": "Padre Las Casas", "tz": "", "district": "Valdesia"}, {"id": 74, "name": "Las Terrenas", "name_ru": "Las Terrenas", "tz": "", "district": "Cibao Nordeste"}, {"id": 75, "name": "Altamira", "name_ru": "Altamira", "tz": "", "district": "Cibao Norte"}, {"id": 76, "name": "Pimentel", "name_ru": "Pimentel", "tz": "", "district": "Cibao Nordeste"}, {"id": 77, "name": "Tabara Arriba", "name_ru": "Tábara Arriba", "tz": "", "district": "Valdesia"}, {"id": 78, "name": "Yayas de Viajama", "name_ru": "Yayas de Viajama", "tz": "", "district": "Valdesia"}, {"id": 79, "name": "Villa Isabela", "name_ru": "Villa Isabela", "tz": "", "district": "Cibao Norte"}, {"id": 80, "name": "Santo Tomas de Janico", "name_ru": "Santo Tomás de Jánico", "tz": "", "district": "Cibao Norte"}, {"id": 81, "name": "Guaymate", "name_ru": "Guaymate", "tz": "", "district": "Yuma"}, {"id": 82, "name": "Sabana de La Mar", "name_ru": "Sabana de La Mar", "tz": "", "district": "Higuamo"}, {"id": 83, "name": "Sabana Grande de Palenque", "name_ru": "Sabana Grande de Palenque", "tz": "", "district": "Valdesia"}, {"id": 84, "name": "Monte Plata", "name_ru": "Monte Plata", "tz": "", "district": "Higuamo"}, {"id": 85, "name": "Castillo", "name_ru": "Castillo", "tz": "", "district": "Cibao Nordeste"}, {"id": 86, "name": "Loma de Cabrera", "name_ru": "Loma de Cabrera", "tz": "", "district": "Cibao Noroeste"}, {"id": 87, "name": "Rio San Juan", "name_ru": "Río San Juan", "tz": "", "district": "Cibao Nordeste"}, {"id": 88, "name": "Castanuelas", "name_ru": "Castañuelas", "tz": "", "district": "Cibao Noroeste"}, {"id": 89, "name": "Cabral", "name_ru": "Cabral", "tz": "", "district": "Barahona"}, {"id": 90, "name": "Las Guaranas", "name_ru": "Las Guáranas", "tz": "", "district": "Cibao Nordeste"}, {"id": 91, "name": "Villa Vasquez", "name_ru": "Villa Vásquez", "tz": "", "district": "Cibao Noroeste"}, {"id": 92, "name": "Arenoso", "name_ru": "Arenoso", "tz": "", "district": "Cibao Nordeste"}, {"id": 93, "name": "Sabana Iglesia", "name_ru": "Sabana Iglesia", "tz": "", "district": "Cibao Norte"}, {"id": 94, "name": "Los Hidalgos", "name_ru": "Los Hidalgos", "tz": "", "district": "Puerto Plata"}, {"id": 95, "name": "Vallejuelo", "name_ru": "Vallejuelo", "tz": "", "district": "El Valle"}, {"id": 96, "name": "Baitoa", "name_ru": "Baitoa", "tz": "", "district": "Cibao Norte"}, {"id": 97, "name": "Duverge", "name_ru": "Duvergé", "tz": "", "district": "Enriquillo"}, {"id": 98, "name": "Moncion", "name_ru": "Monción", "tz": "", "district": "Cibao Noroeste"}, {"id": 99, "name": "Pueblo Viejo", "name_ru": "Pueblo Viejo", "tz": "", "district": "Valdesia"}, {"id": 100, "name": "Jimani", "name_ru": "Jimaní", "tz": "", "district": "Enriquillo"}, {"id": 101, "name": "Las Charcas", "name_ru": "Las Charcas", "tz": "", "district": "Valdesia"}, {"id": 102, "name": "Los Almacigos", "name_ru": "Los Almácigos", "tz": "", "district": "Cibao Noroeste"}, {"id": 103, "name": "Pedernales", "name_ru": "Pedernales", "tz": "", "district": "Enriquillo"}, {"id": 104, "name": "Villa Jaragua", "name_ru": "Villa Jaragua", "tz": "", "district": "Enriquillo"}, {"id": 105, "name": "Las Matas de Santa Cruz", "name_ru": "Las Matas de Santa Cruz", "tz": "", "district": "Cibao Noroeste"}, {"id": 106, "name": "Rancho Arriba", "name_ru": "Rancho Arriba", "tz": "", "district": "Valdesia"}, {"id": 107, "name": "Sabana Larga", "name_ru": "Sabana Larga", "tz": "", "district": "Valdesia"}, {"id": 108, "name": "Bohechio", "name_ru": "Bohechío", "tz": "", "district": "El Valle"}, {"id": 109, "name": "El Cacao", "name_ru": "El Cacao", "tz": "", "district": "Valdesia"}, {"id": 110, "name": "Pepillo Salcedo", "name_ru": "Pepillo Salcedo", "tz": "", "district": "Cibao Noroeste"}, {"id": 111, "name": "La Descubierta", "name_ru": "La Descubierta", "tz": "", "district": "Enriquillo"}, {"id": 112, "name": "Polo", "name_ru": "Polo", "tz": "", "district": "Enriquillo"}, {"id": 113, "name": "Jamao al Norte", "name_ru": "Jamao al Norte", "tz": "", "district": "Cibao Norte"}, {"id": 114, "name": "Oviedo", "name_ru": "Oviedo", "tz": "", "district": "Enriquillo"}, {"id": 115, "name": "Restauracion", "name_ru": "Restauración", "tz": "", "district": "Cibao Noroeste"}, {"id": 116, "name": "Cayetano Germosen", "name_ru": "Cayetano Germosén", "tz": "", "district": "Cibao Norte"}, {"id": 117, "name": "Partido", "name_ru": "Partido", "tz": "", "district": "Cibao Noroeste"}, {"id": 118, "name": "Banica", "name_ru": "Bánica", "tz": "", "district": "El Valle"}, {"id": 119, "name": "Guananico", "name_ru": "Guananico", "tz": "", "district": "Cibao Norte"}, {"id": 120, "name": "El Pino", "name_ru": "El Pino", "tz": "", "district": "Cibao Noroeste"}, {"id": 121, "name": "Postrer Rio", "name_ru": "Postrer Río", "tz": "", "district": "Enriquillo"}, {"id": 122, "name": "Estebania", "name_ru": "Estebanía", "tz": "", "district": "Valdesia"}, {"id": 123, "name": "Hostos", "name_ru": "Hostos", "tz": "", "district": "Cibao Nordeste"}, {"id": 124, "name": "El Guayabal", "name_ru": "El Guayabal", "tz": "", "district": "Valdesia"}, {"id": 125, "name": "Bavaro", "name_ru": "Bávaro", "tz": "", "district": "Yuma"}]