[{"id": 1, "name": "Algiers", "name_ru": "Algiers", "tz": "", "district": "Alger"}, {"id": 2, "name": "Oran", "name_ru": "Oran", "tz": "", "district": "Oran"}, {"id": 3, "name": "Constantine", "name_ru": "Constantine", "tz": "", "district": "Constantine"}, {"id": 4, "name": "Blida", "name_ru": "Blida", "tz": "", "district": "Blida"}, {"id": 5, "name": "Batna", "name_ru": "Batna", "tz": "", "district": "Batna"}, {"id": 6, "name": "Setif", "name_ru": "Sétif", "tz": "", "district": "Sétif"}, {"id": 7, "name": "Djelfa", "name_ru": "Djelfa", "tz": "", "district": "Djelfa"}, {"id": 8, "name": "Annaba", "name_ru": "Annaba", "tz": "", "district": "Annaba"}, {"id": 9, "name": "Sidi Bel Abbes", "name_ru": "Sidi Bel Abbès", "tz": "", "district": "Sidi Bel Abbès"}, {"id": 10, "name": "Biskra", "name_ru": "Biskra", "tz": "", "district": "Biskra"}, {"id": 11, "name": "Tebessa", "name_ru": "Tébessa", "tz": "", "district": "Tébessa"}, {"id": 12, "name": "Tiaret", "name_ru": "Tiaret", "tz": "", "district": "Tiaret"}, {"id": 13, "name": "Bejaia", "name_ru": "Bejaïa", "tz": "", "district": "Bejaïa"}, {"id": 14, "name": "Tlemcen", "name_ru": "Tlemcen", "tz": "", "district": "Tlemcen"}, {"id": 15, "name": "Bordj Bou Arreridj", "name_ru": "Bordj Bou Arreridj", "tz": "", "district": "Bordj Bou Arréridj"}, {"id": 16, "name": "Skikda", "name_ru": "Skikda", "tz": "", "district": "Skikda"}, {"id": 17, "name": "Bechar", "name_ru": "Béchar", "tz": "", "district": "Béchar"}, {"id": 18, "name": "El Eulma", "name_ru": "El Eulma", "tz": "", "district": "Sétif"}, {"id": 19, "name": "Chlef", "name_ru": "Chlef", "tz": "", "district": "Chlef"}, {"id": 20, "name": "Souk Ahras", "name_ru": "Souk Ahras", "tz": "", "district": "Souk Ahras"}, {"id": 21, "name": "M'Sila", "name_ru": "M’Sila", "tz": "", "district": "M’sila"}, {"id": 22, "name": "Mostaganem", "name_ru": "Mostaganem", "tz": "", "district": "Mostaganem"}, {"id": 23, "name": "Medea", "name_ru": "Médéa", "tz": "", "district": "Médéa"}, {"id": 24, "name": "Tizi Ouzou", "name_ru": "Tizi Ouzou", "tz": "", "district": "Tizi Ouzou"}, {"id": 25, "name": "El Oued", "name_ru": "El Oued", "tz": "", "district": "El Oued"}, {"id": 26, "name": "Laghouat", "name_ru": "Laghouat", "tz": "", "district": "Laghouat"}, {"id": 27, "name": "Jijel", "name_ru": "Jijel", "tz": "", "district": "Jijel"}, {"id": 28, "name": "Ouargla", "name_ru": "Ouargla", "tz": "", "district": "Ouargla"}, {"id": 29, "name": "Relizane", "name_ru": "Relizane", "tz": "", "district": "Relizane"}, {"id": 30, "name": "Saida", "name_ru": "Saïda", "tz": "", "district": "Saïda"}, {"id": 31, "name": "Guelma", "name_ru": "Guelma", "tz": "", "district": "Guelma"}, {"id": 32, "name": "Ghardaia", "name_ru": "Ghardaïa", "tz": "", "district": "Ghardaïa"}, {"id": 33, "name": "Ain Beida", "name_ru": "Aïn Beïda", "tz": "", "district": "Oum el Bouaghi"}, {"id": 34, "name": "Khenchela", "name_ru": "Khenchela", "tz": "", "district": "Khenchela"}, {"id": 35, "name": "Bou Saada", "name_ru": "Bou Saâda", "tz": "", "district": "M’sila"}, {"id": 36, "name": "Mascara", "name_ru": "Mascara", "tz": "", "district": "Mascara"}, {"id": 37, "name": "Messaad", "name_ru": "Messaad", "tz": "", "district": "Djelfa"}, {"id": 38, "name": "Ain Oussera", "name_ru": "Aïn Oussera", "tz": "", "district": "Djelfa"}, {"id": 39, "name": "Oum el Bouaghi", "name_ru": "Oum el Bouaghi", "tz": "", "district": "Oum el Bouaghi"}, {"id": 40, "name": "El Bayadh", "name_ru": "El Bayadh", "tz": "", "district": "El Bayadh"}, {"id": 41, "name": "Tamanrasset", "name_ru": "Tamanrasset", "tz": "", "district": "Tamanrasset"}, {"id": 42, "name": "Tissemsilt", "name_ru": "Tissemsilt", "tz": "", "district": "Tissemsilt"}, {"id": 43, "name": "Bouira", "name_ru": "Bouira", "tz": "", "district": "Bouira"}, {"id": 44, "name": "Adrar", "name_ru": "Adrar", "tz": "", "district": "Adrar"}, {"id": 45, "name": "Tindouf", "name_ru": "Tindouf", "tz": "", "district": "Tindouf"}, {"id": 46, "name": "Boumerdes", "name_ru": "Boumerdes", "tz": "", "district": "Boumerdes"}, {"id": 47, "name": "El Golea", "name_ru": "El Golea", "tz": "", "district": "Ghardaïa"}, {"id": 48, "name": "Touggourt", "name_ru": "Touggourt", "tz": "", "district": "Ouargla"}, {"id": 49, "name": "Timimoun", "name_ru": "Timimoun", "tz": "", "district": "Adrar"}, {"id": 50, "name": "I-n-Salah", "name_ru": "I-n-Salah", "tz": "", "district": "Tamanrasset"}, {"id": 51, "name": "El Tarf", "name_ru": "El Tarf", "tz": "", "district": "El Tarf"}, {"id": 52, "name": "Tipasa", "name_ru": "Tipasa", "tz": "", "district": "Tipaza"}, {"id": 53, "name": "Illizi", "name_ru": "Illizi", "tz": "", "district": "Illizi"}, {"id": 54, "name": "Bordj Mokhtar", "name_ru": "Bordj Mokhtar", "tz": "", "district": "Adrar"}, {"id": 55, "name": "Naama", "name_ru": "Naama", "tz": "", "district": "Naama"}, {"id": 56, "name": "Djanet", "name_ru": "Djanet", "tz": "", "district": "Illizi"}, {"id": 57, "name": "Beni Abbes", "name_ru": "Beni Abbès", "tz": "", "district": "Béchar"}, {"id": 58, "name": "In Guezzam", "name_ru": "In Guezzam", "tz": "", "district": "Tamanrasset"}, {"id": 59, "name": "Ain Temouchent", "name_ru": "Aïn Temouchent", "tz": "", "district": "Aïn Temouchent"}, {"id": 60, "name": "Ain Defla", "name_ru": "Aïn Defla", "tz": "", "district": "Aïn Defla"}, {"id": 61, "name": "Mila", "name_ru": "Mila", "tz": "", "district": "Mila"}, {"id": 62, "name": "Ouled Djellal", "name_ru": "Ouled Djellal", "tz": "", "district": "Biskra"}, {"id": 63, "name": "El Meghaier", "name_ru": "El Meghaïer", "tz": "", "district": "El Oued"}, {"id": 64, "name": "Es Senia", "name_ru": "Es Senia", "tz": "", "district": "Oran"}, {"id": 65, "name": "El Milia", "name_ru": "El Milia", "tz": "", "district": "Jijel"}, {"id": 66, "name": "Bordj Menaiel", "name_ru": "Bordj Menaïel", "tz": "", "district": "Boumerdes"}, {"id": 67, "name": "Mecheria", "name_ru": "Mecheria", "tz": "", "district": "Naama"}, {"id": 68, "name": "Ain Sefra", "name_ru": "Aïn Sefra", "tz": "", "district": "Naama"}, {"id": 69, "name": "Lakhdaria", "name_ru": "Lakhdaria", "tz": "", "district": "Bouira"}, {"id": 70, "name": "Boufarik", "name_ru": "Boufarik", "tz": "", "district": "Blida"}, {"id": 71, "name": "Azzaba", "name_ru": "Azzaba", "tz": "", "district": "Skikda"}, {"id": 72, "name": "Akbou", "name_ru": "Akbou", "tz": "", "district": "Bejaïa"}, {"id": 73, "name": "'Ain Azel", "name_ru": "’Aïn Azel", "tz": "", "district": "Sétif"}, {"id": 74, "name": "Ouled Moussa", "name_ru": "Ouled Moussa", "tz": "", "district": "Boumerdes"}, {"id": 75, "name": "Hassi Messaoud", "name_ru": "Hassi Messaoud", "tz": "", "district": "Ouargla"}, {"id": 76, "name": "'Ain Arnat", "name_ru": "’Aïn Arnat", "tz": "", "district": "Sétif"}, {"id": 77, "name": "Draa el Mizan", "name_ru": "Draa el Mizan", "tz": "", "district": "Bouira"}, {"id": 78, "name": "Souma", "name_ru": "Souma", "tz": "", "district": "Blida"}, {"id": 79, "name": "Azazga", "name_ru": "Azazga", "tz": "", "district": "Tizi Ouzou"}, {"id": 80, "name": "Didouche Mourad", "name_ru": "Didouche Mourad", "tz": "", "district": "Constantine"}, {"id": 81, "name": "Dellys", "name_ru": "Dellys", "tz": "", "district": "Boumerdes"}, {"id": 82, "name": "Draa Ben Khedda", "name_ru": "Draa Ben Khedda", "tz": "", "district": "Boumerdes"}, {"id": 83, "name": "Boghni", "name_ru": "Boghni", "tz": "", "district": "Tizi Ouzou"}, {"id": 84, "name": "Tizi Gheniff", "name_ru": "Tizi Gheniff", "tz": "", "district": "Boumerdes"}, {"id": 85, "name": "L'Arbaa Nait Irathen", "name_ru": "L’Arbaa Naït Irathen", "tz": "", "district": "Tizi Ouzou"}, {"id": 86, "name": "Timizart", "name_ru": "Timizart", "tz": "", "district": "Tizi Ouzou"}, {"id": 87, "name": "Freha", "name_ru": "Freha", "tz": "", "district": "Tizi Ouzou"}, {"id": 88, "name": "Mekla", "name_ru": "Mekla", "tz": "", "district": "Tizi Ouzou"}, {"id": 89, "name": "Beni Amrane", "name_ru": "Beni Amrane", "tz": "", "district": "Boumerdes"}, {"id": 90, "name": "Makouda", "name_ru": "Makouda", "tz": "", "district": "Boumerdes"}, {"id": 91, "name": "Tadmait", "name_ru": "Tadmaït", "tz": "", "district": "Boumerdes"}, {"id": 92, "name": "Amoucha", "name_ru": "Amoucha", "tz": "", "district": "Sétif"}, {"id": 93, "name": "Naciria", "name_ru": "Naciria", "tz": "", "district": "Boumerdes"}, {"id": 94, "name": "Kadiria", "name_ru": "Kadiria", "tz": "", "district": "Bouira"}, {"id": 95, "name": "Djinet", "name_ru": "Djinet", "tz": "", "district": "Boumerdes"}, {"id": 96, "name": "Beni Douala", "name_ru": "Beni Douala", "tz": "", "district": "Tizi Ouzou"}, {"id": 97, "name": "Thenia", "name_ru": "Thenia", "tz": "", "district": "Boumerdes"}, {"id": 98, "name": "Tizi-n-Bechar", "name_ru": "Tizi-n-Bechar", "tz": "", "district": "Bejaïa"}, {"id": 99, "name": "'Ain el Hammam", "name_ru": "’Aïn el Hammam", "tz": "", "district": "Tizi Ouzou"}, {"id": 100, "name": "Aomar", "name_ru": "Aomar", "tz": "", "district": "Bouira"}, {"id": 101, "name": "Tala Yfassene", "name_ru": "Tala Yfassene", "tz": "", "district": "Sétif"}, {"id": 102, "name": "Reggane", "name_ru": "Reggane", "tz": "", "district": "Adrar"}, {"id": 103, "name": "Arbaoun", "name_ru": "Arbaoun", "tz": "", "district": "Sétif"}, {"id": 104, "name": "Tirmitine", "name_ru": "Tirmitine", "tz": "", "district": "Tizi Ouzou"}, {"id": 105, "name": "Timoktene", "name_ru": "Timoktene", "tz": "", "district": "Adrar"}, {"id": 106, "name": "Beni Fouda", "name_ru": "Beni Fouda", "tz": "", "district": "Sétif"}, {"id": 107, "name": "Tizi Rached", "name_ru": "Tizi Rached", "tz": "", "district": "Tizi Ouzou"}, {"id": 108, "name": "Ain Zaouia", "name_ru": "Aïn Zaouïa", "tz": "", "district": "Tizi Ouzou"}, {"id": 109, "name": "Sidi Daoud", "name_ru": "Sidi Daoud", "tz": "", "district": "Boumerdes"}, {"id": 110, "name": "Azeffoun", "name_ru": "Azeffoun", "tz": "", "district": "Tizi Ouzou"}, {"id": 111, "name": "Tichi", "name_ru": "Tichi", "tz": "", "district": "Bejaïa"}, {"id": 112, "name": "'Ain Abessa", "name_ru": "’Aïn Abessa", "tz": "", "district": "Sétif"}, {"id": 113, "name": "Chorfa", "name_ru": "Chorfa", "tz": "", "district": "Bouira"}, {"id": 114, "name": "Ouadhia", "name_ru": "Ouadhia", "tz": "", "district": "Tizi Ouzou"}, {"id": 115, "name": "Boudjima", "name_ru": "Boudjima", "tz": "", "district": "Tizi Ouzou"}, {"id": 116, "name": "Tizi-n-Tleta", "name_ru": "Tizi-n-Tleta", "tz": "", "district": "Tizi Ouzou"}, {"id": 117, "name": "Ait Yaich", "name_ru": "Aït Yaïch", "tz": "", "district": "Tizi Ouzou"}, {"id": 118, "name": "Iflissen", "name_ru": "Iflissen", "tz": "", "district": "Tizi Ouzou"}, {"id": 119, "name": "Abadla", "name_ru": "Abadla", "tz": "", "district": "Béchar"}, {"id": 120, "name": "Takerbouzt", "name_ru": "Takerbouzt", "tz": "", "district": "Bouira"}, {"id": 121, "name": "Moudjbara", "name_ru": "Moudjbara", "tz": "", "district": "Djelfa"}, {"id": 122, "name": "Afir", "name_ru": "Afir", "tz": "", "district": "Boumerdes"}, {"id": 123, "name": "Mechtras", "name_ru": "Mechtras", "tz": "", "district": "Tizi Ouzou"}, {"id": 124, "name": "Sali", "name_ru": "Sali", "tz": "", "district": "Adrar"}, {"id": 125, "name": "Arhribs", "name_ru": "Arhribs", "tz": "", "district": "Tizi Ouzou"}, {"id": 126, "name": "Si Mustapha", "name_ru": "Si Mustapha", "tz": "", "district": "Boumerdes"}, {"id": 127, "name": "Iferhounene", "name_ru": "Iferhounene", "tz": "", "district": "Tizi Ouzou"}, {"id": 128, "name": "El Adjiba", "name_ru": "El Adjiba", "tz": "", "district": "Bouira"}, {"id": 129, "name": "Yakouren", "name_ru": "Yakouren", "tz": "", "district": "Tizi Ouzou"}, {"id": 130, "name": "Tigzirt", "name_ru": "Tigzirt", "tz": "", "district": "Tizi Ouzou"}, {"id": 131, "name": "Bechloul", "name_ru": "Bechloul", "tz": "", "district": "Bouira"}, {"id": 132, "name": "'Ain Roua", "name_ru": "’Aïn Roua", "tz": "", "district": "Sétif"}, {"id": 133, "name": "Charouine", "name_ru": "Charouine", "tz": "", "district": "Adrar"}, {"id": 134, "name": "Bir Ghbalou", "name_ru": "Bir Ghbalou", "tz": "", "district": "Médéa"}, {"id": 135, "name": "Sidi Namane", "name_ru": "Sidi Namane", "tz": "", "district": "Boumerdes"}, {"id": 136, "name": "Ben N'Choud", "name_ru": "Ben N’Choud", "tz": "", "district": "Boumerdes"}, {"id": 137, "name": "Bordj Okhriss", "name_ru": "Bordj Okhriss", "tz": "", "district": "Bouira"}, {"id": 138, "name": "Ben Nasseur", "name_ru": "Ben Nasseur", "tz": "", "district": "Ouargla"}, {"id": 139, "name": "Souama", "name_ru": "Souama", "tz": "", "district": "Tizi Ouzou"}, {"id": 140, "name": "Bou Nouh", "name_ru": "Bou Nouh", "tz": "", "district": "Tizi Ouzou"}, {"id": 141, "name": "Toudja", "name_ru": "Toudja", "tz": "", "district": "Bejaïa"}, {"id": 142, "name": "Ifigha", "name_ru": "Ifigha", "tz": "", "district": "Tizi Ouzou"}, {"id": 143, "name": "Ouled Rached", "name_ru": "Ouled Rached", "tz": "", "district": "Bouira"}, {"id": 144, "name": "Seddouk Oufella", "name_ru": "Seddouk Oufella", "tz": "", "district": "Bejaïa"}, {"id": 145, "name": "I-n-Amenas", "name_ru": "I-n-Amenas", "tz": "", "district": "Illizi"}, {"id": 146, "name": "Abalessa", "name_ru": "Abalessa", "tz": "", "district": "Tamanrasset"}, {"id": 147, "name": "Boukhralfa", "name_ru": "Boukhralfa", "tz": "", "district": "Bejaïa"}, {"id": 148, "name": "Tifra", "name_ru": "Tifra", "tz": "", "district": "Bejaïa"}, {"id": 149, "name": "Amalou", "name_ru": "Amalou", "tz": "", "district": "Bejaïa"}, {"id": 150, "name": "Taourga", "name_ru": "Taourga", "tz": "", "district": "Boumerdes"}, {"id": 151, "name": "Beni Aissi", "name_ru": "Beni Aïssi", "tz": "", "district": "Adrar"}, {"id": 152, "name": "Souk el Had", "name_ru": "Souk el Had", "tz": "", "district": "Boumerdes"}, {"id": 153, "name": "Ait Bou Madhi", "name_ru": "Aït Bou Madhi", "tz": "", "district": "Tizi Ouzou"}, {"id": 154, "name": "El Main", "name_ru": "El Maïn", "tz": "", "district": "Bejaïa"}, {"id": 155, "name": "Beni Ounif", "name_ru": "Beni Ounif", "tz": "", "district": "Béchar"}, {"id": 156, "name": "Tassamert", "name_ru": "Tassamert", "tz": "", "district": "Bordj Bou Arréridj"}, {"id": 157, "name": "I-n-Amguel", "name_ru": "I-n-Amguel", "tz": "", "district": "Tamanrasset"}]