[{"id": 1, "name": "Guayaquil", "name_ru": "Guayaquil", "tz": "America/Guayaquil", "district": "Guayas"}, {"id": 2, "name": "Quito", "name_ru": "Quito", "tz": "America/Guayaquil", "district": "Pichincha"}, {"id": 3, "name": "Cuenca", "name_ru": "Cuenca", "tz": "America/Guayaquil", "district": "Azuay"}, {"id": 4, "name": "Santo Domingo de los Colorados", "name_ru": "Santo Domingo de los Colorados", "tz": "America/Guayaquil", "district": "Santo Domingo de los Tsáchilas"}, {"id": 5, "name": "Machala", "name_ru": "Machala", "tz": "America/Guayaquil", "district": "El Oro"}, {"id": 6, "name": "Eloy Alfaro", "name_ru": "Eloy Alfaro", "tz": "America/Guayaquil", "district": "Guayas"}, {"id": 7, "name": "Manta", "name_ru": "Manta", "tz": "America/Guayaquil", "district": "Manabí"}, {"id": 8, "name": "Portoviejo", "name_ru": "Portoviejo", "tz": "America/Guayaquil", "district": "Manabí"}, {"id": 9, "name": "Loja", "name_ru": "Loja", "tz": "America/Guayaquil", "district": "Loja"}, {"id": 10, "name": "Ambato", "name_ru": "Ambato", "tz": "America/Guayaquil", "district": "Tungurahua"}, {"id": 11, "name": "Esmeraldas", "name_ru": "Esmeraldas", "tz": "America/Guayaquil", "district": "Esmeraldas"}, {"id": 12, "name": "Quevedo", "name_ru": "Quevedo", "tz": "America/Guayaquil", "district": "Los Ríos"}, {"id": 13, "name": "Riobamba", "name_ru": "Riobamba", "tz": "America/Guayaquil", "district": "Chimborazo"}, {"id": 14, "name": "Milagro", "name_ru": "Milagro", "tz": "America/Guayaquil", "district": "Guayas"}, {"id": 15, "name": "Ibarra", "name_ru": "Ibarra", "tz": "America/Guayaquil", "district": "Imbabura"}, {"id": 16, "name": "Babahoyo", "name_ru": "Babahoyo", "tz": "America/Guayaquil", "district": "Los Ríos"}, {"id": 17, "name": "Latacunga", "name_ru": "Latacunga", "tz": "America/Guayaquil", "district": "Cotopaxi"}, {"id": 18, "name": "Tulcan", "name_ru": "Tulcán", "tz": "America/Guayaquil", "district": "Carchi"}, {"id": 19, "name": "Nueva Loja", "name_ru": "Nueva Loja", "tz": "America/Guayaquil", "district": "Sucumbíos"}, {"id": 20, "name": "Puerto Francisco de Orellana", "name_ru": "Puerto Francisco de Orellana", "tz": "America/Guayaquil", "district": "Orellana"}, {"id": 21, "name": "Santa Elena", "name_ru": "Santa Elena", "tz": "America/Guayaquil", "district": "Santa Elena"}, {"id": 22, "name": "Azogues", "name_ru": "Azogues", "tz": "America/Guayaquil", "district": "Cañar"}, {"id": 23, "name": "Puyo", "name_ru": "Puyo", "tz": "America/Guayaquil", "district": "Pastaza"}, {"id": 24, "name": "Guaranda", "name_ru": "Guaranda", "tz": "America/Guayaquil", "district": "Bolívar"}, {"id": 25, "name": "Tena", "name_ru": "Tena", "tz": "America/Guayaquil", "district": "Napo"}, {"id": 26, "name": "Macas", "name_ru": "Macas", "tz": "America/Guayaquil", "district": "Morona-Santiago"}, {"id": 27, "name": "Puerto Ayora", "name_ru": "Puerto Ayora", "tz": "Pacific/Galapagos", "district": "Galápagos"}, {"id": 28, "name": "Zamora", "name_ru": "Zamora", "tz": "America/Guayaquil", "district": "Zamora-Chinchipe"}, {"id": 29, "name": "Puerto Baquerizo Moreno", "name_ru": "Puerto Baquerizo Moreno", "tz": "Pacific/Galapagos", "district": "Galápagos"}, {"id": 30, "name": "Sangolqui", "name_ru": "Sangolquí", "tz": "America/Guayaquil", "district": "Pichincha"}, {"id": 31, "name": "Pelileo", "name_ru": "Pelileo", "tz": "America/Guayaquil", "district": "Tungurahua"}, {"id": 32, "name": "Daule", "name_ru": "Daule", "tz": "America/Guayaquil", "district": "Guayas"}, {"id": 33, "name": "Pasaje", "name_ru": "Pasaje", "tz": "America/Guayaquil", "district": "El Oro"}, {"id": 34, "name": "Chone", "name_ru": "Chone", "tz": "America/Guayaquil", "district": "Manabí"}, {"id": 35, "name": "Santa Rosa", "name_ru": "Santa Rosa", "tz": "America/Guayaquil", "district": "El Oro"}, {"id": 36, "name": "Huaquillas", "name_ru": "Huaquillas", "tz": "America/Guayaquil", "district": "El Oro"}, {"id": 37, "name": "Montecristi", "name_ru": "Montecristi", "tz": "America/Guayaquil", "district": "Manabí"}, {"id": 38, "name": "Samborondon", "name_ru": "Samborondón", "tz": "America/Guayaquil", "district": "Guayas"}, {"id": 39, "name": "Jipijapa", "name_ru": "Jipijapa", "tz": "America/Guayaquil", "district": "Manabí"}, {"id": 40, "name": "Otavalo", "name_ru": "Otavalo", "tz": "America/Guayaquil", "district": "Imbabura"}, {"id": 41, "name": "Cayambe", "name_ru": "Cayambe", "tz": "America/Guayaquil", "district": "Pichincha"}, {"id": 42, "name": "Ventanas", "name_ru": "Ventanas", "tz": "America/Guayaquil", "district": "Los Ríos"}, {"id": 43, "name": "San Jacinto de Buena Fe", "name_ru": "San Jacinto de Buena Fe", "tz": "America/Guayaquil", "district": "Los Ríos"}, {"id": 44, "name": "Velasco Ibarra", "name_ru": "Velasco Ibarra", "tz": "America/Guayaquil", "district": "Guayas"}, {"id": 45, "name": "Salinas", "name_ru": "Salinas", "tz": "America/Guayaquil", "district": "Guayas"}, {"id": 46, "name": "La Troncal", "name_ru": "La Troncal", "tz": "America/Guayaquil", "district": "Cañar"}, {"id": 47, "name": "Playas", "name_ru": "Playas", "tz": "America/Guayaquil", "district": "Guayas"}, {"id": 48, "name": "Vinces", "name_ru": "Vinces", "tz": "America/Guayaquil", "district": "Los Ríos"}, {"id": 49, "name": "La Concordia", "name_ru": "La Concordia", "tz": "America/Guayaquil", "district": "Esmeraldas"}, {"id": 50, "name": "Rosa Zarate", "name_ru": "Rosa Zarate", "tz": "America/Guayaquil", "district": "Esmeraldas"}, {"id": 51, "name": "Balzar", "name_ru": "Balzar", "tz": "America/Guayaquil", "district": "Guayas"}, {"id": 52, "name": "Naranjito", "name_ru": "Naranjito", "tz": "America/Guayaquil", "district": "Guayas"}, {"id": 53, "name": "Naranjal", "name_ru": "Naranjal", "tz": "America/Guayaquil", "district": "Guayas"}, {"id": 54, "name": "La Mana", "name_ru": "La Maná", "tz": "America/Guayaquil", "district": "Cotopaxi"}, {"id": 55, "name": "San Lorenzo de Esmeraldas", "name_ru": "San Lorenzo de Esmeraldas", "tz": "America/Guayaquil", "district": "Esmeraldas"}, {"id": 56, "name": "Catamayo", "name_ru": "Catamayo", "tz": "America/Guayaquil", "district": "Loja"}, {"id": 57, "name": "Atuntaqui", "name_ru": "Atuntaqui", "tz": "America/Guayaquil", "district": "Imbabura"}, {"id": 58, "name": "Bahia de Caraquez", "name_ru": "Bahía de Caráquez", "tz": "America/Guayaquil", "district": "Manabí"}, {"id": 59, "name": "Puerto Quito", "name_ru": "Puerto Quito", "tz": "America/Guayaquil", "district": "Pichincha"}, {"id": 60, "name": "Pedro Carbo", "name_ru": "Pedro Carbo", "tz": "America/Guayaquil", "district": "Guayas"}, {"id": 61, "name": "Yaguachi Nuevo", "name_ru": "Yaguachi Nuevo", "tz": "America/Guayaquil", "district": "Guayas"}, {"id": 62, "name": "Pinas", "name_ru": "Piñas", "tz": "America/Guayaquil", "district": "El Oro"}, {"id": 63, "name": "Valencia", "name_ru": "Valencia", "tz": "America/Guayaquil", "district": "Los Ríos"}, {"id": 64, "name": "San Gabriel", "name_ru": "San Gabriel", "tz": "America/Guayaquil", "district": "Carchi"}, {"id": 65, "name": "Alausi", "name_ru": "Alausí", "tz": "America/Guayaquil", "district": "Chimborazo"}, {"id": 66, "name": "Lomas de Sargentillo", "name_ru": "Lomas de Sargentillo", "tz": "America/Guayaquil", "district": "Guayas"}, {"id": 67, "name": "Muisne", "name_ru": "Muisne", "tz": "America/Guayaquil", "district": "Esmeraldas"}, {"id": 68, "name": "Banos", "name_ru": "Baños", "tz": "America/Guayaquil", "district": "Tungurahua"}, {"id": 69, "name": "Macara", "name_ru": "Macará", "tz": "America/Guayaquil", "district": "Loja"}, {"id": 70, "name": "San Miguel de Salcedo", "name_ru": "San Miguel de Salcedo", "tz": "America/Guayaquil", "district": "Cotopaxi"}, {"id": 71, "name": "Valdez", "name_ru": "Valdez", "tz": "America/Guayaquil", "district": "Esmeraldas"}, {"id": 72, "name": "Santa Cruz", "name_ru": "Santa Cruz", "tz": "Pacific/Galapagos", "district": "Galápagos"}, {"id": 73, "name": "Tosagua", "name_ru": "Tosagua", "tz": "America/Guayaquil", "district": "Manabí"}, {"id": 74, "name": "Pillaro", "name_ru": "Píllaro", "tz": "America/Guayaquil", "district": "Tungurahua"}, {"id": 75, "name": "Pedro Vicente Maldonado", "name_ru": "Pedro Vicente Maldonado", "tz": "America/Guayaquil", "district": "Pichincha"}, {"id": 76, "name": "Archidona", "name_ru": "Archidona", "tz": "America/Guayaquil", "district": "Napo"}, {"id": 77, "name": "Puerto Villamil", "name_ru": "Puerto Villamil", "tz": "Pacific/Galapagos", "district": "Galápagos"}, {"id": 78, "name": "Yaupi", "name_ru": "Yaupi", "tz": "America/Guayaquil", "district": "Morona-Santiago"}]