[{"id": 1, "name": "Tallinn", "name_ru": "Tallinn", "tz": "", "district": "Harjumaa"}, {"id": 2, "name": "Tartu", "name_ru": "Tartu", "tz": "", "district": "Tartumaa"}, {"id": 3, "name": "Parnu", "name_ru": "Pärnu", "tz": "", "district": "Pärnumaa"}, {"id": 4, "name": "Viljandi", "name_ru": "Viljandi", "tz": "", "district": "Viljandimaa"}, {"id": 5, "name": "Rakvere", "name_ru": "Rakvere", "tz": "", "district": "Lääne-Virumaa"}, {"id": 6, "name": "Kuressaare", "name_ru": "Kuressaare", "tz": "", "district": "Saaremaa"}, {"id": 7, "name": "Valga", "name_ru": "Valga", "tz": "", "district": "Valgamaa"}, {"id": 8, "name": "Voru", "name_ru": "Võru", "tz": "", "district": "Võrumaa"}, {"id": 9, "name": "Johvi", "name_ru": "Jõhvi", "tz": "", "district": "Ida-Virumaa"}, {"id": 10, "name": "Haapsalu", "name_ru": "Haapsalu", "tz": "", "district": "Läänemaa"}, {"id": 11, "name": "Paide", "name_ru": "Paide", "tz": "", "district": "Järvamaa"}, {"id": 12, "name": "Jogeva", "name_ru": "Jõgeva", "tz": "", "district": "Jõgevamaa"}, {"id": 13, "name": "Polva", "name_ru": "Põlva", "tz": "", "district": "Põlvamaa"}, {"id": 14, "name": "Rapla", "name_ru": "Rapla", "tz": "", "district": "Raplamaa"}, {"id": 15, "name": "Kardla", "name_ru": "Kärdla", "tz": "", "district": "Hiiumaa"}, {"id": 16, "name": "Narva", "name_ru": "Narva", "tz": "", "district": "Ida-Virumaa"}, {"id": 17, "name": "Kohtla-Jarve", "name_ru": "Kohtla-Järve", "tz": "", "district": "Ida-Virumaa"}, {"id": 18, "name": "Maardu", "name_ru": "Maardu", "tz": "", "district": "Harjumaa"}, {"id": 19, "name": "Sillamae", "name_ru": "Sillamäe", "tz": "", "district": "Ida-Virumaa"}, {"id": 20, "name": "Keila", "name_ru": "Keila", "tz": "", "district": "Harjumaa"}, {"id": 21, "name": "Saue", "name_ru": "Saue", "tz": "", "district": "Harjumaa"}, {"id": 22, "name": "Elva", "name_ru": "Elva", "tz": "", "district": "Tartumaa"}, {"id": 23, "name": "Tapa", "name_ru": "Tapa", "tz": "", "district": "Lääne-Virumaa"}, {"id": 24, "name": "Kivioli", "name_ru": "Kiviõli", "tz": "", "district": "Ida-Virumaa"}, {"id": 25, "name": "Turi", "name_ru": "Türi", "tz": "", "district": "Järvamaa"}]