[{"id": 1, "name": "Cairo", "name_ru": "Cairo", "tz": "", "district": "Al Qāhirah"}, {"id": 2, "name": "Giza", "name_ru": "Giza", "tz": "", "district": "Al Jīzah"}, {"id": 3, "name": "Alexandria", "name_ru": "Alexandria", "tz": "", "district": "Al Iskandarīyah"}, {"id": 4, "name": "Shubra al Khaymah", "name_ru": "Shubrā al Khaymah", "tz": "", "district": "Al Qalyūbīyah"}, {"id": 5, "name": "Al Mansurah", "name_ru": "Al Manşūrah", "tz": "", "district": "Ad Daqahlīyah"}, {"id": 6, "name": "Halwan", "name_ru": "Ḩalwān", "tz": "", "district": "Al Qāhirah"}, {"id": 7, "name": "Port Said", "name_ru": "Port Said", "tz": "", "district": "Būr Sa‘īd"}, {"id": 8, "name": "Suez", "name_ru": "Suez", "tz": "", "district": "As Suways"}, {"id": 9, "name": "Tanta", "name_ru": "Ţanţā", "tz": "", "district": "Al Gharbīyah"}, {"id": 10, "name": "Asyut", "name_ru": "Asyūţ", "tz": "", "district": "Asyūţ"}, {"id": 11, "name": "Al Fayyum", "name_ru": "Al Fayyūm", "tz": "", "district": "Al Fayyūm"}, {"id": 12, "name": "Az Zaqaziq", "name_ru": "Az Zaqāzīq", "tz": "", "district": "Ash Sharqīyah"}, {"id": 13, "name": "Ismailia", "name_ru": "Ismailia", "tz": "", "district": "Al Ismā‘īlīyah"}, {"id": 14, "name": "Kafr ad Dawwar", "name_ru": "Kafr ad Dawwār", "tz": "", "district": "Al Buḩayrah"}, {"id": 15, "name": "Aswan", "name_ru": "Aswān", "tz": "", "district": "Aswān"}, {"id": 16, "name": "Damanhur", "name_ru": "Damanhūr", "tz": "", "district": "Al Buḩayrah"}, {"id": 17, "name": "Al Minya", "name_ru": "Al Minyā", "tz": "", "district": "Al Minyā"}, {"id": 18, "name": "Damietta", "name_ru": "Damietta", "tz": "", "district": "Dumyāţ"}, {"id": 19, "name": "Qina", "name_ru": "Qinā", "tz": "", "district": "Qinā"}, {"id": 20, "name": "Bani Suwayf", "name_ru": "Banī Suwayf", "tz": "", "district": "Banī Suwayf"}, {"id": 21, "name": "Luxor", "name_ru": "Luxor", "tz": "", "district": "Al Uqşur"}, {"id": 22, "name": "Suhaj", "name_ru": "Sūhāj", "tz": "", "district": "Sūhāj"}, {"id": 23, "name": "Shibin al Kawm", "name_ru": "Shibīn al Kawm", "tz": "", "district": "Al Minūfīyah"}, {"id": 24, "name": "Al `Arish", "name_ru": "Al ‘Arīsh", "tz": "", "district": "Shamāl Sīnā’"}, {"id": 25, "name": "Banha", "name_ru": "Banhā", "tz": "", "district": "Al Qalyūbīyah"}, {"id": 26, "name": "Al Ghardaqah", "name_ru": "Al Ghardaqah", "tz": "", "district": "Al Baḩr al Aḩmar"}, {"id": 27, "name": "Kafr ash Shaykh", "name_ru": "Kafr ash Shaykh", "tz": "", "district": "Kafr ash Shaykh"}, {"id": 28, "name": "Madinat as Sadis min Uktubar", "name_ru": "Madīnat as Sādis min Uktūbar", "tz": "", "district": "Al Jīzah"}, {"id": 29, "name": "Mallawi", "name_ru": "Mallawī", "tz": "", "district": "Al Minyā"}, {"id": 30, "name": "Disuq", "name_ru": "Disūq", "tz": "", "district": "Kafr ash Shaykh"}, {"id": 31, "name": "Bilbays", "name_ru": "Bilbays", "tz": "", "district": "Ash Sharqīyah"}, {"id": 32, "name": "Idfu", "name_ru": "Idfū", "tz": "", "district": "Aswān"}, {"id": 33, "name": "Mit Ghamr", "name_ru": "Mīt Ghamr", "tz": "", "district": "Ad Daqahlīyah"}, {"id": 34, "name": "Jirja", "name_ru": "Jirjā", "tz": "", "district": "Sūhāj"}, {"id": 35, "name": "Munuf", "name_ru": "Munūf", "tz": "", "district": "Al Minūfīyah"}, {"id": 36, "name": "Matruh", "name_ru": "Maţrūḩ", "tz": "", "district": "Maţrūḩ"}, {"id": 37, "name": "Akhmim", "name_ru": "Akhmīm", "tz": "", "district": "Sūhāj"}, {"id": 38, "name": "Zifta", "name_ru": "Ziftá", "tz": "", "district": "Al Gharbīyah"}, {"id": 39, "name": "Manfalut", "name_ru": "Manfalūţ", "tz": "", "district": "Asyūţ"}, {"id": 40, "name": "Bani Mazar", "name_ru": "Banī Mazār", "tz": "", "district": "Al Minyā"}, {"id": 41, "name": "Maghaghah", "name_ru": "Maghāghah", "tz": "", "district": "Al Minyā"}, {"id": 42, "name": "Al Qusiyah", "name_ru": "Al Qūşīyah", "tz": "", "district": "Asyūţ"}, {"id": 43, "name": "Abnub", "name_ru": "Abnūb", "tz": "", "district": "Asyūţ"}, {"id": 44, "name": "Hihya", "name_ru": "Hihyā", "tz": "", "district": "Ash Sharqīyah"}, {"id": 45, "name": "Al Minshah", "name_ru": "Al Minshāh", "tz": "", "district": "Sūhāj"}, {"id": 46, "name": "Samannud", "name_ru": "Samannūd", "tz": "", "district": "Al Gharbīyah"}, {"id": 47, "name": "Abu Qir", "name_ru": "Abū Qīr", "tz": "", "district": "Al Iskandarīyah"}, {"id": 48, "name": "Al Karnak", "name_ru": "Al Karnak", "tz": "", "district": "Al Uqşur"}, {"id": 49, "name": "Al Balyana", "name_ru": "Al Balyanā", "tz": "", "district": "Sūhāj"}, {"id": 50, "name": "Al Kharjah", "name_ru": "Al Khārjah", "tz": "", "district": "Al Wādī al Jadīd"}, {"id": 51, "name": "Naj` Hammadi", "name_ru": "Naj‘ Ḩammādī", "tz": "", "district": "Qinā"}, {"id": 52, "name": "Al Badari", "name_ru": "Al Badārī", "tz": "", "district": "Asyūţ"}, {"id": 53, "name": "Dayr Mawas", "name_ru": "Dayr Mawās", "tz": "", "district": "Al Minyā"}, {"id": 54, "name": "Faraskur", "name_ru": "Fāraskūr", "tz": "", "district": "Dumyāţ"}, {"id": 55, "name": "Qiman al `Arus", "name_ru": "Qiman al ‘Arūs", "tz": "", "district": "Banī Suwayf"}, {"id": 56, "name": "Qaha", "name_ru": "Qahā", "tz": "", "district": "Al Qalyūbīyah"}, {"id": 57, "name": "Hirriyat Raznah", "name_ru": "Hirrīyat Raznah", "tz": "", "district": "Ash Sharqīyah"}, {"id": 58, "name": "Mit Nama", "name_ru": "Mīt Namā", "tz": "", "district": "Al Qalyūbīyah"}, {"id": 59, "name": "Kafr Shukr", "name_ru": "Kafr Shukr", "tz": "", "district": "Al Minūfīyah"}, {"id": 60, "name": "Sharunah", "name_ru": "Shārūnah", "tz": "", "district": "Al Minyā"}, {"id": 61, "name": "Bani Murr", "name_ru": "Banī Murr", "tz": "", "district": "Asyūţ"}, {"id": 62, "name": "Al Madamud", "name_ru": "Al Madāmūd", "tz": "", "district": "Al Uqşur"}, {"id": 63, "name": "Sunbat", "name_ru": "Sunbāţ", "tz": "", "district": "Al Gharbīyah"}, {"id": 64, "name": "Al Qays", "name_ru": "Al Qays", "tz": "", "district": "Al Minyā"}, {"id": 65, "name": "Dayr Abu Hinnis", "name_ru": "Dayr Abū Ḩinnis", "tz": "", "district": "Al Minyā"}, {"id": 66, "name": "Bani Hasan ash Shuruq", "name_ru": "Banī Ḩasan ash Shurūq", "tz": "", "district": "Al Minyā"}, {"id": 67, "name": "Biyahmu", "name_ru": "Biyahmū", "tz": "", "district": "Al Fayyūm"}, {"id": 68, "name": "Birqash", "name_ru": "Birqāsh", "tz": "", "district": "Al Jīzah"}, {"id": 69, "name": "Dishashah", "name_ru": "Dishāshah", "tz": "", "district": "Banī Suwayf"}, {"id": 70, "name": "Mit Damsis", "name_ru": "Mīt Damsīs", "tz": "", "district": "Ad Daqahlīyah"}, {"id": 71, "name": "At Tur", "name_ru": "Aţ Ţūr", "tz": "", "district": "Janūb Sīnā’"}, {"id": 72, "name": "Qufadah", "name_ru": "Qufādah", "tz": "", "district": "Al Minyā"}, {"id": 73, "name": "Shanhur", "name_ru": "Shanhūr", "tz": "", "district": "Qinā"}, {"id": 74, "name": "Dayr as Sanquriyah", "name_ru": "Dayr as Sanqūrīyah", "tz": "", "district": "Al Minyā"}, {"id": 75, "name": "Dayr al Jarnus", "name_ru": "Dayr al Jarnūs", "tz": "", "district": "Al Minyā"}, {"id": 76, "name": "Ra's Gharib", "name_ru": "Ra’s Ghārib", "tz": "", "district": "Al Baḩr al Aḩmar"}, {"id": 77, "name": "Samalut", "name_ru": "Samālūţ", "tz": "", "district": "Al Minyā"}, {"id": 78, "name": "Armant", "name_ru": "Armant", "tz": "", "district": "Qinā"}, {"id": 79, "name": "Kawm Umbu", "name_ru": "Kawm Umbū", "tz": "", "district": "Aswān"}, {"id": 80, "name": "Bur Fu'ad", "name_ru": "Būr Fu’ād", "tz": "", "district": "Būr Sa‘īd"}, {"id": 81, "name": "Rosetta", "name_ru": "Rosetta", "tz": "", "district": "Al Buḩayrah"}, {"id": 82, "name": "Isna", "name_ru": "Isnā", "tz": "", "district": "Qinā"}, {"id": 83, "name": "Abu Qurqas", "name_ru": "Abū Qurqāş", "tz": "", "district": "Al Minyā"}, {"id": 84, "name": "Dandarah", "name_ru": "Dandarah", "tz": "", "district": "Qinā"}, {"id": 85, "name": "Matay", "name_ru": "Maţāy", "tz": "", "district": "Al Minyā"}, {"id": 86, "name": "San al Hajar al Qibliyah", "name_ru": "Şān al Ḩajar al Qiblīyah", "tz": "", "district": "Ash Sharqīyah"}, {"id": 87, "name": "Ihnasya al Madinah", "name_ru": "Ihnāsyā al Madīnah", "tz": "", "district": "Banī Suwayf"}, {"id": 88, "name": "Daraw", "name_ru": "Darāw", "tz": "", "district": "Aswān"}, {"id": 89, "name": "Al Husayniyah", "name_ru": "Al Ḩusaynīyah", "tz": "", "district": "Ash Sharqīyah"}, {"id": 90, "name": "Safaja", "name_ru": "Safājā", "tz": "", "district": "Al Baḩr al Aḩmar"}, {"id": 91, "name": "Kafr Sa`d", "name_ru": "Kafr Sa‘d", "tz": "", "district": "Dumyāţ"}, {"id": 92, "name": "Qift", "name_ru": "Qifţ", "tz": "", "district": "Qinā"}, {"id": 93, "name": "Siwah", "name_ru": "Sīwah", "tz": "", "district": "Maţrūḩ"}, {"id": 94, "name": "Naqadah", "name_ru": "Naqādah", "tz": "", "district": "Qinā"}, {"id": 95, "name": "Sa al Hajar", "name_ru": "Şā al Ḩajar", "tz": "", "district": "Al Gharbīyah"}, {"id": 96, "name": "Al Hibah", "name_ru": "Al Ḩībah", "tz": "", "district": "Al Baḩr al Aḩmar"}, {"id": 97, "name": "Sakha", "name_ru": "Sakhā", "tz": "", "district": "Kafr ash Shaykh"}, {"id": 98, "name": "Qantir", "name_ru": "Qantīr", "tz": "", "district": "Ash Sharqīyah"}, {"id": 99, "name": "Sidmant al Jabal", "name_ru": "Sidmant al Jabal", "tz": "", "district": "Al Fayyūm"}, {"id": 100, "name": "Dayr al Barsha", "name_ru": "Dayr al Barshā", "tz": "", "district": "Al Minyā"}, {"id": 101, "name": "Ad Dab`ah", "name_ru": "Aḑ Ḑab‘ah", "tz": "", "district": "Maţrūḩ"}, {"id": 102, "name": "Burj al `Arab", "name_ru": "Burj al ‘Arab", "tz": "", "district": "Al Iskandarīyah"}, {"id": 103, "name": "Sawadah", "name_ru": "Sawādah", "tz": "", "district": "Al Minyā"}, {"id": 104, "name": "Abjij", "name_ru": "Abjīj", "tz": "", "district": "Al Fayyūm"}, {"id": 105, "name": "Tihna al Jabal", "name_ru": "Ţihnā al Jabal", "tz": "", "district": "Al Minyā"}, {"id": 106, "name": "As Sallum", "name_ru": "As Sallūm", "tz": "", "district": "Maţrūḩ"}, {"id": 107, "name": "Shalatin", "name_ru": "Shalātīn", "tz": "", "district": "Al Baḩr al Aḩmar"}, {"id": 108, "name": "Al `Alamayn", "name_ru": "Al ‘Alamayn", "tz": "", "district": "Maţrūḩ"}, {"id": 109, "name": "Mandishah", "name_ru": "Mandīshah", "tz": "", "district": "Al Jīzah"}, {"id": 110, "name": "Qasr al Farafirah", "name_ru": "Qaşr al Farāfirah", "tz": "", "district": "Al Wādī al Jadīd"}, {"id": 111, "name": "Al Qasr", "name_ru": "Al Qaşr", "tz": "", "district": "Al Wādī al Jadīd"}, {"id": 112, "name": "Barnis", "name_ru": "Barnīs", "tz": "", "district": "Al Baḩr al Aḩmar"}]