[{"id": 1, "name": "Asmara", "name_ru": "Asmara", "tz": "", "district": "Ma’ākel"}, {"id": 2, "name": "Keren", "name_ru": "Keren", "tz": "", "district": "Ānseba"}, {"id": 3, "name": "Assab", "name_ru": "Assab", "tz": "", "district": "Debubawī K’eyih Bahrī"}, {"id": 4, "name": "Massawa", "name_ru": "Massawa", "tz": "", "district": "Semēnawī K’eyih Bahrī"}, {"id": 5, "name": "Mendefera", "name_ru": "Mendefera", "tz": "", "district": "Debub"}, {"id": 6, "name": "Barentu", "name_ru": "Barentu", "tz": "", "district": "Gash Barka"}, {"id": 7, "name": "Beylul", "name_ru": "Bēylul", "tz": "", "district": "Debubawī K’eyih Bahrī"}, {"id": 8, "name": "Adi Keyh", "name_ru": "Adi Keyh", "tz": "", "district": "Ma’ākel"}, {"id": 9, "name": "Ghinda'e", "name_ru": "Ghinda’e", "tz": "", "district": "Semēnawī K’eyih Bahrī"}, {"id": 10, "name": "Edd", "name_ru": "Edd", "tz": "", "district": "Debubawī K’eyih Bahrī"}, {"id": 11, "name": "Dek'emhare", "name_ru": "Dek’emhāre", "tz": "", "district": "Debub"}, {"id": 12, "name": "Ak'ordat", "name_ru": "Ak’ordat", "tz": "", "district": "Gash Barka"}, {"id": 13, "name": "Nefasit", "name_ru": "Nefasīt", "tz": "", "district": "Semēnawī K’eyih Bahrī"}, {"id": 14, "name": "Senafe", "name_ru": "Senafe", "tz": "", "district": "Debub"}, {"id": 15, "name": "Teseney", "name_ru": "Teseney", "tz": "", "district": "Gash Barka"}]