[{"id": 1, "name": "Madrid", "name_ru": "Madrid", "tz": "Europe/Madrid", "district": "Madrid"}, {"id": 2, "name": "Barcelona", "name_ru": "Barcelona", "tz": "Europe/Madrid", "district": "Catalonia"}, {"id": 3, "name": "Valencia", "name_ru": "Valencia", "tz": "Europe/Madrid", "district": "Valencia"}, {"id": 4, "name": "Sevilla", "name_ru": "Sevilla", "tz": "Europe/Madrid", "district": "Andalusia"}, {"id": 5, "name": "Zaragoza", "name_ru": "Zaragoza", "tz": "Europe/Madrid", "district": "Aragon"}, {"id": 6, "name": "Malaga", "name_ru": "Málaga", "tz": "Europe/Madrid", "district": "Andalusia"}, {"id": 7, "name": "Murcia", "name_ru": "Murcia", "tz": "Europe/Madrid", "district": "Murcia"}, {"id": 8, "name": "Palma", "name_ru": "Palma", "tz": "Europe/Madrid", "district": "Balearic Islands"}, {"id": 9, "name": "Las Palmas", "name_ru": "Las Palmas", "tz": "Atlantic/Canary", "district": "Canary Islands"}, {"id": 10, "name": "Bilbao", "name_ru": "Bilbao", "tz": "Europe/Madrid", "district": "Basque Country"}, {"id": 11, "name": "Alicante", "name_ru": "Alicante", "tz": "Europe/Madrid", "district": "Valencia"}, {"id": 12, "name": "Cordoba", "name_ru": "Córdoba", "tz": "Europe/Madrid", "district": "Andalusia"}, {"id": 13, "name": "Valladolid", "name_ru": "Valladolid", "tz": "Europe/Madrid", "district": "Castille-Leon"}, {"id": 14, "name": "Vigo", "name_ru": "Vigo", "tz": "Europe/Madrid", "district": "Galicia"}, {"id": 15, "name": "Gijon", "name_ru": "Gijón", "tz": "Europe/Madrid", "district": "Asturias"}, {"id": 16, "name": "Vitoria-Gasteiz", "name_ru": "Vitoria-Gasteiz", "tz": "Europe/Madrid", "district": "Basque Country"}, {"id": 17, "name": "A Coruna", "name_ru": "A Coruña", "tz": "Europe/Madrid", "district": "Galicia"}, {"id": 18, "name": "Elche", "name_ru": "Elche", "tz": "Europe/Madrid", "district": "Valencia"}, {"id": 19, "name": "Granada", "name_ru": "Granada", "tz": "Europe/Madrid", "district": "Andalusia"}, {"id": 20, "name": "Badalona", "name_ru": "Badalona", "tz": "Europe/Madrid", "district": "Catalonia"}, {"id": 21, "name": "Tarrasa", "name_ru": "Tarrasa", "tz": "Europe/Madrid", "district": "Catalonia"}, {"id": 22, "name": "Sabadell", "name_ru": "Sabadell", "tz": "Europe/Madrid", "district": "Catalonia"}, {"id": 23, "name": "Oviedo", "name_ru": "Oviedo", "tz": "Europe/Madrid", "district": "Asturias"}, {"id": 24, "name": "Cartagena", "name_ru": "Cartagena", "tz": "Europe/Madrid", "district": "Murcia"}, {"id": 25, "name": "Mostoles", "name_ru": "Móstoles", "tz": "Europe/Madrid", "district": "Madrid"}, {"id": 26, "name": "Jerez de la Frontera", "name_ru": "Jerez de la Frontera", "tz": "Europe/Madrid", "district": "Andalusia"}, {"id": 27, "name": "Pamplona", "name_ru": "Pamplona", "tz": "Europe/Madrid", "district": "Navarre"}, {"id": 28, "name": "Santa Cruz", "name_ru": "Santa Cruz", "tz": "Atlantic/Canary", "district": "Canary Islands"}, {"id": 29, "name": "Almeria", "name_ru": "Almería", "tz": "Europe/Madrid", "district": "Andalusia"}, {"id": 30, "name": "Alcala de Henares", "name_ru": "Alcalá de Henares", "tz": "Europe/Madrid", "district": "Madrid"}, {"id": 31, "name": "Fuenlabrada", "name_ru": "Fuenlabrada", "tz": "Europe/Madrid", "district": "Madrid"}, {"id": 32, "name": "Leganes", "name_ru": "Leganés", "tz": "Europe/Madrid", "district": "Madrid"}, {"id": 33, "name": "Donostia", "name_ru": "Donostia", "tz": "Europe/Madrid", "district": "Basque Country"}, {"id": 34, "name": "Getafe", "name_ru": "Getafe", "tz": "Europe/Madrid", "district": "Madrid"}, {"id": 35, "name": "Santander", "name_ru": "Santander", "tz": "Europe/Madrid", "district": "Cantabria"}, {"id": 36, "name": "Burgos", "name_ru": "Burgos", "tz": "Europe/Madrid", "district": "Castille-Leon"}, {"id": 37, "name": "Alcorcon", "name_ru": "Alcorcón", "tz": "Europe/Madrid", "district": "Madrid"}, {"id": 38, "name": "Castellon de la Plana", "name_ru": "Castellón de la Plana", "tz": "Europe/Madrid", "district": "Valencia"}, {"id": 39, "name": "Albacete", "name_ru": "Albacete", "tz": "Europe/Madrid", "district": "Castille-La Mancha"}, {"id": 40, "name": "La Laguna", "name_ru": "La Laguna", "tz": "Atlantic/Canary", "district": "Canary Islands"}, {"id": 41, "name": "Logrono", "name_ru": "Logroño", "tz": "Europe/Madrid", "district": "La Rioja"}, {"id": 42, "name": "Badajoz", "name_ru": "Badajoz", "tz": "Europe/Madrid", "district": "Extremadura"}, {"id": 43, "name": "Marbella", "name_ru": "Marbella", "tz": "Europe/Madrid", "district": "Andalusia"}, {"id": 44, "name": "Salamanca", "name_ru": "Salamanca", "tz": "Europe/Madrid", "district": "Castille-Leon"}, {"id": 45, "name": "Huelva", "name_ru": "Huelva", "tz": "Europe/Madrid", "district": "Andalusia"}, {"id": 46, "name": "Lleida", "name_ru": "Lleida", "tz": "Europe/Madrid", "district": "Catalonia"}, {"id": 47, "name": "Tarragona", "name_ru": "Tarragona", "tz": "Europe/Madrid", "district": "Catalonia"}, {"id": 48, "name": "Dos Hermanas", "name_ru": "Dos Hermanas", "tz": "Europe/Madrid", "district": "Andalusia"}, {"id": 49, "name": "Parla", "name_ru": "Parla", "tz": "Europe/Madrid", "district": "Madrid"}, {"id": 50, "name": "Mataro", "name_ru": "Mataró", "tz": "Europe/Madrid", "district": "Catalonia"}, {"id": 51, "name": "Torrejon de Ardoz", "name_ru": "Torrejón de Ardoz", "tz": "Europe/Madrid", "district": "Madrid"}, {"id": 52, "name": "Leon", "name_ru": "León", "tz": "Europe/Madrid", "district": "Castille-Leon"}, {"id": 53, "name": "Algeciras", "name_ru": "Algeciras", "tz": "Europe/Madrid", "district": "Andalusia"}, {"id": 54, "name": "Cadiz", "name_ru": "Cádiz", "tz": "Europe/Madrid", "district": "Andalusia"}, {"id": 55, "name": "Alcobendas", "name_ru": "Alcobendas", "tz": "Europe/Madrid", "district": "Madrid"}, {"id": 56, "name": "Jaen", "name_ru": "Jaén", "tz": "Europe/Madrid", "district": "Andalusia"}, {"id": 57, "name": "Reus", "name_ru": "Reus", "tz": "Europe/Madrid", "district": "Catalonia"}, {"id": 58, "name": "Ourense", "name_ru": "Ourense", "tz": "Europe/Madrid", "district": "Galicia"}, {"id": 59, "name": "Girona", "name_ru": "Girona", "tz": "Europe/Madrid", "district": "Catalonia"}, {"id": 60, "name": "San Vicente de Baracaldo", "name_ru": "San Vicente de Baracaldo", "tz": "Europe/Madrid", "district": "Basque Country"}, {"id": 61, "name": "Telde", "name_ru": "Telde", "tz": "Atlantic/Canary", "district": "Canary Islands"}, {"id": 62, "name": "Santiago de Compostela", "name_ru": "Santiago de Compostela", "tz": "Europe/Madrid", "district": "Galicia"}, {"id": 63, "name": "San Fernando", "name_ru": "San Fernando", "tz": "Europe/Madrid", "district": "Andalusia"}, {"id": 64, "name": "Ciudad de Melilla", "name_ru": "Ciudad de Melilla", "tz": "Africa/Ceuta", "district": "Melilla"}, {"id": 65, "name": "Fuengirola", "name_ru": "Fuengirola", "tz": "Europe/Madrid", "district": "Andalusia"}, {"id": 66, "name": "Ciudad de Ceuta", "name_ru": "Ciudad de Ceuta", "tz": "Africa/Ceuta", "district": "Ceuta"}, {"id": 67, "name": "San Baudilio de Llobregat", "name_ru": "San Baudilio de Llobregat", "tz": "Europe/Madrid", "district": "Catalonia"}, {"id": 68, "name": "Toledo", "name_ru": "Toledo", "tz": "Europe/Madrid", "district": "Castille-La Mancha"}, {"id": 69, "name": "Rubi", "name_ru": "Rubí", "tz": "Europe/Madrid", "district": "Catalonia"}, {"id": 70, "name": "Aviles", "name_ru": "Avilés", "tz": "Europe/Madrid", "district": "Asturias"}, {"id": 71, "name": "Benalmadena", "name_ru": "Benalmádena", "tz": "Europe/Madrid", "district": "Andalusia"}, {"id": 72, "name": "Castelldefels", "name_ru": "Castelldefels", "tz": "Europe/Madrid", "district": "Catalonia"}, {"id": 73, "name": "Torremolinos", "name_ru": "Torremolinos", "tz": "Europe/Madrid", "district": "Andalusia"}, {"id": 74, "name": "Viladecans", "name_ru": "Viladecáns", "tz": "Europe/Madrid", "district": "Catalonia"}, {"id": 75, "name": "El Prat de Llobregat", "name_ru": "El Prat de Llobregat", "tz": "Europe/Madrid", "district": "Catalonia"}, {"id": 76, "name": "Arrecife", "name_ru": "Arrecife", "tz": "Atlantic/Canary", "district": "Canary Islands"}, {"id": 77, "name": "Granollers", "name_ru": "Granollers", "tz": "Europe/Madrid", "district": "Catalonia"}, {"id": 78, "name": "Collado-Villalba", "name_ru": "Collado-Villalba", "tz": "Europe/Madrid", "district": "Madrid"}, {"id": 79, "name": "La Linea de la Concepcion", "name_ru": "La Línea de la Concepción", "tz": "Europe/Madrid", "district": "Andalusia"}, {"id": 80, "name": "Portugalete", "name_ru": "Portugalete", "tz": "Europe/Madrid", "district": "Basque Country"}, {"id": 81, "name": "Mislata", "name_ru": "Mislata", "tz": "Europe/Madrid", "district": "Valencia"}, {"id": 82, "name": "Merida", "name_ru": "Mérida", "tz": "Europe/Madrid", "district": "Extremadura"}, {"id": 83, "name": "Esplugas de Llobregat", "name_ru": "Esplugas de Llobregat", "tz": "Europe/Madrid", "district": "Catalonia"}, {"id": 84, "name": "Mollet", "name_ru": "Mollet", "tz": "Europe/Madrid", "district": "Catalonia"}, {"id": 85, "name": "Ibiza", "name_ru": "Ibiza", "tz": "Europe/Madrid", "district": "Balearic Islands"}, {"id": 86, "name": "Santurce-Antiguo", "name_ru": "Santurce-Antiguo", "tz": "Europe/Madrid", "district": "Basque Country"}, {"id": 87, "name": "Mairena del Aljarafe", "name_ru": "Mairena del Aljarafe", "tz": "Europe/Madrid", "district": "Andalusia"}, {"id": 88, "name": "Figueras", "name_ru": "Figueras", "tz": "Europe/Madrid", "district": "Catalonia"}, {"id": 89, "name": "San Feliu de Llobregat", "name_ru": "San Felíu de Llobregat", "tz": "Europe/Madrid", "district": "Catalonia"}, {"id": 90, "name": "Ripollet", "name_ru": "Ripollet", "tz": "Europe/Madrid", "district": "Catalonia"}, {"id": 91, "name": "San Adrian de Besos", "name_ru": "San Adrián de Besós", "tz": "Europe/Madrid", "district": "Catalonia"}, {"id": 92, "name": "Igualada", "name_ru": "Igualada", "tz": "Europe/Madrid", "district": "Catalonia"}, {"id": 93, "name": "Alcantarilla", "name_ru": "Alcantarilla", "tz": "Europe/Madrid", "district": "Murcia"}, {"id": 94, "name": "Blanes", "name_ru": "Blanes", "tz": "Europe/Madrid", "district": "Catalonia"}, {"id": 95, "name": "Villafranca del Panades", "name_ru": "Villafranca del Panadés", "tz": "Europe/Madrid", "district": "Catalonia"}, {"id": 96, "name": "Burjasot", "name_ru": "Burjasot", "tz": "Europe/Madrid", "district": "Valencia"}, {"id": 97, "name": "San Juan Despi", "name_ru": "San Juan Despí", "tz": "Europe/Madrid", "district": "Catalonia"}, {"id": 98, "name": "Premia de Mar", "name_ru": "Premiá de Mar", "tz": "Europe/Madrid", "district": "Catalonia"}, {"id": 99, "name": "Alacuas", "name_ru": "Alacuás", "tz": "Europe/Madrid", "district": "Valencia"}, {"id": 100, "name": "Salt", "name_ru": "Salt", "tz": "Europe/Madrid", "district": "Catalonia"}, {"id": 101, "name": "Sestao", "name_ru": "Sestao", "tz": "Europe/Madrid", "district": "Basque Country"}, {"id": 102, "name": "Aldaya", "name_ru": "Aldaya", "tz": "Europe/Madrid", "district": "Valencia"}, {"id": 103, "name": "Paiporta", "name_ru": "Paiporta", "tz": "Europe/Madrid", "district": "Valencia"}, {"id": 104, "name": "Baranain", "name_ru": "Barañáin", "tz": "Europe/Madrid", "district": "Navarre"}, {"id": 105, "name": "Durango", "name_ru": "Durango", "tz": "Europe/Madrid", "district": "Basque Country"}, {"id": 106, "name": "San Andres de la Barca", "name_ru": "San Andrés de la Barca", "tz": "Europe/Madrid", "district": "Catalonia"}, {"id": 107, "name": "Benetuser", "name_ru": "Benetúser", "tz": "Europe/Madrid", "district": "Valencia"}, {"id": 108, "name": "San Vicente dels Horts", "name_ru": "San Vicente dels Horts", "tz": "Europe/Madrid", "district": "Catalonia"}, {"id": 109, "name": "Martorell", "name_ru": "Martorell", "tz": "Europe/Madrid", "district": "Catalonia"}, {"id": 110, "name": "Catarroja", "name_ru": "Catarroja", "tz": "Europe/Madrid", "district": "Valencia"}, {"id": 111, "name": "Tomares", "name_ru": "Tomares", "tz": "Europe/Madrid", "district": "Andalusia"}, {"id": 112, "name": "Armilla", "name_ru": "Armilla", "tz": "Europe/Madrid", "district": "Andalusia"}, {"id": 113, "name": "Camas", "name_ru": "Camas", "tz": "Europe/Madrid", "district": "Andalusia"}, {"id": 114, "name": "Alboraya", "name_ru": "Alboraya", "tz": "Europe/Madrid", "district": "Valencia"}, {"id": 115, "name": "San Juan de Aznalfarache", "name_ru": "San Juan de Aznalfarache", "tz": "Europe/Madrid", "district": "Andalusia"}, {"id": 116, "name": "San Juan de Alicante", "name_ru": "San Juan de Alicante", "tz": "Europe/Madrid", "district": "Valencia"}, {"id": 117, "name": "Maracena", "name_ru": "Maracena", "tz": "Europe/Madrid", "district": "Andalusia"}, {"id": 118, "name": "San Juan de Vilasar", "name_ru": "San Juan de Vilasar", "tz": "Europe/Madrid", "district": "Catalonia"}, {"id": 119, "name": "Castilleja de la Cuesta", "name_ru": "Castilleja de la Cuesta", "tz": "Europe/Madrid", "district": "Andalusia"}, {"id": 120, "name": "Alfafar", "name_ru": "Alfafar", "tz": "Europe/Madrid", "district": "Valencia"}, {"id": 121, "name": "Sant Just Desvern", "name_ru": "Sant Just Desvern", "tz": "Europe/Madrid", "district": "Catalonia"}, {"id": 122, "name": "Calella", "name_ru": "Calella", "tz": "Europe/Madrid", "district": "Catalonia"}, {"id": 123, "name": "Malgrat de Mar", "name_ru": "Malgrat de Mar", "tz": "Europe/Madrid", "district": "Catalonia"}, {"id": 124, "name": "El Astillero", "name_ru": "El Astillero", "tz": "Europe/Madrid", "district": "Cantabria"}, {"id": 125, "name": "Canovellas", "name_ru": "Canovellas", "tz": "Europe/Madrid", "district": "Catalonia"}, {"id": 126, "name": "Albal", "name_ru": "Albal", "tz": "Europe/Madrid", "district": "Valencia"}, {"id": 127, "name": "Masamagrell", "name_ru": "Masamagrell", "tz": "Europe/Madrid", "district": "Valencia"}, {"id": 128, "name": "Ermua", "name_ru": "Ermúa", "tz": "Europe/Madrid", "district": "Basque Country"}, {"id": 129, "name": "Arenys de Mar", "name_ru": "Arenys de Mar", "tz": "Europe/Madrid", "district": "Catalonia"}, {"id": 130, "name": "Gines", "name_ru": "Gines", "tz": "Europe/Madrid", "district": "Andalusia"}, {"id": 131, "name": "Churriana de la Vega", "name_ru": "Churriana de la Vega", "tz": "Europe/Madrid", "district": "Andalusia"}, {"id": 132, "name": "Tabernes Blanques", "name_ru": "Tabernes Blanques", "tz": "Europe/Madrid", "district": "Valencia"}, {"id": 133, "name": "La Llagosta", "name_ru": "La Llagosta", "tz": "Europe/Madrid", "district": "Catalonia"}, {"id": 134, "name": "Canet de Mar", "name_ru": "Canet de Mar", "tz": "Europe/Madrid", "district": "Catalonia"}, {"id": 135, "name": "Ogijares", "name_ru": "Ogíjares", "tz": "Europe/Madrid", "district": "Andalusia"}, {"id": 136, "name": "Mollerusa", "name_ru": "Mollerusa", "tz": "Europe/Madrid", "district": "Catalonia"}, {"id": 137, "name": "Mongat", "name_ru": "Mongat", "tz": "Europe/Madrid", "district": "Catalonia"}, {"id": 138, "name": "Sedavi", "name_ru": "Sedaví", "tz": "Europe/Madrid", "district": "Valencia"}, {"id": 139, "name": "Huetor Vega", "name_ru": "Huétor Vega", "tz": "Europe/Madrid", "district": "Andalusia"}, {"id": 140, "name": "Berriozar", "name_ru": "Berriozar", "tz": "Europe/Madrid", "district": "Navarre"}, {"id": 141, "name": "Nazaret", "name_ru": "Nazaret", "tz": "Europe/Madrid", "district": "Valencia"}, {"id": 142, "name": "Meliana", "name_ru": "Meliana", "tz": "Europe/Madrid", "district": "Valencia"}, {"id": 143, "name": "Lekeitio", "name_ru": "Lekeitio", "tz": "Europe/Madrid", "district": "Basque Country"}, {"id": 144, "name": "Reinosa", "name_ru": "Reinosa", "tz": "Europe/Madrid", "district": "Cantabria"}, {"id": 145, "name": "Montmelo", "name_ru": "Montmeló", "tz": "Europe/Madrid", "district": "Catalonia"}, {"id": 146, "name": "Rocafort", "name_ru": "Rocafort", "tz": "Europe/Madrid", "district": "Valencia"}, {"id": 147, "name": "Ondarroa", "name_ru": "Ondárroa", "tz": "Europe/Madrid", "district": "Basque Country"}, {"id": 148, "name": "Almacera", "name_ru": "Almácera", "tz": "Europe/Madrid", "district": "Valencia"}, {"id": 149, "name": "Roda del Ter", "name_ru": "Roda del Ter", "tz": "Europe/Madrid", "district": "Catalonia"}, {"id": 150, "name": "Cajar", "name_ru": "Cájar", "tz": "Europe/Madrid", "district": "Andalusia"}, {"id": 151, "name": "Roquetas de Mar", "name_ru": "Roquetas de Mar", "tz": "Europe/Madrid", "district": "Andalusia"}, {"id": 152, "name": "Lugo", "name_ru": "Lugo", "tz": "Europe/Madrid", "district": "Galicia"}, {"id": 153, "name": "Las Rozas de Madrid", "name_ru": "Las Rozas de Madrid", "tz": "Europe/Madrid", "district": "Madrid"}, {"id": 154, "name": "Lorca", "name_ru": "Lorca", "tz": "Europe/Madrid", "district": "Murcia"}, {"id": 155, "name": "San Cugat del Valles", "name_ru": "San Cugat del Vallés", "tz": "Europe/Madrid", "district": "Catalonia"}, {"id": 156, "name": "Caceres", "name_ru": "Cáceres", "tz": "Europe/Madrid", "district": "Extremadura"}, {"id": 157, "name": "San Sebastian de los Reyes", "name_ru": "San Sebastián de los Reyes", "tz": "Europe/Madrid", "district": "Madrid"}, {"id": 158, "name": "El Puerto de Santa Maria", "name_ru": "El Puerto de Santa María", "tz": "Europe/Madrid", "district": "Andalusia"}, {"id": 159, "name": "Guadalajara", "name_ru": "Guadalajara", "tz": "Europe/Madrid", "district": "Castille-La Mancha"}, {"id": 160, "name": "Mijas", "name_ru": "Mijas", "tz": "Europe/Madrid", "district": "Andalusia"}, {"id": 161, "name": "Chiclana de la Frontera", "name_ru": "Chiclana de la Frontera", "tz": "Europe/Madrid", "district": "Andalusia"}, {"id": 162, "name": "Torrente", "name_ru": "Torrente", "tz": "Europe/Madrid", "district": "Valencia"}, {"id": 163, "name": "El Ejido", "name_ru": "El Ejido", "tz": "Europe/Madrid", "district": "Andalusia"}, {"id": 164, "name": "Talavera de la Reina", "name_ru": "Talavera de la Reina", "tz": "Europe/Madrid", "district": "Castille-La Mancha"}, {"id": 165, "name": "Torrevieja", "name_ru": "Torrevieja", "tz": "Europe/Madrid", "district": "Valencia"}, {"id": 166, "name": "Pontevedra", "name_ru": "Pontevedra", "tz": "Europe/Madrid", "district": "Galicia"}, {"id": 167, "name": "Arona", "name_ru": "Arona", "tz": "Atlantic/Canary", "district": "Canary Islands"}, {"id": 168, "name": "Velez-Malaga", "name_ru": "Vélez-Málaga", "tz": "Europe/Madrid", "district": "Andalusia"}, {"id": 169, "name": "Manresa", "name_ru": "Manresa", "tz": "Europe/Madrid", "district": "Catalonia"}, {"id": 170, "name": "Orihuela", "name_ru": "Orihuela", "tz": "Europe/Madrid", "district": "Valencia"}, {"id": 171, "name": "Valdemoro", "name_ru": "Valdemoro", "tz": "Europe/Madrid", "district": "Madrid"}, {"id": 172, "name": "Palencia", "name_ru": "Palencia", "tz": "Europe/Madrid", "district": "Castille-Leon"}, {"id": 173, "name": "Gandia", "name_ru": "Gandía", "tz": "Europe/Madrid", "district": "Valencia"}, {"id": 174, "name": "Alcala de Guadaira", "name_ru": "Alcalá de Guadaira", "tz": "Europe/Madrid", "district": "Andalusia"}, {"id": 175, "name": "Ciudad Real", "name_ru": "Ciudad Real", "tz": "Europe/Madrid", "district": "Castille-La Mancha"}, {"id": 176, "name": "Molina de Segura", "name_ru": "Molina de Segura", "tz": "Europe/Madrid", "district": "Murcia"}, {"id": 177, "name": "Majadahonda", "name_ru": "Majadahonda", "tz": "Europe/Madrid", "district": "Madrid"}, {"id": 178, "name": "Paterna", "name_ru": "Paterna", "tz": "Europe/Madrid", "district": "Valencia"}, {"id": 179, "name": "Estepona", "name_ru": "Estepona", "tz": "Europe/Madrid", "district": "Andalusia"}, {"id": 180, "name": "Benidorm", "name_ru": "Benidorm", "tz": "Europe/Madrid", "district": "Valencia"}, {"id": 181, "name": "Sanlucar de Barrameda", "name_ru": "Sanlúcar de Barrameda", "tz": "Europe/Madrid", "district": "Andalusia"}, {"id": 182, "name": "Villanueva y Geltru", "name_ru": "Villanueva y Geltrú", "tz": "Europe/Madrid", "district": "Catalonia"}, {"id": 183, "name": "Sagunto", "name_ru": "Sagunto", "tz": "Europe/Madrid", "district": "Valencia"}, {"id": 184, "name": "Ferrol", "name_ru": "Ferrol", "tz": "Europe/Madrid", "district": "Galicia"}, {"id": 185, "name": "Irun", "name_ru": "Irún", "tz": "Europe/Madrid", "district": "Basque Country"}, {"id": 186, "name": "Ponferrada", "name_ru": "Ponferrada", "tz": "Europe/Madrid", "district": "Castille-Leon"}, {"id": 187, "name": "Zamora", "name_ru": "Zamora", "tz": "Europe/Madrid", "district": "Castille-Leon"}, {"id": 188, "name": "San Vicente del Raspeig", "name_ru": "San Vicente del Raspeig", "tz": "Europe/Madrid", "district": "Valencia"}, {"id": 189, "name": "Boadilla del Monte", "name_ru": "Boadilla del Monte", "tz": "Europe/Madrid", "district": "Madrid"}, {"id": 190, "name": "Aranjuez", "name_ru": "Aranjuez", "tz": "Europe/Madrid", "district": "Madrid"}, {"id": 191, "name": "Alcoy", "name_ru": "Alcoy", "tz": "Europe/Madrid", "district": "Valencia"}, {"id": 192, "name": "Motril", "name_ru": "Motril", "tz": "Europe/Madrid", "district": "Andalusia"}, {"id": 193, "name": "Avila", "name_ru": "Ávila", "tz": "Europe/Madrid", "district": "Castille-Leon"}, {"id": 194, "name": "Linares", "name_ru": "Linares", "tz": "Europe/Madrid", "district": "Andalusia"}, {"id": 195, "name": "Pinto", "name_ru": "Pinto", "tz": "Europe/Madrid", "district": "Madrid"}, {"id": 196, "name": "Cuenca", "name_ru": "Cuenca", "tz": "Europe/Madrid", "district": "Castille-La Mancha"}, {"id": 197, "name": "Huesca", "name_ru": "Huesca", "tz": "Europe/Madrid", "district": "Aragon"}, {"id": 198, "name": "Elda", "name_ru": "Elda", "tz": "Europe/Madrid", "district": "Valencia"}, {"id": 199, "name": "San Bartolome", "name_ru": "San Bartolomé", "tz": "Atlantic/Canary", "district": "Canary Islands"}, {"id": 200, "name": "Colmenar Viejo", "name_ru": "Colmenar Viejo", "tz": "Europe/Madrid", "district": "Madrid"}, {"id": 201, "name": "Torrelavega", "name_ru": "Torrelavega", "tz": "Europe/Madrid", "district": "Cantabria"}, {"id": 202, "name": "Granadilla de Abona", "name_ru": "Granadilla de Abona", "tz": "Atlantic/Canary", "district": "Canary Islands"}, {"id": 203, "name": "Villareal", "name_ru": "Villareal", "tz": "Europe/Madrid", "district": "Valencia"}, {"id": 204, "name": "Calvia", "name_ru": "Calviá", "tz": "Europe/Madrid", "district": "Balearic Islands"}, {"id": 205, "name": "Pola de Siero", "name_ru": "Pola de Siero", "tz": "Europe/Madrid", "district": "Asturias"}, {"id": 206, "name": "Rincon de la Victoria", "name_ru": "Rincón de la Victoria", "tz": "Europe/Madrid", "district": "Andalusia"}, {"id": 207, "name": "Segovia", "name_ru": "Segovia", "tz": "Europe/Madrid", "district": "Castille-Leon"}, {"id": 208, "name": "Utrera", "name_ru": "Utrera", "tz": "Europe/Madrid", "district": "Andalusia"}, {"id": 209, "name": "Adeje", "name_ru": "Adeje", "tz": "Atlantic/Canary", "district": "Canary Islands"}, {"id": 210, "name": "Vich", "name_ru": "Vich", "tz": "Europe/Madrid", "district": "Catalonia"}, {"id": 211, "name": "Gava", "name_ru": "Gavá", "tz": "Europe/Madrid", "district": "Catalonia"}, {"id": 212, "name": "Puertollano", "name_ru": "Puertollano", "tz": "Europe/Madrid", "district": "Castille-La Mancha"}, {"id": 213, "name": "Alcira", "name_ru": "Alcira", "tz": "Europe/Madrid", "district": "Valencia"}, {"id": 214, "name": "Manacor", "name_ru": "Manacor", "tz": "Europe/Madrid", "district": "Balearic Islands"}, {"id": 215, "name": "Denia", "name_ru": "Denia", "tz": "Europe/Madrid", "district": "Valencia"}, {"id": 216, "name": "Lucena", "name_ru": "Lucena", "tz": "Europe/Madrid", "district": "Andalusia"}, {"id": 217, "name": "La Orotava", "name_ru": "La Orotava", "tz": "Atlantic/Canary", "district": "Canary Islands"}, {"id": 218, "name": "Alhaurin de la Torre", "name_ru": "Alhaurín de la Torre", "tz": "Europe/Madrid", "district": "Andalusia"}, {"id": 219, "name": "Puerto Real", "name_ru": "Puerto Real", "tz": "Europe/Madrid", "district": "Andalusia"}, {"id": 220, "name": "Puerto del Rosario", "name_ru": "Puerto del Rosario", "tz": "Atlantic/Canary", "district": "Canary Islands"}, {"id": 221, "name": "Antequera", "name_ru": "Antequera", "tz": "Europe/Madrid", "district": "Andalusia"}, {"id": 222, "name": "San Fernando de Henares", "name_ru": "San Fernando de Henares", "tz": "Europe/Madrid", "district": "Madrid"}, {"id": 223, "name": "Santa Eulalia del Rio", "name_ru": "Santa Eulalia del Río", "tz": "Europe/Madrid", "district": "Balearic Islands"}, {"id": 224, "name": "Vendrell", "name_ru": "Vendrell", "tz": "Europe/Madrid", "district": "Catalonia"}, {"id": 225, "name": "Ecija", "name_ru": "Écija", "tz": "Europe/Madrid", "district": "Andalusia"}, {"id": 226, "name": "Soria", "name_ru": "Soria", "tz": "Europe/Madrid", "district": "Castille-Leon"}, {"id": 227, "name": "Plasencia", "name_ru": "Plasencia", "tz": "Europe/Madrid", "district": "Extremadura"}, {"id": 228, "name": "Arucas", "name_ru": "Arucas", "tz": "Atlantic/Canary", "district": "Canary Islands"}, {"id": 229, "name": "Naron", "name_ru": "Narón", "tz": "Europe/Madrid", "district": "Galicia"}, {"id": 230, "name": "La Rinconada", "name_ru": "La Rinconada", "tz": "Europe/Madrid", "district": "Andalusia"}, {"id": 231, "name": "Lloret de Mar", "name_ru": "Lloret de Mar", "tz": "Europe/Madrid", "district": "Catalonia"}, {"id": 232, "name": "Sama", "name_ru": "Sama", "tz": "Europe/Madrid", "district": "Asturias"}, {"id": 233, "name": "Marratxi", "name_ru": "Marratxi", "tz": "Europe/Madrid", "district": "Balearic Islands"}, {"id": 234, "name": "Los Palacios y Villafranca", "name_ru": "Los Palacios y Villafranca", "tz": "Europe/Madrid", "district": "Andalusia"}, {"id": 235, "name": "Lluchmayor", "name_ru": "Lluchmayor", "tz": "Europe/Madrid", "district": "Balearic Islands"}, {"id": 236, "name": "Moncada", "name_ru": "Moncada", "tz": "Europe/Madrid", "district": "Catalonia"}, {"id": 237, "name": "Villagarcia de Arosa", "name_ru": "Villagarcía de Arosa", "tz": "Europe/Madrid", "district": "Galicia"}, {"id": 238, "name": "Oleiros", "name_ru": "Oleiros", "tz": "Europe/Madrid", "district": "Galicia"}, {"id": 239, "name": "Olot", "name_ru": "Olot", "tz": "Europe/Madrid", "district": "Catalonia"}, {"id": 240, "name": "Torre-Pacheco", "name_ru": "Torre-Pacheco", "tz": "Europe/Madrid", "district": "Murcia"}, {"id": 241, "name": "Don Benito", "name_ru": "Don Benito", "tz": "Europe/Madrid", "district": "Extremadura"}, {"id": 242, "name": "Mieres", "name_ru": "Mieres", "tz": "Europe/Madrid", "district": "Asturias"}, {"id": 243, "name": "Tudela", "name_ru": "Tudela", "tz": "Europe/Madrid", "district": "Navarre"}, {"id": 244, "name": "Azuqueca de Henares", "name_ru": "Azuqueca de Henares", "tz": "Europe/Madrid", "district": "Castille-La Mancha"}, {"id": 245, "name": "Villajoyosa", "name_ru": "Villajoyosa", "tz": "Europe/Madrid", "district": "Valencia"}, {"id": 246, "name": "Andujar", "name_ru": "Andújar", "tz": "Europe/Madrid", "district": "Andalusia"}, {"id": 247, "name": "Onteniente", "name_ru": "Onteniente", "tz": "Europe/Madrid", "district": "Valencia"}, {"id": 248, "name": "Tomelloso", "name_ru": "Tomelloso", "tz": "Europe/Madrid", "district": "Castille-La Mancha"}, {"id": 249, "name": "Aguilas", "name_ru": "Águilas", "tz": "Europe/Madrid", "district": "Murcia"}, {"id": 250, "name": "Cambrils", "name_ru": "Cambrils", "tz": "Europe/Madrid", "district": "Catalonia"}, {"id": 251, "name": "Miranda de Ebro", "name_ru": "Miranda de Ebro", "tz": "Europe/Madrid", "district": "Castille-Leon"}, {"id": 252, "name": "Teruel", "name_ru": "Teruel", "tz": "Europe/Madrid", "district": "Aragon"}, {"id": 253, "name": "Burriana", "name_ru": "Burriana", "tz": "Europe/Madrid", "district": "Valencia"}, {"id": 254, "name": "Cieza", "name_ru": "Cieza", "tz": "Europe/Madrid", "district": "Murcia"}, {"id": 255, "name": "Arroyomolinos", "name_ru": "Arroyomolinos", "tz": "Europe/Madrid", "district": "Madrid"}, {"id": 256, "name": "Galapagar", "name_ru": "Galapagar", "tz": "Europe/Madrid", "district": "Madrid"}, {"id": 257, "name": "Yecla", "name_ru": "Yecla", "tz": "Europe/Madrid", "district": "Murcia"}, {"id": 258, "name": "Santa Pola", "name_ru": "Santa Pola", "tz": "Europe/Madrid", "district": "Valencia"}, {"id": 259, "name": "Petrel", "name_ru": "Petrel", "tz": "Europe/Madrid", "district": "Valencia"}, {"id": 260, "name": "Inca", "name_ru": "Inca", "tz": "Europe/Madrid", "district": "Balearic Islands"}, {"id": 261, "name": "Ubeda", "name_ru": "Úbeda", "tz": "Europe/Madrid", "district": "Andalusia"}, {"id": 262, "name": "Villena", "name_ru": "Villena", "tz": "Europe/Madrid", "district": "Valencia"}, {"id": 263, "name": "San Javier", "name_ru": "San Javier", "tz": "Europe/Madrid", "district": "Murcia"}, {"id": 264, "name": "Almendralejo", "name_ru": "Almendralejo", "tz": "Europe/Madrid", "district": "Extremadura"}, {"id": 265, "name": "Tortosa", "name_ru": "Tortosa", "tz": "Europe/Madrid", "district": "Catalonia"}, {"id": 266, "name": "Ronda", "name_ru": "Ronda", "tz": "Europe/Madrid", "district": "Andalusia"}, {"id": 267, "name": "Aranda de Duero", "name_ru": "Aranda de Duero", "tz": "Europe/Madrid", "district": "Castille-Leon"}, {"id": 268, "name": "Castro-Urdiales", "name_ru": "Castro-Urdiales", "tz": "Europe/Madrid", "district": "Cantabria"}, {"id": 269, "name": "Arteijo", "name_ru": "Arteijo", "tz": "Europe/Madrid", "district": "Galicia"}, {"id": 270, "name": "Mazarron", "name_ru": "Mazarrón", "tz": "Europe/Madrid", "district": "Murcia"}, {"id": 271, "name": "Manises", "name_ru": "Manises", "tz": "Europe/Madrid", "district": "Valencia"}, {"id": 272, "name": "Ingenio", "name_ru": "Ingenio", "tz": "Atlantic/Canary", "district": "Canary Islands"}, {"id": 273, "name": "Totana", "name_ru": "Totana", "tz": "Europe/Madrid", "district": "Murcia"}, {"id": 274, "name": "San Roque", "name_ru": "San Roque", "tz": "Europe/Madrid", "district": "Andalusia"}, {"id": 275, "name": "Ames", "name_ru": "Amés", "tz": "Europe/Madrid", "district": "Galicia"}, {"id": 276, "name": "San Pedro de Ribas", "name_ru": "San Pedro de Ribas", "tz": "Europe/Madrid", "district": "Catalonia"}, {"id": 277, "name": "Carballo", "name_ru": "Carballo", "tz": "Europe/Madrid", "district": "Galicia"}, {"id": 278, "name": "Nijar", "name_ru": "Níjar", "tz": "Europe/Madrid", "district": "Andalusia"}, {"id": 279, "name": "Coria del Rio", "name_ru": "Coria del Río", "tz": "Europe/Madrid", "district": "Andalusia"}, {"id": 280, "name": "Culleredo", "name_ru": "Culleredo", "tz": "Europe/Madrid", "district": "Galicia"}, {"id": 281, "name": "Navalcarnero", "name_ru": "Navalcarnero", "tz": "Europe/Madrid", "district": "Madrid"}, {"id": 282, "name": "Arcos de la Frontera", "name_ru": "Arcos de la Frontera", "tz": "Europe/Madrid", "district": "Andalusia"}, {"id": 283, "name": "Sitges", "name_ru": "Sitges", "tz": "Europe/Madrid", "district": "Catalonia"}, {"id": 284, "name": "Illescas", "name_ru": "Illescas", "tz": "Europe/Madrid", "district": "Castille-La Mancha"}, {"id": 285, "name": "San Andres del Rabanedo", "name_ru": "San Andrés del Rabanedo", "tz": "Europe/Madrid", "district": "Castille-Leon"}, {"id": 286, "name": "Alcazar de San Juan", "name_ru": "Alcázar de San Juan", "tz": "Europe/Madrid", "district": "Castille-La Mancha"}, {"id": 287, "name": "Hellin", "name_ru": "Hellín", "tz": "Europe/Madrid", "district": "Castille-La Mancha"}, {"id": 288, "name": "Puerto de la Cruz", "name_ru": "Puerto de la Cruz", "tz": "Atlantic/Canary", "district": "Canary Islands"}, {"id": 289, "name": "Salou", "name_ru": "Salou", "tz": "Europe/Madrid", "district": "Catalonia"}, {"id": 290, "name": "Galdacano", "name_ru": "Galdácano", "tz": "Europe/Madrid", "district": "Basque Country"}, {"id": 291, "name": "Valdepenas", "name_ru": "Valdepeñas", "tz": "Europe/Madrid", "district": "Castille-La Mancha"}, {"id": 292, "name": "Crevillente", "name_ru": "Crevillente", "tz": "Europe/Madrid", "district": "Valencia"}, {"id": 293, "name": "Puente-Genil", "name_ru": "Puente-Genil", "tz": "Europe/Madrid", "district": "Andalusia"}, {"id": 294, "name": "Calafell", "name_ru": "Calafell", "tz": "Europe/Madrid", "district": "Catalonia"}, {"id": 295, "name": "Mahon", "name_ru": "Mahón", "tz": "Europe/Madrid", "district": "Balearic Islands"}, {"id": 296, "name": "Redondela", "name_ru": "Redondela", "tz": "Europe/Madrid", "district": "Galicia"}, {"id": 297, "name": "Rota", "name_ru": "Rota", "tz": "Europe/Madrid", "district": "Andalusia"}, {"id": 298, "name": "Vinaroz", "name_ru": "Vinaroz", "tz": "Europe/Madrid", "district": "Valencia"}, {"id": 299, "name": "Carmona", "name_ru": "Carmona", "tz": "Europe/Madrid", "district": "Andalusia"}, {"id": 300, "name": "Candelaria", "name_ru": "Candelaria", "tz": "Atlantic/Canary", "district": "Canary Islands"}, {"id": 301, "name": "Lepe", "name_ru": "Lepe", "tz": "Europe/Madrid", "district": "Andalusia"}, {"id": 302, "name": "Villaviciosa de Odon", "name_ru": "Villaviciosa de Odón", "tz": "Europe/Madrid", "district": "Madrid"}, {"id": 303, "name": "Benicarlo", "name_ru": "Benicarló", "tz": "Europe/Madrid", "district": "Valencia"}, {"id": 304, "name": "Algemesi", "name_ru": "Algemesí", "tz": "Europe/Madrid", "district": "Valencia"}, {"id": 305, "name": "Sueca", "name_ru": "Sueca", "tz": "Europe/Madrid", "district": "Valencia"}, {"id": 306, "name": "La Oliva", "name_ru": "La Oliva", "tz": "Atlantic/Canary", "district": "Canary Islands"}, {"id": 307, "name": "Sesena", "name_ru": "Seseña", "tz": "Europe/Madrid", "district": "Castille-La Mancha"}, {"id": 308, "name": "Vicar", "name_ru": "Vícar", "tz": "Europe/Madrid", "district": "Andalusia"}, {"id": 309, "name": "Molins de Rey", "name_ru": "Molíns de Rey", "tz": "Europe/Madrid", "district": "Catalonia"}, {"id": 310, "name": "Almazora", "name_ru": "Almazora", "tz": "Europe/Madrid", "district": "Valencia"}, {"id": 311, "name": "Lebrija", "name_ru": "Lebrija", "tz": "Europe/Madrid", "district": "Andalusia"}, {"id": 312, "name": "Santa Perpetua de Moguda", "name_ru": "Santa Perpetua de Moguda", "tz": "Europe/Madrid", "district": "Catalonia"}, {"id": 313, "name": "Moron de la Frontera", "name_ru": "Morón de la Frontera", "tz": "Europe/Madrid", "district": "Andalusia"}, {"id": 314, "name": "Cartama", "name_ru": "Cártama", "tz": "Europe/Madrid", "district": "Andalusia"}, {"id": 315, "name": "San Pedro del Pinatar", "name_ru": "San Pedro del Pinatar", "tz": "Europe/Madrid", "district": "Murcia"}, {"id": 316, "name": "Cangas", "name_ru": "Cangas", "tz": "Europe/Madrid", "district": "Galicia"}, {"id": 317, "name": "Santa Eugenia", "name_ru": "Santa Eugenia", "tz": "Europe/Madrid", "district": "Galicia"}, {"id": 318, "name": "Paracuellos de Jarama", "name_ru": "Paracuellos de Jarama", "tz": "Europe/Madrid", "district": "Madrid"}, {"id": 319, "name": "Alhaurin el Grande", "name_ru": "Alhaurín el Grande", "tz": "Europe/Madrid", "district": "Andalusia"}, {"id": 320, "name": "Jumilla", "name_ru": "Jumilla", "tz": "Europe/Madrid", "district": "Murcia"}, {"id": 321, "name": "Muchamiel", "name_ru": "Muchamiel", "tz": "Europe/Madrid", "district": "Valencia"}, {"id": 322, "name": "Almunecar", "name_ru": "Almuñécar", "tz": "Europe/Madrid", "district": "Andalusia"}, {"id": 323, "name": "Villanueva de la Serena", "name_ru": "Villanueva de la Serena", "tz": "Europe/Madrid", "district": "Extremadura"}, {"id": 324, "name": "Novelda", "name_ru": "Novelda", "tz": "Europe/Madrid", "district": "Valencia"}, {"id": 325, "name": "Erandio", "name_ru": "Erandio", "tz": "Europe/Madrid", "district": "Basque Country"}, {"id": 326, "name": "Adra", "name_ru": "Adra", "tz": "Europe/Madrid", "district": "Andalusia"}, {"id": 327, "name": "Betera", "name_ru": "Bétera", "tz": "Europe/Madrid", "district": "Valencia"}, {"id": 328, "name": "Ciempozuelos", "name_ru": "Ciempozuelos", "tz": "Europe/Madrid", "district": "Madrid"}, {"id": 329, "name": "Olesa de Montserrat", "name_ru": "Olesa de Montserrat", "tz": "Europe/Madrid", "district": "Catalonia"}, {"id": 330, "name": "Oliva", "name_ru": "Oliva", "tz": "Europe/Madrid", "district": "Valencia"}, {"id": 331, "name": "Torrelodones", "name_ru": "Torrelodones", "tz": "Europe/Madrid", "district": "Madrid"}, {"id": 332, "name": "Cambre", "name_ru": "Cambre", "tz": "Europe/Madrid", "district": "Galicia"}, {"id": 333, "name": "Onda", "name_ru": "Onda", "tz": "Europe/Madrid", "district": "Valencia"}, {"id": 334, "name": "Mejorada del Campo", "name_ru": "Mejorada del Campo", "tz": "Europe/Madrid", "district": "Madrid"}, {"id": 335, "name": "Villarrobledo", "name_ru": "Villarrobledo", "tz": "Europe/Madrid", "district": "Castille-La Mancha"}, {"id": 336, "name": "Valls", "name_ru": "Valls", "tz": "Europe/Madrid", "district": "Catalonia"}, {"id": 337, "name": "Marin", "name_ru": "Marín", "tz": "Europe/Madrid", "district": "Galicia"}, {"id": 338, "name": "Zarautz", "name_ru": "Zarautz", "tz": "Europe/Madrid", "district": "Basque Country"}, {"id": 339, "name": "Calahorra", "name_ru": "Calahorra", "tz": "Europe/Madrid", "district": "La Rioja"}, {"id": 340, "name": "Almonte", "name_ru": "Almonte", "tz": "Europe/Madrid", "district": "Andalusia"}, {"id": 341, "name": "Calpe", "name_ru": "Calpe", "tz": "Europe/Madrid", "district": "Valencia"}, {"id": 342, "name": "Almansa", "name_ru": "Almansa", "tz": "Europe/Madrid", "district": "Castille-La Mancha"}, {"id": 343, "name": "Martos", "name_ru": "Martos", "tz": "Europe/Madrid", "district": "Andalusia"}, {"id": 344, "name": "Bormujos", "name_ru": "Bormujos", "tz": "Europe/Madrid", "district": "Andalusia"}, {"id": 345, "name": "Mairena del Alcor", "name_ru": "Mairena del Alcor", "tz": "Europe/Madrid", "district": "Andalusia"}, {"id": 346, "name": "Los Barrios", "name_ru": "Los Barrios", "tz": "Europe/Madrid", "district": "Andalusia"}, {"id": 347, "name": "Ibi", "name_ru": "Ibi", "tz": "Europe/Madrid", "district": "Valencia"}, {"id": 348, "name": "Liria", "name_ru": "Liria", "tz": "Europe/Madrid", "district": "Valencia"}, {"id": 349, "name": "San Feliu de Guixols", "name_ru": "San Felíu de Guixols", "tz": "Europe/Madrid", "district": "Catalonia"}, {"id": 350, "name": "Vilaseca de Solcina", "name_ru": "Vilaseca de Solcina", "tz": "Europe/Madrid", "district": "Catalonia"}, {"id": 351, "name": "Coin", "name_ru": "Coín", "tz": "Europe/Madrid", "district": "Andalusia"}, {"id": 352, "name": "Icod de los Vinos", "name_ru": "Icod de los Vinos", "tz": "Atlantic/Canary", "district": "Canary Islands"}, {"id": 353, "name": "Conil de la Frontera", "name_ru": "Conil de la Frontera", "tz": "Europe/Madrid", "district": "Andalusia"}, {"id": 354, "name": "Laguna de Duero", "name_ru": "Laguna de Duero", "tz": "Europe/Madrid", "district": "Castille-Leon"}, {"id": 355, "name": "Altea", "name_ru": "Altea", "tz": "Europe/Madrid", "district": "Valencia"}, {"id": 356, "name": "Moncada", "name_ru": "Moncada", "tz": "Europe/Madrid", "district": "Valencia"}, {"id": 357, "name": "Villanueva de la Canada", "name_ru": "Villanueva de la Cañada", "tz": "Europe/Madrid", "district": "Madrid"}, {"id": 358, "name": "Esparraguera", "name_ru": "Esparraguera", "tz": "Europe/Madrid", "district": "Catalonia"}, {"id": 359, "name": "Teguise", "name_ru": "Teguise", "tz": "Atlantic/Canary", "district": "Canary Islands"}, {"id": 360, "name": "Puenteareas", "name_ru": "Puenteareas", "tz": "Europe/Madrid", "district": "Galicia"}, {"id": 361, "name": "Barbate de Franco", "name_ru": "Barbate de Franco", "tz": "Europe/Madrid", "district": "Andalusia"}, {"id": 362, "name": "Pilar de la Horadada", "name_ru": "Pilar de la Horadada", "tz": "Europe/Madrid", "district": "Valencia"}, {"id": 363, "name": "Montilla", "name_ru": "Montilla", "tz": "Europe/Madrid", "district": "Andalusia"}, {"id": 364, "name": "Torre del Mar", "name_ru": "Torre del Mar", "tz": "Europe/Madrid", "district": "Andalusia"}, {"id": 365, "name": "Las Torres de Cotillas", "name_ru": "Las Torres de Cotillas", "tz": "Europe/Madrid", "district": "Andalusia"}, {"id": 366, "name": "Aljaraque", "name_ru": "Aljaraque", "tz": "Europe/Madrid", "district": "Andalusia"}, {"id": 367, "name": "Priego de Cordoba", "name_ru": "Priego de Córdoba", "tz": "Europe/Madrid", "district": "Andalusia"}, {"id": 368, "name": "Alhama de Murcia", "name_ru": "Alhama de Murcia", "tz": "Europe/Madrid", "district": "Murcia"}, {"id": 369, "name": "Moguer", "name_ru": "Moguer", "tz": "Europe/Madrid", "district": "Andalusia"}, {"id": 370, "name": "Palafrugell", "name_ru": "Palafrugell", "tz": "Europe/Madrid", "district": "Catalonia"}, {"id": 371, "name": "Manlleu", "name_ru": "Manlleu", "tz": "Europe/Madrid", "district": "Catalonia"}, {"id": 372, "name": "Banolas", "name_ru": "Bañolas", "tz": "Europe/Madrid", "district": "Catalonia"}, {"id": 373, "name": "Guia de Isora", "name_ru": "Guía de Isora", "tz": "Atlantic/Canary", "district": "Canary Islands"}, {"id": 374, "name": "Isla-Cristina", "name_ru": "Isla-Cristina", "tz": "Europe/Madrid", "district": "Andalusia"}, {"id": 375, "name": "Almoradi", "name_ru": "Almoradí", "tz": "Europe/Madrid", "district": "Valencia"}, {"id": 376, "name": "Picasent", "name_ru": "Picasent", "tz": "Europe/Madrid", "district": "Valencia"}, {"id": 377, "name": "Alcala la Real", "name_ru": "Alcalá la Real", "tz": "Europe/Madrid", "district": "Andalusia"}, {"id": 378, "name": "Ayamonte", "name_ru": "Ayamonte", "tz": "Europe/Madrid", "district": "Andalusia"}, {"id": 379, "name": "Amposta", "name_ru": "Amposta", "tz": "Europe/Madrid", "district": "Catalonia"}, {"id": 380, "name": "Aspe", "name_ru": "Aspe", "tz": "Europe/Madrid", "district": "Valencia"}, {"id": 381, "name": "La Union", "name_ru": "La Unión", "tz": "Europe/Madrid", "district": "Murcia"}, {"id": 382, "name": "Algete", "name_ru": "Algete", "tz": "Europe/Madrid", "district": "Madrid"}, {"id": 383, "name": "Nerja", "name_ru": "Nerja", "tz": "Europe/Madrid", "district": "Andalusia"}, {"id": 384, "name": "Los Llanos de Aridane", "name_ru": "Los Llanos de Aridane", "tz": "Atlantic/Canary", "district": "Canary Islands"}, {"id": 385, "name": "Guimar", "name_ru": "Güimar", "tz": "Atlantic/Canary", "district": "Canary Islands"}, {"id": 386, "name": "Puzol", "name_ru": "Puzol", "tz": "Europe/Madrid", "district": "Valencia"}, {"id": 387, "name": "Pajara", "name_ru": "Pájara", "tz": "Atlantic/Canary", "district": "Canary Islands"}, {"id": 388, "name": "Palma del Rio", "name_ru": "Palma del Río", "tz": "Europe/Madrid", "district": "Andalusia"}, {"id": 389, "name": "Alcudia", "name_ru": "Alcudia", "tz": "Europe/Madrid", "district": "Balearic Islands"}, {"id": 390, "name": "Hernani", "name_ru": "Hernani", "tz": "Europe/Madrid", "district": "Basque Country"}, {"id": 391, "name": "Carcagente", "name_ru": "Carcagente", "tz": "Europe/Madrid", "district": "Valencia"}, {"id": 392, "name": "Humanes de Madrid", "name_ru": "Humanes de Madrid", "tz": "Europe/Madrid", "district": "Madrid"}, {"id": 393, "name": "Archena", "name_ru": "Archena", "tz": "Europe/Madrid", "district": "Murcia"}, {"id": 394, "name": "Loja", "name_ru": "Loja", "tz": "Europe/Madrid", "district": "Andalusia"}, {"id": 395, "name": "La Corredoria", "name_ru": "La Corredoría", "tz": "Europe/Madrid", "district": "Asturias"}, {"id": 396, "name": "Medina del Campo", "name_ru": "Medina del Campo", "tz": "Europe/Madrid", "district": "Castille-Leon"}, {"id": 397, "name": "Rosas", "name_ru": "Rosas", "tz": "Europe/Madrid", "district": "Catalonia"}, {"id": 398, "name": "Cabra", "name_ru": "Cabra", "tz": "Europe/Madrid", "district": "Andalusia"}, {"id": 399, "name": "Tolosa", "name_ru": "Tolosa", "tz": "Europe/Madrid", "district": "Basque Country"}, {"id": 400, "name": "Cartaya", "name_ru": "Cartaya", "tz": "Europe/Madrid", "district": "Andalusia"}, {"id": 401, "name": "Baza", "name_ru": "Baza", "tz": "Europe/Madrid", "district": "Andalusia"}, {"id": 402, "name": "Lalin", "name_ru": "Lalín", "tz": "Europe/Madrid", "district": "Galicia"}, {"id": 403, "name": "Requena", "name_ru": "Requena", "tz": "Europe/Madrid", "district": "Valencia"}, {"id": 404, "name": "El Viso del Alcor", "name_ru": "El Viso del Alcor", "tz": "Europe/Madrid", "district": "Andalusia"}, {"id": 405, "name": "Cardedeu", "name_ru": "Cardedeu", "tz": "Europe/Madrid", "district": "Catalonia"}, {"id": 406, "name": "Moana", "name_ru": "Moaña", "tz": "Europe/Madrid", "district": "Galicia"}, {"id": 407, "name": "Callosa de Segura", "name_ru": "Callosa de Segura", "tz": "Europe/Madrid", "district": "Valencia"}, {"id": 408, "name": "San Martin de la Vega", "name_ru": "San Martín de la Vega", "tz": "Europe/Madrid", "district": "Madrid"}, {"id": 409, "name": "Calatayud", "name_ru": "Calatayud", "tz": "Europe/Madrid", "district": "Aragon"}, {"id": 410, "name": "Silla", "name_ru": "Silla", "tz": "Europe/Madrid", "district": "Valencia"}, {"id": 411, "name": "Chipiona", "name_ru": "Chipiona", "tz": "Europe/Madrid", "district": "Andalusia"}, {"id": 412, "name": "Amorebieta", "name_ru": "Amorebieta", "tz": "Europe/Madrid", "district": "Basque Country"}, {"id": 413, "name": "Utebo", "name_ru": "Utebo", "tz": "Europe/Madrid", "district": "Aragon"}, {"id": 414, "name": "Huercal-Overa", "name_ru": "Huércal-Overa", "tz": "Europe/Madrid", "district": "Andalusia"}, {"id": 415, "name": "Atarfe", "name_ru": "Atarfe", "tz": "Europe/Madrid", "district": "Andalusia"}, {"id": 416, "name": "El Arahal", "name_ru": "El Arahal", "tz": "Europe/Madrid", "district": "Andalusia"}, {"id": 417, "name": "Benicasim", "name_ru": "Benicasim", "tz": "Europe/Madrid", "district": "Valencia"}, {"id": 418, "name": "Palamos", "name_ru": "Palamós", "tz": "Europe/Madrid", "district": "Catalonia"}, {"id": 419, "name": "Albolote", "name_ru": "Albolote", "tz": "Europe/Madrid", "district": "Andalusia"}, {"id": 420, "name": "Marchena", "name_ru": "Marchena", "tz": "Europe/Madrid", "district": "Andalusia"}, {"id": 421, "name": "Torrox", "name_ru": "Torrox", "tz": "Europe/Madrid", "district": "Andalusia"}, {"id": 422, "name": "Boiro", "name_ru": "Boiro", "tz": "Europe/Madrid", "district": "Galicia"}, {"id": 423, "name": "Guernica y Luno", "name_ru": "Guernica y Luno", "tz": "Europe/Madrid", "district": "Basque Country"}, {"id": 424, "name": "Torredembarra", "name_ru": "Torredembarra", "tz": "Europe/Madrid", "district": "Catalonia"}, {"id": 425, "name": "La Eliana", "name_ru": "La Eliana", "tz": "Europe/Madrid", "district": "Valencia"}, {"id": 426, "name": "La Nucia", "name_ru": "La Nucía", "tz": "Europe/Madrid", "district": "Valencia"}, {"id": 427, "name": "Villaquilambre", "name_ru": "Villaquilambre", "tz": "Europe/Madrid", "district": "Castille-Leon"}, {"id": 428, "name": "Baena", "name_ru": "Baena", "tz": "Europe/Madrid", "district": "Andalusia"}, {"id": 429, "name": "Huercal de Almeria", "name_ru": "Huércal de Almería", "tz": "Europe/Madrid", "district": "Andalusia"}, {"id": 430, "name": "San Lorenzo de El Escorial", "name_ru": "San Lorenzo de El Escorial", "tz": "Europe/Madrid", "district": "Madrid"}, {"id": 431, "name": "Lora del Rio", "name_ru": "Lora del Río", "tz": "Europe/Madrid", "district": "Andalusia"}, {"id": 432, "name": "Nigran", "name_ru": "Nigrán", "tz": "Europe/Madrid", "district": "Galicia"}, {"id": 433, "name": "Guadix", "name_ru": "Guadix", "tz": "Europe/Madrid", "district": "Andalusia"}, {"id": 434, "name": "Tarifa", "name_ru": "Tarifa", "tz": "Europe/Madrid", "district": "Andalusia"}, {"id": 435, "name": "San Celoni", "name_ru": "San Celoni", "tz": "Europe/Madrid", "district": "Catalonia"}, {"id": 436, "name": "Montornes del Valles", "name_ru": "Montornés del Vallés", "tz": "Europe/Madrid", "district": "Catalonia"}, {"id": 437, "name": "Monforte de Lemos", "name_ru": "Monforte de Lemos", "tz": "Europe/Madrid", "district": "Galicia"}, {"id": 438, "name": "Caldas de Montbuy", "name_ru": "Caldas de Montbuy", "tz": "Europe/Madrid", "district": "Catalonia"}, {"id": 439, "name": "Felanitx", "name_ru": "Felanitx", "tz": "Europe/Madrid", "district": "Balearic Islands"}, {"id": 440, "name": "Munguia", "name_ru": "Munguía", "tz": "Europe/Madrid", "district": "Basque Country"}, {"id": 441, "name": "Sangenjo", "name_ru": "Sangenjo", "tz": "Europe/Madrid", "district": "Galicia"}, {"id": 442, "name": "Vera", "name_ru": "Vera", "tz": "Europe/Madrid", "district": "Andalusia"}, {"id": 443, "name": "Tordera", "name_ru": "Tordera", "tz": "Europe/Madrid", "district": "Catalonia"}, {"id": 444, "name": "Villanueva del Pardillo", "name_ru": "Villanueva del Pardillo", "tz": "Europe/Madrid", "district": "Madrid"}, {"id": 445, "name": "Benavente", "name_ru": "Benavente", "tz": "Europe/Madrid", "district": "Castille-Leon"}, {"id": 446, "name": "Tarrega", "name_ru": "Tárrega", "tz": "Europe/Madrid", "district": "Catalonia"}, {"id": 447, "name": "Manzanares", "name_ru": "Manzanares", "tz": "Europe/Madrid", "district": "Castille-La Mancha"}, {"id": 448, "name": "Daimiel", "name_ru": "Daimiel", "tz": "Europe/Madrid", "district": "Castille-La Mancha"}, {"id": 449, "name": "Los Alcazares", "name_ru": "Los Alcázares", "tz": "Europe/Madrid", "district": "Murcia"}, {"id": 450, "name": "Poyo", "name_ru": "Poyo", "tz": "Europe/Madrid", "district": "Galicia"}, {"id": 451, "name": "Balaguer", "name_ru": "Balaguer", "tz": "Europe/Madrid", "district": "Catalonia"}, {"id": 452, "name": "Fuente-Alamo de Murcia", "name_ru": "Fuente-Álamo de Murcia", "tz": "Europe/Madrid", "district": "Murcia"}, {"id": 453, "name": "Bailen", "name_ru": "Bailén", "tz": "Europe/Madrid", "district": "Andalusia"}, {"id": 454, "name": "La Garriga", "name_ru": "La Garriga", "tz": "Europe/Madrid", "district": "Catalonia"}, {"id": 455, "name": "Tabernes de Valldigna", "name_ru": "Tabernes de Valldigna", "tz": "Europe/Madrid", "district": "Valencia"}, {"id": 456, "name": "Monzon", "name_ru": "Monzón", "tz": "Europe/Madrid", "district": "Aragon"}, {"id": 457, "name": "Berga", "name_ru": "Berga", "tz": "Europe/Madrid", "district": "Catalonia"}, {"id": 458, "name": "La Algaba", "name_ru": "La Algaba", "tz": "Europe/Madrid", "district": "Andalusia"}, {"id": 459, "name": "Manilva", "name_ru": "Manilva", "tz": "Europe/Madrid", "district": "Andalusia"}, {"id": 460, "name": "Barbastro", "name_ru": "Barbastro", "tz": "Europe/Madrid", "district": "Aragon"}, {"id": 461, "name": "Bermeo", "name_ru": "Bermeo", "tz": "Europe/Madrid", "district": "Basque Country"}, {"id": 462, "name": "Cubellas", "name_ru": "Cubellas", "tz": "Europe/Madrid", "district": "Catalonia"}, {"id": 463, "name": "Pozoblanco", "name_ru": "Pozoblanco", "tz": "Europe/Madrid", "district": "Andalusia"}, {"id": 464, "name": "Navalmoral de la Mata", "name_ru": "Navalmoral de la Mata", "tz": "Europe/Madrid", "district": "Extremadura"}, {"id": 465, "name": "Mula", "name_ru": "Mula", "tz": "Europe/Madrid", "district": "Murcia"}, {"id": 466, "name": "Pollensa", "name_ru": "Pollensa", "tz": "Europe/Madrid", "district": "Balearic Islands"}, {"id": 467, "name": "Ejea de los Caballeros", "name_ru": "Ejea de los Caballeros", "tz": "Europe/Madrid", "district": "Aragon"}, {"id": 468, "name": "Zafra", "name_ru": "Zafra", "tz": "Europe/Madrid", "district": "Extremadura"}, {"id": 469, "name": "Guadarrama", "name_ru": "Guadarrama", "tz": "Europe/Madrid", "district": "Madrid"}, {"id": 470, "name": "Sada", "name_ru": "Sada", "tz": "Europe/Madrid", "district": "Galicia"}, {"id": 471, "name": "El Escorial", "name_ru": "El Escorial", "tz": "Europe/Madrid", "district": "Madrid"}, {"id": 472, "name": "Espartinas", "name_ru": "Espartinas", "tz": "Europe/Madrid", "district": "Andalusia"}, {"id": 473, "name": "Ubrique", "name_ru": "Ubrique", "tz": "Europe/Madrid", "district": "Andalusia"}, {"id": 474, "name": "Piera", "name_ru": "Piera", "tz": "Europe/Madrid", "district": "Catalonia"}, {"id": 475, "name": "Rojales", "name_ru": "Rojales", "tz": "Europe/Madrid", "district": "Valencia"}, {"id": 476, "name": "Santomera", "name_ru": "Santomera", "tz": "Europe/Madrid", "district": "Murcia"}, {"id": 477, "name": "Guardamar del Segura", "name_ru": "Guardamar del Segura", "tz": "Europe/Madrid", "district": "Valencia"}, {"id": 478, "name": "Las Cabezas de San Juan", "name_ru": "Las Cabezas de San Juan", "tz": "Europe/Madrid", "district": "Andalusia"}, {"id": 479, "name": "Punta Umbria", "name_ru": "Punta Umbría", "tz": "Europe/Madrid", "district": "Andalusia"}, {"id": 480, "name": "Carlet", "name_ru": "Carlet", "tz": "Europe/Madrid", "district": "Valencia"}, {"id": 481, "name": "Alpedrete", "name_ru": "Alpedrete", "tz": "Europe/Madrid", "district": "Madrid"}, {"id": 482, "name": "Santa Marta de Tormes", "name_ru": "Santa Marta de Tormes", "tz": "Europe/Madrid", "district": "Castille-Leon"}, {"id": 483, "name": "Lumbreras", "name_ru": "Lumbreras", "tz": "Europe/Madrid", "district": "Murcia"}, {"id": 484, "name": "Vallirana", "name_ru": "Vallirana", "tz": "Europe/Madrid", "district": "Catalonia"}, {"id": 485, "name": "Alcaniz", "name_ru": "Alcañiz", "tz": "Europe/Madrid", "district": "Aragon"}, {"id": 486, "name": "Sopelana", "name_ru": "Sopelana", "tz": "Europe/Madrid", "district": "Basque Country"}, {"id": 487, "name": "Chiva", "name_ru": "Chiva", "tz": "Europe/Madrid", "district": "Valencia"}, {"id": 488, "name": "Baeza", "name_ru": "Baeza", "tz": "Europe/Madrid", "district": "Andalusia"}, {"id": 489, "name": "Corbera de Llobregat", "name_ru": "Corbera de Llobregat", "tz": "Europe/Madrid", "district": "Catalonia"}, {"id": 490, "name": "Santa Cruz de la Palma", "name_ru": "Santa Cruz de la Palma", "tz": "Atlantic/Canary", "district": "Canary Islands"}, {"id": 491, "name": "Tarancon", "name_ru": "Tarancón", "tz": "Europe/Madrid", "district": "Castille-La Mancha"}, {"id": 492, "name": "Miguelturra", "name_ru": "Miguelturra", "tz": "Europe/Madrid", "district": "Castille-La Mancha"}, {"id": 493, "name": "Santa Ursula", "name_ru": "Santa Úrsula", "tz": "Atlantic/Canary", "district": "Canary Islands"}, {"id": 494, "name": "Torello", "name_ru": "Torelló", "tz": "Europe/Madrid", "district": "Catalonia"}, {"id": 495, "name": "Montijo", "name_ru": "Montijo", "tz": "Europe/Madrid", "district": "Extremadura"}, {"id": 496, "name": "Tuineje", "name_ru": "Tuineje", "tz": "Atlantic/Canary", "district": "Canary Islands"}, {"id": 497, "name": "Cunit", "name_ru": "Cunit", "tz": "Europe/Madrid", "district": "Catalonia"}, {"id": 498, "name": "Villalbilla", "name_ru": "Villalbilla", "tz": "Europe/Madrid", "district": "Madrid"}, {"id": 499, "name": "La Solana", "name_ru": "La Solana", "tz": "Europe/Madrid", "district": "Castille-La Mancha"}, {"id": 500, "name": "Vieiro", "name_ru": "Vieiro", "tz": "Europe/Madrid", "district": "Galicia"}, {"id": 501, "name": "La Roda", "name_ru": "La Roda", "tz": "Europe/Madrid", "district": "Castille-La Mancha"}, {"id": 502, "name": "Azpeitia", "name_ru": "Azpeitia", "tz": "Europe/Madrid", "district": "Basque Country"}, {"id": 503, "name": "Meco", "name_ru": "Meco", "tz": "Europe/Madrid", "district": "Madrid"}, {"id": 504, "name": "Cuarte de Huerva", "name_ru": "Cuarte de Huerva", "tz": "Europe/Madrid", "district": "Aragon"}, {"id": 505, "name": "Fraga", "name_ru": "Fraga", "tz": "Europe/Madrid", "district": "Aragon"}, {"id": 506, "name": "Andoain", "name_ru": "Andoain", "tz": "Europe/Madrid", "district": "Basque Country"}, {"id": 507, "name": "Arnedo", "name_ru": "Arnedo", "tz": "Europe/Madrid", "district": "La Rioja"}, {"id": 508, "name": "La Carolina", "name_ru": "La Carolina", "tz": "Europe/Madrid", "district": "Andalusia"}, {"id": 509, "name": "Gondomar", "name_ru": "Gondomar", "tz": "Europe/Madrid", "district": "Galicia"}, {"id": 510, "name": "Villaviciosa", "name_ru": "Villaviciosa", "tz": "Europe/Madrid", "district": "Asturias"}, {"id": 511, "name": "Cehegin", "name_ru": "Cehegín", "tz": "Europe/Madrid", "district": "Murcia"}, {"id": 512, "name": "Bollullos par del Condado", "name_ru": "Bollullos par del Condado", "tz": "Europe/Madrid", "district": "Andalusia"}, {"id": 513, "name": "Cuevas del Almanzora", "name_ru": "Cuevas del Almanzora", "tz": "Europe/Madrid", "district": "Andalusia"}, {"id": 514, "name": "Noya", "name_ru": "Noya", "tz": "Europe/Madrid", "district": "Galicia"}, {"id": 515, "name": "Godella", "name_ru": "Godella", "tz": "Europe/Madrid", "district": "Valencia"}, {"id": 516, "name": "Alginet", "name_ru": "Alginet", "tz": "Europe/Madrid", "district": "Valencia"}, {"id": 517, "name": "Beasain", "name_ru": "Beasain", "tz": "Europe/Madrid", "district": "Basque Country"}, {"id": 518, "name": "La Carlota", "name_ru": "La Carlota", "tz": "Europe/Madrid", "district": "Andalusia"}, {"id": 519, "name": "Torrijos", "name_ru": "Torrijos", "tz": "Europe/Madrid", "district": "Castille-La Mancha"}, {"id": 520, "name": "Cambados", "name_ru": "Cambados", "tz": "Europe/Madrid", "district": "Galicia"}, {"id": 521, "name": "Pilas", "name_ru": "Pilas", "tz": "Europe/Madrid", "district": "Andalusia"}, {"id": 522, "name": "Torre del Campo", "name_ru": "Torre del Campo", "tz": "Europe/Madrid", "district": "Andalusia"}, {"id": 523, "name": "Sanlucar la Mayor", "name_ru": "Sanlúcar la Mayor", "tz": "Europe/Madrid", "district": "Andalusia"}, {"id": 524, "name": "Santa Cruz de Bezana", "name_ru": "Santa Cruz de Bezana", "tz": "Europe/Madrid", "district": "Cantabria"}, {"id": 525, "name": "Villalba", "name_ru": "Villalba", "tz": "Europe/Madrid", "district": "Galicia"}, {"id": 526, "name": "Vilanova del Cami", "name_ru": "Vilanova del Camí", "tz": "Europe/Madrid", "district": "Catalonia"}, {"id": 527, "name": "Llanera", "name_ru": "Llanera", "tz": "Europe/Madrid", "district": "Asturias"}, {"id": 528, "name": "San Agustin de Guadalix", "name_ru": "San Agustín de Guadalix", "tz": "Europe/Madrid", "district": "Madrid"}, {"id": 529, "name": "Canals", "name_ru": "Canals", "tz": "Europe/Madrid", "district": "Valencia"}, {"id": 530, "name": "Tomino", "name_ru": "Tomiño", "tz": "Europe/Madrid", "district": "Galicia"}, {"id": 531, "name": "Soller", "name_ru": "Sóller", "tz": "Europe/Madrid", "district": "Balearic Islands"}, {"id": 532, "name": "Verin", "name_ru": "Verín", "tz": "Europe/Madrid", "district": "Galicia"}, {"id": 533, "name": "Llanes", "name_ru": "Llanes", "tz": "Europe/Madrid", "district": "Asturias"}, {"id": 534, "name": "Santa Coloma de Farnes", "name_ru": "Santa Coloma de Farnés", "tz": "Europe/Madrid", "district": "Catalonia"}, {"id": 535, "name": "Torredonjimeno", "name_ru": "Torredonjimeno", "tz": "Europe/Madrid", "district": "Andalusia"}, {"id": 536, "name": "Moralzarzal", "name_ru": "Moralzarzal", "tz": "Europe/Madrid", "district": "Madrid"}, {"id": 537, "name": "Betanzos", "name_ru": "Betanzos", "tz": "Europe/Madrid", "district": "Galicia"}, {"id": 538, "name": "Nules", "name_ru": "Nules", "tz": "Europe/Madrid", "district": "Valencia"}, {"id": 539, "name": "Sant Sadurni d'Anoia", "name_ru": "Sant Sadurní d’Anoia", "tz": "Europe/Madrid", "district": "Catalonia"}, {"id": 540, "name": "Aguilar", "name_ru": "Aguilar", "tz": "Europe/Madrid", "district": "Andalusia"}, {"id": 541, "name": "Velilla de San Antonio", "name_ru": "Velilla de San Antonio", "tz": "Europe/Madrid", "district": "Madrid"}, {"id": 542, "name": "Ceuti", "name_ru": "Ceuti", "tz": "Europe/Madrid", "district": "Murcia"}, {"id": 543, "name": "Valdemorillo", "name_ru": "Valdemorillo", "tz": "Europe/Madrid", "district": "Madrid"}, {"id": 544, "name": "Jaca", "name_ru": "Jaca", "tz": "Europe/Madrid", "district": "Aragon"}, {"id": 545, "name": "Picana", "name_ru": "Picaña", "tz": "Europe/Madrid", "district": "Valencia"}, {"id": 546, "name": "Fene", "name_ru": "Fene", "tz": "Europe/Madrid", "district": "Galicia"}, {"id": 547, "name": "Campo de Criptana", "name_ru": "Campo de Criptana", "tz": "Europe/Madrid", "district": "Castille-La Mancha"}, {"id": 548, "name": "Sarria", "name_ru": "Sarria", "tz": "Europe/Madrid", "district": "Galicia"}, {"id": 549, "name": "Abrera", "name_ru": "Abrera", "tz": "Europe/Madrid", "district": "Catalonia"}, {"id": 550, "name": "Abaran", "name_ru": "Abarán", "tz": "Europe/Madrid", "district": "Murcia"}, {"id": 551, "name": "Brenes", "name_ru": "Brenes", "tz": "Europe/Madrid", "district": "Andalusia"}, {"id": 552, "name": "Argentona", "name_ru": "Argentona", "tz": "Europe/Madrid", "district": "Catalonia"}, {"id": 553, "name": "Teror", "name_ru": "Teror", "tz": "Atlantic/Canary", "district": "Canary Islands"}, {"id": 554, "name": "Guillena", "name_ru": "Guillena", "tz": "Europe/Madrid", "district": "Andalusia"}, {"id": 555, "name": "Ocana", "name_ru": "Ocaña", "tz": "Europe/Madrid", "district": "Castille-La Mancha"}, {"id": 556, "name": "Alovera", "name_ru": "Alovera", "tz": "Europe/Madrid", "district": "Castille-La Mancha"}, {"id": 557, "name": "Palleja", "name_ru": "Pallejá", "tz": "Europe/Madrid", "district": "Catalonia"}, {"id": 558, "name": "Castellbisbal", "name_ru": "Castellbisbal", "tz": "Europe/Madrid", "district": "Catalonia"}, {"id": 559, "name": "Santa Margarita", "name_ru": "Santa Margarita", "tz": "Europe/Madrid", "district": "Balearic Islands"}, {"id": 560, "name": "Albatera", "name_ru": "Albatera", "tz": "Europe/Madrid", "district": "Valencia"}, {"id": 561, "name": "Arrigorriaga", "name_ru": "Arrigorriaga", "tz": "Europe/Madrid", "district": "Basque Country"}, {"id": 562, "name": "Pola de Laviana", "name_ru": "Pola de Laviana", "tz": "Europe/Madrid", "district": "Asturias"}, {"id": 563, "name": "Gibraleon", "name_ru": "Gibraleón", "tz": "Europe/Madrid", "district": "Andalusia"}, {"id": 564, "name": "Salobrena", "name_ru": "Salobreña", "tz": "Europe/Madrid", "district": "Andalusia"}, {"id": 565, "name": "Peligros", "name_ru": "Peligros", "tz": "Europe/Madrid", "district": "Andalusia"}, {"id": 566, "name": "Valverde del Camino", "name_ru": "Valverde del Camino", "tz": "Europe/Madrid", "district": "Andalusia"}, {"id": 567, "name": "Berja", "name_ru": "Berja", "tz": "Europe/Madrid", "district": "Andalusia"}, {"id": 568, "name": "Beniel", "name_ru": "Beniel", "tz": "Europe/Madrid", "district": "Murcia"}, {"id": 569, "name": "Villafranca de los Barros", "name_ru": "Villafranca de los Barros", "tz": "Europe/Madrid", "district": "Extremadura"}, {"id": 570, "name": "Bayona", "name_ru": "Bayona", "tz": "Europe/Madrid", "district": "Galicia"}, {"id": 571, "name": "Vejer de la Frontera", "name_ru": "Vejer de la Frontera", "tz": "Europe/Madrid", "district": "Andalusia"}, {"id": 572, "name": "Benifayo", "name_ru": "Benifayó", "tz": "Europe/Madrid", "district": "Valencia"}, {"id": 573, "name": "Bejar", "name_ru": "Béjar", "tz": "Europe/Madrid", "district": "Castille-Leon"}, {"id": 574, "name": "Estepa", "name_ru": "Estepa", "tz": "Europe/Madrid", "district": "Andalusia"}, {"id": 575, "name": "Santany", "name_ru": "Santañy", "tz": "Europe/Madrid", "district": "Balearic Islands"}, {"id": 576, "name": "Acala del Rio", "name_ru": "Acalá del Río", "tz": "Europe/Madrid", "district": "Andalusia"}, {"id": 577, "name": "Bueu", "name_ru": "Bueu", "tz": "Europe/Madrid", "district": "Galicia"}, {"id": 578, "name": "Monovar", "name_ru": "Monóvar", "tz": "Europe/Madrid", "district": "Valencia"}, {"id": 579, "name": "Palos de la Frontera", "name_ru": "Palos de la Frontera", "tz": "Europe/Madrid", "district": "Andalusia"}, {"id": 580, "name": "Capdepera", "name_ru": "Capdepera", "tz": "Europe/Madrid", "district": "Balearic Islands"}, {"id": 581, "name": "Torroella de Montgri", "name_ru": "Torroella de Montgrí", "tz": "Europe/Madrid", "district": "Catalonia"}, {"id": 582, "name": "Villamartin", "name_ru": "Villamartín", "tz": "Europe/Madrid", "district": "Andalusia"}, {"id": 583, "name": "Albox", "name_ru": "Albox", "tz": "Europe/Madrid", "district": "Andalusia"}, {"id": 584, "name": "Bolanos de Calatrava", "name_ru": "Bolaños de Calatrava", "tz": "Europe/Madrid", "district": "Castille-La Mancha"}, {"id": 585, "name": "Ciudad-Rodrigo", "name_ru": "Ciudad-Rodrigo", "tz": "Europe/Madrid", "district": "Castille-Leon"}, {"id": 586, "name": "Son Servera", "name_ru": "Son Servera", "tz": "Europe/Madrid", "district": "Balearic Islands"}, {"id": 587, "name": "Socuellamos", "name_ru": "Socuéllamos", "tz": "Europe/Madrid", "district": "Castille-La Mancha"}, {"id": 588, "name": "San Andres de Llevaneras", "name_ru": "San Andrés de Llevaneras", "tz": "Europe/Madrid", "district": "Catalonia"}, {"id": 589, "name": "Beniajan", "name_ru": "Beniaján", "tz": "Europe/Madrid", "district": "Murcia"}, {"id": 590, "name": "Cangas de Narcea", "name_ru": "Cangas de Narcea", "tz": "Europe/Madrid", "district": "Asturias"}, {"id": 591, "name": "Santona", "name_ru": "Santoña", "tz": "Europe/Madrid", "district": "Cantabria"}, {"id": 592, "name": "Fuensalida", "name_ru": "Fuensalida", "tz": "Europe/Madrid", "district": "Castille-La Mancha"}, {"id": 593, "name": "La Puebla del Rio", "name_ru": "La Puebla del Río", "tz": "Europe/Madrid", "district": "Andalusia"}, {"id": 594, "name": "Olivenza", "name_ru": "Olivenza", "tz": "Europe/Madrid", "district": "Extremadura"}, {"id": 595, "name": "Azcoitia", "name_ru": "Azcoitia", "tz": "Europe/Madrid", "district": "Basque Country"}, {"id": 596, "name": "Medina Sidonia", "name_ru": "Medina Sidonia", "tz": "Europe/Madrid", "district": "Andalusia"}, {"id": 597, "name": "Teulada", "name_ru": "Teulada", "tz": "Europe/Madrid", "district": "Valencia"}, {"id": 598, "name": "Benaguacil", "name_ru": "Benaguacil", "tz": "Europe/Madrid", "district": "Valencia"}, {"id": 599, "name": "Bullas", "name_ru": "Bullas", "tz": "Europe/Madrid", "district": "Murcia"}, {"id": 600, "name": "Elgoibar", "name_ru": "Elgóibar", "tz": "Europe/Madrid", "district": "Basque Country"}, {"id": 601, "name": "Tegueste", "name_ru": "Tegueste", "tz": "Atlantic/Canary", "district": "Canary Islands"}, {"id": 602, "name": "Andraitx", "name_ru": "Andraitx", "tz": "Europe/Madrid", "district": "Balearic Islands"}, {"id": 603, "name": "Laredo", "name_ru": "Laredo", "tz": "Europe/Madrid", "district": "Cantabria"}, {"id": 604, "name": "Cocentaina", "name_ru": "Cocentaina", "tz": "Europe/Madrid", "district": "Valencia"}, {"id": 605, "name": "Jodar", "name_ru": "Jódar", "tz": "Europe/Madrid", "district": "Andalusia"}, {"id": 606, "name": "Benisa", "name_ru": "Benisa", "tz": "Europe/Madrid", "district": "Valencia"}, {"id": 607, "name": "Masanasa", "name_ru": "Masanasa", "tz": "Europe/Madrid", "district": "Valencia"}, {"id": 608, "name": "Lardero", "name_ru": "Lardero", "tz": "Europe/Madrid", "district": "La Rioja"}, {"id": 609, "name": "Gelves", "name_ru": "Gelves", "tz": "Europe/Madrid", "district": "Andalusia"}, {"id": 610, "name": "Yuncos", "name_ru": "Yuncos", "tz": "Europe/Madrid", "district": "Castille-La Mancha"}, {"id": 611, "name": "Sant Joan de Vilatorrada", "name_ru": "Sant Joan de Vilatorrada", "tz": "Europe/Madrid", "district": "Catalonia"}, {"id": 612, "name": "Onate", "name_ru": "Oñate", "tz": "Europe/Madrid", "district": "Basque Country"}, {"id": 613, "name": "Utiel", "name_ru": "Utiel", "tz": "Europe/Madrid", "district": "Valencia"}, {"id": 614, "name": "Campos del Puerto", "name_ru": "Campos del Puerto", "tz": "Europe/Madrid", "district": "Balearic Islands"}, {"id": 615, "name": "Mancha Real", "name_ru": "Mancha Real", "tz": "Europe/Madrid", "district": "Andalusia"}, {"id": 616, "name": "Castello de Ampurias", "name_ru": "Castelló de Ampurias", "tz": "Europe/Madrid", "district": "Catalonia"}, {"id": 617, "name": "Barbadanes", "name_ru": "Barbadanes", "tz": "Europe/Madrid", "district": "Galicia"}, {"id": 618, "name": "Santiago del Teide", "name_ru": "Santiago del Teide", "tz": "Atlantic/Canary", "district": "Canary Islands"}, {"id": 619, "name": "Bollullos de la Mitacion", "name_ru": "Bollullos de la Mitación", "tz": "Europe/Madrid", "district": "Andalusia"}, {"id": 620, "name": "Quintanar de la Orden", "name_ru": "Quintanar de la Orden", "tz": "Europe/Madrid", "district": "Castille-La Mancha"}, {"id": 621, "name": "Sonseca", "name_ru": "Sonseca", "tz": "Europe/Madrid", "district": "Castille-La Mancha"}, {"id": 622, "name": "Rianxo", "name_ru": "Rianxo", "tz": "Europe/Madrid", "district": "Galicia"}, {"id": 623, "name": "Cabanillas del Campo", "name_ru": "Cabanillas del Campo", "tz": "Europe/Madrid", "district": "Castille-La Mancha"}, {"id": 624, "name": "La Escala", "name_ru": "La Escala", "tz": "Europe/Madrid", "district": "Catalonia"}, {"id": 625, "name": "Garrucha", "name_ru": "Garrucha", "tz": "Europe/Madrid", "district": "Andalusia"}, {"id": 626, "name": "Grinon", "name_ru": "Griñón", "tz": "Europe/Madrid", "district": "Madrid"}, {"id": 627, "name": "Zumaia", "name_ru": "Zumaia", "tz": "Europe/Madrid", "district": "Basque Country"}, {"id": 628, "name": "Alella", "name_ru": "Alella", "tz": "Europe/Madrid", "district": "Catalonia"}, {"id": 629, "name": "Alberique", "name_ru": "Alberique", "tz": "Europe/Madrid", "district": "Valencia"}, {"id": 630, "name": "La Palma del Condado", "name_ru": "La Palma del Condado", "tz": "Europe/Madrid", "district": "Andalusia"}, {"id": 631, "name": "La Puebla de Cazalla", "name_ru": "La Puebla de Cazalla", "tz": "Europe/Madrid", "district": "Andalusia"}, {"id": 632, "name": "Brunete", "name_ru": "Brunete", "tz": "Europe/Madrid", "district": "Madrid"}, {"id": 633, "name": "Los Corrales de Buelna", "name_ru": "Los Corrales de Buelna", "tz": "Europe/Madrid", "district": "Cantabria"}, {"id": 634, "name": "Ripoll", "name_ru": "Ripoll", "tz": "Europe/Madrid", "district": "Catalonia"}, {"id": 635, "name": "Cantillana", "name_ru": "Cantillana", "tz": "Europe/Madrid", "district": "Andalusia"}, {"id": 636, "name": "Castalla", "name_ru": "Castalla", "tz": "Europe/Madrid", "district": "Valencia"}, {"id": 637, "name": "Astorga", "name_ru": "Astorga", "tz": "Europe/Madrid", "district": "Castille-Leon"}, {"id": 638, "name": "Huetor-Tajar", "name_ru": "Huétor-Tájar", "tz": "Europe/Madrid", "district": "Andalusia"}, {"id": 639, "name": "Daganzo de Arriba", "name_ru": "Daganzo de Arriba", "tz": "Europe/Madrid", "district": "Madrid"}, {"id": 640, "name": "Cassa de la Selva", "name_ru": "Cassá de la Selva", "tz": "Europe/Madrid", "district": "Catalonia"}, {"id": 641, "name": "Bargas", "name_ru": "Bargas", "tz": "Europe/Madrid", "district": "Castille-La Mancha"}, {"id": 642, "name": "Tafalla", "name_ru": "Tafalla", "tz": "Europe/Madrid", "district": "Navarre"}, {"id": 643, "name": "Penarroya-Pueblonuevo", "name_ru": "Peñarroya-Pueblonuevo", "tz": "Europe/Madrid", "district": "Andalusia"}, {"id": 644, "name": "Pola de Lena", "name_ru": "Pola de Lena", "tz": "Europe/Madrid", "district": "Asturias"}, {"id": 645, "name": "Canteras", "name_ru": "Canteras", "tz": "Europe/Madrid", "district": "Murcia"}, {"id": 646, "name": "Torrejon de la Calzada", "name_ru": "Torrejón de la Calzada", "tz": "Europe/Madrid", "district": "Madrid"}, {"id": 647, "name": "Villanueva de Arosa", "name_ru": "Villanueva de Arosa", "tz": "Europe/Madrid", "district": "Galicia"}, {"id": 648, "name": "La Baneza", "name_ru": "La Bañeza", "tz": "Europe/Madrid", "district": "Castille-Leon"}, {"id": 649, "name": "Santa Margarita de Mombuy", "name_ru": "Santa Margarita de Mombúy", "tz": "Europe/Madrid", "district": "Catalonia"}, {"id": 650, "name": "Villacarrillo", "name_ru": "Villacarrillo", "tz": "Europe/Madrid", "district": "Andalusia"}, {"id": 651, "name": "Luanco", "name_ru": "Luanco", "tz": "Europe/Madrid", "district": "Asturias"}, {"id": 652, "name": "Alcora", "name_ru": "Alcora", "tz": "Europe/Madrid", "district": "Valencia"}, {"id": 653, "name": "Tarazona de Aragon", "name_ru": "Tarazona de Aragón", "tz": "Europe/Madrid", "district": "Aragon"}, {"id": 654, "name": "Alcaudete", "name_ru": "Alcaudete", "tz": "Europe/Madrid", "district": "Andalusia"}, {"id": 655, "name": "Pulpi", "name_ru": "Pulpí", "tz": "Europe/Madrid", "district": "Andalusia"}, {"id": 656, "name": "San Vicente de Castellet", "name_ru": "San Vicente de Castellet", "tz": "Europe/Madrid", "district": "Catalonia"}, {"id": 657, "name": "Amurrio", "name_ru": "Amurrio", "tz": "Europe/Madrid", "district": "Basque Country"}, {"id": 658, "name": "Cabanaquinta", "name_ru": "Cabañaquinta", "tz": "Europe/Madrid", "district": "Asturias"}, {"id": 659, "name": "El Alamo", "name_ru": "El Álamo", "tz": "Europe/Madrid", "district": "Madrid"}, {"id": 660, "name": "Binefar", "name_ru": "Binéfar", "tz": "Europe/Madrid", "district": "Aragon"}, {"id": 661, "name": "Madridejos", "name_ru": "Madridejos", "tz": "Europe/Madrid", "district": "Castille-La Mancha"}, {"id": 662, "name": "Alguazas", "name_ru": "Alguazas", "tz": "Europe/Madrid", "district": "Murcia"}, {"id": 663, "name": "Villamarchante", "name_ru": "Villamarchante", "tz": "Europe/Madrid", "district": "Valencia"}, {"id": 664, "name": "Santa Maria de Palautordera", "name_ru": "Santa María de Palautordera", "tz": "Europe/Madrid", "district": "Catalonia"}, {"id": 665, "name": "Palafolls", "name_ru": "Palafolls", "tz": "Europe/Madrid", "district": "Catalonia"}, {"id": 666, "name": "Salvatierra de Mino", "name_ru": "Salvatierra de Miño", "tz": "Europe/Madrid", "district": "Galicia"}, {"id": 667, "name": "Caspe", "name_ru": "Caspe", "tz": "Europe/Madrid", "district": "Aragon"}, {"id": 668, "name": "Calasparra", "name_ru": "Calasparra", "tz": "Europe/Madrid", "district": "Murcia"}, {"id": 669, "name": "Tocina", "name_ru": "Tocina", "tz": "Europe/Madrid", "district": "Andalusia"}, {"id": 670, "name": "Masquefa", "name_ru": "Masquefa", "tz": "Europe/Madrid", "district": "Catalonia"}, {"id": 671, "name": "Foz", "name_ru": "Foz", "tz": "Europe/Madrid", "district": "Galicia"}, {"id": 672, "name": "Zumarraga", "name_ru": "Zumárraga", "tz": "Europe/Madrid", "district": "Basque Country"}, {"id": 673, "name": "Caudete", "name_ru": "Caudete", "tz": "Europe/Madrid", "district": "Castille-La Mancha"}, {"id": 674, "name": "Tiana", "name_ru": "Tiana", "tz": "Europe/Madrid", "district": "Catalonia"}, {"id": 675, "name": "Mengibar", "name_ru": "Mengibar", "tz": "Europe/Madrid", "district": "Andalusia"}, {"id": 676, "name": "Matadepera", "name_ru": "Matadepera", "tz": "Europe/Madrid", "district": "Catalonia"}, {"id": 677, "name": "Puigcerda", "name_ru": "Puigcerdá", "tz": "Europe/Madrid", "district": "Catalonia"}, {"id": 678, "name": "Fernan-Nunez", "name_ru": "Fernán-Núñez", "tz": "Europe/Madrid", "district": "Andalusia"}, {"id": 679, "name": "Consuegra", "name_ru": "Consuegra", "tz": "Europe/Madrid", "district": "Castille-La Mancha"}, {"id": 680, "name": "Ribadeo", "name_ru": "Ribadeo", "tz": "Europe/Madrid", "district": "Galicia"}, {"id": 681, "name": "Pinos Puente", "name_ru": "Pinos Puente", "tz": "Europe/Madrid", "district": "Andalusia"}, {"id": 682, "name": "Piedras Blancas", "name_ru": "Piedras Blancas", "tz": "Europe/Madrid", "district": "Asturias"}, {"id": 683, "name": "Colindres", "name_ru": "Colindres", "tz": "Europe/Madrid", "district": "Cantabria"}, {"id": 684, "name": "Fuente Palmera", "name_ru": "Fuente Palmera", "tz": "Europe/Madrid", "district": "Andalusia"}, {"id": 685, "name": "Caldas de Reyes", "name_ru": "Caldas de Reyes", "tz": "Europe/Madrid", "district": "Galicia"}, {"id": 686, "name": "Rute", "name_ru": "Rute", "tz": "Europe/Madrid", "district": "Andalusia"}, {"id": 687, "name": "Alhendin", "name_ru": "Alhendín", "tz": "Europe/Madrid", "district": "Andalusia"}, {"id": 688, "name": "Umbrete", "name_ru": "Umbrete", "tz": "Europe/Madrid", "district": "Andalusia"}, {"id": 689, "name": "Mora", "name_ru": "Mora", "tz": "Europe/Madrid", "district": "Castille-La Mancha"}, {"id": 690, "name": "Almusafes", "name_ru": "Almusafes", "tz": "Europe/Madrid", "district": "Valencia"}, {"id": 691, "name": "Alcanar", "name_ru": "Alcanar", "tz": "Europe/Madrid", "district": "Catalonia"}, {"id": 692, "name": "Alcarraz", "name_ru": "Alcarraz", "tz": "Europe/Madrid", "district": "Catalonia"}, {"id": 693, "name": "La Matanza de Acentejo", "name_ru": "La Matanza de Acentejo", "tz": "Atlantic/Canary", "district": "Canary Islands"}, {"id": 694, "name": "Villarrubia de los Ojos", "name_ru": "Villarrubia de los Ojos", "tz": "Europe/Madrid", "district": "Castille-La Mancha"}, {"id": 695, "name": "Pizarra", "name_ru": "Pizarra", "tz": "Europe/Madrid", "district": "Andalusia"}, {"id": 696, "name": "Sevilla La Nueva", "name_ru": "Sevilla La Nueva", "tz": "Europe/Madrid", "district": "Madrid"}, {"id": 697, "name": "San Juan del Puerto", "name_ru": "San Juan del Puerto", "tz": "Europe/Madrid", "district": "Andalusia"}, {"id": 698, "name": "Palomares del Rio", "name_ru": "Palomares del Río", "tz": "Europe/Madrid", "district": "Andalusia"}, {"id": 699, "name": "Solsona", "name_ru": "Solsona", "tz": "Europe/Madrid", "district": "Catalonia"}, {"id": 700, "name": "Grado", "name_ru": "Grado", "tz": "Europe/Madrid", "district": "Asturias"}, {"id": 701, "name": "San Fausto de Campcentellas", "name_ru": "San Fausto de Campcentellas", "tz": "Europe/Madrid", "district": "Catalonia"}, {"id": 702, "name": "Colmenarejo", "name_ru": "Colmenarejo", "tz": "Europe/Madrid", "district": "Madrid"}, {"id": 703, "name": "Senmanat", "name_ru": "Senmanat", "tz": "Europe/Madrid", "district": "Catalonia"}, {"id": 704, "name": "Cuellar", "name_ru": "Cuéllar", "tz": "Europe/Madrid", "district": "Castille-Leon"}, {"id": 705, "name": "La Victoria de Acentejo", "name_ru": "La Victoria de Acentejo", "tz": "Atlantic/Canary", "district": "Canary Islands"}, {"id": 706, "name": "Olivares", "name_ru": "Olivares", "tz": "Europe/Madrid", "district": "Andalusia"}, {"id": 707, "name": "Cullar-Vega", "name_ru": "Cúllar-Vega", "tz": "Europe/Madrid", "district": "Andalusia"}, {"id": 708, "name": "Arenys de Munt", "name_ru": "Arenys de Munt", "tz": "Europe/Madrid", "district": "Catalonia"}, {"id": 709, "name": "Valsequillo de Gran Canaria", "name_ru": "Valsequillo de Gran Canaria", "tz": "Atlantic/Canary", "district": "Canary Islands"}, {"id": 710, "name": "Cervello", "name_ru": "Cervelló", "tz": "Europe/Madrid", "district": "Catalonia"}, {"id": 711, "name": "Alfaro", "name_ru": "Alfaro", "tz": "Europe/Madrid", "district": "La Rioja"}, {"id": 712, "name": "Miajadas", "name_ru": "Miajadas", "tz": "Europe/Madrid", "district": "Extremadura"}, {"id": 713, "name": "Rafelbunol", "name_ru": "Rafelbuñol", "tz": "Europe/Madrid", "district": "Valencia"}, {"id": 714, "name": "Alayor", "name_ru": "Alayor", "tz": "Europe/Madrid", "district": "Balearic Islands"}, {"id": 715, "name": "Santiponce", "name_ru": "Santiponce", "tz": "Europe/Madrid", "district": "Andalusia"}, {"id": 716, "name": "El Espinar", "name_ru": "El Espinar", "tz": "Europe/Madrid", "district": "Castille-Leon"}, {"id": 717, "name": "Bunol", "name_ru": "Buñol", "tz": "Europe/Madrid", "district": "Valencia"}, {"id": 718, "name": "Cervera", "name_ru": "Cervera", "tz": "Europe/Madrid", "district": "Catalonia"}, {"id": 719, "name": "Burela de Cabo", "name_ru": "Burela de Cabo", "tz": "Europe/Madrid", "district": "Galicia"}, {"id": 720, "name": "El Molar", "name_ru": "El Molar", "tz": "Europe/Madrid", "district": "Madrid"}, {"id": 721, "name": "Villacanas", "name_ru": "Villacañas", "tz": "Europe/Madrid", "district": "Castille-La Mancha"}, {"id": 722, "name": "Ortuella", "name_ru": "Ortuella", "tz": "Europe/Madrid", "district": "Basque Country"}, {"id": 723, "name": "La Mujer", "name_ru": "La Mujer", "tz": "Europe/Madrid", "district": "Andalusia"}, {"id": 724, "name": "Polinya", "name_ru": "Polinyá", "tz": "Europe/Madrid", "district": "Catalonia"}, {"id": 725, "name": "Sauzal", "name_ru": "Sauzal", "tz": "Atlantic/Canary", "district": "Canary Islands"}, {"id": 726, "name": "Santa Comba", "name_ru": "Santa Comba", "tz": "Europe/Madrid", "district": "Galicia"}, {"id": 727, "name": "Muro del Alcoy", "name_ru": "Muro del Alcoy", "tz": "Europe/Madrid", "district": "Valencia"}, {"id": 728, "name": "Cisterniga", "name_ru": "Cistérniga", "tz": "Europe/Madrid", "district": "Castille-Leon"}, {"id": 729, "name": "Santa Maria de Cayon", "name_ru": "Santa María de Cayón", "tz": "Europe/Madrid", "district": "Cantabria"}, {"id": 730, "name": "Suances", "name_ru": "Suances", "tz": "Europe/Madrid", "district": "Cantabria"}, {"id": 731, "name": "Santa Coloma de Cervello", "name_ru": "Santa Coloma de Cervelló", "tz": "Europe/Madrid", "district": "Catalonia"}, {"id": 732, "name": "Sabinanigo", "name_ru": "Sabiñánigo", "tz": "Europe/Madrid", "district": "Aragon"}, {"id": 733, "name": "San Sebastian de la Gomera", "name_ru": "San Sebastián de la Gomera", "tz": "Atlantic/Canary", "district": "Canary Islands"}, {"id": 734, "name": "San Fructuoso de Bages", "name_ru": "San Fructuoso de Bagés", "tz": "Europe/Madrid", "district": "Catalonia"}, {"id": 735, "name": "Catral", "name_ru": "Catral", "tz": "Europe/Madrid", "district": "Valencia"}, {"id": 736, "name": "Manzanares el Real", "name_ru": "Manzanares el Real", "tz": "Europe/Madrid", "district": "Madrid"}, {"id": 737, "name": "Montoro", "name_ru": "Montoro", "tz": "Europe/Madrid", "district": "Andalusia"}, {"id": 738, "name": "Valldoreix", "name_ru": "Valldoreix", "tz": "Europe/Madrid", "district": "Catalonia"}, {"id": 739, "name": "Segorbe", "name_ru": "Segorbe", "tz": "Europe/Madrid", "district": "Valencia"}, {"id": 740, "name": "Binisalem", "name_ru": "Binisalem", "tz": "Europe/Madrid", "district": "Balearic Islands"}, {"id": 741, "name": "Jerez de los Caballeros", "name_ru": "Jerez de los Caballeros", "tz": "Europe/Madrid", "district": "Extremadura"}, {"id": 742, "name": "Tineo", "name_ru": "Tineo", "tz": "Europe/Madrid", "district": "Asturias"}, {"id": 743, "name": "Loeches", "name_ru": "Loeches", "tz": "Europe/Madrid", "district": "Madrid"}, {"id": 744, "name": "Villamediana de Iregua", "name_ru": "Villamediana de Iregua", "tz": "Europe/Madrid", "district": "La Rioja"}, {"id": 745, "name": "San Lorenzo de Descardazar", "name_ru": "San Lorenzo de Descardazar", "tz": "Europe/Madrid", "district": "Balearic Islands"}, {"id": 746, "name": "Cheste", "name_ru": "Cheste", "tz": "Europe/Madrid", "district": "Valencia"}, {"id": 747, "name": "Llagostera", "name_ru": "Llagostera", "tz": "Europe/Madrid", "district": "Catalonia"}, {"id": 748, "name": "Almagro", "name_ru": "Almagro", "tz": "Europe/Madrid", "district": "Castille-La Mancha"}, {"id": 749, "name": "Redovan", "name_ru": "Redován", "tz": "Europe/Madrid", "district": "Valencia"}, {"id": 750, "name": "Silleda", "name_ru": "Silleda", "tz": "Europe/Madrid", "district": "Galicia"}, {"id": 751, "name": "Tona", "name_ru": "Tona", "tz": "Europe/Madrid", "district": "Catalonia"}, {"id": 752, "name": "Hoyo de Manzanares", "name_ru": "Hoyo de Manzanares", "tz": "Europe/Madrid", "district": "Madrid"}, {"id": 753, "name": "Monserrat", "name_ru": "Monserrat", "tz": "Europe/Madrid", "district": "Valencia"}, {"id": 754, "name": "San Martin de Valdeiglesias", "name_ru": "San Martín de Valdeiglesias", "tz": "Europe/Madrid", "district": "Madrid"}, {"id": 755, "name": "Trujillo", "name_ru": "Trujillo", "tz": "Europe/Madrid", "district": "Extremadura"}, {"id": 756, "name": "Tordesillas", "name_ru": "Tordesillas", "tz": "Europe/Madrid", "district": "Castille-Leon"}, {"id": 757, "name": "Tudela de Duero", "name_ru": "Tudela de Duero", "tz": "Europe/Madrid", "district": "Castille-Leon"}, {"id": 758, "name": "Bigastro", "name_ru": "Bigastro", "tz": "Europe/Madrid", "district": "Valencia"}, {"id": 759, "name": "El Corrillo", "name_ru": "El Corrillo", "tz": "Europe/Madrid", "district": "Basque Country"}, {"id": 760, "name": "Villanueva de Cordoba", "name_ru": "Villanueva de Córdoba", "tz": "Europe/Madrid", "district": "Andalusia"}, {"id": 761, "name": "Foyos", "name_ru": "Foyos", "tz": "Europe/Madrid", "district": "Valencia"}, {"id": 762, "name": "Cabrils", "name_ru": "Cabrils", "tz": "Europe/Madrid", "district": "Catalonia"}, {"id": 763, "name": "Reocin", "name_ru": "Reocín", "tz": "Europe/Madrid", "district": "Cantabria"}, {"id": 764, "name": "Zuera", "name_ru": "Zuera", "tz": "Europe/Madrid", "district": "Aragon"}, {"id": 765, "name": "Monforte del Cid", "name_ru": "Monforte del Cid", "tz": "Europe/Madrid", "district": "Valencia"}, {"id": 766, "name": "Canet de Berenguer", "name_ru": "Canet de Berenguer", "tz": "Europe/Madrid", "district": "Valencia"}, {"id": 767, "name": "Bembibre", "name_ru": "Bembibre", "tz": "Europe/Madrid", "district": "Castille-Leon"}, {"id": 768, "name": "Legazpia", "name_ru": "Legazpia", "tz": "Europe/Madrid", "district": "Basque Country"}, {"id": 769, "name": "Toro", "name_ru": "Toro", "tz": "Europe/Madrid", "district": "Castille-Leon"}, {"id": 770, "name": "Herencia", "name_ru": "Herencia", "tz": "Europe/Madrid", "district": "Castille-La Mancha"}, {"id": 771, "name": "Cabezon de la Sal", "name_ru": "Cabezón de la Sal", "tz": "Europe/Madrid", "district": "Cantabria"}, {"id": 772, "name": "Padron", "name_ru": "Padrón", "tz": "Europe/Madrid", "district": "Galicia"}, {"id": 773, "name": "Navia", "name_ru": "Navia", "tz": "Europe/Madrid", "district": "Asturias"}, {"id": 774, "name": "Olias del Rey", "name_ru": "Olías del Rey", "tz": "Europe/Madrid", "district": "Castille-La Mancha"}, {"id": 775, "name": "Colmenar de Oreja", "name_ru": "Colmenar de Oreja", "tz": "Europe/Madrid", "district": "Madrid"}, {"id": 776, "name": "Campillos", "name_ru": "Campillos", "tz": "Europe/Madrid", "district": "Andalusia"}, {"id": 777, "name": "Corella", "name_ru": "Corella", "tz": "Europe/Madrid", "district": "Navarre"}, {"id": 778, "name": "Arico el Nuevo", "name_ru": "Arico el Nuevo", "tz": "Atlantic/Canary", "district": "Canary Islands"}, {"id": 779, "name": "Cintruenigo", "name_ru": "Cintruénigo", "tz": "Europe/Madrid", "district": "Navarre"}, {"id": 780, "name": "Pedreguer", "name_ru": "Pedreguer", "tz": "Europe/Madrid", "district": "Valencia"}, {"id": 781, "name": "Najera", "name_ru": "Nájera", "tz": "Europe/Madrid", "district": "La Rioja"}, {"id": 782, "name": "Carboneras", "name_ru": "Carboneras", "tz": "Europe/Madrid", "district": "Andalusia"}, {"id": 783, "name": "Villablino", "name_ru": "Villablino", "tz": "Europe/Madrid", "district": "Castille-Leon"}, {"id": 784, "name": "Aracena", "name_ru": "Aracena", "tz": "Europe/Madrid", "district": "Andalusia"}, {"id": 785, "name": "Vidreras", "name_ru": "Vidreras", "tz": "Europe/Madrid", "district": "Catalonia"}, {"id": 786, "name": "Monachil", "name_ru": "Monachil", "tz": "Europe/Madrid", "district": "Andalusia"}, {"id": 787, "name": "Roquetas", "name_ru": "Roquetas", "tz": "Europe/Madrid", "district": "Catalonia"}, {"id": 788, "name": "Valencina de la Concepcion", "name_ru": "Valencina de la Concepción", "tz": "Europe/Madrid", "district": "Andalusia"}, {"id": 789, "name": "Pinoso", "name_ru": "Pinoso", "tz": "Europe/Madrid", "district": "Valencia"}, {"id": 790, "name": "Caldas de Malavella", "name_ru": "Caldas de Malavella", "tz": "Europe/Madrid", "district": "Catalonia"}, {"id": 791, "name": "Cenes de la Vega", "name_ru": "Cenes de la Vega", "tz": "Europe/Madrid", "district": "Andalusia"}, {"id": 792, "name": "San Esteban Sasroviras", "name_ru": "San Esteban Sasroviras", "tz": "Europe/Madrid", "district": "Catalonia"}, {"id": 793, "name": "Chantada", "name_ru": "Chantada", "tz": "Europe/Madrid", "district": "Galicia"}, {"id": 794, "name": "Archidona", "name_ru": "Archidona", "tz": "Europe/Madrid", "district": "Andalusia"}, {"id": 795, "name": "Marchamalo", "name_ru": "Marchamalo", "tz": "Europe/Madrid", "district": "Castille-La Mancha"}, {"id": 796, "name": "Los Santos de Maimona", "name_ru": "Los Santos de Maimona", "tz": "Europe/Madrid", "district": "Extremadura"}, {"id": 797, "name": "La Almunia de Dona Godina", "name_ru": "La Almunia de Doña Godina", "tz": "Europe/Madrid", "district": "Aragon"}, {"id": 798, "name": "Morata de Tajuna", "name_ru": "Morata de Tajuña", "tz": "Europe/Madrid", "district": "Madrid"}, {"id": 799, "name": "Centellas", "name_ru": "Centellas", "tz": "Europe/Madrid", "district": "Catalonia"}, {"id": 800, "name": "Berango", "name_ru": "Berango", "tz": "Europe/Madrid", "district": "Basque Country"}, {"id": 801, "name": "Almodovar del Rio", "name_ru": "Almodóvar del Río", "tz": "Europe/Madrid", "district": "Andalusia"}, {"id": 802, "name": "Santa Eulalia de Ronsana", "name_ru": "Santa Eulalia de Ronsaná", "tz": "Europe/Madrid", "district": "Catalonia"}, {"id": 803, "name": "Brion", "name_ru": "Brion", "tz": "Europe/Madrid", "district": "Galicia"}, {"id": 804, "name": "Olvera", "name_ru": "Olvera", "tz": "Europe/Madrid", "district": "Andalusia"}, {"id": 805, "name": "Arta", "name_ru": "Artá", "tz": "Europe/Madrid", "district": "Balearic Islands"}, {"id": 806, "name": "Dolores", "name_ru": "Dolores", "tz": "Europe/Madrid", "district": "Valencia"}, {"id": 807, "name": "Sampedor", "name_ru": "Sampedor", "tz": "Europe/Madrid", "district": "Catalonia"}, {"id": 808, "name": "Pravia", "name_ru": "Pravia", "tz": "Europe/Madrid", "district": "Asturias"}, {"id": 809, "name": "Gelida", "name_ru": "Gélida", "tz": "Europe/Madrid", "district": "Catalonia"}, {"id": 810, "name": "Villanueva del Arzobispo", "name_ru": "Villanueva del Arzobispo", "tz": "Europe/Madrid", "district": "Andalusia"}, {"id": 811, "name": "Villanueva del Ariscal", "name_ru": "Villanueva del Ariscal", "tz": "Europe/Madrid", "district": "Andalusia"}, {"id": 812, "name": "Villaverde del Rio", "name_ru": "Villaverde del Río", "tz": "Europe/Madrid", "district": "Andalusia"}, {"id": 813, "name": "Viladecaballs", "name_ru": "Viladecaballs", "tz": "Europe/Madrid", "district": "Catalonia"}, {"id": 814, "name": "Peniscola", "name_ru": "Peñíscola", "tz": "Europe/Madrid", "district": "Valencia"}, {"id": 815, "name": "Arevalo", "name_ru": "Arévalo", "tz": "Europe/Madrid", "district": "Castille-Leon"}, {"id": 816, "name": "Trigueros", "name_ru": "Trigueros", "tz": "Europe/Madrid", "district": "Andalusia"}, {"id": 817, "name": "Puentedeume", "name_ru": "Puentedeume", "tz": "Europe/Madrid", "district": "Galicia"}, {"id": 818, "name": "Torres de la Alameda", "name_ru": "Torres de la Alameda", "tz": "Europe/Madrid", "district": "Madrid"}, {"id": 819, "name": "Carbajosa de la Sagrada", "name_ru": "Carbajosa de la Sagrada", "tz": "Europe/Madrid", "district": "Castille-Leon"}, {"id": 820, "name": "La Puebla de Montalban", "name_ru": "La Puebla de Montalbán", "tz": "Europe/Madrid", "district": "Castille-La Mancha"}, {"id": 821, "name": "Benahavis", "name_ru": "Benahavís", "tz": "Europe/Madrid", "district": "Andalusia"}, {"id": 822, "name": "Cox", "name_ru": "Cox", "tz": "Europe/Madrid", "district": "Valencia"}, {"id": 823, "name": "Malagon", "name_ru": "Malagón", "tz": "Europe/Madrid", "district": "Castille-La Mancha"}, {"id": 824, "name": "Vega de San Mateo", "name_ru": "Vega de San Mateo", "tz": "Atlantic/Canary", "district": "Canary Islands"}, {"id": 825, "name": "Villamayor", "name_ru": "Villamayor", "tz": "Europe/Madrid", "district": "Castille-Leon"}, {"id": 826, "name": "Abadiano Celayeta", "name_ru": "Abadiano Celayeta", "tz": "Europe/Madrid", "district": "Basque Country"}, {"id": 827, "name": "Callosa de Ensarria", "name_ru": "Callosa de Ensarriá", "tz": "Europe/Madrid", "district": "Valencia"}, {"id": 828, "name": "Lorqui", "name_ru": "Lorquí", "tz": "Europe/Madrid", "district": "Murcia"}, {"id": 829, "name": "Moratalla", "name_ru": "Moratalla", "tz": "Europe/Madrid", "district": "Murcia"}, {"id": 830, "name": "Cobena", "name_ru": "Cobeña", "tz": "Europe/Madrid", "district": "Madrid"}, {"id": 831, "name": "El Paso", "name_ru": "El Paso", "tz": "Atlantic/Canary", "district": "Canary Islands"}, {"id": 832, "name": "Gerena", "name_ru": "Gerena", "tz": "Europe/Madrid", "district": "Andalusia"}, {"id": 833, "name": "Bornos", "name_ru": "Bornos", "tz": "Europe/Madrid", "district": "Andalusia"}, {"id": 834, "name": "Astigarraga", "name_ru": "Astigarraga", "tz": "Europe/Madrid", "district": "Basque Country"}, {"id": 835, "name": "Sotomayor", "name_ru": "Sotomayor", "tz": "Europe/Madrid", "district": "Galicia"}, {"id": 836, "name": "Castro del Rio", "name_ru": "Castro del Río", "tz": "Europe/Madrid", "district": "Andalusia"}, {"id": 837, "name": "Camarma de Esteruelas", "name_ru": "Camarma de Esteruelas", "tz": "Europe/Madrid", "district": "Madrid"}, {"id": 838, "name": "Ondara", "name_ru": "Ondara", "tz": "Europe/Madrid", "district": "Valencia"}, {"id": 839, "name": "Onil", "name_ru": "Onil", "tz": "Europe/Madrid", "district": "Valencia"}, {"id": 840, "name": "Azuaga", "name_ru": "Azuaga", "tz": "Europe/Madrid", "district": "Extremadura"}, {"id": 841, "name": "Tobarra", "name_ru": "Tobarra", "tz": "Europe/Madrid", "district": "Castille-La Mancha"}, {"id": 842, "name": "Cee", "name_ru": "Cee", "tz": "Europe/Madrid", "district": "Galicia"}, {"id": 843, "name": "Quintanar del Rey", "name_ru": "Quintanar del Rey", "tz": "Europe/Madrid", "district": "Castille-La Mancha"}, {"id": 844, "name": "Guisona", "name_ru": "Guisona", "tz": "Europe/Madrid", "district": "Catalonia"}, {"id": 845, "name": "Collado Mediano", "name_ru": "Collado Mediano", "tz": "Europe/Madrid", "district": "Madrid"}, {"id": 846, "name": "Oroso", "name_ru": "Oroso", "tz": "Europe/Madrid", "district": "Galicia"}, {"id": 847, "name": "Villarejo de Salvanes", "name_ru": "Villarejo de Salvanés", "tz": "Europe/Madrid", "district": "Madrid"}, {"id": 848, "name": "Albunol", "name_ru": "Albuñol", "tz": "Europe/Madrid", "district": "Andalusia"}, {"id": 849, "name": "Elorrio", "name_ru": "Elorrio", "tz": "Europe/Madrid", "district": "Basque Country"}, {"id": 850, "name": "Finestrat", "name_ru": "Finestrat", "tz": "Europe/Madrid", "district": "Valencia"}, {"id": 851, "name": "La Rambla", "name_ru": "La Rambla", "tz": "Europe/Madrid", "district": "Andalusia"}, {"id": 852, "name": "Cercedilla", "name_ru": "Cercedilla", "tz": "Europe/Madrid", "district": "Madrid"}, {"id": 853, "name": "Roda de Bara", "name_ru": "Roda de Bará", "tz": "Europe/Madrid", "district": "Catalonia"}, {"id": 854, "name": "Valverde de la Virgen", "name_ru": "Valverde de la Virgen", "tz": "Europe/Madrid", "district": "Castille-Leon"}, {"id": 855, "name": "Benacazon", "name_ru": "Benacazón", "tz": "Europe/Madrid", "district": "Andalusia"}, {"id": 856, "name": "Teya", "name_ru": "Teyá", "tz": "Europe/Madrid", "district": "Catalonia"}, {"id": 857, "name": "Montblanch", "name_ru": "Montblanch", "tz": "Europe/Madrid", "district": "Catalonia"}, {"id": 858, "name": "Massanet de la Selva", "name_ru": "Massanet de la Selva", "tz": "Europe/Madrid", "district": "Catalonia"}, {"id": 859, "name": "Begas", "name_ru": "Begas", "tz": "Europe/Madrid", "district": "Catalonia"}, {"id": 860, "name": "Naquera", "name_ru": "Náquera", "tz": "Europe/Madrid", "district": "Valencia"}, {"id": 861, "name": "Moncofar", "name_ru": "Moncófar", "tz": "Europe/Madrid", "district": "Valencia"}, {"id": 862, "name": "Brena Alta", "name_ru": "Breña Alta", "tz": "Atlantic/Canary", "district": "Canary Islands"}, {"id": 863, "name": "Alagon", "name_ru": "Alagón", "tz": "Europe/Madrid", "district": "Aragon"}, {"id": 864, "name": "Derio", "name_ru": "Derio", "tz": "Europe/Madrid", "district": "Basque Country"}, {"id": 865, "name": "Pedro Munoz", "name_ru": "Pedro Muñoz", "tz": "Europe/Madrid", "district": "Castille-La Mancha"}, {"id": 866, "name": "Casares", "name_ru": "Casares", "tz": "Europe/Madrid", "district": "Andalusia"}, {"id": 867, "name": "Andorra", "name_ru": "Andorra", "tz": "Europe/Madrid", "district": "Aragon"}, {"id": 868, "name": "Bujalance", "name_ru": "Bujalance", "tz": "Europe/Madrid", "district": "Andalusia"}, {"id": 869, "name": "Talayuela", "name_ru": "Talayuela", "tz": "Europe/Madrid", "district": "Extremadura"}, {"id": 870, "name": "Mojacar", "name_ru": "Mojácar", "tz": "Europe/Madrid", "district": "Andalusia"}, {"id": 871, "name": "Arechavaleta", "name_ru": "Arechavaleta", "tz": "Europe/Madrid", "district": "Basque Country"}, {"id": 872, "name": "Posadas", "name_ru": "Posadas", "tz": "Europe/Madrid", "district": "Andalusia"}, {"id": 873, "name": "Villa del Rio", "name_ru": "Villa del Río", "tz": "Europe/Madrid", "district": "Andalusia"}, {"id": 874, "name": "San Vicente de Mont-Alt", "name_ru": "San Vicente de Mont-Alt", "tz": "Europe/Madrid", "district": "Catalonia"}, {"id": 875, "name": "Torreperogil", "name_ru": "Torreperogil", "tz": "Europe/Madrid", "district": "Andalusia"}, {"id": 876, "name": "Cazorla", "name_ru": "Cazorla", "tz": "Europe/Madrid", "district": "Andalusia"}, {"id": 877, "name": "Durcal", "name_ru": "Dúrcal", "tz": "Europe/Madrid", "district": "Andalusia"}, {"id": 878, "name": "Vacarisas", "name_ru": "Vacarisas", "tz": "Europe/Madrid", "district": "Catalonia"}, {"id": 879, "name": "Huescar", "name_ru": "Huéscar", "tz": "Europe/Madrid", "district": "Andalusia"}, {"id": 880, "name": "La Ametlla de Mar", "name_ru": "La Ametlla de Mar", "tz": "Europe/Madrid", "district": "Catalonia"}, {"id": 881, "name": "Fuentes de Andalucia", "name_ru": "Fuentes de Andalucía", "tz": "Europe/Madrid", "district": "Andalusia"}, {"id": 882, "name": "Algarrobo", "name_ru": "Algarrobo", "tz": "Europe/Madrid", "district": "Andalusia"}, {"id": 883, "name": "Villanueva de la Torre", "name_ru": "Villanueva de la Torre", "tz": "Europe/Madrid", "district": "Castille-La Mancha"}, {"id": 884, "name": "Llissa de Vall", "name_ru": "Llissá de Vall", "tz": "Europe/Madrid", "district": "Catalonia"}, {"id": 885, "name": "Navarcles", "name_ru": "Navarcles", "tz": "Europe/Madrid", "district": "Catalonia"}, {"id": 886, "name": "Museros", "name_ru": "Museros", "tz": "Europe/Madrid", "district": "Valencia"}, {"id": 887, "name": "Trebujena", "name_ru": "Trebujena", "tz": "Europe/Madrid", "district": "Andalusia"}, {"id": 888, "name": "Benalup de Sidonia", "name_ru": "Benalup de Sidonia", "tz": "Europe/Madrid", "district": "Andalusia"}, {"id": 889, "name": "Capellades", "name_ru": "Capellades", "tz": "Europe/Madrid", "district": "Catalonia"}, {"id": 890, "name": "Bunola", "name_ru": "Buñola", "tz": "Europe/Madrid", "district": "Balearic Islands"}, {"id": 891, "name": "Fuente el Saz", "name_ru": "Fuente el Saz", "tz": "Europe/Madrid", "district": "Madrid"}, {"id": 892, "name": "San Luis", "name_ru": "San Luis", "tz": "Europe/Madrid", "district": "Balearic Islands"}, {"id": 893, "name": "Montellano", "name_ru": "Montellano", "tz": "Europe/Madrid", "district": "Andalusia"}, {"id": 894, "name": "Burguillos", "name_ru": "Burguillos", "tz": "Europe/Madrid", "district": "Andalusia"}, {"id": 895, "name": "Puerto Serrano", "name_ru": "Puerto Serrano", "tz": "Europe/Madrid", "district": "Andalusia"}, {"id": 896, "name": "Bergondo", "name_ru": "Bergondo", "tz": "Europe/Madrid", "district": "Galicia"}, {"id": 897, "name": "Almacellas", "name_ru": "Almacellas", "tz": "Europe/Madrid", "district": "Catalonia"}, {"id": 898, "name": "Turis", "name_ru": "Turís", "tz": "Europe/Madrid", "district": "Valencia"}, {"id": 899, "name": "San Clemente", "name_ru": "San Clemente", "tz": "Europe/Madrid", "district": "Castille-La Mancha"}, {"id": 900, "name": "Vimianzo", "name_ru": "Vimianzo", "tz": "Europe/Madrid", "district": "Galicia"}, {"id": 901, "name": "Nuevo Baztan", "name_ru": "Nuevo Baztán", "tz": "Europe/Madrid", "district": "Madrid"}, {"id": 902, "name": "Valdovino", "name_ru": "Valdoviño", "tz": "Europe/Madrid", "district": "Galicia"}, {"id": 903, "name": "Infiesto", "name_ru": "Infiesto", "tz": "Europe/Madrid", "district": "Asturias"}, {"id": 904, "name": "Constanti", "name_ru": "Constantí", "tz": "Europe/Madrid", "district": "Catalonia"}, {"id": 905, "name": "Calamonte", "name_ru": "Calamonte", "tz": "Europe/Madrid", "district": "Extremadura"}, {"id": 906, "name": "Taradell", "name_ru": "Taradell", "tz": "Europe/Madrid", "district": "Catalonia"}, {"id": 907, "name": "Villa del Prado", "name_ru": "Villa del Prado", "tz": "Europe/Madrid", "district": "Madrid"}, {"id": 908, "name": "Paradas", "name_ru": "Paradas", "tz": "Europe/Madrid", "district": "Andalusia"}, {"id": 909, "name": "Guenes", "name_ru": "Güeñes", "tz": "Europe/Madrid", "district": "Basque Country"}, {"id": 910, "name": "Arges", "name_ru": "Argés", "tz": "Europe/Madrid", "district": "Castille-La Mancha"}, {"id": 911, "name": "San Antonio de Vilamajor", "name_ru": "San Antonio de Vilamajor", "tz": "Europe/Madrid", "district": "Catalonia"}, {"id": 912, "name": "Venta de Banos", "name_ru": "Venta de Baños", "tz": "Europe/Madrid", "district": "Castille-Leon"}, {"id": 913, "name": "Argamasilla de Alba", "name_ru": "Argamasilla de Alba", "tz": "Europe/Madrid", "district": "Castille-La Mancha"}, {"id": 914, "name": "Guarena", "name_ru": "Guareña", "tz": "Europe/Madrid", "district": "Extremadura"}, {"id": 915, "name": "Negreira", "name_ru": "Negreira", "tz": "Europe/Madrid", "district": "Galicia"}, {"id": 916, "name": "San Feliu de Codinas", "name_ru": "San Felíu de Codinas", "tz": "Europe/Madrid", "district": "Catalonia"}, {"id": 917, "name": "Riudoms", "name_ru": "Ríudoms", "tz": "Europe/Madrid", "district": "Catalonia"}, {"id": 918, "name": "Sallent", "name_ru": "Sallent", "tz": "Europe/Madrid", "district": "Catalonia"}, {"id": 919, "name": "Tauste", "name_ru": "Tauste", "tz": "Europe/Madrid", "district": "Aragon"}, {"id": 920, "name": "Villares de la Reina", "name_ru": "Villares de la Reina", "tz": "Europe/Madrid", "district": "Castille-Leon"}, {"id": 921, "name": "Lloseta", "name_ru": "Lloseta", "tz": "Europe/Madrid", "district": "Balearic Islands"}, {"id": 922, "name": "Marmolejo", "name_ru": "Marmolejo", "tz": "Europe/Madrid", "district": "Andalusia"}, {"id": 923, "name": "La Canonja", "name_ru": "La Canonja", "tz": "Europe/Madrid", "district": "Catalonia"}, {"id": 924, "name": "Aguilar de Campoo", "name_ru": "Aguilar de Campóo", "tz": "Europe/Madrid", "district": "Castille-Leon"}, {"id": 925, "name": "Fuente del Maestre", "name_ru": "Fuente del Maestre", "tz": "Europe/Madrid", "district": "Extremadura"}, {"id": 926, "name": "Alcala de Chivert", "name_ru": "Alcalá de Chivert", "tz": "Europe/Madrid", "district": "Valencia"}, {"id": 927, "name": "Moraleja", "name_ru": "Moraleja", "tz": "Europe/Madrid", "district": "Extremadura"}, {"id": 928, "name": "Cedeira", "name_ru": "Cedeira", "tz": "Europe/Madrid", "district": "Galicia"}, {"id": 929, "name": "Almensilla", "name_ru": "Almensilla", "tz": "Europe/Madrid", "district": "Andalusia"}, {"id": 930, "name": "Orio", "name_ru": "Orio", "tz": "Europe/Madrid", "district": "Basque Country"}, {"id": 931, "name": "Carral", "name_ru": "Carral", "tz": "Europe/Madrid", "district": "Galicia"}, {"id": 932, "name": "Guadalix de la Sierra", "name_ru": "Guadalix de la Sierra", "tz": "Europe/Madrid", "district": "Madrid"}, {"id": 933, "name": "Miraflores de la Sierra", "name_ru": "Miraflores de la Sierra", "tz": "Europe/Madrid", "district": "Madrid"}, {"id": 934, "name": "Hinojosa del Duque", "name_ru": "Hinojosa del Duque", "tz": "Europe/Madrid", "district": "Andalusia"}, {"id": 935, "name": "Jimena de la Frontera", "name_ru": "Jimena de la Frontera", "tz": "Europe/Madrid", "district": "Andalusia"}, {"id": 936, "name": "Alpicat", "name_ru": "Alpicat", "tz": "Europe/Madrid", "district": "Catalonia"}, {"id": 937, "name": "Blanca", "name_ru": "Blanca", "tz": "Europe/Madrid", "district": "Murcia"}, {"id": 938, "name": "San Adrian", "name_ru": "San Adrián", "tz": "Europe/Madrid", "district": "Navarre"}, {"id": 939, "name": "San Miguel de Salinas", "name_ru": "San Miguel de Salinas", "tz": "Europe/Madrid", "district": "Valencia"}, {"id": 940, "name": "Las Pedroneras", "name_ru": "Las Pedroñeras", "tz": "Europe/Madrid", "district": "Castille-La Mancha"}, {"id": 941, "name": "Villamuriel de Cerrato", "name_ru": "Villamuriel de Cerrato", "tz": "Europe/Madrid", "district": "Castille-Leon"}, {"id": 942, "name": "Gorliz-Elexalde", "name_ru": "Górliz-Elexalde", "tz": "Europe/Madrid", "district": "Basque Country"}, {"id": 943, "name": "Jaraiz de la Vera", "name_ru": "Jaraiz de la Vera", "tz": "Europe/Madrid", "district": "Extremadura"}, {"id": 944, "name": "Arbucias", "name_ru": "Arbucias", "tz": "Europe/Madrid", "district": "Catalonia"}, {"id": 945, "name": "Torrellas de Llobregat", "name_ru": "Torrellas de Llobregat", "tz": "Europe/Madrid", "district": "Catalonia"}, {"id": 946, "name": "Zaratan", "name_ru": "Zaratán", "tz": "Europe/Madrid", "district": "Castille-Leon"}, {"id": 947, "name": "Sils", "name_ru": "Sils", "tz": "Europe/Madrid", "district": "Catalonia"}, {"id": 948, "name": "Moya", "name_ru": "Moyá", "tz": "Europe/Madrid", "district": "Catalonia"}, {"id": 949, "name": "Briviesca", "name_ru": "Briviesca", "tz": "Europe/Madrid", "district": "Castille-Leon"}, {"id": 950, "name": "Velez Rubio", "name_ru": "Vélez Rubio", "tz": "Europe/Madrid", "district": "Andalusia"}, {"id": 951, "name": "Lazcano", "name_ru": "Lazcano", "tz": "Europe/Madrid", "district": "Basque Country"}, {"id": 952, "name": "Lezo", "name_ru": "Lezo", "tz": "Europe/Madrid", "district": "Basque Country"}, {"id": 953, "name": "Olula del Rio", "name_ru": "Olula del Río", "tz": "Europe/Madrid", "district": "Andalusia"}, {"id": 954, "name": "Gata de Gorgos", "name_ru": "Gata de Gorgos", "tz": "Europe/Madrid", "district": "Valencia"}, {"id": 955, "name": "Campo Real", "name_ru": "Campo Real", "tz": "Europe/Madrid", "district": "Madrid"}, {"id": 956, "name": "Herrera", "name_ru": "Herrera", "tz": "Europe/Madrid", "district": "Andalusia"}, {"id": 957, "name": "Gojar", "name_ru": "Gójar", "tz": "Europe/Madrid", "district": "Andalusia"}, {"id": 958, "name": "Almenara", "name_ru": "Almenara", "tz": "Europe/Madrid", "district": "Valencia"}, {"id": 959, "name": "Sarria de Ter", "name_ru": "Sarriá de Ter", "tz": "Europe/Madrid", "district": "Catalonia"}, {"id": 960, "name": "Urnieta", "name_ru": "Urnieta", "tz": "Europe/Madrid", "district": "Basque Country"}, {"id": 961, "name": "Arenas de San Pedro", "name_ru": "Arenas de San Pedro", "tz": "Europe/Madrid", "district": "Castille-Leon"}, {"id": 962, "name": "Pedrezuela", "name_ru": "Pedrezuela", "tz": "Europe/Madrid", "district": "Madrid"}, {"id": 963, "name": "Pulianas", "name_ru": "Pulianas", "tz": "Europe/Madrid", "district": "Andalusia"}, {"id": 964, "name": "Penaranda de Bracamonte", "name_ru": "Peñaranda de Bracamonte", "tz": "Europe/Madrid", "district": "Castille-Leon"}, {"id": 965, "name": "Allariz", "name_ru": "Allariz", "tz": "Europe/Madrid", "district": "Galicia"}, {"id": 966, "name": "Santo Domingo de la Calzada", "name_ru": "Santo Domingo de la Calzada", "tz": "Europe/Madrid", "district": "La Rioja"}, {"id": 967, "name": "Usurbil", "name_ru": "Usúrbil", "tz": "Europe/Madrid", "district": "Basque Country"}, {"id": 968, "name": "Ulldecona", "name_ru": "Ulldecona", "tz": "Europe/Madrid", "district": "Catalonia"}, {"id": 969, "name": "Viator", "name_ru": "Viator", "tz": "Europe/Madrid", "district": "Andalusia"}, {"id": 970, "name": "Ares", "name_ru": "Ares", "tz": "Europe/Madrid", "district": "Galicia"}, {"id": 971, "name": "Becerril de la Sierra", "name_ru": "Becerril de la Sierra", "tz": "Europe/Madrid", "district": "Madrid"}, {"id": 972, "name": "Altafulla", "name_ru": "Altafulla", "tz": "Europe/Madrid", "district": "Catalonia"}, {"id": 973, "name": "Brena Baja", "name_ru": "Breña Baja", "tz": "Atlantic/Canary", "district": "Canary Islands"}, {"id": 974, "name": "San Pol de Mar", "name_ru": "San Pol de Mar", "tz": "Europe/Madrid", "district": "Catalonia"}, {"id": 975, "name": "Puebla de la Calzada", "name_ru": "Puebla de la Calzada", "tz": "Europe/Madrid", "district": "Extremadura"}, {"id": 976, "name": "Casarrubios del Monte", "name_ru": "Casarrubios del Monte", "tz": "Europe/Madrid", "district": "Castille-La Mancha"}, {"id": 977, "name": "La Palma", "name_ru": "La Palma", "tz": "Europe/Madrid", "district": "Murcia"}, {"id": 978, "name": "Tarazona de la Mancha", "name_ru": "Tarazona de la Mancha", "tz": "Europe/Madrid", "district": "Castille-La Mancha"}, {"id": 979, "name": "Outes", "name_ru": "Outes", "tz": "Europe/Madrid", "district": "Galicia"}, {"id": 980, "name": "Villabona", "name_ru": "Villabona", "tz": "Europe/Madrid", "district": "Basque Country"}, {"id": 981, "name": "Los Villares", "name_ru": "Los Villares", "tz": "Europe/Madrid", "district": "Andalusia"}, {"id": 982, "name": "Suria", "name_ru": "Suria", "tz": "Europe/Madrid", "district": "Catalonia"}, {"id": 983, "name": "La Muela", "name_ru": "La Muela", "tz": "Europe/Madrid", "district": "Aragon"}, {"id": 984, "name": "Bonares", "name_ru": "Bonares", "tz": "Europe/Madrid", "district": "Andalusia"}, {"id": 985, "name": "Porcuna", "name_ru": "Porcuna", "tz": "Europe/Madrid", "district": "Andalusia"}, {"id": 986, "name": "Albaida", "name_ru": "Albaida", "tz": "Europe/Madrid", "district": "Valencia"}, {"id": 987, "name": "Abanilla", "name_ru": "Abanilla", "tz": "Europe/Madrid", "district": "Murcia"}, {"id": 988, "name": "Vilafant", "name_ru": "Vilafant", "tz": "Europe/Madrid", "district": "Catalonia"}, {"id": 989, "name": "Torrejon del Rey", "name_ru": "Torrejón del Rey", "tz": "Europe/Madrid", "district": "Castille-La Mancha"}, {"id": 990, "name": "Vilaboa", "name_ru": "Vilaboa", "tz": "Europe/Madrid", "district": "Galicia"}, {"id": 991, "name": "Guadasuar", "name_ru": "Guadasuar", "tz": "Europe/Madrid", "district": "Valencia"}, {"id": 992, "name": "Artes", "name_ru": "Artés", "tz": "Europe/Madrid", "district": "Catalonia"}, {"id": 993, "name": "Aznalcollar", "name_ru": "Aznalcóllar", "tz": "Europe/Madrid", "district": "Andalusia"}, {"id": 994, "name": "Norena", "name_ru": "Noreña", "tz": "Europe/Madrid", "district": "Asturias"}, {"id": 995, "name": "Maria de Huerva", "name_ru": "María de Huerva", "tz": "Europe/Madrid", "district": "Aragon"}, {"id": 996, "name": "Mota del Cuervo", "name_ru": "Mota del Cuervo", "tz": "Europe/Madrid", "district": "Castille-La Mancha"}, {"id": 997, "name": "Yeles", "name_ru": "Yeles", "tz": "Europe/Madrid", "district": "Castille-La Mancha"}, {"id": 998, "name": "Angles", "name_ru": "Anglés", "tz": "Europe/Madrid", "district": "Catalonia"}, {"id": 999, "name": "Navas", "name_ru": "Navás", "tz": "Europe/Madrid", "district": "Catalonia"}, {"id": 1000, "name": "Motilla del Palancar", "name_ru": "Motilla del Palancar", "tz": "Europe/Madrid", "district": "Castille-La Mancha"}, {"id": 1001, "name": "Algaida", "name_ru": "Algaida", "tz": "Europe/Madrid", "district": "Balearic Islands"}, {"id": 1002, "name": "Arzua", "name_ru": "Arzúa", "tz": "Europe/Madrid", "district": "Galicia"}, {"id": 1003, "name": "Ugena", "name_ru": "Ugena", "tz": "Europe/Madrid", "district": "Castille-La Mancha"}, {"id": 1004, "name": "Membrilla", "name_ru": "Membrilla", "tz": "Europe/Madrid", "district": "Castille-La Mancha"}, {"id": 1005, "name": "Esquivias", "name_ru": "Esquivias", "tz": "Europe/Madrid", "district": "Castille-La Mancha"}, {"id": 1006, "name": "Almodovar del Campo", "name_ru": "Almodóvar del Campo", "tz": "Europe/Madrid", "district": "Castille-La Mancha"}, {"id": 1007, "name": "Coristanco", "name_ru": "Coristanco", "tz": "Europe/Madrid", "district": "Galicia"}, {"id": 1008, "name": "Beniganim", "name_ru": "Benigánim", "tz": "Europe/Madrid", "district": "Valencia"}, {"id": 1009, "name": "Tremp", "name_ru": "Tremp", "tz": "Europe/Madrid", "district": "Catalonia"}, {"id": 1010, "name": "Orjiva", "name_ru": "Órjiva", "tz": "Europe/Madrid", "district": "Andalusia"}, {"id": 1011, "name": "Valga", "name_ru": "Valga", "tz": "Europe/Madrid", "district": "Galicia"}, {"id": 1012, "name": "Vilanova de la Roca", "name_ru": "Vilanova de la Roca", "tz": "Europe/Madrid", "district": "Catalonia"}, {"id": 1013, "name": "Aldeamayor de San Martin", "name_ru": "Aldeamayor de San Martín", "tz": "Europe/Madrid", "district": "Castille-Leon"}, {"id": 1014, "name": "Celra", "name_ru": "Celrá", "tz": "Europe/Madrid", "district": "Catalonia"}, {"id": 1015, "name": "Chauchina", "name_ru": "Chauchina", "tz": "Europe/Madrid", "district": "Andalusia"}, {"id": 1016, "name": "Argamasilla de Calatrava", "name_ru": "Argamasilla de Calatrava", "tz": "Europe/Madrid", "district": "Castille-La Mancha"}, {"id": 1017, "name": "Guardo", "name_ru": "Guardo", "tz": "Europe/Madrid", "district": "Castille-Leon"}, {"id": 1018, "name": "Constantina", "name_ru": "Constantina", "tz": "Europe/Madrid", "district": "Andalusia"}, {"id": 1019, "name": "Alaro", "name_ru": "Alaró", "tz": "Europe/Madrid", "district": "Balearic Islands"}, {"id": 1020, "name": "Medina de Pomar", "name_ru": "Medina de Pomar", "tz": "Europe/Madrid", "district": "Castille-Leon"}, {"id": 1021, "name": "Paterna de Rivera", "name_ru": "Paterna de Rivera", "tz": "Europe/Madrid", "district": "Andalusia"}, {"id": 1022, "name": "La Selva", "name_ru": "La Selva", "tz": "Europe/Madrid", "district": "Catalonia"}, {"id": 1023, "name": "Alfacar", "name_ru": "Alfacar", "tz": "Europe/Madrid", "district": "Andalusia"}, {"id": 1024, "name": "San Hilario Sacalm", "name_ru": "San Hilario Sacalm", "tz": "Europe/Madrid", "district": "Catalonia"}, {"id": 1025, "name": "Dosrius", "name_ru": "Dosríus", "tz": "Europe/Madrid", "district": "Catalonia"}, {"id": 1026, "name": "Agaete", "name_ru": "Agaete", "tz": "Atlantic/Canary", "district": "Canary Islands"}, {"id": 1027, "name": "Los Yebenes", "name_ru": "Los Yébenes", "tz": "Europe/Madrid", "district": "Castille-La Mancha"}, {"id": 1028, "name": "Torreblanca", "name_ru": "Torreblanca", "tz": "Europe/Madrid", "district": "Valencia"}, {"id": 1029, "name": "La Guancha", "name_ru": "La Guancha", "tz": "Atlantic/Canary", "district": "Canary Islands"}, {"id": 1030, "name": "Prado del Rey", "name_ru": "Prado del Rey", "tz": "Europe/Madrid", "district": "Andalusia"}, {"id": 1031, "name": "Arafo", "name_ru": "Arafo", "tz": "Atlantic/Canary", "district": "Canary Islands"}, {"id": 1032, "name": "Ribadesella", "name_ru": "Ribadesella", "tz": "Europe/Madrid", "district": "Asturias"}, {"id": 1033, "name": "Palazuelos de Eresma", "name_ru": "Palazuelos de Eresma", "tz": "Europe/Madrid", "district": "Castille-Leon"}, {"id": 1034, "name": "Salteras", "name_ru": "Salteras", "tz": "Europe/Madrid", "district": "Andalusia"}, {"id": 1035, "name": "Montehermoso", "name_ru": "Montehermoso", "tz": "Europe/Madrid", "district": "Extremadura"}, {"id": 1036, "name": "Celanova", "name_ru": "Celanova", "tz": "Europe/Madrid", "district": "Galicia"}, {"id": 1037, "name": "Llerena", "name_ru": "Llerena", "tz": "Europe/Madrid", "district": "Extremadura"}, {"id": 1038, "name": "Mentrida", "name_ru": "Méntrida", "tz": "Europe/Madrid", "district": "Castille-La Mancha"}, {"id": 1039, "name": "Castuera", "name_ru": "Castuera", "tz": "Europe/Madrid", "district": "Extremadura"}, {"id": 1040, "name": "Arroyo de la Luz", "name_ru": "Arroyo de la Luz", "tz": "Europe/Madrid", "district": "Extremadura"}, {"id": 1041, "name": "Huelma", "name_ru": "Huelma", "tz": "Europe/Madrid", "district": "Andalusia"}, {"id": 1042, "name": "Porreras", "name_ru": "Porreras", "tz": "Europe/Madrid", "district": "Balearic Islands"}, {"id": 1043, "name": "Alhama de Granada", "name_ru": "Alhama de Granada", "tz": "Europe/Madrid", "district": "Andalusia"}, {"id": 1044, "name": "Campa", "name_ru": "Campa", "tz": "Europe/Madrid", "district": "Basque Country"}, {"id": 1045, "name": "San Ciprian de Vinas", "name_ru": "San Ciprián de Viñas", "tz": "Europe/Madrid", "district": "Galicia"}, {"id": 1046, "name": "Borriol", "name_ru": "Borriol", "tz": "Europe/Madrid", "district": "Valencia"}, {"id": 1047, "name": "Guijuelo", "name_ru": "Guijuelo", "tz": "Europe/Madrid", "district": "Castille-Leon"}, {"id": 1048, "name": "Mugardos", "name_ru": "Mugardos", "tz": "Europe/Madrid", "district": "Galicia"}, {"id": 1049, "name": "Puente Caldelas", "name_ru": "Puente Caldelas", "tz": "Europe/Madrid", "district": "Galicia"}, {"id": 1050, "name": "Benejuzar", "name_ru": "Benejúzar", "tz": "Europe/Madrid", "district": "Valencia"}, {"id": 1051, "name": "Pozo-Estrecho", "name_ru": "Pozo-Estrecho", "tz": "Europe/Madrid", "district": "Murcia"}, {"id": 1052, "name": "La Cenia", "name_ru": "La Cenia", "tz": "Europe/Madrid", "district": "Catalonia"}, {"id": 1053, "name": "Macael", "name_ru": "Macael", "tz": "Europe/Madrid", "district": "Andalusia"}, {"id": 1054, "name": "Algodonales", "name_ru": "Algodonales", "tz": "Europe/Madrid", "district": "Andalusia"}, {"id": 1055, "name": "Abegondo", "name_ru": "Abegondo", "tz": "Europe/Madrid", "district": "Galicia"}, {"id": 1056, "name": "Aceuchal", "name_ru": "Aceuchal", "tz": "Europe/Madrid", "district": "Extremadura"}, {"id": 1057, "name": "Chinchon", "name_ru": "Chinchón", "tz": "Europe/Madrid", "district": "Madrid"}, {"id": 1058, "name": "Deba", "name_ru": "Deba", "tz": "Europe/Madrid", "district": "Basque Country"}, {"id": 1059, "name": "Alameda", "name_ru": "Alameda", "tz": "Europe/Madrid", "district": "Andalusia"}, {"id": 1060, "name": "Agramunt", "name_ru": "Agramunt", "tz": "Europe/Madrid", "district": "Catalonia"}, {"id": 1061, "name": "Santa Marta de Ortigueira", "name_ru": "Santa Marta de Ortigueira", "tz": "Europe/Madrid", "district": "Galicia"}, {"id": 1062, "name": "Meano", "name_ru": "Meaño", "tz": "Europe/Madrid", "district": "Galicia"}, {"id": 1063, "name": "Santa Cristina de Aro", "name_ru": "Santa Cristina de Aro", "tz": "Europe/Madrid", "district": "Catalonia"}, {"id": 1064, "name": "Casariche", "name_ru": "Casariche", "tz": "Europe/Madrid", "district": "Andalusia"}, {"id": 1065, "name": "Arjona", "name_ru": "Arjona", "tz": "Europe/Madrid", "district": "Andalusia"}, {"id": 1066, "name": "Entrambasaguas", "name_ru": "Entrambasaguas", "tz": "Europe/Madrid", "district": "Cantabria"}, {"id": 1067, "name": "Mutriku", "name_ru": "Mutriku", "tz": "Europe/Madrid", "district": "Basque Country"}, {"id": 1068, "name": "Guitiriz", "name_ru": "Guitiriz", "tz": "Europe/Madrid", "district": "Galicia"}, {"id": 1069, "name": "Moraleja de Enmedio", "name_ru": "Moraleja de Enmedio", "tz": "Europe/Madrid", "district": "Madrid"}, {"id": 1070, "name": "Los Montesinos", "name_ru": "Los Montesinos", "tz": "Europe/Madrid", "district": "Valencia"}, {"id": 1071, "name": "Gualchos", "name_ru": "Gualchos", "tz": "Europe/Madrid", "district": "Andalusia"}, {"id": 1072, "name": "Villanueva del Trabuco", "name_ru": "Villanueva del Trabuco", "tz": "Europe/Madrid", "district": "Andalusia"}, {"id": 1073, "name": "Librilla", "name_ru": "Librilla", "tz": "Europe/Madrid", "district": "Murcia"}, {"id": 1074, "name": "Almazan", "name_ru": "Almazán", "tz": "Europe/Madrid", "district": "Castille-Leon"}, {"id": 1075, "name": "Simancas", "name_ru": "Simancas", "tz": "Europe/Madrid", "district": "Castille-Leon"}, {"id": 1076, "name": "Ribadumia", "name_ru": "Ribadumia", "tz": "Europe/Madrid", "district": "Galicia"}, {"id": 1077, "name": "Malpica", "name_ru": "Malpica", "tz": "Europe/Madrid", "district": "Galicia"}, {"id": 1078, "name": "Nueva-Carteya", "name_ru": "Nueva-Carteya", "tz": "Europe/Madrid", "district": "Andalusia"}, {"id": 1079, "name": "Mollina", "name_ru": "Mollina", "tz": "Europe/Madrid", "district": "Andalusia"}, {"id": 1080, "name": "Talavera La Real", "name_ru": "Talavera La Real", "tz": "Europe/Madrid", "district": "Extremadura"}, {"id": 1081, "name": "Cigales", "name_ru": "Cigales", "tz": "Europe/Madrid", "district": "Castille-Leon"}, {"id": 1082, "name": "Yepes", "name_ru": "Yepes", "tz": "Europe/Madrid", "district": "Castille-La Mancha"}, {"id": 1083, "name": "Peal de Becerro", "name_ru": "Peal de Becerro", "tz": "Europe/Madrid", "district": "Andalusia"}, {"id": 1084, "name": "San Vicente de Alcantara", "name_ru": "San Vicente de Alcántara", "tz": "Europe/Madrid", "district": "Extremadura"}, {"id": 1085, "name": "Montefrio", "name_ru": "Montefrío", "tz": "Europe/Madrid", "district": "Andalusia"}, {"id": 1086, "name": "El Viso de San Juan", "name_ru": "El Viso de San Juan", "tz": "Europe/Madrid", "district": "Castille-La Mancha"}, {"id": 1087, "name": "Numancia de la Sagra", "name_ru": "Numancia de la Sagra", "tz": "Europe/Madrid", "district": "Castille-La Mancha"}, {"id": 1088, "name": "Parres", "name_ru": "Parres", "tz": "Europe/Madrid", "district": "Asturias"}, {"id": 1089, "name": "Valencia de Alcantara", "name_ru": "Valencia de Alcántara", "tz": "Europe/Madrid", "district": "Extremadura"}, {"id": 1090, "name": "Anover de Tajo", "name_ru": "Añover de Tajo", "tz": "Europe/Madrid", "district": "Castille-La Mancha"}, {"id": 1091, "name": "Camarinas", "name_ru": "Camariñas", "tz": "Europe/Madrid", "district": "Galicia"}, {"id": 1092, "name": "Nava", "name_ru": "Nava", "tz": "Europe/Madrid", "district": "Asturias"}, {"id": 1093, "name": "Sariegos", "name_ru": "Sariegos", "tz": "Europe/Madrid", "district": "Castille-Leon"}, {"id": 1094, "name": "Bellpuig", "name_ru": "Bellpuig", "tz": "Europe/Madrid", "district": "Catalonia"}, {"id": 1095, "name": "Alcover", "name_ru": "Alcover", "tz": "Europe/Madrid", "district": "Catalonia"}, {"id": 1096, "name": "Polop", "name_ru": "Polop", "tz": "Europe/Madrid", "district": "Valencia"}, {"id": 1097, "name": "Esporlas", "name_ru": "Esporlas", "tz": "Europe/Madrid", "district": "Balearic Islands"}, {"id": 1098, "name": "San Ildefonso", "name_ru": "San Ildefonso", "tz": "Europe/Madrid", "district": "Castille-Leon"}, {"id": 1099, "name": "La Campana", "name_ru": "La Campana", "tz": "Europe/Madrid", "district": "Andalusia"}, {"id": 1100, "name": "Alba de Tormes", "name_ru": "Alba de Tormes", "tz": "Europe/Madrid", "district": "Castille-Leon"}, {"id": 1101, "name": "Miengo", "name_ru": "Miengo", "tz": "Europe/Madrid", "district": "Cantabria"}, {"id": 1102, "name": "Alcala de los Gazules", "name_ru": "Alcalá de los Gazules", "tz": "Europe/Madrid", "district": "Andalusia"}, {"id": 1103, "name": "Otero de Rey", "name_ru": "Otero de Rey", "tz": "Europe/Madrid", "district": "Galicia"}, {"id": 1104, "name": "Alburquerque", "name_ru": "Alburquerque", "tz": "Europe/Madrid", "district": "Extremadura"}, {"id": 1105, "name": "Valencia de Don Juan", "name_ru": "Valencia de Don Juan", "tz": "Europe/Madrid", "district": "Castille-Leon"}, {"id": 1106, "name": "Neda", "name_ru": "Neda", "tz": "Europe/Madrid", "district": "Galicia"}, {"id": 1107, "name": "Moral de Calatrava", "name_ru": "Moral de Calatrava", "tz": "Europe/Madrid", "district": "Castille-La Mancha"}, {"id": 1108, "name": "Bescano", "name_ru": "Bescanó", "tz": "Europe/Madrid", "district": "Catalonia"}, {"id": 1109, "name": "Pedrera", "name_ru": "Pedrera", "tz": "Europe/Madrid", "district": "Andalusia"}, {"id": 1110, "name": "Las Navas del Marques", "name_ru": "Las Navas del Marqués", "tz": "Europe/Madrid", "district": "Castille-Leon"}, {"id": 1111, "name": "Ayora", "name_ru": "Ayora", "tz": "Europe/Madrid", "district": "Valencia"}, {"id": 1112, "name": "Carranque", "name_ru": "Carranque", "tz": "Europe/Madrid", "district": "Castille-La Mancha"}, {"id": 1113, "name": "Nerva", "name_ru": "Nerva", "tz": "Europe/Madrid", "district": "Andalusia"}, {"id": 1114, "name": "La Guardia de Jaen", "name_ru": "La Guardia de Jaén", "tz": "Europe/Madrid", "district": "Andalusia"}, {"id": 1115, "name": "Ribadavia", "name_ru": "Ribadavia", "tz": "Europe/Madrid", "district": "Galicia"}, {"id": 1116, "name": "Marquina-Jemein", "name_ru": "Marquina-Jemein", "tz": "Europe/Madrid", "district": "Basque Country"}, {"id": 1117, "name": "Quesada", "name_ru": "Quesada", "tz": "Europe/Madrid", "district": "Andalusia"}, {"id": 1118, "name": "Mocejon", "name_ru": "Mocejón", "tz": "Europe/Madrid", "district": "Castille-La Mancha"}, {"id": 1119, "name": "Beas de Segura", "name_ru": "Beas de Segura", "tz": "Europe/Madrid", "district": "Andalusia"}, {"id": 1120, "name": "Castro de Rey", "name_ru": "Castro de Rey", "tz": "Europe/Madrid", "district": "Galicia"}, {"id": 1121, "name": "Alcala del Valle", "name_ru": "Alcalá del Valle", "tz": "Europe/Madrid", "district": "Andalusia"}, {"id": 1122, "name": "Ses Salines", "name_ru": "Ses Salines", "tz": "Europe/Madrid", "district": "Balearic Islands"}, {"id": 1123, "name": "Penafiel", "name_ru": "Peñafiel", "tz": "Europe/Madrid", "district": "Castille-Leon"}, {"id": 1124, "name": "Valverde", "name_ru": "Valverde", "tz": "Atlantic/Canary", "district": "Canary Islands"}, {"id": 1125, "name": "Almaden", "name_ru": "Almadén", "tz": "Europe/Madrid", "district": "Castille-La Mancha"}, {"id": 1126, "name": "Oliva de la Frontera", "name_ru": "Oliva de la Frontera", "tz": "Europe/Madrid", "district": "Extremadura"}, {"id": 1127, "name": "Iznalloz", "name_ru": "Iznalloz", "tz": "Europe/Madrid", "district": "Andalusia"}, {"id": 1128, "name": "La Puebla de Almoradiel", "name_ru": "La Puebla de Almoradiel", "tz": "Europe/Madrid", "district": "Castille-La Mancha"}, {"id": 1129, "name": "Vedra", "name_ru": "Vedra", "tz": "Europe/Madrid", "district": "Galicia"}, {"id": 1130, "name": "Borja", "name_ru": "Borja", "tz": "Europe/Madrid", "district": "Aragon"}, {"id": 1131, "name": "Corral de Almaguer", "name_ru": "Corral de Almaguer", "tz": "Europe/Madrid", "district": "Castille-La Mancha"}, {"id": 1132, "name": "Castilblanco de los Arroyos", "name_ru": "Castilblanco de los Arroyos", "tz": "Europe/Madrid", "district": "Andalusia"}, {"id": 1133, "name": "Candeleda", "name_ru": "Candeleda", "tz": "Europe/Madrid", "district": "Castille-Leon"}, {"id": 1134, "name": "Candas", "name_ru": "Candás", "tz": "Europe/Madrid", "district": "Asturias"}, {"id": 1135, "name": "Viella", "name_ru": "Viella", "tz": "Europe/Madrid", "district": "Catalonia"}]