[{"id": 1, "name": "Addis Ababa", "name_ru": "Addis Ababa", "tz": "", "district": "Ādīs Ābeba"}, {"id": 2, "name": "Nazret", "name_ru": "Nazrēt", "tz": "", "district": "Oromīya"}, {"id": 3, "name": "Gonder", "name_ru": "Gonder", "tz": "", "district": "Āmara"}, {"id": 4, "name": "Mekele", "name_ru": "Mekele", "tz": "", "district": "Tigray"}, {"id": 5, "name": "Awasa", "name_ru": "Āwasa", "tz": "", "district": "YeDebub Bihēroch Bihēreseboch na Hizboch"}, {"id": 6, "name": "Dire Dawa", "name_ru": "Dire Dawa", "tz": "", "district": "Dirē Dawa"}, {"id": 7, "name": "Bahir Dar", "name_ru": "Bahir Dar", "tz": "", "district": "Āmara"}, {"id": 8, "name": "Dese", "name_ru": "Desē", "tz": "", "district": "Āmara"}, {"id": 9, "name": "Jima", "name_ru": "Jīma", "tz": "", "district": "Oromīya"}, {"id": 10, "name": "Harar", "name_ru": "Harar", "tz": "", "district": "Hārerī Hizb"}, {"id": 11, "name": "Jijiga", "name_ru": "Jijiga", "tz": "", "district": "Sumalē"}, {"id": 12, "name": "Shashemene", "name_ru": "Shashemenē", "tz": "", "district": "Oromīya"}, {"id": 13, "name": "Giyon", "name_ru": "Giyon", "tz": "", "district": "Oromīya"}, {"id": 14, "name": "Asela", "name_ru": "Āsela", "tz": "", "district": "Oromīya"}, {"id": 15, "name": "Adigrat", "name_ru": "Ādīgrat", "tz": "", "district": "Tigray"}, {"id": 16, "name": "Nek'emte", "name_ru": "Nek’emtē", "tz": "", "district": "Oromīya"}, {"id": 17, "name": "Debre Mark'os", "name_ru": "Debre Mark’os", "tz": "", "district": "Āmara"}, {"id": 18, "name": "Arba Minch'", "name_ru": "Ārba Minch’", "tz": "", "district": "YeDebub Bihēroch Bihēreseboch na Hizboch"}, {"id": 19, "name": "Aksum", "name_ru": "Āksum", "tz": "", "district": "Tigray"}, {"id": 20, "name": "Debre Birhan", "name_ru": "Debre Birhan", "tz": "", "district": "Āmara"}, {"id": 21, "name": "Hagere Hiywet", "name_ru": "Hāgere Hiywet", "tz": "", "district": "Oromīya"}, {"id": 22, "name": "Goba", "name_ru": "Goba", "tz": "", "district": "Oromīya"}, {"id": 23, "name": "Gimbi", "name_ru": "Gīmbī", "tz": "", "district": "Oromīya"}, {"id": 24, "name": "Asosa", "name_ru": "Āsosa", "tz": "", "district": "Bīnshangul Gumuz"}, {"id": 25, "name": "Negele", "name_ru": "Negēlē", "tz": "", "district": "Oromīya"}, {"id": 26, "name": "Gambela", "name_ru": "Gambēla", "tz": "", "district": "Gambēla Hizboch"}, {"id": 27, "name": "Semera", "name_ru": "Semera", "tz": "", "district": "Āfar"}, {"id": 28, "name": "Debre Zeyit", "name_ru": "Debre Zeyit", "tz": "", "district": "Oromīya"}, {"id": 29, "name": "Hosaina", "name_ru": "Hosaina", "tz": "", "district": "YeDebub Bihēroch Bihēreseboch na Hizboch"}, {"id": 30, "name": "Gode", "name_ru": "Godē", "tz": "", "district": "Sumalē"}, {"id": 31, "name": "Sodo", "name_ru": "Sodo", "tz": "", "district": "YeDebub Bihēroch Bihēreseboch na Hizboch"}, {"id": 32, "name": "Dila", "name_ru": "Dīla", "tz": "", "district": "YeDebub Bihēroch Bihēreseboch na Hizboch"}, {"id": 33, "name": "Yirga `Alem", "name_ru": "Yirga ‘Alem", "tz": "", "district": "YeDebub Bihēroch Bihēreseboch na Hizboch"}, {"id": 34, "name": "Areka", "name_ru": "Āreka", "tz": "", "district": "YeDebub Bihēroch Bihēreseboch na Hizboch"}, {"id": 35, "name": "Degeh Bur", "name_ru": "Degeh Bur", "tz": "", "district": "Sumalē"}, {"id": 36, "name": "Dembi Dolo", "name_ru": "Dembī Dolo", "tz": "", "district": "Oromīya"}, {"id": 37, "name": "Bure", "name_ru": "Burē", "tz": "", "district": "Āmara"}, {"id": 38, "name": "Adet", "name_ru": "Ādēt", "tz": "", "district": "Āmara"}, {"id": 39, "name": "Welench'iti", "name_ru": "Welench’ītī", "tz": "", "district": "Oromīya"}, {"id": 40, "name": "Debark'", "name_ru": "Debark’", "tz": "", "district": "Āmara"}, {"id": 41, "name": "Bati", "name_ru": "Batī", "tz": "", "district": "Āmara"}, {"id": 42, "name": "Bichena", "name_ru": "Bichena", "tz": "", "district": "Āmara"}, {"id": 43, "name": "Lalibela", "name_ru": "Lalībela", "tz": "", "district": "Āmara"}, {"id": 44, "name": "Dolo Bay", "name_ru": "Dolo Bay", "tz": "", "district": "Sumalē"}, {"id": 45, "name": "Gore", "name_ru": "Gorē", "tz": "", "district": "Oromīya"}, {"id": 46, "name": "Gewane", "name_ru": "Gewanē", "tz": "", "district": "Āfar"}, {"id": 47, "name": "Gidole", "name_ru": "Gīdolē", "tz": "", "district": "YeDebub Bihēroch Bihēreseboch na Hizboch"}]