[{"id": 1, "name": "Helsinki", "name_ru": "Helsinki", "tz": "", "district": "Uusimaa"}, {"id": 2, "name": "Espoo", "name_ru": "Espoo", "tz": "", "district": "Uusimaa"}, {"id": 3, "name": "Tampere", "name_ru": "Tampere", "tz": "", "district": "Pirkanmaa"}, {"id": 4, "name": "Vantaa", "name_ru": "Vantaa", "tz": "", "district": "Uusimaa"}, {"id": 5, "name": "Oulu", "name_ru": "Oulu", "tz": "", "district": "Pohjois-Pohjanmaa"}, {"id": 6, "name": "Turku", "name_ru": "Turku", "tz": "", "district": "Varsinais-Suomi"}, {"id": 7, "name": "Jyvaskyla", "name_ru": "Jyväskylä", "tz": "", "district": "Keski-Suomi"}, {"id": 8, "name": "Kuopio", "name_ru": "Kuopio", "tz": "", "district": "Pohjois-Savo"}, {"id": 9, "name": "Lahti", "name_ru": "Lahti", "tz": "", "district": "Päijät-Häme"}, {"id": 10, "name": "Kouvola", "name_ru": "Kouvola", "tz": "", "district": "Kymenlaakso"}, {"id": 11, "name": "Pori", "name_ru": "Pori", "tz": "", "district": "Satakunta"}, {"id": 12, "name": "Joensuu", "name_ru": "Joensuu", "tz": "", "district": "Pohjois-Karjala"}, {"id": 13, "name": "Lappeenranta", "name_ru": "Lappeenranta", "tz": "", "district": "Etelä-Karjala"}, {"id": 14, "name": "Hameenlinna", "name_ru": "Hämeenlinna", "tz": "", "district": "Kanta-Häme"}, {"id": 15, "name": "Vaasa", "name_ru": "Vaasa", "tz": "", "district": "Pohjanmaa"}, {"id": 16, "name": "Rovaniemi", "name_ru": "Rovaniemi", "tz": "", "district": "Lappi"}, {"id": 17, "name": "Seinajoki", "name_ru": "Seinäjoki", "tz": "", "district": "Etelä-Pohjanmaa"}, {"id": 18, "name": "Mikkeli", "name_ru": "Mikkeli", "tz": "", "district": "Etelä-Savo"}, {"id": 19, "name": "Kokkola", "name_ru": "Kokkola", "tz": "", "district": "Keski-Pohjanmaa"}, {"id": 20, "name": "Kajaani", "name_ru": "Kajaani", "tz": "", "district": "Kainuu"}, {"id": 21, "name": "Mariehamn", "name_ru": "Mariehamn", "tz": "", "district": "Åland"}, {"id": 22, "name": "Kotka", "name_ru": "Kotka", "tz": "", "district": "Kymenlaakso"}, {"id": 23, "name": "Salo", "name_ru": "Salo", "tz": "", "district": "Varsinais-Suomi"}, {"id": 24, "name": "Porvoo", "name_ru": "Porvoo", "tz": "", "district": "Uusimaa"}, {"id": 25, "name": "Lohja", "name_ru": "Lohja", "tz": "", "district": "Uusimaa"}, {"id": 26, "name": "Hyvinkaa", "name_ru": "Hyvinkää", "tz": "", "district": "Uusimaa"}, {"id": 27, "name": "Nurmijarvi", "name_ru": "Nurmijärvi", "tz": "", "district": "Uusimaa"}, {"id": 28, "name": "Jarvenpaa", "name_ru": "Järvenpää", "tz": "", "district": "Uusimaa"}, {"id": 29, "name": "Rauma", "name_ru": "Rauma", "tz": "", "district": "Satakunta"}, {"id": 30, "name": "Tuusula", "name_ru": "Tuusula", "tz": "", "district": "Uusimaa"}, {"id": 31, "name": "Kirkkonummi", "name_ru": "Kirkkonummi", "tz": "", "district": "Uusimaa"}, {"id": 32, "name": "Kerava", "name_ru": "Kerava", "tz": "", "district": "Uusimaa"}, {"id": 33, "name": "Savonlinna", "name_ru": "Savonlinna", "tz": "", "district": "Etelä-Savo"}, {"id": 34, "name": "Nokia", "name_ru": "Nokia", "tz": "", "district": "Pirkanmaa"}, {"id": 35, "name": "Kaarina", "name_ru": "Kaarina", "tz": "", "district": "Varsinais-Suomi"}, {"id": 36, "name": "Ylojarvi", "name_ru": "Ylöjärvi", "tz": "", "district": "Pirkanmaa"}, {"id": 37, "name": "Kangasala", "name_ru": "Kangasala", "tz": "", "district": "Pirkanmaa"}, {"id": 38, "name": "Jyvaskylan Maalaiskunta", "name_ru": "Jyväskylän Maalaiskunta", "tz": "", "district": "Keski-Suomi"}, {"id": 39, "name": "Riihimaki", "name_ru": "Riihimäki", "tz": "", "district": "Kanta-Häme"}, {"id": 40, "name": "Vihti", "name_ru": "Vihti", "tz": "", "district": "Uusimaa"}, {"id": 41, "name": "Raseborg", "name_ru": "Raseborg", "tz": "", "district": "Uusimaa"}, {"id": 42, "name": "Imatra", "name_ru": "Imatra", "tz": "", "district": "Etelä-Karjala"}, {"id": 43, "name": "Sastamala", "name_ru": "Sastamala", "tz": "", "district": "Pirkanmaa"}, {"id": 44, "name": "Raahe", "name_ru": "Raahe", "tz": "", "district": "Pohjois-Pohjanmaa"}, {"id": 45, "name": "Raisio", "name_ru": "Raisio", "tz": "", "district": "Varsinais-Suomi"}, {"id": 46, "name": "Hollola", "name_ru": "Hollola", "tz": "", "district": "Päijät-Häme"}, {"id": 47, "name": "Lempaala", "name_ru": "Lempäälä", "tz": "", "district": "Pirkanmaa"}, {"id": 48, "name": "Kemi", "name_ru": "Kemi", "tz": "", "district": "Lappi"}, {"id": 49, "name": "Iisalmi", "name_ru": "Iisalmi", "tz": "", "district": "Pohjois-Savo"}, {"id": 50, "name": "Tornio", "name_ru": "Tornio", "tz": "", "district": "Lappi"}, {"id": 51, "name": "Siilinjarvi", "name_ru": "Siilinjärvi", "tz": "", "district": "Pohjois-Savo"}, {"id": 52, "name": "Kurikka", "name_ru": "Kurikka", "tz": "", "district": "Etelä-Pohjanmaa"}, {"id": 53, "name": "Jamsa", "name_ru": "Jämsä", "tz": "", "district": "Keski-Suomi"}, {"id": 54, "name": "Varkaus", "name_ru": "Varkaus", "tz": "", "district": "Pohjois-Savo"}, {"id": 55, "name": "Valkeakoski", "name_ru": "Valkeakoski", "tz": "", "district": "Pirkanmaa"}, {"id": 56, "name": "Mantsala", "name_ru": "Mäntsälä", "tz": "", "district": "Uusimaa"}, {"id": 57, "name": "Aanekoski", "name_ru": "Äänekoski", "tz": "", "district": "Keski-Suomi"}, {"id": 58, "name": "Hamina", "name_ru": "Hamina", "tz": "", "district": "Kymenlaakso"}, {"id": 59, "name": "Kuusankoski", "name_ru": "Kuusankoski", "tz": "", "district": "Kymenlaakso"}, {"id": 60, "name": "Jakobstad", "name_ru": "Jakobstad", "tz": "", "district": "Pohjanmaa"}, {"id": 61, "name": "Heinola", "name_ru": "Heinola", "tz": "", "district": "Päijät-Häme"}, {"id": 62, "name": "Sipoo", "name_ru": "Sipoo", "tz": "", "district": "Uusimaa"}, {"id": 63, "name": "Lieto", "name_ru": "Lieto", "tz": "", "district": "Varsinais-Suomi"}, {"id": 64, "name": "Korsholm", "name_ru": "Korsholm", "tz": "", "district": "Pohjanmaa"}, {"id": 65, "name": "Haukipudas", "name_ru": "Haukipudas", "tz": "", "district": "Pohjois-Pohjanmaa"}, {"id": 66, "name": "Naantali", "name_ru": "Naantali", "tz": "", "district": "Varsinais-Suomi"}, {"id": 67, "name": "Pirkkala", "name_ru": "Pirkkala", "tz": "", "district": "Pirkanmaa"}, {"id": 68, "name": "Laukaa", "name_ru": "Laukaa", "tz": "", "district": "Keski-Suomi"}, {"id": 69, "name": "Klaukkala", "name_ru": "Klaukkala", "tz": "", "district": "Uusimaa"}, {"id": 70, "name": "Pieksamaki", "name_ru": "Pieksämäki", "tz": "", "district": "Etelä-Savo"}, {"id": 71, "name": "Forssa", "name_ru": "Forssa", "tz": "", "district": "Kanta-Häme"}, {"id": 72, "name": "Kempele", "name_ru": "Kempele", "tz": "", "district": "Pohjois-Pohjanmaa"}, {"id": 73, "name": "Janakkala", "name_ru": "Janakkala", "tz": "", "district": "Kanta-Häme"}, {"id": 74, "name": "Kauhava", "name_ru": "Kauhava", "tz": "", "district": "Etelä-Pohjanmaa"}, {"id": 75, "name": "Loimaa", "name_ru": "Loimaa", "tz": "", "district": "Varsinais-Suomi"}, {"id": 76, "name": "Orimattila", "name_ru": "Orimattila", "tz": "", "district": "Päijät-Häme"}, {"id": 77, "name": "Kuusamo", "name_ru": "Kuusamo", "tz": "", "district": "Pohjois-Pohjanmaa"}, {"id": 78, "name": "Uusikaupunki", "name_ru": "Uusikaupunki", "tz": "", "district": "Varsinais-Suomi"}, {"id": 79, "name": "Loviisa", "name_ru": "Loviisa", "tz": "", "district": "Uusimaa"}, {"id": 80, "name": "Vammala", "name_ru": "Vammala", "tz": "", "district": "Pirkanmaa"}, {"id": 81, "name": "Ylivieska", "name_ru": "Ylivieska", "tz": "", "district": "Pohjois-Pohjanmaa"}, {"id": 82, "name": "Nastola", "name_ru": "Nastola", "tz": "", "district": "Päijät-Häme"}, {"id": 83, "name": "Kontiolahti", "name_ru": "Kontiolahti", "tz": "", "district": "Pohjois-Karjala"}, {"id": 84, "name": "Ekenas", "name_ru": "Ekenäs", "tz": "", "district": "Uusimaa"}, {"id": 85, "name": "Lapua", "name_ru": "Lapua", "tz": "", "district": "Etelä-Pohjanmaa"}, {"id": 86, "name": "Kauhajoki", "name_ru": "Kauhajoki", "tz": "", "district": "Etelä-Pohjanmaa"}, {"id": 87, "name": "Kiiminki", "name_ru": "Kiiminki", "tz": "", "district": "Pohjois-Pohjanmaa"}, {"id": 88, "name": "Ulvila", "name_ru": "Ulvila", "tz": "", "district": "Satakunta"}, {"id": 89, "name": "Kalajoki", "name_ru": "Kalajoki", "tz": "", "district": "Pohjois-Pohjanmaa"}, {"id": 90, "name": "Pargas", "name_ru": "Pargas", "tz": "", "district": "Varsinais-Suomi"}, {"id": 91, "name": "Ilmajoki", "name_ru": "Ilmajoki", "tz": "", "district": "Etelä-Pohjanmaa"}, {"id": 92, "name": "Liperi", "name_ru": "Liperi", "tz": "", "district": "Pohjois-Karjala"}, {"id": 93, "name": "Eura", "name_ru": "Eura", "tz": "", "district": "Satakunta"}, {"id": 94, "name": "Alavus", "name_ru": "Alavus", "tz": "", "district": "Etelä-Pohjanmaa"}, {"id": 95, "name": "Vehkalahti", "name_ru": "Vehkalahti", "tz": "", "district": "Kymenlaakso"}, {"id": 96, "name": "Kankaanpaa", "name_ru": "Kankaanpää", "tz": "", "district": "Satakunta"}, {"id": 97, "name": "Lieksa", "name_ru": "Lieksa", "tz": "", "district": "Pohjois-Karjala"}, {"id": 98, "name": "Pedersore", "name_ru": "Pedersöre", "tz": "", "district": "Pohjanmaa"}, {"id": 99, "name": "Valkeala", "name_ru": "Valkeala", "tz": "", "district": "Kymenlaakso"}, {"id": 100, "name": "Nivala", "name_ru": "Nivala", "tz": "", "district": "Pohjois-Pohjanmaa"}, {"id": 101, "name": "Kitee", "name_ru": "Kitee", "tz": "", "district": "Pohjois-Karjala"}, {"id": 102, "name": "Nurmo", "name_ru": "Nurmo", "tz": "", "district": "Etelä-Pohjanmaa"}, {"id": 103, "name": "Joutseno", "name_ru": "Joutseno", "tz": "", "district": "Etelä-Karjala"}, {"id": 104, "name": "Hameenkyro", "name_ru": "Hämeenkyrö", "tz": "", "district": "Pirkanmaa"}, {"id": 105, "name": "Paimio", "name_ru": "Paimio", "tz": "", "district": "Varsinais-Suomi"}, {"id": 106, "name": "Kauniainen", "name_ru": "Kauniainen", "tz": "", "district": "Uusimaa"}, {"id": 107, "name": "Sotkamo", "name_ru": "Sotkamo", "tz": "", "district": "Kainuu"}, {"id": 108, "name": "Huittinen", "name_ru": "Huittinen", "tz": "", "district": "Satakunta"}, {"id": 109, "name": "Keuruu", "name_ru": "Keuruu", "tz": "", "district": "Keski-Suomi"}, {"id": 110, "name": "Alajarvi", "name_ru": "Alajärvi", "tz": "", "district": "Etelä-Pohjanmaa"}, {"id": 111, "name": "Lapinlahti", "name_ru": "Lapinlahti", "tz": "", "district": "Pohjois-Savo"}, {"id": 112, "name": "Ii", "name_ru": "Ii", "tz": "", "district": "Pohjois-Pohjanmaa"}, {"id": 113, "name": "Leppavirta", "name_ru": "Leppävirta", "tz": "", "district": "Pohjois-Savo"}, {"id": 114, "name": "Liminka", "name_ru": "Liminka", "tz": "", "district": "Pohjois-Pohjanmaa"}, {"id": 115, "name": "Saarijarvi", "name_ru": "Saarijärvi", "tz": "", "district": "Keski-Suomi"}, {"id": 116, "name": "Oulunsalo", "name_ru": "Oulunsalo", "tz": "", "district": "Pohjois-Pohjanmaa"}, {"id": 117, "name": "Muurame", "name_ru": "Muurame", "tz": "", "district": "Keski-Suomi"}, {"id": 118, "name": "Masku", "name_ru": "Masku", "tz": "", "district": "Varsinais-Suomi"}, {"id": 119, "name": "Hattula", "name_ru": "Hattula", "tz": "", "district": "Kanta-Häme"}, {"id": 120, "name": "Orivesi", "name_ru": "Orivesi", "tz": "", "district": "Pirkanmaa"}, {"id": 121, "name": "Narpes", "name_ru": "Närpes", "tz": "", "district": "Pohjanmaa"}, {"id": 122, "name": "Somero", "name_ru": "Somero", "tz": "", "district": "Varsinais-Suomi"}, {"id": 123, "name": "Muhos", "name_ru": "Muhos", "tz": "", "district": "Pohjois-Pohjanmaa"}, {"id": 124, "name": "Karkkila", "name_ru": "Karkkila", "tz": "", "district": "Uusimaa"}, {"id": 125, "name": "Hanko", "name_ru": "Hanko", "tz": "", "district": "Uusimaa"}, {"id": 126, "name": "Halikko", "name_ru": "Halikko", "tz": "", "district": "Varsinais-Suomi"}, {"id": 127, "name": "Karis", "name_ru": "Karis", "tz": "", "district": "Uusimaa"}, {"id": 128, "name": "Kuhmo", "name_ru": "Kuhmo", "tz": "", "district": "Kainuu"}, {"id": 129, "name": "Sodankyla", "name_ru": "Sodankylä", "tz": "", "district": "Lappi"}, {"id": 130, "name": "Hausjarvi", "name_ru": "Hausjärvi", "tz": "", "district": "Kanta-Häme"}, {"id": 131, "name": "Kiuruvesi", "name_ru": "Kiuruvesi", "tz": "", "district": "Pohjois-Savo"}, {"id": 132, "name": "Poytya", "name_ru": "Pöytyä", "tz": "", "district": "Varsinais-Suomi"}, {"id": 133, "name": "Laitila", "name_ru": "Laitila", "tz": "", "district": "Varsinais-Suomi"}, {"id": 134, "name": "Keminmaa", "name_ru": "Keminmaa", "tz": "", "district": "Lappi"}, {"id": 135, "name": "Suomussalmi", "name_ru": "Suomussalmi", "tz": "", "district": "Kainuu"}, {"id": 136, "name": "Asikkala", "name_ru": "Asikkala", "tz": "", "district": "Päijät-Häme"}, {"id": 137, "name": "Elimaki", "name_ru": "Elimäki", "tz": "", "district": "Kymenlaakso"}, {"id": 138, "name": "Pudasjarvi", "name_ru": "Pudasjärvi", "tz": "", "district": "Pohjois-Pohjanmaa"}, {"id": 139, "name": "Loppi", "name_ru": "Loppi", "tz": "", "district": "Kanta-Häme"}, {"id": 140, "name": "Toijala", "name_ru": "Toijala", "tz": "", "district": "Pirkanmaa"}, {"id": 141, "name": "Laihia", "name_ru": "Laihia", "tz": "", "district": "Pohjanmaa"}, {"id": 142, "name": "Nurmes", "name_ru": "Nurmes", "tz": "", "district": "Pohjois-Karjala"}, {"id": 143, "name": "Jalasjarvi", "name_ru": "Jalasjärvi", "tz": "", "district": "Etelä-Pohjanmaa"}, {"id": 144, "name": "Mynamaki", "name_ru": "Mynämäki", "tz": "", "district": "Varsinais-Suomi"}, {"id": 145, "name": "Kemijarvi", "name_ru": "Kemijärvi", "tz": "", "district": "Lappi"}, {"id": 146, "name": "Oulainen", "name_ru": "Oulainen", "tz": "", "district": "Pohjois-Pohjanmaa"}, {"id": 147, "name": "Kokemaki", "name_ru": "Kokemäki", "tz": "", "district": "Satakunta"}, {"id": 148, "name": "Nykarleby", "name_ru": "Nykarleby", "tz": "", "district": "Pohjanmaa"}, {"id": 149, "name": "Haapajarvi", "name_ru": "Haapajärvi", "tz": "", "district": "Pohjois-Pohjanmaa"}, {"id": 150, "name": "Suonenjoki", "name_ru": "Suonenjoki", "tz": "", "district": "Pohjois-Savo"}, {"id": 151, "name": "Jamsankoski", "name_ru": "Jämsänkoski", "tz": "", "district": "Keski-Suomi"}, {"id": 152, "name": "Harjavalta", "name_ru": "Harjavalta", "tz": "", "district": "Satakunta"}, {"id": 153, "name": "Tyrvaa", "name_ru": "Tyrvää", "tz": "", "district": "Pirkanmaa"}, {"id": 154, "name": "Pyhaselka", "name_ru": "Pyhäselkä", "tz": "", "district": "Pohjois-Karjala"}, {"id": 155, "name": "Ikaalinen", "name_ru": "Ikaalinen", "tz": "", "district": "Pirkanmaa"}, {"id": 156, "name": "Haapavesi", "name_ru": "Haapavesi", "tz": "", "district": "Pohjois-Pohjanmaa"}, {"id": 157, "name": "Outokumpu", "name_ru": "Outokumpu", "tz": "", "district": "Pohjois-Karjala"}, {"id": 158, "name": "Sakyla", "name_ru": "Säkylä", "tz": "", "district": "Satakunta"}, {"id": 159, "name": "Virrat", "name_ru": "Virrat", "tz": "", "district": "Pirkanmaa"}, {"id": 160, "name": "Iitti", "name_ru": "Iitti", "tz": "", "district": "Kymenlaakso"}, {"id": 161, "name": "Tyrnava", "name_ru": "Tyrnävä", "tz": "", "district": "Pohjois-Pohjanmaa"}, {"id": 162, "name": "Inari", "name_ru": "Inari", "tz": "", "district": "Lappi"}, {"id": 163, "name": "Kristinestad", "name_ru": "Kristinestad", "tz": "", "district": "Pohjanmaa"}, {"id": 164, "name": "Parkano", "name_ru": "Parkano", "tz": "", "district": "Pirkanmaa"}, {"id": 165, "name": "Rajamaki", "name_ru": "Rajamäki", "tz": "", "district": "Uusimaa"}, {"id": 166, "name": "Vora", "name_ru": "Vörå", "tz": "", "district": "Pohjanmaa"}, {"id": 167, "name": "Kronoby", "name_ru": "Kronoby", "tz": "", "district": "Pohjanmaa"}, {"id": 168, "name": "Palkane", "name_ru": "Pälkäne", "tz": "", "district": "Pirkanmaa"}, {"id": 169, "name": "Viitasaari", "name_ru": "Viitasaari", "tz": "", "district": "Keski-Suomi"}, {"id": 170, "name": "Eno", "name_ru": "Eno", "tz": "", "district": "Pohjois-Karjala"}, {"id": 171, "name": "Piikkio", "name_ru": "Piikkiö", "tz": "", "district": "Varsinais-Suomi"}, {"id": 172, "name": "Juva", "name_ru": "Juva", "tz": "", "district": "Etelä-Savo"}, {"id": 173, "name": "Nilsia", "name_ru": "Nilsiä", "tz": "", "district": "Pohjois-Savo"}, {"id": 174, "name": "Kittila", "name_ru": "Kittilä", "tz": "", "district": "Lappi"}, {"id": 175, "name": "Mantta", "name_ru": "Mänttä", "tz": "", "district": "Pirkanmaa"}, {"id": 176, "name": "Tammela", "name_ru": "Tammela", "tz": "", "district": "Kanta-Häme"}, {"id": 177, "name": "Siuntio", "name_ru": "Siuntio", "tz": "", "district": "Uusimaa"}, {"id": 178, "name": "Mantyharju", "name_ru": "Mäntyharju", "tz": "", "district": "Etelä-Savo"}, {"id": 179, "name": "Rusko", "name_ru": "Rusko", "tz": "", "district": "Varsinais-Suomi"}, {"id": 180, "name": "Pieksamaen Maalaiskunta", "name_ru": "Pieksämäen Maalaiskunta", "tz": "", "district": "Etelä-Savo"}, {"id": 181, "name": "Noormarkku", "name_ru": "Noormarkku", "tz": "", "district": "Satakunta"}, {"id": 182, "name": "Ahtari", "name_ru": "Ähtäri", "tz": "", "district": "Etelä-Pohjanmaa"}, {"id": 183, "name": "Eurajoki", "name_ru": "Eurajoki", "tz": "", "district": "Satakunta"}, {"id": 184, "name": "Loimaan Kunta", "name_ru": "Loimaan Kunta", "tz": "", "district": "Varsinais-Suomi"}, {"id": 185, "name": "Pernio", "name_ru": "Perniö", "tz": "", "district": "Varsinais-Suomi"}, {"id": 186, "name": "Nakkila", "name_ru": "Nakkila", "tz": "", "district": "Satakunta"}, {"id": 187, "name": "Kangasniemi", "name_ru": "Kangasniemi", "tz": "", "district": "Etelä-Savo"}, {"id": 188, "name": "Kerimaki", "name_ru": "Kerimäki", "tz": "", "district": "Etelä-Savo"}, {"id": 189, "name": "Inga", "name_ru": "Ingå", "tz": "", "district": "Uusimaa"}, {"id": 190, "name": "Malax", "name_ru": "Malax", "tz": "", "district": "Pohjanmaa"}, {"id": 191, "name": "Ylistaro", "name_ru": "Ylistaro", "tz": "", "district": "Etelä-Pohjanmaa"}, {"id": 192, "name": "Lammi", "name_ru": "Lammi", "tz": "", "district": "Kanta-Häme"}, {"id": 193, "name": "Kannus", "name_ru": "Kannus", "tz": "", "district": "Keski-Pohjanmaa"}, {"id": 194, "name": "Pyhajarvi", "name_ru": "Pyhäjärvi", "tz": "", "district": "Pohjois-Pohjanmaa"}, {"id": 195, "name": "Teuva", "name_ru": "Teuva", "tz": "", "district": "Etelä-Pohjanmaa"}, {"id": 196, "name": "Jokioinen", "name_ru": "Jokioinen", "tz": "", "district": "Kanta-Häme"}, {"id": 197, "name": "Suolahti", "name_ru": "Suolahti", "tz": "", "district": "Keski-Suomi"}, {"id": 198, "name": "Vilppula", "name_ru": "Vilppula", "tz": "", "district": "Pirkanmaa"}, {"id": 199, "name": "Pyhtaa", "name_ru": "Pyhtää", "tz": "", "district": "Kymenlaakso"}, {"id": 200, "name": "Ilomantsi", "name_ru": "Ilomantsi", "tz": "", "district": "Pohjois-Karjala"}, {"id": 201, "name": "Ruokolahti", "name_ru": "Ruokolahti", "tz": "", "district": "Etelä-Karjala"}, {"id": 202, "name": "Viiala", "name_ru": "Viiala", "tz": "", "district": "Pirkanmaa"}, {"id": 203, "name": "Hankasalmi", "name_ru": "Hankasalmi", "tz": "", "district": "Keski-Suomi"}, {"id": 204, "name": "Parikkala", "name_ru": "Parikkala", "tz": "", "district": "Etelä-Karjala"}, {"id": 205, "name": "Larsmo", "name_ru": "Larsmo", "tz": "", "district": "Pohjanmaa"}, {"id": 206, "name": "Pornainen", "name_ru": "Pornainen", "tz": "", "district": "Uusimaa"}, {"id": 207, "name": "Askola", "name_ru": "Askola", "tz": "", "district": "Uusimaa"}, {"id": 208, "name": "Sievi", "name_ru": "Sievi", "tz": "", "district": "Pohjois-Pohjanmaa"}, {"id": 209, "name": "Joroinen", "name_ru": "Joroinen", "tz": "", "district": "Etelä-Savo"}, {"id": 210, "name": "Juuka", "name_ru": "Juuka", "tz": "", "district": "Pohjois-Karjala"}, {"id": 211, "name": "Pattijoki", "name_ru": "Pattijoki", "tz": "", "district": "Pohjois-Pohjanmaa"}, {"id": 212, "name": "Inkeroinen", "name_ru": "Inkeroinen", "tz": "", "district": "Kymenlaakso"}]