[{"id": 1, "name": "Torshavn", "name_ru": "Tórshavn", "tz": "", "district": ""}, {"id": 2, "name": "Klaksvik", "name_ru": "Klaksvík", "tz": "", "district": ""}, {"id": 3, "name": "Hvalba", "name_ru": "Hvalba", "tz": "", "district": ""}, {"id": 4, "name": "Skopun", "name_ru": "Skopun", "tz": "", "district": ""}, {"id": 5, "name": "Hvannasund", "name_ru": "Hvannasund", "tz": "", "district": ""}, {"id": 6, "name": "Toftir", "name_ru": "Toftir", "tz": "", "district": ""}, {"id": 7, "name": "Porkeri", "name_ru": "Porkeri", "tz": "", "district": ""}, {"id": 8, "name": "Saltangara", "name_ru": "Saltangará", "tz": "", "district": ""}, {"id": 9, "name": "Strendur", "name_ru": "Strendur", "tz": "", "district": ""}, {"id": 10, "name": "Tvoroyri", "name_ru": "Tvøroyri", "tz": "", "district": ""}, {"id": 11, "name": "Fuglafjordhur", "name_ru": "Fuglafjørður", "tz": "", "district": ""}, {"id": 12, "name": "Famjin", "name_ru": "Fámjin", "tz": "", "district": ""}, {"id": 13, "name": "Vagur", "name_ru": "Vágur", "tz": "", "district": ""}, {"id": 14, "name": "Nordhragota", "name_ru": "Norðragøta", "tz": "", "district": ""}, {"id": 15, "name": "Sorvagur", "name_ru": "Sørvágur", "tz": "", "district": ""}, {"id": 16, "name": "Oyrarbakki", "name_ru": "Oyrarbakki", "tz": "", "district": ""}, {"id": 17, "name": "Eidhi", "name_ru": "Eiði", "tz": "", "district": ""}, {"id": 18, "name": "Vestmanna", "name_ru": "Vestmanna", "tz": "", "district": ""}, {"id": 19, "name": "Kvivik", "name_ru": "Kvívík", "tz": "", "district": ""}, {"id": 20, "name": "Sumba", "name_ru": "Sumba", "tz": "", "district": ""}, {"id": 21, "name": "Sandavagur", "name_ru": "Sandavágur", "tz": "", "district": ""}, {"id": 22, "name": "Hov", "name_ru": "Hov", "tz": "", "district": ""}, {"id": 23, "name": "Vidhareidhi", "name_ru": "Viðareiði", "tz": "", "district": ""}, {"id": 24, "name": "Sandur", "name_ru": "Sandur", "tz": "", "district": ""}, {"id": 25, "name": "Husavik", "name_ru": "Húsavík", "tz": "", "district": ""}, {"id": 26, "name": "Kunoy", "name_ru": "Kunoy", "tz": "", "district": ""}, {"id": 27, "name": "Skalavik", "name_ru": "Skálavík", "tz": "", "district": ""}, {"id": 28, "name": "Kirkja", "name_ru": "Kirkja", "tz": "", "district": ""}, {"id": 29, "name": "Skuvoy", "name_ru": "Skúvoy", "tz": "", "district": ""}]