[{"id": 1, "name": "Libreville", "name_ru": "Libreville", "tz": "", "district": "Estuaire"}, {"id": 2, "name": "Port-Gentil", "name_ru": "Port-Gentil", "tz": "", "district": "Ogooué-Maritime"}, {"id": 3, "name": "Oyem", "name_ru": "Oyem", "tz": "", "district": "Woleu-Ntem"}, {"id": 4, "name": "Franceville", "name_ru": "Franceville", "tz": "", "district": "Haut-Ogooué"}, {"id": 5, "name": "Lambarene", "name_ru": "Lambaréné", "tz": "", "district": "Moyen-Ogooué"}, {"id": 6, "name": "Mouila", "name_ru": "Mouila", "tz": "", "district": "Ngounié"}, {"id": 7, "name": "Tchibanga", "name_ru": "Tchibanga", "tz": "", "district": "Nyanga"}, {"id": 8, "name": "Makokou", "name_ru": "Makokou", "tz": "", "district": "Ogooué-Ivindo"}, {"id": 9, "name": "Koulamoutou", "name_ru": "Koulamoutou", "tz": "", "district": "Ogooué-Lolo"}, {"id": 10, "name": "Moanda", "name_ru": "Moanda", "tz": "", "district": "Haut-Ogooué"}, {"id": 11, "name": "Bitam", "name_ru": "Bitam", "tz": "", "district": "Woleu-Ntem"}, {"id": 12, "name": "Mitzic", "name_ru": "Mitzic", "tz": "", "district": "Woleu-Ntem"}, {"id": 13, "name": "Mayumba", "name_ru": "Mayumba", "tz": "", "district": "Nyanga"}, {"id": 14, "name": "Gamba", "name_ru": "Gamba", "tz": "", "district": "Ogooué-Maritime"}, {"id": 15, "name": "Okondja", "name_ru": "Okondja", "tz": "", "district": "Haut-Ogooué"}, {"id": 16, "name": "Ndende", "name_ru": "Ndendé", "tz": "", "district": "Ngounié"}, {"id": 17, "name": "Mekambo", "name_ru": "Mékambo", "tz": "", "district": "Ogooué-Ivindo"}, {"id": 18, "name": "Omboue", "name_ru": "Omboué", "tz": "", "district": "Ogooué-Maritime"}, {"id": 19, "name": "Bifoun", "name_ru": "Bifoun", "tz": "", "district": "Moyen-Ogooué"}]