[{"id": 1, "name": "London", "name_ru": "London", "tz": "", "district": "London, City of"}, {"id": 2, "name": "Birmingham", "name_ru": "Birmingham", "tz": "", "district": "Birmingham"}, {"id": 3, "name": "Leeds", "name_ru": "Leeds", "tz": "", "district": "Leeds"}, {"id": 4, "name": "Glasgow", "name_ru": "Glasgow", "tz": "", "district": "Glasgow City"}, {"id": 5, "name": "Bristol", "name_ru": "Bristol", "tz": "", "district": "Bristol, City of"}, {"id": 6, "name": "Manchester", "name_ru": "Manchester", "tz": "", "district": "Manchester"}, {"id": 7, "name": "Sheffield", "name_ru": "Sheffield", "tz": "", "district": "Sheffield"}, {"id": 8, "name": "Liverpool", "name_ru": "Liverpool", "tz": "", "district": "Liverpool"}, {"id": 9, "name": "Edinburgh", "name_ru": "Edinburgh", "tz": "", "district": "Edinburgh, City of"}, {"id": 10, "name": "Leicester", "name_ru": "Leicester", "tz": "", "district": "Leicester"}, {"id": 11, "name": "Coventry", "name_ru": "Coventry", "tz": "", "district": "Coventry"}, {"id": 12, "name": "Caerdydd", "name_ru": "Caerdydd", "tz": "", "district": "Cardiff"}, {"id": 13, "name": "Belfast", "name_ru": "Belfast", "tz": "", "district": "Belfast"}, {"id": 14, "name": "Newcastle", "name_ru": "Newcastle", "tz": "", "district": "Newcastle upon Tyne"}, {"id": 15, "name": "Bradford", "name_ru": "Bradford", "tz": "", "district": "Bradford"}, {"id": 16, "name": "Nottingham", "name_ru": "Nottingham", "tz": "", "district": "Nottingham"}, {"id": 17, "name": "Ipswich", "name_ru": "Ipswich", "tz": "", "district": "Suffolk"}, {"id": 18, "name": "Bolton", "name_ru": "Bolton", "tz": "", "district": "Bolton"}, {"id": 19, "name": "Sunderland", "name_ru": "Sunderland", "tz": "", "district": "Sunderland"}, {"id": 20, "name": "Southampton", "name_ru": "Southampton", "tz": "", "district": "Southampton"}, {"id": 21, "name": "Plymouth", "name_ru": "Plymouth", "tz": "", "district": "Plymouth"}, {"id": 22, "name": "Westminster", "name_ru": "Westminster", "tz": "", "district": "Westminster"}, {"id": 23, "name": "Kingston upon Hull", "name_ru": "Kingston upon Hull", "tz": "", "district": "Kingston upon Hull, City of"}, {"id": 24, "name": "Derby", "name_ru": "Derby", "tz": "", "district": "Derby"}, {"id": 25, "name": "Wolverhampton", "name_ru": "Wolverhampton", "tz": "", "district": "Wolverhampton"}, {"id": 26, "name": "Stoke-on-Trent", "name_ru": "Stoke-on-Trent", "tz": "", "district": "Stoke-on-Trent"}, {"id": 27, "name": "Portsmouth", "name_ru": "Portsmouth", "tz": "", "district": "Portsmouth"}, {"id": 28, "name": "Barnsley", "name_ru": "Barnsley", "tz": "", "district": "Barnsley"}, {"id": 29, "name": "Abertawe", "name_ru": "Abertawe", "tz": "", "district": "Swansea"}, {"id": 30, "name": "Swindon", "name_ru": "Swindon", "tz": "", "district": "Swindon"}, {"id": 31, "name": "Luton", "name_ru": "Luton", "tz": "", "district": "Luton"}, {"id": 32, "name": "Northampton", "name_ru": "Northampton", "tz": "", "district": "Northamptonshire"}, {"id": 33, "name": "Solihull", "name_ru": "Solihull", "tz": "", "district": "Solihull"}, {"id": 34, "name": "Milton Keynes", "name_ru": "Milton Keynes", "tz": "", "district": "Milton Keynes"}, {"id": 35, "name": "Aberdeen", "name_ru": "Aberdeen", "tz": "", "district": "Aberdeen City"}, {"id": 36, "name": "Norwich", "name_ru": "Norwich", "tz": "", "district": "Norfolk"}, {"id": 37, "name": "Peterborough", "name_ru": "Peterborough", "tz": "", "district": "Peterborough"}, {"id": 38, "name": "Basildon", "name_ru": "Basildon", "tz": "", "district": "Essex"}, {"id": 39, "name": "Bournemouth", "name_ru": "Bournemouth", "tz": "", "district": "Bournemouth"}, {"id": 40, "name": "York", "name_ru": "York", "tz": "", "district": "York"}, {"id": 41, "name": "Warrington", "name_ru": "Warrington", "tz": "", "district": "Warrington"}, {"id": 42, "name": "Huddersfield", "name_ru": "Huddersfield", "tz": "", "district": "Kirklees"}, {"id": 43, "name": "Reading", "name_ru": "Reading", "tz": "", "district": "Reading"}, {"id": 44, "name": "Southend", "name_ru": "Southend", "tz": "", "district": "Southend-on-Sea"}, {"id": 45, "name": "Oxford", "name_ru": "Oxford", "tz": "", "district": "Oxfordshire"}, {"id": 46, "name": "Gloucester", "name_ru": "Gloucester", "tz": "", "district": "Gloucestershire"}, {"id": 47, "name": "West Bromwich", "name_ru": "West Bromwich", "tz": "", "district": "Sandwell"}, {"id": 48, "name": "Dundee", "name_ru": "Dundee", "tz": "", "district": "Dundee City"}, {"id": 49, "name": "Poole", "name_ru": "Poole", "tz": "", "district": "Poole"}, {"id": 50, "name": "Newport", "name_ru": "Newport", "tz": "", "district": "Newport"}, {"id": 51, "name": "Birkenhead", "name_ru": "Birkenhead", "tz": "", "district": "Wirral"}, {"id": 52, "name": "Blackpool", "name_ru": "Blackpool", "tz": "", "district": "Blackpool"}, {"id": 53, "name": "Telford", "name_ru": "Telford", "tz": "", "district": "Telford and Wrekin"}, {"id": 54, "name": "Preston", "name_ru": "Preston", "tz": "", "district": "Lancashire"}, {"id": 55, "name": "Middlesbrough", "name_ru": "Middlesbrough", "tz": "", "district": "Redcar and Cleveland"}, {"id": 56, "name": "Sale", "name_ru": "Sale", "tz": "", "district": "Trafford"}, {"id": 57, "name": "Brighton", "name_ru": "Brighton", "tz": "", "district": "Brighton and Hove"}, {"id": 58, "name": "High Wycombe", "name_ru": "High Wycombe", "tz": "", "district": "Buckinghamshire"}, {"id": 59, "name": "Cambridge", "name_ru": "Cambridge", "tz": "", "district": "Cambridgeshire"}, {"id": 60, "name": "Exeter", "name_ru": "Exeter", "tz": "", "district": "Devon"}, {"id": 61, "name": "Colchester", "name_ru": "Colchester", "tz": "", "district": "Essex"}, {"id": 62, "name": "Gateshead", "name_ru": "Gateshead", "tz": "", "district": "Gateshead"}, {"id": 63, "name": "Blackburn", "name_ru": "Blackburn", "tz": "", "district": "Blackburn with Darwen"}, {"id": 64, "name": "Slough", "name_ru": "Slough", "tz": "", "district": "Slough"}, {"id": 65, "name": "Chelmsford", "name_ru": "Chelmsford", "tz": "", "district": "Essex"}, {"id": 66, "name": "Cheltenham", "name_ru": "Cheltenham", "tz": "", "district": "Gloucestershire"}, {"id": 67, "name": "Rochdale", "name_ru": "Rochdale", "tz": "", "district": "Rochdale"}, {"id": 68, "name": "Rotherham", "name_ru": "Rotherham", "tz": "", "district": "Rotherham"}, {"id": 69, "name": "Doncaster", "name_ru": "Doncaster", "tz": "", "district": "Doncaster"}, {"id": 70, "name": "Maidstone", "name_ru": "Maidstone", "tz": "", "district": "Kent"}, {"id": 71, "name": "Basingstoke", "name_ru": "Basingstoke", "tz": "", "district": "Hampshire"}, {"id": 72, "name": "Worthing", "name_ru": "Worthing", "tz": "", "district": "West Sussex"}, {"id": 73, "name": "Crawley", "name_ru": "Crawley", "tz": "", "district": "West Sussex"}, {"id": 74, "name": "Salford", "name_ru": "Salford", "tz": "", "district": "Salford"}, {"id": 75, "name": "Saint Helens", "name_ru": "Saint Helens", "tz": "", "district": "St. Helens"}, {"id": 76, "name": "Worcester", "name_ru": "Worcester", "tz": "", "district": "Worcestershire"}, {"id": 77, "name": "Gillingham", "name_ru": "Gillingham", "tz": "", "district": "Medway"}, {"id": 78, "name": "Eastbourne", "name_ru": "Eastbourne", "tz": "", "district": "East Sussex"}, {"id": 79, "name": "Wigan", "name_ru": "Wigan", "tz": "", "district": "Wigan"}, {"id": 80, "name": "Hove", "name_ru": "Hove", "tz": "", "district": "Brighton and Hove"}, {"id": 81, "name": "Lincoln", "name_ru": "Lincoln", "tz": "", "district": "Lincolnshire"}, {"id": 82, "name": "Rayleigh", "name_ru": "Rayleigh", "tz": "", "district": "Essex"}, {"id": 83, "name": "Hemel Hempstead", "name_ru": "Hemel Hempstead", "tz": "", "district": "Hertfordshire"}, {"id": 84, "name": "Bath", "name_ru": "Bath", "tz": "", "district": "Bath and North East Somerset"}, {"id": 85, "name": "Darlington", "name_ru": "Darlington", "tz": "", "district": "Darlington"}, {"id": 86, "name": "Wimbledon", "name_ru": "Wimbledon", "tz": "", "district": "Merton"}, {"id": 87, "name": "Watford", "name_ru": "Watford", "tz": "", "district": "Hertfordshire"}, {"id": 88, "name": "Hastings", "name_ru": "Hastings", "tz": "", "district": "East Sussex"}, {"id": 89, "name": "Nuneaton", "name_ru": "Nuneaton", "tz": "", "district": "Warwickshire"}, {"id": 90, "name": "Stevenage", "name_ru": "Stevenage", "tz": "", "district": "Hertfordshire"}, {"id": 91, "name": "Hartlepool", "name_ru": "Hartlepool", "tz": "", "district": "Hartlepool"}, {"id": 92, "name": "Chester", "name_ru": "Chester", "tz": "", "district": "Cheshire West and Chester"}, {"id": 93, "name": "Aylesbury", "name_ru": "Aylesbury", "tz": "", "district": "Buckinghamshire"}, {"id": 94, "name": "Burnley", "name_ru": "Burnley", "tz": "", "district": "Lancashire"}, {"id": 95, "name": "Saint Albans", "name_ru": "Saint Albans", "tz": "", "district": "Hertfordshire"}, {"id": 96, "name": "Chatham", "name_ru": "Chatham", "tz": "", "district": "Medway"}, {"id": 97, "name": "Batley", "name_ru": "Batley", "tz": "", "district": "Kirklees"}, {"id": 98, "name": "Scunthorpe", "name_ru": "Scunthorpe", "tz": "", "district": "North Lincolnshire"}, {"id": 99, "name": "Dudley", "name_ru": "Dudley", "tz": "", "district": "Dudley"}, {"id": 100, "name": "Weston-super-Mare", "name_ru": "Weston-super-Mare", "tz": "", "district": "North Somerset"}, {"id": 101, "name": "South Shields", "name_ru": "South Shields", "tz": "", "district": "South Tyneside"}, {"id": 102, "name": "Bury", "name_ru": "Bury", "tz": "", "district": "Bury"}, {"id": 103, "name": "Paisley", "name_ru": "Paisley", "tz": "", "district": "Renfrewshire"}, {"id": 104, "name": "Mansfield", "name_ru": "Mansfield", "tz": "", "district": "Nottinghamshire"}, {"id": 105, "name": "Bracknell", "name_ru": "Bracknell", "tz": "", "district": "Bracknell Forest"}, {"id": 106, "name": "Carlisle", "name_ru": "Carlisle", "tz": "", "district": "Cumbria"}, {"id": 107, "name": "East Kilbride", "name_ru": "East Kilbride", "tz": "", "district": "South Lanarkshire"}, {"id": 108, "name": "Burton upon Trent", "name_ru": "Burton upon Trent", "tz": "", "district": "Staffordshire"}, {"id": 109, "name": "Crewe", "name_ru": "Crewe", "tz": "", "district": "Cheshire East"}, {"id": 110, "name": "Newcastle under Lyme", "name_ru": "Newcastle under Lyme", "tz": "", "district": "Staffordshire"}, {"id": 111, "name": "Harrogate", "name_ru": "Harrogate", "tz": "", "district": "North Yorkshire"}, {"id": 112, "name": "Rugby", "name_ru": "Rugby", "tz": "", "district": "Warwickshire"}, {"id": 113, "name": "Tamworth", "name_ru": "Tamworth", "tz": "", "district": "Staffordshire"}, {"id": 114, "name": "Lowestoft", "name_ru": "Lowestoft", "tz": "", "district": "Suffolk"}, {"id": 115, "name": "Gosport", "name_ru": "Gosport", "tz": "", "district": "Hampshire"}, {"id": 116, "name": "Grays", "name_ru": "Grays", "tz": "", "district": "Thurrock"}, {"id": 117, "name": "Walton upon Thames", "name_ru": "Walton upon Thames", "tz": "", "district": "Surrey"}, {"id": 118, "name": "Gravesend", "name_ru": "Gravesend", "tz": "", "district": "Kent"}, {"id": 119, "name": "Walsall", "name_ru": "Walsall", "tz": "", "district": "Walsall"}, {"id": 120, "name": "Tynemouth", "name_ru": "Tynemouth", "tz": "", "district": "North Tyneside"}, {"id": 121, "name": "Paignton", "name_ru": "Paignton", "tz": "", "district": "Devon"}, {"id": 122, "name": "Rochester", "name_ru": "Rochester", "tz": "", "district": "Medway"}, {"id": 123, "name": "Washington", "name_ru": "Washington", "tz": "", "district": "Sunderland"}, {"id": 124, "name": "Ashford", "name_ru": "Ashford", "tz": "", "district": "Kent"}, {"id": 125, "name": "Merthyr Tudful", "name_ru": "Merthyr Tudful", "tz": "", "district": "Merthyr Tydfil"}, {"id": 126, "name": "Scarborough", "name_ru": "Scarborough", "tz": "", "district": "North Yorkshire"}, {"id": 127, "name": "Farnborough", "name_ru": "Farnborough", "tz": "", "district": "Hampshire"}, {"id": 128, "name": "Stourbridge", "name_ru": "Stourbridge", "tz": "", "district": "Dudley"}, {"id": 129, "name": "Hereford", "name_ru": "Hereford", "tz": "", "district": "Herefordshire"}, {"id": 130, "name": "Dewsbury", "name_ru": "Dewsbury", "tz": "", "district": "Kirklees"}, {"id": 131, "name": "Loughborough", "name_ru": "Loughborough", "tz": "", "district": "Leicestershire"}, {"id": 132, "name": "Wrecsam", "name_ru": "Wrecsam", "tz": "", "district": "Wrexham"}, {"id": 133, "name": "Kettering", "name_ru": "Kettering", "tz": "", "district": "Northamptonshire"}, {"id": 134, "name": "Ellesmere Port", "name_ru": "Ellesmere Port", "tz": "", "district": "Cheshire West and Chester"}, {"id": 135, "name": "Bangor", "name_ru": "Bangor", "tz": "", "district": "Ards and North Down"}, {"id": 136, "name": "Runcorn", "name_ru": "Runcorn", "tz": "", "district": "Halton"}, {"id": 137, "name": "Taunton", "name_ru": "Taunton", "tz": "", "district": "Somerset"}, {"id": 138, "name": "Littlehampton", "name_ru": "Littlehampton", "tz": "", "district": "West Sussex"}, {"id": 139, "name": "Wallasey", "name_ru": "Wallasey", "tz": "", "district": "Wirral"}, {"id": 140, "name": "Bebington", "name_ru": "Bebington", "tz": "", "district": "Wirral"}, {"id": 141, "name": "Macclesfield", "name_ru": "Macclesfield", "tz": "", "district": "Cheshire East"}, {"id": 142, "name": "Royal Tunbridge Wells", "name_ru": "Royal Tunbridge Wells", "tz": "", "district": "Kent"}, {"id": 143, "name": "Folkestone", "name_ru": "Folkestone", "tz": "", "district": "Kent"}, {"id": 144, "name": "Royal Leamington Spa", "name_ru": "Royal Leamington Spa", "tz": "", "district": "Warwickshire"}, {"id": 145, "name": "Crosby", "name_ru": "Crosby", "tz": "", "district": "Sefton"}, {"id": 146, "name": "Stratford", "name_ru": "Stratford", "tz": "", "district": "Newham"}, {"id": 147, "name": "Kidderminster", "name_ru": "Kidderminster", "tz": "", "district": "Worcestershire"}, {"id": 148, "name": "Altrincham", "name_ru": "Altrincham", "tz": "", "district": "Trafford"}, {"id": 149, "name": "Weymouth", "name_ru": "Weymouth", "tz": "", "district": "Dorset"}, {"id": 150, "name": "Barri", "name_ru": "Barri", "tz": "", "district": "Vale of Glamorgan, The"}, {"id": 151, "name": "Dunfermline", "name_ru": "Dunfermline", "tz": "", "district": "Fife"}, {"id": 152, "name": "Bootle", "name_ru": "Bootle", "tz": "", "district": "Sefton"}, {"id": 153, "name": "Hamilton", "name_ru": "Hamilton", "tz": "", "district": "South Lanarkshire"}, {"id": 154, "name": "Lancaster", "name_ru": "Lancaster", "tz": "", "district": "Lancashire"}, {"id": 155, "name": "Cumbernauld", "name_ru": "Cumbernauld", "tz": "", "district": "North Lanarkshire"}, {"id": 156, "name": "Brentwood", "name_ru": "Brentwood", "tz": "", "district": "Essex"}, {"id": 157, "name": "Willenhall", "name_ru": "Willenhall", "tz": "", "district": "Walsall"}, {"id": 158, "name": "Pen-y-Bont ar Ogwr", "name_ru": "Pen-y-Bont ar Ogwr", "tz": "", "district": "Bridgend"}, {"id": 159, "name": "Stretford", "name_ru": "Stretford", "tz": "", "district": "Trafford"}, {"id": 160, "name": "Neath", "name_ru": "Neath", "tz": "", "district": "Neath Port Talbot"}, {"id": 161, "name": "Kirkcaldy", "name_ru": "Kirkcaldy", "tz": "", "district": "Fife"}, {"id": 162, "name": "Ashton", "name_ru": "Ashton", "tz": "", "district": "Tameside"}, {"id": 163, "name": "Inverness", "name_ru": "Inverness", "tz": "", "district": "Highland"}, {"id": 164, "name": "Salisbury", "name_ru": "Salisbury", "tz": "", "district": "Wiltshire"}, {"id": 165, "name": "Ayr", "name_ru": "Ayr", "tz": "", "district": "South Ayrshire"}, {"id": 166, "name": "Wokingham", "name_ru": "Wokingham", "tz": "", "district": "Wokingham"}, {"id": 167, "name": "Banbury", "name_ru": "Banbury", "tz": "", "district": "Oxfordshire"}, {"id": 168, "name": "Hinckley", "name_ru": "Hinckley", "tz": "", "district": "Leicestershire"}, {"id": 169, "name": "Coatbridge", "name_ru": "Coatbridge", "tz": "", "district": "North Lanarkshire"}, {"id": 170, "name": "Chorley", "name_ru": "Chorley", "tz": "", "district": "Lancashire"}, {"id": 171, "name": "Kingswood", "name_ru": "Kingswood", "tz": "", "district": "South Gloucestershire"}, {"id": 172, "name": "Kingston upon Thames", "name_ru": "Kingston upon Thames", "tz": "", "district": "Kingston upon Thames"}, {"id": 173, "name": "Newbury", "name_ru": "Newbury", "tz": "", "district": "West Berkshire"}, {"id": 174, "name": "Llanelli", "name_ru": "Llanelli", "tz": "", "district": "Carmarthenshire"}, {"id": 175, "name": "Ramsgate", "name_ru": "Ramsgate", "tz": "", "district": "Kent"}, {"id": 176, "name": "Bishops Stortford", "name_ru": "Bishops Stortford", "tz": "", "district": "Hertfordshire"}, {"id": 177, "name": "Aberdare", "name_ru": "Aberdare", "tz": "", "district": "Rhondda Cynon Taff"}, {"id": 178, "name": "Herne Bay", "name_ru": "Herne Bay", "tz": "", "district": "Kent"}, {"id": 179, "name": "Bletchley", "name_ru": "Bletchley", "tz": "", "district": "Milton Keynes"}, {"id": 180, "name": "Airdrie", "name_ru": "Airdrie", "tz": "", "district": "North Lanarkshire"}, {"id": 181, "name": "Bridlington", "name_ru": "Bridlington", "tz": "", "district": "East Riding of Yorkshire"}, {"id": 182, "name": "Falkirk", "name_ru": "Falkirk", "tz": "", "district": "Falkirk"}, {"id": 183, "name": "Dover", "name_ru": "Dover", "tz": "", "district": "Kent"}, {"id": 184, "name": "Hitchin", "name_ru": "Hitchin", "tz": "", "district": "Hertfordshire"}, {"id": 185, "name": "Grantham", "name_ru": "Grantham", "tz": "", "district": "Lincolnshire"}, {"id": 186, "name": "Ewell", "name_ru": "Ewell", "tz": "", "district": "Surrey"}, {"id": 187, "name": "Abingdon", "name_ru": "Abingdon", "tz": "", "district": "Oxfordshire"}, {"id": 188, "name": "Trowbridge", "name_ru": "Trowbridge", "tz": "", "district": "Wiltshire"}, {"id": 189, "name": "Rutherglen", "name_ru": "Rutherglen", "tz": "", "district": "Glasgow City"}, {"id": 190, "name": "Wigston Magna", "name_ru": "Wigston Magna", "tz": "", "district": "Leicestershire"}, {"id": 191, "name": "Lichfield", "name_ru": "Lichfield", "tz": "", "district": "Staffordshire"}, {"id": 192, "name": "Ecclesfield", "name_ru": "Ecclesfield", "tz": "", "district": "Sheffield"}, {"id": 193, "name": "Brighouse", "name_ru": "Brighouse", "tz": "", "district": "Calderdale"}, {"id": 194, "name": "Saint Neots", "name_ru": "Saint Neots", "tz": "", "district": "Cambridgeshire"}, {"id": 195, "name": "Motherwell", "name_ru": "Motherwell", "tz": "", "district": "North Lanarkshire"}, {"id": 196, "name": "Chichester", "name_ru": "Chichester", "tz": "", "district": "West Sussex"}, {"id": 197, "name": "Wishaw", "name_ru": "Wishaw", "tz": "", "district": "North Lanarkshire"}, {"id": 198, "name": "Bromsgrove", "name_ru": "Bromsgrove", "tz": "", "district": "Worcestershire"}, {"id": 199, "name": "Hertford", "name_ru": "Hertford", "tz": "", "district": "Hertfordshire"}, {"id": 200, "name": "Harpenden", "name_ru": "Harpenden", "tz": "", "district": "Hertfordshire"}, {"id": 201, "name": "Cambuslang", "name_ru": "Cambuslang", "tz": "", "district": "South Lanarkshire"}, {"id": 202, "name": "Rhyl", "name_ru": "Rhyl", "tz": "", "district": "Denbighshire"}, {"id": 203, "name": "Longbridge", "name_ru": "Longbridge", "tz": "", "district": "Birmingham"}, {"id": 204, "name": "Bearsden", "name_ru": "Bearsden", "tz": "", "district": "East Dunbartonshire"}, {"id": 205, "name": "Shenley Brook End", "name_ru": "Shenley Brook End", "tz": "", "district": "Milton Keynes"}, {"id": 206, "name": "Billericay", "name_ru": "Billericay", "tz": "", "district": "Essex"}, {"id": 207, "name": "Aldridge", "name_ru": "Aldridge", "tz": "", "district": "Walsall"}, {"id": 208, "name": "Upminster", "name_ru": "Upminster", "tz": "", "district": "Havering"}, {"id": 209, "name": "Coulsdon", "name_ru": "Coulsdon", "tz": "", "district": "Croydon"}, {"id": 210, "name": "Newton Mearns", "name_ru": "Newton Mearns", "tz": "", "district": "East Renfrewshire"}, {"id": 211, "name": "Rainham", "name_ru": "Rainham", "tz": "", "district": "Medway"}, {"id": 212, "name": "Bishop Auckland", "name_ru": "Bishop Auckland", "tz": "", "district": "Durham"}, {"id": 213, "name": "Clydebank", "name_ru": "Clydebank", "tz": "", "district": "West Dunbartonshire"}, {"id": 214, "name": "Market Harborough", "name_ru": "Market Harborough", "tz": "", "district": "Leicestershire"}, {"id": 215, "name": "Droylsden", "name_ru": "Droylsden", "tz": "", "district": "Tameside"}, {"id": 216, "name": "Plymstock", "name_ru": "Plymstock", "tz": "", "district": "Plymouth"}, {"id": 217, "name": "Stratton Saint Margaret", "name_ru": "Stratton Saint Margaret", "tz": "", "district": "Swindon"}, {"id": 218, "name": "Arbroath", "name_ru": "Arbroath", "tz": "", "district": "Angus"}, {"id": 219, "name": "Oadby", "name_ru": "Oadby", "tz": "", "district": "Leicestershire"}, {"id": 220, "name": "Litherland", "name_ru": "Litherland", "tz": "", "district": "Sefton"}, {"id": 221, "name": "Sheldon", "name_ru": "Sheldon", "tz": "", "district": "Solihull"}, {"id": 222, "name": "Bishopbriggs", "name_ru": "Bishopbriggs", "tz": "", "district": "East Dunbartonshire"}, {"id": 223, "name": "Littleover", "name_ru": "Littleover", "tz": "", "district": "Derby"}, {"id": 224, "name": "Huntingdon", "name_ru": "Huntingdon", "tz": "", "district": "Cambridgeshire"}, {"id": 225, "name": "Minster", "name_ru": "Minster", "tz": "", "district": "Kent"}, {"id": 226, "name": "Maesteg", "name_ru": "Maesteg", "tz": "", "district": "Bridgend"}, {"id": 227, "name": "Bathgate", "name_ru": "Bathgate", "tz": "", "district": "West Lothian"}, {"id": 228, "name": "Truro", "name_ru": "Truro", "tz": "", "district": "Cornwall"}, {"id": 229, "name": "Yate", "name_ru": "Yate", "tz": "", "district": "South Gloucestershire"}, {"id": 230, "name": "Southbourne", "name_ru": "Southbourne", "tz": "", "district": "Bournemouth"}, {"id": 231, "name": "Leek", "name_ru": "Leek", "tz": "", "district": "Staffordshire"}, {"id": 232, "name": "Falmouth", "name_ru": "Falmouth", "tz": "", "district": "Cornwall"}, {"id": 233, "name": "Woodlesford", "name_ru": "Woodlesford", "tz": "", "district": "Leeds"}, {"id": 234, "name": "Renfrew", "name_ru": "Renfrew", "tz": "", "district": "Renfrewshire"}, {"id": 235, "name": "Leigh-on-Sea", "name_ru": "Leigh-on-Sea", "tz": "", "district": "Southend-on-Sea"}, {"id": 236, "name": "Goodmayes", "name_ru": "Goodmayes", "tz": "", "district": "Redbridge"}, {"id": 237, "name": "Penzance", "name_ru": "Penzance", "tz": "", "district": "Cornwall"}, {"id": 238, "name": "Peterhead", "name_ru": "Peterhead", "tz": "", "district": "Aberdeenshire"}, {"id": 239, "name": "Bellshill", "name_ru": "Bellshill", "tz": "", "district": "North Lanarkshire"}, {"id": 240, "name": "Davyhulme", "name_ru": "Davyhulme", "tz": "", "district": "Trafford"}, {"id": 241, "name": "Antrim", "name_ru": "Antrim", "tz": "", "district": "Antrim and Newtownabbey"}, {"id": 242, "name": "Frimley", "name_ru": "Frimley", "tz": "", "district": "Surrey"}, {"id": 243, "name": "Great Linford", "name_ru": "Great Linford", "tz": "", "district": "Milton Keynes"}, {"id": 244, "name": "Maltby", "name_ru": "Maltby", "tz": "", "district": "Rotherham"}, {"id": 245, "name": "Keynsham", "name_ru": "Keynsham", "tz": "", "district": "Bath and North East Somerset"}, {"id": 246, "name": "Broughty Ferry", "name_ru": "Broughty Ferry", "tz": "", "district": "Dundee City"}, {"id": 247, "name": "Tonypandy", "name_ru": "Tonypandy", "tz": "", "district": "Rhondda Cynon Taff"}, {"id": 248, "name": "Hadleigh", "name_ru": "Hadleigh", "tz": "", "district": "Essex"}, {"id": 249, "name": "East Barnet", "name_ru": "East Barnet", "tz": "", "district": "Barnet"}, {"id": 250, "name": "Dingle", "name_ru": "Dingle", "tz": "", "district": "Liverpool"}, {"id": 251, "name": "Bonnyrigg", "name_ru": "Bonnyrigg", "tz": "", "district": "Midlothian"}, {"id": 252, "name": "Fern Down", "name_ru": "Fern Down", "tz": "", "district": "Dorset"}, {"id": 253, "name": "Cosham", "name_ru": "Cosham", "tz": "", "district": "Portsmouth"}, {"id": 254, "name": "High Blantyre", "name_ru": "High Blantyre", "tz": "", "district": "South Lanarkshire"}, {"id": 255, "name": "Nailsea", "name_ru": "Nailsea", "tz": "", "district": "North Somerset"}, {"id": 256, "name": "Basford", "name_ru": "Basford", "tz": "", "district": "Nottingham"}, {"id": 257, "name": "Porthcawl", "name_ru": "Porthcawl", "tz": "", "district": "Bridgend"}, {"id": 258, "name": "Milton", "name_ru": "Milton", "tz": "", "district": "Stoke-on-Trent"}, {"id": 259, "name": "Hilsea", "name_ru": "Hilsea", "tz": "", "district": "Portsmouth"}, {"id": 260, "name": "Kilwinning", "name_ru": "Kilwinning", "tz": "", "district": "North Ayrshire"}, {"id": 261, "name": "Woodhouse", "name_ru": "Woodhouse", "tz": "", "district": "Sheffield"}, {"id": 262, "name": "Kidbrooke", "name_ru": "Kidbrooke", "tz": "", "district": "Greenwich"}, {"id": 263, "name": "Bingley", "name_ru": "Bingley", "tz": "", "district": "Bradford"}, {"id": 264, "name": "Maldon", "name_ru": "Maldon", "tz": "", "district": "Essex"}, {"id": 265, "name": "Fazakerley", "name_ru": "Fazakerley", "tz": "", "district": "Liverpool"}, {"id": 266, "name": "Larkhall", "name_ru": "Larkhall", "tz": "", "district": "South Lanarkshire"}, {"id": 267, "name": "Hatch End", "name_ru": "Hatch End", "tz": "", "district": "Harrow"}, {"id": 268, "name": "Deysbrook", "name_ru": "Deysbrook", "tz": "", "district": "Liverpool"}, {"id": 269, "name": "Whickham", "name_ru": "Whickham", "tz": "", "district": "Gateshead"}, {"id": 270, "name": "South Hayling", "name_ru": "South Hayling", "tz": "", "district": "Hampshire"}, {"id": 271, "name": "Johnstone", "name_ru": "Johnstone", "tz": "", "district": "Renfrewshire"}, {"id": 272, "name": "Morriston", "name_ru": "Morriston", "tz": "", "district": "Swansea"}, {"id": 273, "name": "Wombwell", "name_ru": "Wombwell", "tz": "", "district": "Barnsley"}, {"id": 274, "name": "Prestwick", "name_ru": "Prestwick", "tz": "", "district": "South Ayrshire"}, {"id": 275, "name": "Hythe", "name_ru": "Hythe", "tz": "", "district": "Kent"}, {"id": 276, "name": "Melksham", "name_ru": "Melksham", "tz": "", "district": "Wiltshire"}, {"id": 277, "name": "Gornalwood", "name_ru": "Gornalwood", "tz": "", "district": "Dudley"}, {"id": 278, "name": "Rosyth", "name_ru": "Rosyth", "tz": "", "district": "Fife"}, {"id": 279, "name": "Saffron Walden", "name_ru": "Saffron Walden", "tz": "", "district": "Essex"}, {"id": 280, "name": "Kidlington", "name_ru": "Kidlington", "tz": "", "district": "Oxfordshire"}, {"id": 281, "name": "Whitby", "name_ru": "Whitby", "tz": "", "district": "North Yorkshire"}, {"id": 282, "name": "Swinton", "name_ru": "Swinton", "tz": "", "district": "Rotherham"}, {"id": 283, "name": "Harrow Weald", "name_ru": "Harrow Weald", "tz": "", "district": "Harrow"}, {"id": 284, "name": "Tredegar", "name_ru": "Tredegar", "tz": "", "district": "Blaenau Gwent"}, {"id": 285, "name": "Ilkley", "name_ru": "Ilkley", "tz": "", "district": "Bradford"}, {"id": 286, "name": "Ovenden", "name_ru": "Ovenden", "tz": "", "district": "Calderdale"}, {"id": 287, "name": "Childwall", "name_ru": "Childwall", "tz": "", "district": "Liverpool"}, {"id": 288, "name": "Shenley Church End", "name_ru": "Shenley Church End", "tz": "", "district": "Milton Keynes"}, {"id": 289, "name": "Egg Buckland", "name_ru": "Egg Buckland", "tz": "", "district": "Plymouth"}, {"id": 290, "name": "Fraserburgh", "name_ru": "Fraserburgh", "tz": "", "district": "Aberdeenshire"}, {"id": 291, "name": "Walsall Wood", "name_ru": "Walsall Wood", "tz": "", "district": "Walsall"}, {"id": 292, "name": "Bodmin", "name_ru": "Bodmin", "tz": "", "district": "Cornwall"}, {"id": 293, "name": "Streetly", "name_ru": "Streetly", "tz": "", "district": "Walsall"}, {"id": 294, "name": "Wollaston", "name_ru": "Wollaston", "tz": "", "district": "Dudley"}, {"id": 295, "name": "Thorpe Saint Andrew", "name_ru": "Thorpe Saint Andrew", "tz": "", "district": "Norfolk"}, {"id": 296, "name": "Hawick", "name_ru": "Hawick", "tz": "", "district": "Scottish Borders, The"}, {"id": 297, "name": "Wolverton", "name_ru": "Wolverton", "tz": "", "district": "Milton Keynes"}, {"id": 298, "name": "Linlithgow", "name_ru": "Linlithgow", "tz": "", "district": "West Lothian"}, {"id": 299, "name": "Broadwater", "name_ru": "Broadwater", "tz": "", "district": "West Sussex"}, {"id": 300, "name": "Milford Haven", "name_ru": "Milford Haven", "tz": "", "district": "Pembrokeshire"}, {"id": 301, "name": "Sutton on Hull", "name_ru": "Sutton on Hull", "tz": "", "district": "Kingston upon Hull, City of"}, {"id": 302, "name": "Milngavie", "name_ru": "Milngavie", "tz": "", "district": "East Dunbartonshire"}, {"id": 303, "name": "Southwick", "name_ru": "Southwick", "tz": "", "district": "West Sussex"}, {"id": 304, "name": "Lye", "name_ru": "Lye", "tz": "", "district": "Dudley"}, {"id": 305, "name": "Thatto Heath", "name_ru": "Thatto Heath", "tz": "", "district": "St. Helens"}, {"id": 306, "name": "Blunsdon Saint Andrew", "name_ru": "Blunsdon Saint Andrew", "tz": "", "district": "Swindon"}, {"id": 307, "name": "Hoyland Nether", "name_ru": "Hoyland Nether", "tz": "", "district": "Barnsley"}, {"id": 308, "name": "Giffnock", "name_ru": "Giffnock", "tz": "", "district": "East Renfrewshire"}, {"id": 309, "name": "Blundellsands", "name_ru": "Blundellsands", "tz": "", "district": "Sefton"}, {"id": 310, "name": "Earlestown", "name_ru": "Earlestown", "tz": "", "district": "St. Helens"}, {"id": 311, "name": "Snaresbrook", "name_ru": "Snaresbrook", "tz": "", "district": "Redbridge"}, {"id": 312, "name": "Parkstone", "name_ru": "Parkstone", "tz": "", "district": "Poole"}, {"id": 313, "name": "Cromer", "name_ru": "Cromer", "tz": "", "district": "Norfolk"}, {"id": 314, "name": "Hollington", "name_ru": "Hollington", "tz": "", "district": "East Sussex"}, {"id": 315, "name": "Woolton", "name_ru": "Woolton", "tz": "", "district": "Liverpool"}, {"id": 316, "name": "Sandridge", "name_ru": "Sandridge", "tz": "", "district": "Hertfordshire"}, {"id": 317, "name": "Abergavenny", "name_ru": "Abergavenny", "tz": "", "district": "Monmouthshire"}, {"id": 318, "name": "Warsop", "name_ru": "Warsop", "tz": "", "district": "Nottinghamshire"}, {"id": 319, "name": "Gourock", "name_ru": "Gourock", "tz": "", "district": "Inverclyde"}, {"id": 320, "name": "Forres", "name_ru": "Forres", "tz": "", "district": "Moray"}, {"id": 321, "name": "Abertillery", "name_ru": "Abertillery", "tz": "", "district": "Blaenau Gwent"}, {"id": 322, "name": "Trentham", "name_ru": "Trentham", "tz": "", "district": "Staffordshire"}, {"id": 323, "name": "Carnoustie", "name_ru": "Carnoustie", "tz": "", "district": "Angus"}, {"id": 324, "name": "Tonyrefail", "name_ru": "Tonyrefail", "tz": "", "district": "Rhondda Cynon Taff"}, {"id": 325, "name": "Brislington", "name_ru": "Brislington", "tz": "", "district": "Bristol, City of"}, {"id": 326, "name": "Oakham", "name_ru": "Oakham", "tz": "", "district": "Rutland"}, {"id": 327, "name": "Bishopstoke", "name_ru": "Bishopstoke", "tz": "", "district": "Hampshire"}, {"id": 328, "name": "Kippax", "name_ru": "Kippax", "tz": "", "district": "Leeds"}, {"id": 329, "name": "Ryhope", "name_ru": "Ryhope", "tz": "", "district": "Sunderland"}, {"id": 330, "name": "Glascote", "name_ru": "Glascote", "tz": "", "district": "Staffordshire"}, {"id": 331, "name": "Larbert", "name_ru": "Larbert", "tz": "", "district": "Falkirk"}, {"id": 332, "name": "Lemington", "name_ru": "Lemington", "tz": "", "district": "Newcastle upon Tyne"}, {"id": 333, "name": "Henley on Thames", "name_ru": "Henley on Thames", "tz": "", "district": "Oxfordshire"}, {"id": 334, "name": "Tavistock", "name_ru": "Tavistock", "tz": "", "district": "Devon"}, {"id": 335, "name": "Horsell", "name_ru": "Horsell", "tz": "", "district": "Surrey"}, {"id": 336, "name": "Buckhurst Hill", "name_ru": "Buckhurst Hill", "tz": "", "district": "Essex"}, {"id": 337, "name": "Newport", "name_ru": "Newport", "tz": "", "district": "Telford and Wrekin"}, {"id": 338, "name": "Cupar", "name_ru": "Cupar", "tz": "", "district": "Fife"}, {"id": 339, "name": "Stranraer", "name_ru": "Stranraer", "tz": "", "district": "Dumfries and Galloway"}, {"id": 340, "name": "Longbenton", "name_ru": "Longbenton", "tz": "", "district": "Newcastle upon Tyne"}, {"id": 341, "name": "Wilnecote", "name_ru": "Wilnecote", "tz": "", "district": "Staffordshire"}, {"id": 342, "name": "Inverurie", "name_ru": "Inverurie", "tz": "", "district": "Aberdeenshire"}, {"id": 343, "name": "Hellesdon", "name_ru": "Hellesdon", "tz": "", "district": "Norfolk"}, {"id": 344, "name": "Broadstone", "name_ru": "Broadstone", "tz": "", "district": "Poole"}, {"id": 345, "name": "Roby", "name_ru": "Roby", "tz": "", "district": "Knowsley"}, {"id": 346, "name": "Nairn", "name_ru": "Nairn", "tz": "", "district": "Highland"}, {"id": 347, "name": "Ifield", "name_ru": "Ifield", "tz": "", "district": "West Sussex"}, {"id": 348, "name": "Amesbury", "name_ru": "Amesbury", "tz": "", "district": "Wiltshire"}, {"id": 349, "name": "Utley", "name_ru": "Utley", "tz": "", "district": "Bradford"}, {"id": 350, "name": "Helston", "name_ru": "Helston", "tz": "", "district": "Cornwall"}, {"id": 351, "name": "Aberbargoed", "name_ru": "Aberbargoed", "tz": "", "district": "Caerphilly"}, {"id": 352, "name": "Choppington", "name_ru": "Choppington", "tz": "", "district": "Northumberland"}, {"id": 353, "name": "Allington", "name_ru": "Allington", "tz": "", "district": "Kent"}, {"id": 354, "name": "Chapeltown", "name_ru": "Chapeltown", "tz": "", "district": "Sheffield"}, {"id": 355, "name": "Shenfield", "name_ru": "Shenfield", "tz": "", "district": "Essex"}, {"id": 356, "name": "Dunbar", "name_ru": "Dunbar", "tz": "", "district": "East Lothian"}, {"id": 357, "name": "Warfield", "name_ru": "Warfield", "tz": "", "district": "Bracknell Forest"}, {"id": 358, "name": "Glenfield", "name_ru": "Glenfield", "tz": "", "district": "Leicestershire"}, {"id": 359, "name": "Broughton Astley", "name_ru": "Broughton Astley", "tz": "", "district": "Leicestershire"}, {"id": 360, "name": "Greenhill", "name_ru": "Greenhill", "tz": "", "district": "Kent"}, {"id": 361, "name": "Cove", "name_ru": "Cove", "tz": "", "district": "Hampshire"}, {"id": 362, "name": "South Normanton", "name_ru": "South Normanton", "tz": "", "district": "Derbyshire"}, {"id": 363, "name": "Kilsyth", "name_ru": "Kilsyth", "tz": "", "district": "North Lanarkshire"}, {"id": 364, "name": "Saint Peters", "name_ru": "Saint Peters", "tz": "", "district": "Kent"}, {"id": 365, "name": "Great Billing", "name_ru": "Great Billing", "tz": "", "district": "Northamptonshire"}, {"id": 366, "name": "Shephall", "name_ru": "Shephall", "tz": "", "district": "Hertfordshire"}, {"id": 367, "name": "Boxley", "name_ru": "Boxley", "tz": "", "district": "Kent"}, {"id": 368, "name": "Gedling", "name_ru": "Gedling", "tz": "", "district": "Nottinghamshire"}, {"id": 369, "name": "Attleborough", "name_ru": "Attleborough", "tz": "", "district": "Warwickshire"}, {"id": 370, "name": "Bradwell", "name_ru": "Bradwell", "tz": "", "district": "Milton Keynes"}, {"id": 371, "name": "Newbold", "name_ru": "Newbold", "tz": "", "district": "Derbyshire"}, {"id": 372, "name": "Cam", "name_ru": "Cam", "tz": "", "district": "Gloucestershire"}, {"id": 373, "name": "Leven", "name_ru": "Leven", "tz": "", "district": "Fife"}, {"id": 374, "name": "Dowlais", "name_ru": "Dowlais", "tz": "", "district": "Merthyr Tydfil"}, {"id": 375, "name": "Sandiacre", "name_ru": "Sandiacre", "tz": "", "district": "Nottinghamshire"}, {"id": 376, "name": "Bolton upon Dearne", "name_ru": "Bolton upon Dearne", "tz": "", "district": "Barnsley"}, {"id": 377, "name": "Church", "name_ru": "Church", "tz": "", "district": "Lancashire"}, {"id": 378, "name": "Glastonbury", "name_ru": "Glastonbury", "tz": "", "district": "Somerset"}, {"id": 379, "name": "Bonhill", "name_ru": "Bonhill", "tz": "", "district": "West Dunbartonshire"}, {"id": 380, "name": "Codsall", "name_ru": "Codsall", "tz": "", "district": "Staffordshire"}, {"id": 381, "name": "Great Burstead", "name_ru": "Great Burstead", "tz": "", "district": "Essex"}, {"id": 382, "name": "Sundon", "name_ru": "Sundon", "tz": "", "district": "Luton"}, {"id": 383, "name": "Exhall", "name_ru": "Exhall", "tz": "", "district": "Coventry"}, {"id": 384, "name": "Bedwas", "name_ru": "Bedwas", "tz": "", "district": "Caerphilly"}, {"id": 385, "name": "Bramley", "name_ru": "Bramley", "tz": "", "district": "Rotherham"}, {"id": 386, "name": "Marlborough", "name_ru": "Marlborough", "tz": "", "district": "Wiltshire"}, {"id": 387, "name": "Brimington", "name_ru": "Brimington", "tz": "", "district": "Derbyshire"}, {"id": 388, "name": "Bucksburn", "name_ru": "Bucksburn", "tz": "", "district": "Aberdeen City"}, {"id": 389, "name": "West Auckland", "name_ru": "West Auckland", "tz": "", "district": "Durham"}, {"id": 390, "name": "Gowerton", "name_ru": "Gowerton", "tz": "", "district": "Swansea"}, {"id": 391, "name": "Harworth", "name_ru": "Harworth", "tz": "", "district": "Nottinghamshire"}, {"id": 392, "name": "Monifieth", "name_ru": "Monifieth", "tz": "", "district": "Angus"}, {"id": 393, "name": "Stopsley", "name_ru": "Stopsley", "tz": "", "district": "Luton"}, {"id": 394, "name": "Oban", "name_ru": "Oban", "tz": "", "district": "Argyll and Bute"}, {"id": 395, "name": "Wickersley", "name_ru": "Wickersley", "tz": "", "district": "Rotherham"}, {"id": 396, "name": "Wistaston", "name_ru": "Wistaston", "tz": "", "district": "Cheshire East"}, {"id": 397, "name": "Crieff", "name_ru": "Crieff", "tz": "", "district": "Perth and Kinross"}, {"id": 398, "name": "Torpoint", "name_ru": "Torpoint", "tz": "", "district": "Cornwall"}, {"id": 399, "name": "Bilton", "name_ru": "Bilton", "tz": "", "district": "Warwickshire"}, {"id": 400, "name": "Warrenpoint", "name_ru": "Warrenpoint", "tz": "", "district": "Newry, Mourne and Down"}, {"id": 401, "name": "Whetstone", "name_ru": "Whetstone", "tz": "", "district": "Leicestershire"}, {"id": 402, "name": "Aintree", "name_ru": "Aintree", "tz": "", "district": "Liverpool"}, {"id": 403, "name": "Brechin", "name_ru": "Brechin", "tz": "", "district": "Angus"}, {"id": 404, "name": "Duntocher", "name_ru": "Duntocher", "tz": "", "district": "West Dunbartonshire"}, {"id": 405, "name": "Llantwit Fardre", "name_ru": "Llantwit Fardre", "tz": "", "district": "Rhondda Cynon Taff"}, {"id": 406, "name": "Harlescott", "name_ru": "Harlescott", "tz": "", "district": "Shropshire"}, {"id": 407, "name": "Bothwell", "name_ru": "Bothwell", "tz": "", "district": "South Lanarkshire"}, {"id": 408, "name": "Uddingston", "name_ru": "Uddingston", "tz": "", "district": "South Lanarkshire"}, {"id": 409, "name": "Withernsea", "name_ru": "Withernsea", "tz": "", "district": "East Riding of Yorkshire"}, {"id": 410, "name": "Farington", "name_ru": "Farington", "tz": "", "district": "Lancashire"}, {"id": 411, "name": "Kirkwall", "name_ru": "Kirkwall", "tz": "", "district": "Orkney Islands"}, {"id": 412, "name": "Dyce", "name_ru": "Dyce", "tz": "", "district": "Aberdeen City"}, {"id": 413, "name": "Lexden", "name_ru": "Lexden", "tz": "", "district": "Essex"}, {"id": 414, "name": "Lerwick", "name_ru": "Lerwick", "tz": "", "district": "Shetland Islands"}, {"id": 415, "name": "Sauchie", "name_ru": "Sauchie", "tz": "", "district": "Clackmannanshire"}, {"id": 416, "name": "Cheddar", "name_ru": "Cheddar", "tz": "", "district": "Somerset"}, {"id": 417, "name": "Golcar", "name_ru": "Golcar", "tz": "", "district": "Kirklees"}, {"id": 418, "name": "Altofts", "name_ru": "Altofts", "tz": "", "district": "Wakefield"}, {"id": 419, "name": "Bishopton", "name_ru": "Bishopton", "tz": "", "district": "Renfrewshire"}, {"id": 420, "name": "Broughton", "name_ru": "Broughton", "tz": "", "district": "North Lincolnshire"}, {"id": 421, "name": "Harleston", "name_ru": "Harleston", "tz": "", "district": "Norfolk"}, {"id": 422, "name": "Wotton-under-Edge", "name_ru": "Wotton-under-Edge", "tz": "", "district": "Gloucestershire"}, {"id": 423, "name": "Bridge of Allan", "name_ru": "Bridge of Allan", "tz": "", "district": "Stirling"}, {"id": 424, "name": "Freckleton", "name_ru": "Freckleton", "tz": "", "district": "Lancashire"}, {"id": 425, "name": "Hengoed", "name_ru": "Hengoed", "tz": "", "district": "Caerphilly"}, {"id": 426, "name": "Magor", "name_ru": "Magor", "tz": "", "district": "Monmouthshire"}, {"id": 427, "name": "Balloch", "name_ru": "Balloch", "tz": "", "district": "West Dunbartonshire"}, {"id": 428, "name": "Chickerell", "name_ru": "Chickerell", "tz": "", "district": "Dorset"}, {"id": 429, "name": "Oundle", "name_ru": "Oundle", "tz": "", "district": "Northamptonshire"}, {"id": 430, "name": "Dartmouth", "name_ru": "Dartmouth", "tz": "", "district": "Devon"}, {"id": 431, "name": "Elderslie", "name_ru": "Elderslie", "tz": "", "district": "Renfrewshire"}, {"id": 432, "name": "Brotton", "name_ru": "Brotton", "tz": "", "district": "Redcar and Cleveland"}, {"id": 433, "name": "Brayton", "name_ru": "Brayton", "tz": "", "district": "North Yorkshire"}, {"id": 434, "name": "Kinross", "name_ru": "Kinross", "tz": "", "district": "Perth and Kinross"}, {"id": 435, "name": "Whiston", "name_ru": "Whiston", "tz": "", "district": "Rotherham"}, {"id": 436, "name": "Grangetown", "name_ru": "Grangetown", "tz": "", "district": "Redcar and Cleveland"}, {"id": 437, "name": "Heage", "name_ru": "Heage", "tz": "", "district": "Derbyshire"}, {"id": 438, "name": "Wakefield", "name_ru": "Wakefield", "tz": "", "district": "Wakefield"}, {"id": 439, "name": "Oldham", "name_ru": "Oldham", "tz": "", "district": "Oldham"}, {"id": 440, "name": "Bedford", "name_ru": "Bedford", "tz": "", "district": "Bedford"}, {"id": 441, "name": "Southport", "name_ru": "Southport", "tz": "", "district": "Sefton"}, {"id": 442, "name": "Halifax", "name_ru": "Halifax", "tz": "", "district": "Calderdale"}, {"id": 443, "name": "Grimsby", "name_ru": "Grimsby", "tz": "", "district": "North East Lincolnshire"}, {"id": 444, "name": "Derry", "name_ru": "Derry", "tz": "", "district": "Derry and Strabane"}, {"id": 445, "name": "Redditch", "name_ru": "Redditch", "tz": "", "district": "Worcestershire"}, {"id": 446, "name": "Stockton-on-Tees", "name_ru": "Stockton-on-Tees", "tz": "", "district": "Stockton-on-Tees"}, {"id": 447, "name": "Harlow", "name_ru": "Harlow", "tz": "", "district": "Essex"}, {"id": 448, "name": "Eastleigh", "name_ru": "Eastleigh", "tz": "", "district": "Hampshire"}, {"id": 449, "name": "Guildford", "name_ru": "Guildford", "tz": "", "district": "Surrey"}, {"id": 450, "name": "Shrewsbury", "name_ru": "Shrewsbury", "tz": "", "district": "Shropshire"}, {"id": 451, "name": "Lisburn", "name_ru": "Lisburn", "tz": "", "district": "Lisburn and Castlereagh"}, {"id": 452, "name": "Stafford", "name_ru": "Stafford", "tz": "", "district": "Staffordshire"}, {"id": 453, "name": "Cannock", "name_ru": "Cannock", "tz": "", "district": "Staffordshire"}, {"id": 454, "name": "Godalming", "name_ru": "Godalming", "tz": "", "district": "Surrey"}, {"id": 455, "name": "Maidenhead", "name_ru": "Maidenhead", "tz": "", "district": "Windsor and Maidenhead"}, {"id": 456, "name": "Bognor Regis", "name_ru": "Bognor Regis", "tz": "", "district": "West Sussex"}, {"id": 457, "name": "Woking", "name_ru": "Woking", "tz": "", "district": "Surrey"}, {"id": 458, "name": "Widnes", "name_ru": "Widnes", "tz": "", "district": "Halton"}, {"id": 459, "name": "Margate", "name_ru": "Margate", "tz": "", "district": "Kent"}, {"id": 460, "name": "Halesowen", "name_ru": "Halesowen", "tz": "", "district": "Dudley"}, {"id": 461, "name": "Aldershot", "name_ru": "Aldershot", "tz": "", "district": "Hampshire"}, {"id": 462, "name": "Canterbury", "name_ru": "Canterbury", "tz": "", "district": "Kent"}, {"id": 463, "name": "Corby", "name_ru": "Corby", "tz": "", "district": "Northamptonshire"}, {"id": 464, "name": "Christchurch", "name_ru": "Christchurch", "tz": "", "district": "Dorset"}, {"id": 465, "name": "Keighley", "name_ru": "Keighley", "tz": "", "district": "Bradford"}, {"id": 466, "name": "Livingston", "name_ru": "Livingston", "tz": "", "district": "West Lothian"}, {"id": 467, "name": "Esher", "name_ru": "Esher", "tz": "", "district": "Surrey"}, {"id": 468, "name": "Clacton-on-Sea", "name_ru": "Clacton-on-Sea", "tz": "", "district": "Essex"}, {"id": 469, "name": "Smethwick", "name_ru": "Smethwick", "tz": "", "district": "Sandwell"}, {"id": 470, "name": "Welwyn Garden City", "name_ru": "Welwyn Garden City", "tz": "", "district": "Hertfordshire"}, {"id": 471, "name": "Cwmbran", "name_ru": "Cwmbran", "tz": "", "district": "Torfaen"}, {"id": 472, "name": "Durham", "name_ru": "Durham", "tz": "", "district": "Durham"}, {"id": 473, "name": "Perth", "name_ru": "Perth", "tz": "", "district": "Perth and Kinross"}, {"id": 474, "name": "Kilmarnock", "name_ru": "Kilmarnock", "tz": "", "district": "East Ayrshire"}, {"id": 475, "name": "King's Lynn", "name_ru": "Kingâ€™s Lynn", "tz": "", "district": "Norfolk"}, {"id": 476, "name": "Greenock", "name_ru": "Greenock", "tz": "", "district": "Inverclyde"}, {"id": 477, "name": "Bury Saint Edmunds", "name_ru": "Bury Saint Edmunds", "tz": "", "district": "Suffolk"}, {"id": 478, "name": "Glenrothes", "name_ru": "Glenrothes", "tz": "", "district": "Fife"}, {"id": 479, "name": "Stirling", "name_ru": "Stirling", "tz": "", "district": "Stirling"}, {"id": 480, "name": "Tonbridge", "name_ru": "Tonbridge", "tz": "", "district": "Kent"}, {"id": 481, "name": "Great Yarmouth", "name_ru": "Great Yarmouth", "tz": "", "district": "Norfolk"}, {"id": 482, "name": "Port Talbot", "name_ru": "Port Talbot", "tz": "", "district": "Neath Port Talbot"}, {"id": 483, "name": "Accrington", "name_ru": "Accrington", "tz": "", "district": "Lancashire"}, {"id": 484, "name": "Morecambe", "name_ru": "Morecambe", "tz": "", "district": "Lancashire"}, {"id": 485, "name": "Winchester", "name_ru": "Winchester", "tz": "", "district": "Hampshire"}, {"id": 486, "name": "Exmouth", "name_ru": "Exmouth", "tz": "", "district": "Devon"}, {"id": 487, "name": "Irvine", "name_ru": "Irvine", "tz": "", "district": "North Ayrshire"}, {"id": 488, "name": "Warwick", "name_ru": "Warwick", "tz": "", "district": "Warwickshire"}, {"id": 489, "name": "Wisbech", "name_ru": "Wisbech", "tz": "", "district": "Cambridgeshire"}, {"id": 490, "name": "Dumfries", "name_ru": "Dumfries", "tz": "", "district": "Dumfries and Galloway"}, {"id": 491, "name": "Windsor", "name_ru": "Windsor", "tz": "", "district": "Windsor and Maidenhead"}, {"id": 492, "name": "Whitstable", "name_ru": "Whitstable", "tz": "", "district": "Kent"}, {"id": 493, "name": "Beverley", "name_ru": "Beverley", "tz": "", "district": "East Riding of Yorkshire"}, {"id": 494, "name": "Stanford le Hope", "name_ru": "Stanford le Hope", "tz": "", "district": "Thurrock"}, {"id": 495, "name": "Witney", "name_ru": "Witney", "tz": "", "district": "Oxfordshire"}, {"id": 496, "name": "Seaford", "name_ru": "Seaford", "tz": "", "district": "East Sussex"}, {"id": 497, "name": "Stratford-upon-Avon", "name_ru": "Stratford-upon-Avon", "tz": "", "district": "Warwickshire"}, {"id": 498, "name": "Thetford", "name_ru": "Thetford", "tz": "", "district": "Norfolk"}, {"id": 499, "name": "Jarrow", "name_ru": "Jarrow", "tz": "", "district": "South Tyneside"}, {"id": 500, "name": "East Grinstead", "name_ru": "East Grinstead", "tz": "", "district": "West Sussex"}, {"id": 501, "name": "Burntwood", "name_ru": "Burntwood", "tz": "", "district": "Staffordshire"}, {"id": 502, "name": "Whitehaven", "name_ru": "Whitehaven", "tz": "", "district": "Cumbria"}, {"id": 503, "name": "Farnham", "name_ru": "Farnham", "tz": "", "district": "Surrey"}, {"id": 504, "name": "Newton Abbot", "name_ru": "Newton Abbot", "tz": "", "district": "Devon"}, {"id": 505, "name": "Rickmansworth", "name_ru": "Rickmansworth", "tz": "", "district": "Hertfordshire"}, {"id": 506, "name": "Newport", "name_ru": "Newport", "tz": "", "district": "Isle of Wight"}, {"id": 507, "name": "Formby", "name_ru": "Formby", "tz": "", "district": "Sefton"}, {"id": 508, "name": "Elgin", "name_ru": "Elgin", "tz": "", "district": "Moray"}, {"id": 509, "name": "Kirkintilloch", "name_ru": "Kirkintilloch", "tz": "", "district": "East Dunbartonshire"}, {"id": 510, "name": "Darton", "name_ru": "Darton", "tz": "", "district": "Barnsley"}, {"id": 511, "name": "Omagh", "name_ru": "Omagh", "tz": "", "district": "Fermanagh and Omagh"}, {"id": 512, "name": "South Ockendon", "name_ru": "South Ockendon", "tz": "", "district": "Thurrock"}, {"id": 513, "name": "Richmond", "name_ru": "Richmond", "tz": "", "district": "Richmond upon Thames"}, {"id": 514, "name": "Musselburgh", "name_ru": "Musselburgh", "tz": "", "district": "East Lothian"}, {"id": 515, "name": "Dumbarton", "name_ru": "Dumbarton", "tz": "", "district": "West Dunbartonshire"}, {"id": 516, "name": "Cirencester", "name_ru": "Cirencester", "tz": "", "district": "Gloucestershire"}, {"id": 517, "name": "Ware", "name_ru": "Ware", "tz": "", "district": "Hertfordshire"}, {"id": 518, "name": "Newmarket", "name_ru": "Newmarket", "tz": "", "district": "Suffolk"}, {"id": 519, "name": "Ely", "name_ru": "Ely", "tz": "", "district": "Cambridgeshire"}, {"id": 520, "name": "Dorchester", "name_ru": "Dorchester", "tz": "", "district": "Dorset"}, {"id": 521, "name": "Eastwood", "name_ru": "Eastwood", "tz": "", "district": "Nottinghamshire"}, {"id": 522, "name": "Goole", "name_ru": "Goole", "tz": "", "district": "East Riding of Yorkshire"}, {"id": 523, "name": "Monkseaton", "name_ru": "Monkseaton", "tz": "", "district": "North Tyneside"}, {"id": 524, "name": "Ebbw Vale", "name_ru": "Ebbw Vale", "tz": "", "district": "Blaenau Gwent"}, {"id": 525, "name": "Berkhampstead", "name_ru": "Berkhampstead", "tz": "", "district": "Hertfordshire"}, {"id": 526, "name": "Fulwood", "name_ru": "Fulwood", "tz": "", "district": "Sheffield"}, {"id": 527, "name": "Almondbury", "name_ru": "Almondbury", "tz": "", "district": "Kirklees"}, {"id": 528, "name": "Sunbury", "name_ru": "Sunbury", "tz": "", "district": "Surrey"}, {"id": 529, "name": "Harwich", "name_ru": "Harwich", "tz": "", "district": "Essex"}, {"id": 530, "name": "Portchester", "name_ru": "Portchester", "tz": "", "district": "Hampshire"}, {"id": 531, "name": "Glen Parva", "name_ru": "Glen Parva", "tz": "", "district": "Leicestershire"}, {"id": 532, "name": "Barrhead", "name_ru": "Barrhead", "tz": "", "district": "East Renfrewshire"}, {"id": 533, "name": "Thornton", "name_ru": "Thornton", "tz": "", "district": "Bradford"}, {"id": 534, "name": "Heysham", "name_ru": "Heysham", "tz": "", "district": "Lancashire"}, {"id": 535, "name": "Broxburn", "name_ru": "Broxburn", "tz": "", "district": "West Lothian"}, {"id": 536, "name": "Stanley", "name_ru": "Stanley", "tz": "", "district": "Wakefield"}, {"id": 537, "name": "Haslemere", "name_ru": "Haslemere", "tz": "", "district": "Surrey"}, {"id": 538, "name": "Saint Andrews", "name_ru": "Saint Andrews", "tz": "", "district": "Fife"}, {"id": 539, "name": "Grangemouth", "name_ru": "Grangemouth", "tz": "", "district": "Falkirk"}, {"id": 540, "name": "Northallerton", "name_ru": "Northallerton", "tz": "", "district": "North Yorkshire"}, {"id": 541, "name": "Seacombe", "name_ru": "Seacombe", "tz": "", "district": "Wirral"}, {"id": 542, "name": "Banbridge", "name_ru": "Banbridge", "tz": "", "district": "Armagh, Banbridge and Craigavon"}, {"id": 543, "name": "Denby Dale", "name_ru": "Denby Dale", "tz": "", "district": "Kirklees"}, {"id": 544, "name": "Wyke", "name_ru": "Wyke", "tz": "", "district": "Bradford"}, {"id": 545, "name": "Bangor", "name_ru": "Bangor", "tz": "", "district": "Isle of Anglesey"}, {"id": 546, "name": "Penicuik", "name_ru": "Penicuik", "tz": "", "district": "Midlothian"}, {"id": 547, "name": "Adwick le Street", "name_ru": "Adwick le Street", "tz": "", "district": "Doncaster"}, {"id": 548, "name": "Conwy", "name_ru": "Conwy", "tz": "", "district": "Conwy"}, {"id": 549, "name": "Lewes", "name_ru": "Lewes", "tz": "", "district": "East Sussex"}, {"id": 550, "name": "Hetton le Hole", "name_ru": "Hetton le Hole", "tz": "", "district": "Sunderland"}, {"id": 551, "name": "Alloa", "name_ru": "Alloa", "tz": "", "district": "Clackmannanshire"}, {"id": 552, "name": "Ince-in-Makerfield", "name_ru": "Ince-in-Makerfield", "tz": "", "district": "Wigan"}, {"id": 553, "name": "Oswestry", "name_ru": "Oswestry", "tz": "", "district": "Shropshire"}, {"id": 554, "name": "Matlock", "name_ru": "Matlock", "tz": "", "district": "Derbyshire"}, {"id": 555, "name": "Forfar", "name_ru": "Forfar", "tz": "", "district": "Angus"}, {"id": 556, "name": "Swallownest", "name_ru": "Swallownest", "tz": "", "district": "Rotherham"}, {"id": 557, "name": "Mackworth", "name_ru": "Mackworth", "tz": "", "district": "Derby"}, {"id": 558, "name": "Port Glasgow", "name_ru": "Port Glasgow", "tz": "", "district": "Inverclyde"}, {"id": 559, "name": "Chellaston", "name_ru": "Chellaston", "tz": "", "district": "Derbyshire"}, {"id": 560, "name": "Winkfield", "name_ru": "Winkfield", "tz": "", "district": "Bracknell Forest"}, {"id": 561, "name": "Dalkeith", "name_ru": "Dalkeith", "tz": "", "district": "Midlothian"}, {"id": 562, "name": "Farnborough", "name_ru": "Farnborough", "tz": "", "district": "Bromley"}, {"id": 563, "name": "Penrith", "name_ru": "Penrith", "tz": "", "district": "Cumbria"}, {"id": 564, "name": "Bo'ness", "name_ru": "Boâ€™ness", "tz": "", "district": "Falkirk"}, {"id": 565, "name": "Teignmouth", "name_ru": "Teignmouth", "tz": "", "district": "Devon"}, {"id": 566, "name": "Troon", "name_ru": "Troon", "tz": "", "district": "South Ayrshire"}, {"id": 567, "name": "Cliftonville", "name_ru": "Cliftonville", "tz": "", "district": "Kent"}, {"id": 568, "name": "Hamworthy", "name_ru": "Hamworthy", "tz": "", "district": "Poole"}, {"id": 569, "name": "Helensburgh", "name_ru": "Helensburgh", "tz": "", "district": "Argyll and Bute"}, {"id": 570, "name": "Selston", "name_ru": "Selston", "tz": "", "district": "Nottinghamshire"}, {"id": 571, "name": "Birstall", "name_ru": "Birstall", "tz": "", "district": "Leicester"}, {"id": 572, "name": "Fenton", "name_ru": "Fenton", "tz": "", "district": "Stoke-on-Trent"}, {"id": 573, "name": "Carluke", "name_ru": "Carluke", "tz": "", "district": "South Lanarkshire"}, {"id": 574, "name": "North Walsham", "name_ru": "North Walsham", "tz": "", "district": "Norfolk"}, {"id": 575, "name": "Flitwick", "name_ru": "Flitwick", "tz": "", "district": "Central Bedfordshire"}, {"id": 576, "name": "Cowdenbeath", "name_ru": "Cowdenbeath", "tz": "", "district": "Fife"}, {"id": 577, "name": "Bridgnorth", "name_ru": "Bridgnorth", "tz": "", "district": "Shropshire"}, {"id": 578, "name": "Bryn", "name_ru": "Bryn", "tz": "", "district": "Wigan"}, {"id": 579, "name": "Aberystwyth", "name_ru": "Aberystwyth", "tz": "", "district": "Ceredigion"}, {"id": 580, "name": "Galashiels", "name_ru": "Galashiels", "tz": "", "district": "Scottish Borders, The"}, {"id": 581, "name": "Syston", "name_ru": "Syston", "tz": "", "district": "Leicestershire"}, {"id": 582, "name": "Rushall", "name_ru": "Rushall", "tz": "", "district": "Walsall"}, {"id": 583, "name": "Knowsley", "name_ru": "Knowsley", "tz": "", "district": "Knowsley"}, {"id": 584, "name": "Beaconsfield", "name_ru": "Beaconsfield", "tz": "", "district": "Buckinghamshire"}, {"id": 585, "name": "Horndean", "name_ru": "Horndean", "tz": "", "district": "Hampshire"}, {"id": 586, "name": "Saltcoats", "name_ru": "Saltcoats", "tz": "", "district": "North Ayrshire"}, {"id": 587, "name": "Elland", "name_ru": "Elland", "tz": "", "district": "Calderdale"}, {"id": 588, "name": "Armadale", "name_ru": "Armadale", "tz": "", "district": "West Lothian"}, {"id": 589, "name": "Bickenhill", "name_ru": "Bickenhill", "tz": "", "district": "Solihull"}, {"id": 590, "name": "Tring", "name_ru": "Tring", "tz": "", "district": "Hertfordshire"}, {"id": 591, "name": "Saint Ives", "name_ru": "Saint Ives", "tz": "", "district": "Cornwall"}, {"id": 592, "name": "Cookstown", "name_ru": "Cookstown", "tz": "", "district": "Mid Ulster"}, {"id": 593, "name": "New Mills", "name_ru": "New Mills", "tz": "", "district": "Derbyshire"}, {"id": 594, "name": "Wells", "name_ru": "Wells", "tz": "", "district": "Somerset"}, {"id": 595, "name": "Tranent", "name_ru": "Tranent", "tz": "", "district": "East Lothian"}, {"id": 596, "name": "Montrose", "name_ru": "Montrose", "tz": "", "district": "Angus"}, {"id": 597, "name": "Whitburn", "name_ru": "Whitburn", "tz": "", "district": "West Lothian"}, {"id": 598, "name": "Southwick", "name_ru": "Southwick", "tz": "", "district": "Sunderland"}, {"id": 599, "name": "Oswaldtwistle", "name_ru": "Oswaldtwistle", "tz": "", "district": "Lancashire"}, {"id": 600, "name": "Torton", "name_ru": "Torton", "tz": "", "district": "Worcestershire"}, {"id": 601, "name": "Sunninghill", "name_ru": "Sunninghill", "tz": "", "district": "Windsor and Maidenhead"}, {"id": 602, "name": "Hipperholme", "name_ru": "Hipperholme", "tz": "", "district": "Calderdale"}, {"id": 603, "name": "Hexham", "name_ru": "Hexham", "tz": "", "district": "Northumberland"}, {"id": 604, "name": "Leatherhead", "name_ru": "Leatherhead", "tz": "", "district": "Surrey"}, {"id": 605, "name": "Whitchurch", "name_ru": "Whitchurch", "tz": "", "district": "Bath and North East Somerset"}, {"id": 606, "name": "Great Harwood", "name_ru": "Great Harwood", "tz": "", "district": "Lancashire"}, {"id": 607, "name": "Kingsnorth", "name_ru": "Kingsnorth", "tz": "", "district": "Kent"}, {"id": 608, "name": "Stannington", "name_ru": "Stannington", "tz": "", "district": "Sheffield"}, {"id": 609, "name": "Burtonwood", "name_ru": "Burtonwood", "tz": "", "district": "Warrington"}, {"id": 610, "name": "Largs", "name_ru": "Largs", "tz": "", "district": "North Ayrshire"}, {"id": 611, "name": "Stonehaven", "name_ru": "Stonehaven", "tz": "", "district": "Aberdeenshire"}, {"id": 612, "name": "Methil", "name_ru": "Methil", "tz": "", "district": "Fife"}, {"id": 613, "name": "Soham", "name_ru": "Soham", "tz": "", "district": "Cambridgeshire"}, {"id": 614, "name": "Knowle", "name_ru": "Knowle", "tz": "", "district": "Solihull"}, {"id": 615, "name": "Appleton", "name_ru": "Appleton", "tz": "", "district": "Warrington"}, {"id": 616, "name": "Wooburn", "name_ru": "Wooburn", "tz": "", "district": "Buckinghamshire"}, {"id": 617, "name": "Shevington", "name_ru": "Shevington", "tz": "", "district": "Wigan"}, {"id": 618, "name": "Chesterfield", "name_ru": "Chesterfield", "tz": "", "district": "Derbyshire"}, {"id": 619, "name": "Pencoed", "name_ru": "Pencoed", "tz": "", "district": "Bridgend"}, {"id": 620, "name": "Euxton", "name_ru": "Euxton", "tz": "", "district": "Lancashire"}, {"id": 621, "name": "Caernarfon", "name_ru": "Caernarfon", "tz": "", "district": "Gwynedd"}, {"id": 622, "name": "Southwater", "name_ru": "Southwater", "tz": "", "district": "West Sussex"}, {"id": 623, "name": "Kingsteignton", "name_ru": "Kingsteignton", "tz": "", "district": "Devon"}, {"id": 624, "name": "Ardrossan", "name_ru": "Ardrossan", "tz": "", "district": "North Ayrshire"}, {"id": 625, "name": "Ludlow", "name_ru": "Ludlow", "tz": "", "district": "Shropshire"}, {"id": 626, "name": "Prestonpans", "name_ru": "Prestonpans", "tz": "", "district": "East Lothian"}, {"id": 627, "name": "Blairgowrie", "name_ru": "Blairgowrie", "tz": "", "district": "Perth and Kinross"}, {"id": 628, "name": "Buckie", "name_ru": "Buckie", "tz": "", "district": "Moray"}, {"id": 629, "name": "London Colney", "name_ru": "London Colney", "tz": "", "district": "Hertfordshire"}, {"id": 630, "name": "Cumnock", "name_ru": "Cumnock", "tz": "", "district": "East Ayrshire"}, {"id": 631, "name": "Ellon", "name_ru": "Ellon", "tz": "", "district": "Aberdeenshire"}, {"id": 632, "name": "Padbury", "name_ru": "Padbury", "tz": "", "district": "Buckinghamshire"}, {"id": 633, "name": "Annan", "name_ru": "Annan", "tz": "", "district": "Dumfries and Galloway"}, {"id": 634, "name": "Fort William", "name_ru": "Fort William", "tz": "", "district": "Highland"}, {"id": 635, "name": "Yatton", "name_ru": "Yatton", "tz": "", "district": "North Somerset"}, {"id": 636, "name": "Tanfield", "name_ru": "Tanfield", "tz": "", "district": "Durham"}, {"id": 637, "name": "Crigglestone", "name_ru": "Crigglestone", "tz": "", "district": "Wakefield"}, {"id": 638, "name": "Narborough", "name_ru": "Narborough", "tz": "", "district": "Leicestershire"}, {"id": 639, "name": "Aveley", "name_ru": "Aveley", "tz": "", "district": "Thurrock"}, {"id": 640, "name": "Hayle", "name_ru": "Hayle", "tz": "", "district": "Cornwall"}, {"id": 641, "name": "Holywell", "name_ru": "Holywell", "tz": "", "district": "Flintshire"}, {"id": 642, "name": "Worth", "name_ru": "Worth", "tz": "", "district": "West Sussex"}, {"id": 643, "name": "Towcester", "name_ru": "Towcester", "tz": "", "district": "Northamptonshire"}, {"id": 644, "name": "Queensferry", "name_ru": "Queensferry", "tz": "", "district": "Edinburgh, City of"}, {"id": 645, "name": "Ferryhill", "name_ru": "Ferryhill", "tz": "", "district": "Durham"}, {"id": 646, "name": "Cobham", "name_ru": "Cobham", "tz": "", "district": "Surrey"}, {"id": 647, "name": "Audley", "name_ru": "Audley", "tz": "", "district": "Staffordshire"}, {"id": 648, "name": "Bersted", "name_ru": "Bersted", "tz": "", "district": "West Sussex"}, {"id": 649, "name": "Hockley", "name_ru": "Hockley", "tz": "", "district": "Essex"}, {"id": 650, "name": "Carlton Colville", "name_ru": "Carlton Colville", "tz": "", "district": "Suffolk"}, {"id": 651, "name": "Brandon", "name_ru": "Brandon", "tz": "", "district": "Suffolk"}, {"id": 652, "name": "Shinfield", "name_ru": "Shinfield", "tz": "", "district": "Wokingham"}, {"id": 653, "name": "Binfield", "name_ru": "Binfield", "tz": "", "district": "Bracknell Forest"}, {"id": 654, "name": "Dunblane", "name_ru": "Dunblane", "tz": "", "district": "Stirling"}, {"id": 655, "name": "Stevenston", "name_ru": "Stevenston", "tz": "", "district": "North Ayrshire"}, {"id": 656, "name": "Sherborne", "name_ru": "Sherborne", "tz": "", "district": "Dorset"}, {"id": 657, "name": "Shaftesbury", "name_ru": "Shaftesbury", "tz": "", "district": "Dorset"}, {"id": 658, "name": "Yaxley", "name_ru": "Yaxley", "tz": "", "district": "Cambridgeshire"}, {"id": 659, "name": "Whitnash", "name_ru": "Whitnash", "tz": "", "district": "Warwickshire"}, {"id": 660, "name": "Ystradgynlais", "name_ru": "Ystradgynlais", "tz": "", "district": "Powys"}, {"id": 661, "name": "Haddington", "name_ru": "Haddington", "tz": "", "district": "East Lothian"}, {"id": 662, "name": "Oakengates", "name_ru": "Oakengates", "tz": "", "district": "Telford and Wrekin"}, {"id": 663, "name": "Annfield Plain", "name_ru": "Annfield Plain", "tz": "", "district": "Durham"}, {"id": 664, "name": "Portlethen", "name_ru": "Portlethen", "tz": "", "district": "Aberdeenshire"}, {"id": 665, "name": "Windermere", "name_ru": "Windermere", "tz": "", "district": "Cumbria"}, {"id": 666, "name": "Lanark", "name_ru": "Lanark", "tz": "", "district": "South Lanarkshire"}, {"id": 667, "name": "Warsash", "name_ru": "Warsash", "tz": "", "district": "Hampshire"}, {"id": 668, "name": "Old Colwyn", "name_ru": "Old Colwyn", "tz": "", "district": "Conwy"}, {"id": 669, "name": "Great Cornard", "name_ru": "Great Cornard", "tz": "", "district": "Suffolk"}, {"id": 670, "name": "Stepps", "name_ru": "Stepps", "tz": "", "district": "North Lanarkshire"}, {"id": 671, "name": "Peebles", "name_ru": "Peebles", "tz": "", "district": "Scottish Borders, The"}, {"id": 672, "name": "Skewen", "name_ru": "Skewen", "tz": "", "district": "Neath Port Talbot"}, {"id": 673, "name": "Kilbirnie", "name_ru": "Kilbirnie", "tz": "", "district": "North Ayrshire"}, {"id": 674, "name": "Caister-on-Sea", "name_ru": "Caister-on-Sea", "tz": "", "district": "Norfolk"}, {"id": 675, "name": "Upholland", "name_ru": "Upholland", "tz": "", "district": "Lancashire"}, {"id": 676, "name": "Norton Canes", "name_ru": "Norton Canes", "tz": "", "district": "Staffordshire"}, {"id": 677, "name": "Hughenden", "name_ru": "Hughenden", "tz": "", "district": "Buckinghamshire"}, {"id": 678, "name": "Claygate", "name_ru": "Claygate", "tz": "", "district": "Surrey"}, {"id": 679, "name": "Paddock Wood", "name_ru": "Paddock Wood", "tz": "", "district": "Kent"}, {"id": 680, "name": "Canford Cliffs", "name_ru": "Canford Cliffs", "tz": "", "district": "Bournemouth"}, {"id": 681, "name": "Kirk of Shotts", "name_ru": "Kirk of Shotts", "tz": "", "district": "North Lanarkshire"}, {"id": 682, "name": "Brecon", "name_ru": "Brecon", "tz": "", "district": "Powys"}, {"id": 683, "name": "Lochgelly", "name_ru": "Lochgelly", "tz": "", "district": "Fife"}, {"id": 684, "name": "Strathaven", "name_ru": "Strathaven", "tz": "", "district": "South Lanarkshire"}, {"id": 685, "name": "Northam", "name_ru": "Northam", "tz": "", "district": "Devon"}, {"id": 686, "name": "Willerby", "name_ru": "Willerby", "tz": "", "district": "East Riding of Yorkshire"}, {"id": 687, "name": "Dalton in Furness", "name_ru": "Dalton in Furness", "tz": "", "district": "Cumbria"}, {"id": 688, "name": "Goffs Oak", "name_ru": "Goffs Oak", "tz": "", "district": "Hertfordshire"}, {"id": 689, "name": "Denny", "name_ru": "Denny", "tz": "", "district": "Falkirk"}, {"id": 690, "name": "Radcliffe on Trent", "name_ru": "Radcliffe on Trent", "tz": "", "district": "Nottinghamshire"}, {"id": 691, "name": "Hawkinge", "name_ru": "Hawkinge", "tz": "", "district": "Kent"}, {"id": 692, "name": "Frankley", "name_ru": "Frankley", "tz": "", "district": "Worcestershire"}, {"id": 693, "name": "Thrapston", "name_ru": "Thrapston", "tz": "", "district": "Northamptonshire"}, {"id": 694, "name": "Kelty", "name_ru": "Kelty", "tz": "", "district": "Fife"}, {"id": 695, "name": "West Thurrock", "name_ru": "West Thurrock", "tz": "", "district": "Thurrock"}, {"id": 696, "name": "Waltham", "name_ru": "Waltham", "tz": "", "district": "North East Lincolnshire"}, {"id": 697, "name": "Seasalter", "name_ru": "Seasalter", "tz": "", "district": "Kent"}, {"id": 698, "name": "Kingsbury", "name_ru": "Kingsbury", "tz": "", "district": "Warwickshire"}, {"id": 699, "name": "Wingerworth", "name_ru": "Wingerworth", "tz": "", "district": "Derbyshire"}, {"id": 700, "name": "Wilmington", "name_ru": "Wilmington", "tz": "", "district": "Kent"}, {"id": 701, "name": "Thurso", "name_ru": "Thurso", "tz": "", "district": "Highland"}, {"id": 702, "name": "Bramcote", "name_ru": "Bramcote", "tz": "", "district": "Nottinghamshire"}, {"id": 703, "name": "Banchory", "name_ru": "Banchory", "tz": "", "district": "Aberdeenshire"}, {"id": 704, "name": "Kinmel", "name_ru": "Kinmel", "tz": "", "district": "Denbighshire"}, {"id": 705, "name": "Lossiemouth", "name_ru": "Lossiemouth", "tz": "", "district": "Moray"}, {"id": 706, "name": "Willesborough", "name_ru": "Willesborough", "tz": "", "district": "Kent"}, {"id": 707, "name": "Dunoon", "name_ru": "Dunoon", "tz": "", "district": "Argyll and Bute"}, {"id": 708, "name": "Hook", "name_ru": "Hook", "tz": "", "district": "Hampshire"}, {"id": 709, "name": "Watton", "name_ru": "Watton", "tz": "", "district": "Norfolk"}, {"id": 710, "name": "Longridge", "name_ru": "Longridge", "tz": "", "district": "Lancashire"}, {"id": 711, "name": "West Mersea", "name_ru": "West Mersea", "tz": "", "district": "Essex"}, {"id": 712, "name": "Treharris", "name_ru": "Treharris", "tz": "", "district": "Merthyr Tydfil"}, {"id": 713, "name": "Church Gresley", "name_ru": "Church Gresley", "tz": "", "district": "Derbyshire"}, {"id": 714, "name": "Treherbert", "name_ru": "Treherbert", "tz": "", "district": "Rhondda Cynon Taff"}, {"id": 715, "name": "Boultham", "name_ru": "Boultham", "tz": "", "district": "Lincolnshire"}, {"id": 716, "name": "Wimborne Minster", "name_ru": "Wimborne Minster", "tz": "", "district": "Dorset"}, {"id": 717, "name": "North Berwick", "name_ru": "North Berwick", "tz": "", "district": "East Lothian"}, {"id": 718, "name": "Wardle", "name_ru": "Wardle", "tz": "", "district": "Rochdale"}, {"id": 719, "name": "Drighlington", "name_ru": "Drighlington", "tz": "", "district": "Leeds"}, {"id": 720, "name": "Carlton", "name_ru": "Carlton", "tz": "", "district": "Nottinghamshire"}, {"id": 721, "name": "Countesthorpe", "name_ru": "Countesthorpe", "tz": "", "district": "Leicestershire"}, {"id": 722, "name": "Galleywood", "name_ru": "Galleywood", "tz": "", "district": "Essex"}, {"id": 723, "name": "Coxhoe", "name_ru": "Coxhoe", "tz": "", "district": "Durham"}, {"id": 724, "name": "Rhoose", "name_ru": "Rhoose", "tz": "", "district": "Vale of Glamorgan, The"}, {"id": 725, "name": "Stewarton", "name_ru": "Stewarton", "tz": "", "district": "East Ayrshire"}, {"id": 726, "name": "Locharbriggs", "name_ru": "Locharbriggs", "tz": "", "district": "Dumfries and Galloway"}, {"id": 727, "name": "Wick", "name_ru": "Wick", "tz": "", "district": "Highland"}, {"id": 728, "name": "Torrisholme", "name_ru": "Torrisholme", "tz": "", "district": "Lancashire"}, {"id": 729, "name": "Shenstone", "name_ru": "Shenstone", "tz": "", "district": "Staffordshire"}, {"id": 730, "name": "Llandudno Junction", "name_ru": "Llandudno Junction", "tz": "", "district": "Conwy"}, {"id": 731, "name": "Southwell", "name_ru": "Southwell", "tz": "", "district": "Nottinghamshire"}, {"id": 732, "name": "Burntisland", "name_ru": "Burntisland", "tz": "", "district": "Fife"}, {"id": 733, "name": "Calverton", "name_ru": "Calverton", "tz": "", "district": "Nottinghamshire"}, {"id": 734, "name": "Humberston", "name_ru": "Humberston", "tz": "", "district": "North East Lincolnshire"}, {"id": 735, "name": "Crumlin", "name_ru": "Crumlin", "tz": "", "district": "Caerphilly"}, {"id": 736, "name": "Herne", "name_ru": "Herne", "tz": "", "district": "Kent"}, {"id": 737, "name": "Abersychan", "name_ru": "Abersychan", "tz": "", "district": "Torfaen"}, {"id": 738, "name": "Nailsworth", "name_ru": "Nailsworth", "tz": "", "district": "Gloucestershire"}, {"id": 739, "name": "Sturry", "name_ru": "Sturry", "tz": "", "district": "Kent"}, {"id": 740, "name": "Farnham Royal", "name_ru": "Farnham Royal", "tz": "", "district": "Buckinghamshire"}, {"id": 741, "name": "Muxton", "name_ru": "Muxton", "tz": "", "district": "Telford and Wrekin"}, {"id": 742, "name": "Ash Vale", "name_ru": "Ash Vale", "tz": "", "district": "Surrey"}, {"id": 743, "name": "Gorebridge", "name_ru": "Gorebridge", "tz": "", "district": "Midlothian"}, {"id": 744, "name": "Pinhoe", "name_ru": "Pinhoe", "tz": "", "district": "Devon"}, {"id": 745, "name": "Houston", "name_ru": "Houston", "tz": "", "district": "Renfrewshire"}, {"id": 746, "name": "Bollington", "name_ru": "Bollington", "tz": "", "district": "Cheshire East"}, {"id": 747, "name": "Marshfield", "name_ru": "Marshfield", "tz": "", "district": "Newport"}, {"id": 748, "name": "Gunton", "name_ru": "Gunton", "tz": "", "district": "Suffolk"}, {"id": 749, "name": "Blythebridge", "name_ru": "Blythebridge", "tz": "", "district": "Staffordshire"}, {"id": 750, "name": "Deeping Saint James", "name_ru": "Deeping Saint James", "tz": "", "district": "Lincolnshire"}, {"id": 751, "name": "Bonnybridge", "name_ru": "Bonnybridge", "tz": "", "district": "Falkirk"}, {"id": 752, "name": "Newbridge", "name_ru": "Newbridge", "tz": "", "district": "Caerphilly"}, {"id": 753, "name": "Ammanford", "name_ru": "Ammanford", "tz": "", "district": "Carmarthenshire"}, {"id": 754, "name": "Loanhead", "name_ru": "Loanhead", "tz": "", "district": "Midlothian"}, {"id": 755, "name": "Stainforth", "name_ru": "Stainforth", "tz": "", "district": "Doncaster"}, {"id": 756, "name": "Oakley", "name_ru": "Oakley", "tz": "", "district": "Hampshire"}, {"id": 757, "name": "Weaverham", "name_ru": "Weaverham", "tz": "", "district": "Cheshire West and Chester"}, {"id": 758, "name": "Great Wakering", "name_ru": "Great Wakering", "tz": "", "district": "Southend-on-Sea"}, {"id": 759, "name": "Newton Grange", "name_ru": "Newton Grange", "tz": "", "district": "Midlothian"}, {"id": 760, "name": "Kelso", "name_ru": "Kelso", "tz": "", "district": "Scottish Borders, The"}, {"id": 761, "name": "Billinge", "name_ru": "Billinge", "tz": "", "district": "St. Helens"}, {"id": 762, "name": "Branston", "name_ru": "Branston", "tz": "", "district": "Staffordshire"}, {"id": 763, "name": "Griffithstown", "name_ru": "Griffithstown", "tz": "", "district": "Torfaen"}, {"id": 764, "name": "Battle", "name_ru": "Battle", "tz": "", "district": "East Sussex"}, {"id": 765, "name": "Fishtoft", "name_ru": "Fishtoft", "tz": "", "district": "Lincolnshire"}, {"id": 766, "name": "Holmes Chapel", "name_ru": "Holmes Chapel", "tz": "", "district": "Cheshire East"}, {"id": 767, "name": "Alexandria", "name_ru": "Alexandria", "tz": "", "district": "West Dunbartonshire"}, {"id": 768, "name": "Great Chart", "name_ru": "Great Chart", "tz": "", "district": "Kent"}, {"id": 769, "name": "Askern", "name_ru": "Askern", "tz": "", "district": "Doncaster"}, {"id": 770, "name": "Landore", "name_ru": "Landore", "tz": "", "district": "Swansea"}, {"id": 771, "name": "Welshpool", "name_ru": "Welshpool", "tz": "", "district": "Powys"}, {"id": 772, "name": "Bannockburn", "name_ru": "Bannockburn", "tz": "", "district": "Stirling"}, {"id": 773, "name": "Sandycroft", "name_ru": "Sandycroft", "tz": "", "district": "Flintshire"}, {"id": 774, "name": "Ballingry", "name_ru": "Ballingry", "tz": "", "district": "Fife"}, {"id": 775, "name": "Chapelhall", "name_ru": "Chapelhall", "tz": "", "district": "North Lanarkshire"}, {"id": 776, "name": "Twyford", "name_ru": "Twyford", "tz": "", "district": "Wokingham"}, {"id": 777, "name": "South Molton", "name_ru": "South Molton", "tz": "", "district": "Devon"}, {"id": 778, "name": "Sawley", "name_ru": "Sawley", "tz": "", "district": "Leicestershire"}, {"id": 779, "name": "Illogan", "name_ru": "Illogan", "tz": "", "district": "Cornwall"}, {"id": 780, "name": "Looe", "name_ru": "Looe", "tz": "", "district": "Cornwall"}, {"id": 781, "name": "Wirksworth", "name_ru": "Wirksworth", "tz": "", "district": "Derbyshire"}, {"id": 782, "name": "Cwmafan", "name_ru": "Cwmafan", "tz": "", "district": "Neath Port Talbot"}, {"id": 783, "name": "Skelton", "name_ru": "Skelton", "tz": "", "district": "Redcar and Cleveland"}, {"id": 784, "name": "Stansted Mountfitchet", "name_ru": "Stansted Mountfitchet", "tz": "", "district": "Essex"}, {"id": 785, "name": "Wheathampstead", "name_ru": "Wheathampstead", "tz": "", "district": "Hertfordshire"}, {"id": 786, "name": "Danbury", "name_ru": "Danbury", "tz": "", "district": "Essex"}, {"id": 787, "name": "Kirriemuir", "name_ru": "Kirriemuir", "tz": "", "district": "Angus"}, {"id": 788, "name": "East Leake", "name_ru": "East Leake", "tz": "", "district": "Nottinghamshire"}, {"id": 789, "name": "Treforest", "name_ru": "Treforest", "tz": "", "district": "Rhondda Cynon Taff"}, {"id": 790, "name": "Haworth", "name_ru": "Haworth", "tz": "", "district": "Bradford"}, {"id": 791, "name": "Pagham", "name_ru": "Pagham", "tz": "", "district": "West Sussex"}, {"id": 792, "name": "Blaby", "name_ru": "Blaby", "tz": "", "district": "Leicestershire"}, {"id": 793, "name": "Bursledon", "name_ru": "Bursledon", "tz": "", "district": "Hampshire"}, {"id": 794, "name": "Calstock", "name_ru": "Calstock", "tz": "", "district": "Devon"}, {"id": 795, "name": "Abercarn", "name_ru": "Abercarn", "tz": "", "district": "Caerphilly"}, {"id": 796, "name": "Drayton", "name_ru": "Drayton", "tz": "", "district": "Norfolk"}, {"id": 797, "name": "Sidley", "name_ru": "Sidley", "tz": "", "district": "East Sussex"}, {"id": 798, "name": "Girvan", "name_ru": "Girvan", "tz": "", "district": "South Ayrshire"}, {"id": 799, "name": "Headley", "name_ru": "Headley", "tz": "", "district": "Hampshire"}, {"id": 800, "name": "Liss", "name_ru": "Liss", "tz": "", "district": "Hampshire"}, {"id": 801, "name": "Newarthill", "name_ru": "Newarthill", "tz": "", "district": "North Lanarkshire"}, {"id": 802, "name": "Buntingford", "name_ru": "Buntingford", "tz": "", "district": "Hertfordshire"}, {"id": 803, "name": "Stonewood", "name_ru": "Stonewood", "tz": "", "district": "Kent"}, {"id": 804, "name": "Pinxton", "name_ru": "Pinxton", "tz": "", "district": "Derbyshire"}, {"id": 805, "name": "Glyncorrwg", "name_ru": "Glyncorrwg", "tz": "", "district": "Neath Port Talbot"}, {"id": 806, "name": "Cuddington", "name_ru": "Cuddington", "tz": "", "district": "Cheshire West and Chester"}, {"id": 807, "name": "Rowlands Gill", "name_ru": "Rowlands Gill", "tz": "", "district": "Gateshead"}, {"id": 808, "name": "Orsett", "name_ru": "Orsett", "tz": "", "district": "Thurrock"}, {"id": 809, "name": "Broughton", "name_ru": "Broughton", "tz": "", "district": "Flintshire"}, {"id": 810, "name": "Dingwall", "name_ru": "Dingwall", "tz": "", "district": "Highland"}, {"id": 811, "name": "Swanwick", "name_ru": "Swanwick", "tz": "", "district": "Derbyshire"}, {"id": 812, "name": "Colney Heath", "name_ru": "Colney Heath", "tz": "", "district": "Hertfordshire"}, {"id": 813, "name": "Beith", "name_ru": "Beith", "tz": "", "district": "North Ayrshire"}, {"id": 814, "name": "Great Warley Street", "name_ru": "Great Warley Street", "tz": "", "district": "Essex"}, {"id": 815, "name": "Stoke Mandeville", "name_ru": "Stoke Mandeville", "tz": "", "district": "Buckinghamshire"}, {"id": 816, "name": "Blean", "name_ru": "Blean", "tz": "", "district": "Kent"}, {"id": 817, "name": "Bramley", "name_ru": "Bramley", "tz": "", "district": "Hampshire"}, {"id": 818, "name": "Axminster", "name_ru": "Axminster", "tz": "", "district": "Devon"}, {"id": 819, "name": "East Preston", "name_ru": "East Preston", "tz": "", "district": "West Sussex"}, {"id": 820, "name": "Botley", "name_ru": "Botley", "tz": "", "district": "Hampshire"}, {"id": 821, "name": "Alness", "name_ru": "Alness", "tz": "", "district": "Highland"}, {"id": 822, "name": "Cumnor", "name_ru": "Cumnor", "tz": "", "district": "Oxfordshire"}, {"id": 823, "name": "Balerno", "name_ru": "Balerno", "tz": "", "district": "Edinburgh, City of"}, {"id": 824, "name": "Markfield", "name_ru": "Markfield", "tz": "", "district": "Leicestershire"}, {"id": 825, "name": "Martlesham", "name_ru": "Martlesham", "tz": "", "district": "Suffolk"}, {"id": 826, "name": "Bagshot", "name_ru": "Bagshot", "tz": "", "district": "Surrey"}, {"id": 827, "name": "Cockenzie", "name_ru": "Cockenzie", "tz": "", "district": "East Lothian"}, {"id": 828, "name": "Wyke Regis", "name_ru": "Wyke Regis", "tz": "", "district": "Dorset"}, {"id": 829, "name": "Hartford", "name_ru": "Hartford", "tz": "", "district": "Cheshire West and Chester"}, {"id": 830, "name": "Selkirk", "name_ru": "Selkirk", "tz": "", "district": "Scottish Borders, The"}, {"id": 831, "name": "Tidenham", "name_ru": "Tidenham", "tz": "", "district": "Gloucestershire"}, {"id": 832, "name": "Ore", "name_ru": "Ore", "tz": "", "district": "East Sussex"}, {"id": 833, "name": "Newmains", "name_ru": "Newmains", "tz": "", "district": "North Lanarkshire"}, {"id": 834, "name": "Wool", "name_ru": "Wool", "tz": "", "district": "Dorset"}, {"id": 835, "name": "Stonehouse", "name_ru": "Stonehouse", "tz": "", "district": "South Lanarkshire"}, {"id": 836, "name": "Hartley", "name_ru": "Hartley", "tz": "", "district": "Kent"}, {"id": 837, "name": "Neilston", "name_ru": "Neilston", "tz": "", "district": "East Renfrewshire"}, {"id": 838, "name": "Nursling", "name_ru": "Nursling", "tz": "", "district": "Hampshire"}, {"id": 839, "name": "Kings Langley", "name_ru": "Kings Langley", "tz": "", "district": "Hertfordshire"}, {"id": 840, "name": "Bilton", "name_ru": "Bilton", "tz": "", "district": "North Yorkshire"}, {"id": 841, "name": "Cardenden", "name_ru": "Cardenden", "tz": "", "district": "Fife"}, {"id": 842, "name": "Polmont", "name_ru": "Polmont", "tz": "", "district": "Falkirk"}, {"id": 843, "name": "Dalry", "name_ru": "Dalry", "tz": "", "district": "North Ayrshire"}, {"id": 844, "name": "Roundway", "name_ru": "Roundway", "tz": "", "district": "Wiltshire"}, {"id": 845, "name": "Holytown", "name_ru": "Holytown", "tz": "", "district": "North Lanarkshire"}, {"id": 846, "name": "Pinchbeck", "name_ru": "Pinchbeck", "tz": "", "district": "Lincolnshire"}, {"id": 847, "name": "East Calder", "name_ru": "East Calder", "tz": "", "district": "West Lothian"}, {"id": 848, "name": "Edwinstowe", "name_ru": "Edwinstowe", "tz": "", "district": "Nottinghamshire"}, {"id": 849, "name": "Stornoway", "name_ru": "Stornoway", "tz": "", "district": "Eilean Siar"}, {"id": 850, "name": "Auchterarder", "name_ru": "Auchterarder", "tz": "", "district": "Perth and Kinross"}, {"id": 851, "name": "Gresford", "name_ru": "Gresford", "tz": "", "district": "Wrexham"}, {"id": 852, "name": "Llangefni", "name_ru": "Llangefni", "tz": "", "district": "Isle of Anglesey"}, {"id": 853, "name": "Hunters Quay", "name_ru": "Hunters Quay", "tz": "", "district": "Argyll and Bute"}, {"id": 854, "name": "Middleton-on-Sea", "name_ru": "Middleton-on-Sea", "tz": "", "district": "West Sussex"}, {"id": 855, "name": "Basing", "name_ru": "Basing", "tz": "", "district": "Hampshire"}, {"id": 856, "name": "Garswood", "name_ru": "Garswood", "tz": "", "district": "St. Helens"}, {"id": 857, "name": "Lea Town", "name_ru": "Lea Town", "tz": "", "district": "Lancashire"}, {"id": 858, "name": "Sollom", "name_ru": "Sollom", "tz": "", "district": "Lancashire"}]