[{"id": 1, "name": "Tbilisi", "name_ru": "Tbilisi", "tz": "", "district": "Tbilisi"}, {"id": 2, "name": "Batumi", "name_ru": "Batumi", "tz": "", "district": "Ajaria"}, {"id": 3, "name": "Kutaisi", "name_ru": "Kutaisi", "tz": "", "district": "Imereti"}, {"id": 4, "name": "Rustavi", "name_ru": "Rustavi", "tz": "", "district": "Kvemo Kartli"}, {"id": 5, "name": "Sokhumi", "name_ru": "Sokhumi", "tz": "", "district": "Abkhazia"}, {"id": 6, "name": "Gori", "name_ru": "Gori", "tz": "", "district": "Shida Kartli"}, {"id": 7, "name": "Zugdidi", "name_ru": "Zugdidi", "tz": "", "district": "Samegrelo-Zemo Svaneti"}, {"id": 8, "name": "Telavi", "name_ru": "Telavi", "tz": "", "district": "K’akheti"}, {"id": 9, "name": "Ozurgeti", "name_ru": "Ozurgeti", "tz": "", "district": "Guria"}, {"id": 10, "name": "Akhaltsikhe", "name_ru": "Akhaltsikhe", "tz": "", "district": "Samtskhe-Javakheti"}, {"id": 11, "name": "Mtskheta", "name_ru": "Mtskheta", "tz": "", "district": "Mtskheta Mtianeti"}, {"id": 12, "name": "Ambrolauri", "name_ru": "Ambrolauri", "tz": "", "district": "Rach’a-Lechkhumi da Kvemo Svaneti"}, {"id": 13, "name": "Rustavi", "name_ru": "Rustavi", "tz": "", "district": "Kvemo Kartli"}, {"id": 14, "name": "Poti", "name_ru": "Poti", "tz": "", "district": "Samegrelo-Zemo Svaneti"}, {"id": 15, "name": "Tskhinvali", "name_ru": "Tskhinvali", "tz": "", "district": "Shida Kartli"}, {"id": 16, "name": "Khashuri", "name_ru": "Khashuri", "tz": "", "district": "Shida Kartli"}, {"id": 17, "name": "Samtredia", "name_ru": "Samtredia", "tz": "", "district": "Imereti"}, {"id": 18, "name": "Senaki", "name_ru": "Senaki", "tz": "", "district": "Samegrelo-Zemo Svaneti"}, {"id": 19, "name": "Marneuli", "name_ru": "Marneuli", "tz": "", "district": "Kvemo Kartli"}, {"id": 20, "name": "Gardabani", "name_ru": "Gardabani", "tz": "", "district": "Kvemo Kartli"}, {"id": 21, "name": "Kaspi", "name_ru": "Kaspi", "tz": "", "district": "Shida Kartli"}, {"id": 22, "name": "Chiatura", "name_ru": "Chiatura", "tz": "", "district": "Imereti"}, {"id": 23, "name": "Tsqaltubo", "name_ru": "Tsqaltubo", "tz": "", "district": "Imereti"}, {"id": 24, "name": "Sagarejo", "name_ru": "Sagarejo", "tz": "", "district": "K’akheti"}, {"id": 25, "name": "Borjomi", "name_ru": "Borjomi", "tz": "", "district": "Samtskhe-Javakheti"}, {"id": 26, "name": "T'q'ibuli", "name_ru": "T’q’ibuli", "tz": "", "district": "Imereti"}, {"id": 27, "name": "Khoni", "name_ru": "Khoni", "tz": "", "district": "Imereti"}, {"id": 28, "name": "Bolnisi", "name_ru": "Bolnisi", "tz": "", "district": "Kvemo Kartli"}, {"id": 29, "name": "Akhalkalaki", "name_ru": "Akhalkalaki", "tz": "", "district": "Samtskhe-Javakheti"}, {"id": 30, "name": "Gurjaani", "name_ru": "Gurjaani", "tz": "", "district": "K’akheti"}, {"id": 31, "name": "Q'vareli", "name_ru": "Q’vareli", "tz": "", "district": "K’akheti"}, {"id": 32, "name": "Gali", "name_ru": "Gali", "tz": "", "district": "Abkhazia"}, {"id": 33, "name": "Akhmeta", "name_ru": "Akhmeta", "tz": "", "district": "K’akheti"}, {"id": 34, "name": "Lanchkhuti", "name_ru": "Lanchkhuti", "tz": "", "district": "Guria"}, {"id": 35, "name": "Sachkhere", "name_ru": "Sachkhere", "tz": "", "district": "Imereti"}, {"id": 36, "name": "Dusheti", "name_ru": "Dusheti", "tz": "", "district": "Mtskheta Mtianeti"}, {"id": 37, "name": "Lagodekhi", "name_ru": "Lagodekhi", "tz": "", "district": "K’akheti"}, {"id": 38, "name": "Dedoplists'q'aro", "name_ru": "Dedoplists’q’aro", "tz": "", "district": "K’akheti"}, {"id": 39, "name": "Ochamchire", "name_ru": "Ochamchire", "tz": "", "district": "Abkhazia"}, {"id": 40, "name": "Ninotsminda", "name_ru": "Ninotsminda", "tz": "", "district": "Samtskhe-Javakheti"}, {"id": 41, "name": "Algeti", "name_ru": "Algeti", "tz": "", "district": "Kvemo Kartli"}]