[{"id": 1, "name": "Accra", "name_ru": "Accra", "tz": "", "district": "Greater Accra"}, {"id": 2, "name": "Kumasi", "name_ru": "Kumasi", "tz": "", "district": "Ashanti"}, {"id": 3, "name": "Tamale", "name_ru": "Tamale", "tz": "", "district": "Northern"}, {"id": 4, "name": "Sekondi", "name_ru": "Sekondi", "tz": "", "district": "Western"}, {"id": 5, "name": "Obuase", "name_ru": "Obuase", "tz": "", "district": "Ashanti"}, {"id": 6, "name": "Tema", "name_ru": "Tema", "tz": "", "district": "Greater Accra"}, {"id": 7, "name": "Cape Coast", "name_ru": "Cape Coast", "tz": "", "district": "Central"}, {"id": 8, "name": "Koforidua", "name_ru": "Koforidua", "tz": "", "district": "Eastern"}, {"id": 9, "name": "Ho", "name_ru": "Ho", "tz": "", "district": "Volta"}, {"id": 10, "name": "Wa", "name_ru": "Wa", "tz": "", "district": "Upper West"}, {"id": 11, "name": "Sunyani", "name_ru": "Sunyani", "tz": "", "district": "Brong-Ahafo"}, {"id": 12, "name": "Bolgatanga", "name_ru": "Bolgatanga", "tz": "", "district": "Upper East"}, {"id": 13, "name": "Techiman", "name_ru": "Techiman", "tz": "", "district": "Brong-Ahafo"}, {"id": 14, "name": "Sefwi Wiawso", "name_ru": "Sefwi Wiawso", "tz": "", "district": "Western"}, {"id": 15, "name": "Dambai", "name_ru": "Dambai", "tz": "", "district": "Volta"}, {"id": 16, "name": "Goaso", "name_ru": "Goaso", "tz": "", "district": "Brong-Ahafo"}, {"id": 17, "name": "Nalerigu", "name_ru": "Nalerigu", "tz": "", "district": "Northern"}, {"id": 18, "name": "Damongo", "name_ru": "Damongo", "tz": "", "district": "Northern"}, {"id": 19, "name": "Bawku", "name_ru": "Bawku", "tz": "", "district": "Upper East"}, {"id": 20, "name": "Aflao", "name_ru": "Aflao", "tz": "", "district": "Volta"}, {"id": 21, "name": "Nkawkaw", "name_ru": "Nkawkaw", "tz": "", "district": "Eastern"}, {"id": 22, "name": "Hohoe", "name_ru": "Hohoe", "tz": "", "district": "Volta"}, {"id": 23, "name": "Winneba", "name_ru": "Winneba", "tz": "", "district": "Central"}, {"id": 24, "name": "Berekum", "name_ru": "Berekum", "tz": "", "district": "Brong-Ahafo"}, {"id": 25, "name": "Yendi", "name_ru": "Yendi", "tz": "", "district": "Northern"}, {"id": 26, "name": "Keta", "name_ru": "Keta", "tz": "", "district": "Volta"}, {"id": 27, "name": "Gumani", "name_ru": "Gumani", "tz": "", "district": "Northern"}, {"id": 28, "name": "Diari", "name_ru": "Diari", "tz": "", "district": "Northern"}, {"id": 29, "name": "Sang", "name_ru": "Sang", "tz": "", "district": "Northern"}, {"id": 30, "name": "Kanvile", "name_ru": "Kanvile", "tz": "", "district": "Northern"}]