[{"id": 1, "name": "Nuuk", "name_ru": "Nuuk", "tz": "America/Nuuk", "district": "Sermersooq"}, {"id": 2, "name": "Sisimiut", "name_ru": "Sisimiut", "tz": "America/Nuuk", "district": "Qeqqata"}, {"id": 3, "name": "Ilulissat", "name_ru": "Ilulissat", "tz": "America/Nuuk", "district": "Qaasuitsup"}, {"id": 4, "name": "Qaqortoq", "name_ru": "Qaqortoq", "tz": "America/Nuuk", "district": "Kujalleq"}, {"id": 5, "name": "Aasiaat", "name_ru": "Aasiaat", "tz": "America/Nuuk", "district": "Qaasuitsup"}, {"id": 6, "name": "Tasiilaq", "name_ru": "Tasiilaq", "tz": "America/Nuuk", "district": "Sermersooq"}, {"id": 7, "name": "Uummannaq", "name_ru": "Uummannaq", "tz": "America/Nuuk", "district": "Qaasuitsup"}, {"id": 8, "name": "Qasigiannguit", "name_ru": "Qasigiannguit", "tz": "America/Nuuk", "district": "Qaasuitsup"}, {"id": 9, "name": "Paamiut", "name_ru": "Paamiut", "tz": "America/Nuuk", "district": "Sermersooq"}, {"id": 10, "name": "Upernavik", "name_ru": "Upernavik", "tz": "America/Nuuk", "district": "Qaasuitsup"}, {"id": 11, "name": "Godhavn", "name_ru": "Godhavn", "tz": "America/Nuuk", "district": "Qaasuitsup"}, {"id": 12, "name": "Qaanaaq", "name_ru": "Qaanaaq", "tz": "America/Thule", "district": "Qaasuitsup"}, {"id": 13, "name": "Scoresbysund", "name_ru": "Scoresbysund", "tz": "America/Scoresbysund", "district": "Sermersooq"}, {"id": 14, "name": "Kullorsuaq", "name_ru": "Kullorsuaq", "tz": "America/Nuuk", "district": "Qaasuitsup"}, {"id": 15, "name": "Tasiusaq", "name_ru": "Tasiusaq", "tz": "America/Nuuk", "district": "Qaasuitsup"}, {"id": 16, "name": "Kulusuk", "name_ru": "Kulusuk", "tz": "America/Nuuk", "district": "Sermersooq"}, {"id": 17, "name": "Kangersuatsiaq", "name_ru": "Kangersuatsiaq", "tz": "America/Nuuk", "district": "Qaasuitsup"}, {"id": 18, "name": "Kraulshavn", "name_ru": "Kraulshavn", "tz": "America/Nuuk", "district": "Qaasuitsup"}, {"id": 19, "name": "Narsarsuaq", "name_ru": "Narsarsuaq", "tz": "America/Nuuk", "district": "Kujalleq"}, {"id": 20, "name": "Savissivik", "name_ru": "Savissivik", "tz": "America/Thule", "district": "Qaasuitsup"}, {"id": 21, "name": "Nord", "name_ru": "Nord", "tz": "America/Nuuk", "district": "Sermersooq"}, {"id": 22, "name": "Timmiarmiut", "name_ru": "Timmiarmiut", "tz": "America/Nuuk", "district": "Kujalleq"}]