[{"id": 1, "name": "Conakry", "name_ru": "Conakry", "tz": "", "district": "Conakry"}, {"id": 2, "name": "Gueckedou", "name_ru": "Guéckédou", "tz": "", "district": "N’Zérékoré"}, {"id": 3, "name": "Siguiri", "name_ru": "Siguiri", "tz": "", "district": "Kankan"}, {"id": 4, "name": "N'Zerekore", "name_ru": "N’Zérékoré", "tz": "", "district": "N’Zérékoré"}, {"id": 5, "name": "Kindia", "name_ru": "Kindia", "tz": "", "district": "Kindia"}, {"id": 6, "name": "Boke", "name_ru": "Boké", "tz": "", "district": "Boké"}, {"id": 7, "name": "Kankan", "name_ru": "Kankan", "tz": "", "district": "Kankan"}, {"id": 8, "name": "Labe", "name_ru": "Labé", "tz": "", "district": "Labé"}, {"id": 9, "name": "Mamou", "name_ru": "Mamou", "tz": "", "district": "Mamou"}, {"id": 10, "name": "Faranah", "name_ru": "Faranah", "tz": "", "district": "Faranah"}, {"id": 11, "name": "Forecariah", "name_ru": "Forécariah", "tz": "", "district": "Kindia"}, {"id": 12, "name": "Kamsar", "name_ru": "Kamsar", "tz": "", "district": "Boké"}, {"id": 13, "name": "Kissidougou", "name_ru": "Kissidougou", "tz": "", "district": "Faranah"}, {"id": 14, "name": "Macenta", "name_ru": "Macenta", "tz": "", "district": "N’Zérékoré"}, {"id": 15, "name": "Dabola", "name_ru": "Dabola", "tz": "", "district": "Faranah"}, {"id": 16, "name": "Telimele", "name_ru": "Télimélé", "tz": "", "district": "Kindia"}, {"id": 17, "name": "Tougue", "name_ru": "Tougué", "tz": "", "district": "Labé"}, {"id": 18, "name": "Fria", "name_ru": "Fria", "tz": "", "district": "Boké"}, {"id": 19, "name": "Pita", "name_ru": "Pita", "tz": "", "district": "Mamou"}, {"id": 20, "name": "Kerouane", "name_ru": "Kérouané", "tz": "", "district": "Kankan"}, {"id": 21, "name": "Koundara", "name_ru": "Koundara", "tz": "", "district": "Boké"}, {"id": 22, "name": "Kouroussa", "name_ru": "Kouroussa", "tz": "", "district": "Kankan"}, {"id": 23, "name": "Beyla", "name_ru": "Beyla", "tz": "", "district": "N’Zérékoré"}, {"id": 24, "name": "Gaoual", "name_ru": "Gaoual", "tz": "", "district": "Boké"}, {"id": 25, "name": "Dalaba", "name_ru": "Dalaba", "tz": "", "district": "Mamou"}, {"id": 26, "name": "Dinguiraye", "name_ru": "Dinguiraye", "tz": "", "district": "Faranah"}, {"id": 27, "name": "Mali", "name_ru": "Mali", "tz": "", "district": "Labé"}, {"id": 28, "name": "Yomou", "name_ru": "Yomou", "tz": "", "district": "N’Zérékoré"}, {"id": 29, "name": "Boffa", "name_ru": "Boffa", "tz": "", "district": "Boké"}]