[{"id": 1, "name": "Malabo", "name_ru": "Malabo", "tz": "", "district": "Bioko Norte"}, {"id": 2, "name": "Bata", "name_ru": "Bata", "tz": "", "district": "Litoral"}, {"id": 3, "name": "Ebebiyin", "name_ru": "Ebebiyín", "tz": "", "district": "Kié-Ntem"}, {"id": 4, "name": "Evinayong", "name_ru": "Evinayong", "tz": "", "district": "Centro Sur"}, {"id": 5, "name": "Luba", "name_ru": "Luba", "tz": "", "district": "Bioko Sur"}, {"id": 6, "name": "Mongomo", "name_ru": "Mongomo", "tz": "", "district": "Wele-Nzas"}, {"id": 7, "name": "Pale", "name_ru": "Palé", "tz": "", "district": "Annobón"}, {"id": 8, "name": "Djibloho", "name_ru": "Djibloho", "tz": "", "district": "Centro Sur"}, {"id": 9, "name": "Anisoc", "name_ru": "Añisoc", "tz": "", "district": "Wele-Nzas"}, {"id": 10, "name": "Bengonbeyene", "name_ru": "Bengonbeyene", "tz": "", "district": "Wele-Nzas"}, {"id": 11, "name": "Aconibe", "name_ru": "Aconibe", "tz": "", "district": "Wele-Nzas"}, {"id": 12, "name": "Rebola", "name_ru": "Rebola", "tz": "", "district": "Bioko Norte"}, {"id": 13, "name": "Mikomeseng", "name_ru": "Mikomeseng", "tz": "", "district": "Kié-Ntem"}, {"id": 14, "name": "Calatrava", "name_ru": "Calatrava", "tz": "", "district": "Litoral"}]