[{"id": 1, "name": "Athens", "name_ru": "Athens", "tz": "", "district": "Attikí"}, {"id": 2, "name": "Thessaloniki", "name_ru": "Thessaloníki", "tz": "", "district": "Kentrikí Makedonía"}, {"id": 3, "name": "Piraeus", "name_ru": "Piraeus", "tz": "", "district": "Attikí"}, {"id": 4, "name": "Patra", "name_ru": "Pátra", "tz": "", "district": "Dytikí Elláda"}, {"id": 5, "name": "Peristeri", "name_ru": "Peristéri", "tz": "", "district": "Attikí"}, {"id": 6, "name": "Larisa", "name_ru": "Lárisa", "tz": "", "district": "Thessalía"}, {"id": 7, "name": "Irakleio", "name_ru": "Irákleio", "tz": "", "district": "Kríti"}, {"id": 8, "name": "Kallithea", "name_ru": "Kallithéa", "tz": "", "district": "Attikí"}, {"id": 9, "name": "Nikaia", "name_ru": "Níkaia", "tz": "", "district": "Attikí"}, {"id": 10, "name": "Glyfada", "name_ru": "Glyfáda", "tz": "", "district": "Attikí"}, {"id": 11, "name": "Volos", "name_ru": "Vólos", "tz": "", "district": "Thessalía"}, {"id": 12, "name": "Nea Ionia", "name_ru": "Néa Ionía", "tz": "", "district": "Attikí"}, {"id": 13, "name": "Chalandri", "name_ru": "Chalándri", "tz": "", "district": "Attikí"}, {"id": 14, "name": "Palaio Faliro", "name_ru": "Palaió Fáliro", "tz": "", "district": "Attikí"}, {"id": 15, "name": "Vyronas", "name_ru": "Výronas", "tz": "", "district": "Attikí"}, {"id": 16, "name": "Agia Paraskevi", "name_ru": "Agía Paraskeví", "tz": "", "district": "Attikí"}, {"id": 17, "name": "Ioannina", "name_ru": "Ioánnina", "tz": "", "district": "Ípeiros"}, {"id": 18, "name": "Rodos", "name_ru": "Ródos", "tz": "", "district": "Notío Aigaío"}, {"id": 19, "name": "Chania", "name_ru": "Chaniá", "tz": "", "district": "Kríti"}, {"id": 20, "name": "Lamia", "name_ru": "Lamía", "tz": "", "district": "Stereá Elláda"}, {"id": 21, "name": "Komotini", "name_ru": "Komotiní", "tz": "", "district": "Anatolikí Makedonía kai Thráki"}, {"id": 22, "name": "Kozani", "name_ru": "Kozáni", "tz": "", "district": "Dytikí Makedonía"}, {"id": 23, "name": "Vrilissia", "name_ru": "Vrilíssia", "tz": "", "district": "Attikí"}, {"id": 24, "name": "Nea Filadelfeia", "name_ru": "Néa Filadélfeia", "tz": "", "district": "Attikí"}, {"id": 25, "name": "Pefki", "name_ru": "Péfki", "tz": "", "district": "Attikí"}, {"id": 26, "name": "Tripoli", "name_ru": "Trípoli", "tz": "", "district": "Peloponnísos"}, {"id": 27, "name": "Mytilini", "name_ru": "Mytilíni", "tz": "", "district": "Voreío Aigaío"}, {"id": 28, "name": "Kerkyra", "name_ru": "Kérkyra", "tz": "", "district": "Ionía Nísia"}, {"id": 29, "name": "Lykovrysi", "name_ru": "Lykóvrysi", "tz": "", "district": "Attikí"}, {"id": 30, "name": "Zefyri", "name_ru": "Zefýri", "tz": "", "district": "Attikí"}, {"id": 31, "name": "Psychiko", "name_ru": "Psychikó", "tz": "", "district": "Attikí"}, {"id": 32, "name": "Ermoupoli", "name_ru": "Ermoúpoli", "tz": "", "district": "Notío Aigaío"}, {"id": 33, "name": "Trikala", "name_ru": "Tríkala", "tz": "", "district": "Thessalía"}, {"id": 34, "name": "Chalkida", "name_ru": "Chalkída", "tz": "", "district": "Stereá Elláda"}, {"id": 35, "name": "Serres", "name_ru": "Sérres", "tz": "", "district": "Kentrikí Makedonía"}, {"id": 36, "name": "Alexandroupoli", "name_ru": "Alexandroúpoli", "tz": "", "district": "Anatolikí Makedonía kai Thráki"}, {"id": 37, "name": "Xanthi", "name_ru": "Xánthi", "tz": "", "district": "Anatolikí Makedonía kai Thráki"}, {"id": 38, "name": "Katerini", "name_ru": "Kateríni", "tz": "", "district": "Kentrikí Makedonía"}, {"id": 39, "name": "Kavala", "name_ru": "Kavála", "tz": "", "district": "Anatolikí Makedonía kai Thráki"}, {"id": 40, "name": "Kalamata", "name_ru": "Kalamáta", "tz": "", "district": "Peloponnísos"}, {"id": 41, "name": "Chaidari", "name_ru": "Chaïdári", "tz": "", "district": "Attikí"}, {"id": 42, "name": "Agrinio", "name_ru": "Agrínio", "tz": "", "district": "Dytikí Elláda"}, {"id": 43, "name": "Drama", "name_ru": "Dráma", "tz": "", "district": "Anatolikí Makedonía kai Thráki"}, {"id": 44, "name": "Veroia", "name_ru": "Véroia", "tz": "", "district": "Kentrikí Makedonía"}, {"id": 45, "name": "Karditsa", "name_ru": "Kardítsa", "tz": "", "district": "Thessalía"}, {"id": 46, "name": "Kos", "name_ru": "Kos", "tz": "", "district": "Notío Aigaío"}, {"id": 47, "name": "Rethymno", "name_ru": "Réthymno", "tz": "", "district": "Kríti"}, {"id": 48, "name": "Korinthos", "name_ru": "Kórinthos", "tz": "", "district": "Peloponnísos"}, {"id": 49, "name": "Giannitsa", "name_ru": "Giannitsá", "tz": "", "district": "Kentrikí Makedonía"}, {"id": 50, "name": "Chios", "name_ru": "Chíos", "tz": "", "district": "Voreío Aigaío"}, {"id": 51, "name": "Elefsina", "name_ru": "Elefsína", "tz": "", "district": "Attikí"}, {"id": 52, "name": "Salamina", "name_ru": "Salamína", "tz": "", "district": "Attikí"}, {"id": 53, "name": "Pyrgos", "name_ru": "Pýrgos", "tz": "", "district": "Dytikí Elláda"}, {"id": 54, "name": "Megara", "name_ru": "Mégara", "tz": "", "district": "Attikí"}, {"id": 55, "name": "Kilkis", "name_ru": "Kilkís", "tz": "", "district": "Kentrikí Makedonía"}, {"id": 56, "name": "Thebes", "name_ru": "Thebes", "tz": "", "district": "Stereá Elláda"}, {"id": 57, "name": "Lefkada", "name_ru": "Lefkáda", "tz": "", "district": "Ionía Nísia"}, {"id": 58, "name": "Ano Syros", "name_ru": "Áno Sýros", "tz": "", "district": "Notío Aigaío"}, {"id": 59, "name": "Livadeia", "name_ru": "Livadeiá", "tz": "", "district": "Stereá Elláda"}, {"id": 60, "name": "Aigio", "name_ru": "Aígio", "tz": "", "district": "Dytikí Elláda"}, {"id": 61, "name": "Preveza", "name_ru": "Préveza", "tz": "", "district": "Ípeiros"}, {"id": 62, "name": "Naousa", "name_ru": "Náousa", "tz": "", "district": "Kentrikí Makedonía"}, {"id": 63, "name": "Orestiada", "name_ru": "Orestiáda", "tz": "", "district": "Anatolikí Makedonía kai Thráki"}, {"id": 64, "name": "Sparti", "name_ru": "Spárti", "tz": "", "district": "Peloponnísos"}, {"id": 65, "name": "Thermi", "name_ru": "Thérmi", "tz": "", "district": "Kentrikí Makedonía"}, {"id": 66, "name": "Alexandreia", "name_ru": "Alexándreia", "tz": "", "district": "Kentrikí Makedonía"}, {"id": 67, "name": "Paiania", "name_ru": "Paianía", "tz": "", "district": "Attikí"}, {"id": 68, "name": "Nea Alikarnassos", "name_ru": "Néa Alikarnassós", "tz": "", "district": "Kríti"}, {"id": 69, "name": "Nafplio", "name_ru": "Náfplio", "tz": "", "district": "Peloponnísos"}, {"id": 70, "name": "Nafpaktos", "name_ru": "Náfpaktos", "tz": "", "district": "Dytikí Elláda"}, {"id": 71, "name": "Kastoria", "name_ru": "Kastoriá", "tz": "", "district": "Dytikí Makedonía"}, {"id": 72, "name": "Kalymnos", "name_ru": "Kálymnos", "tz": "", "district": "Notío Aigaío"}, {"id": 73, "name": "Glyka Nera", "name_ru": "Glyká Nerá", "tz": "", "district": "Attikí"}, {"id": 74, "name": "Loutraki", "name_ru": "Loutráki", "tz": "", "district": "Peloponnísos"}, {"id": 75, "name": "Anatoli", "name_ru": "Anatolí", "tz": "", "district": "Ípeiros"}, {"id": 76, "name": "Kiato", "name_ru": "Kiáto", "tz": "", "district": "Peloponnísos"}, {"id": 77, "name": "Tyrnavos", "name_ru": "Týrnavos", "tz": "", "district": "Thessalía"}, {"id": 78, "name": "Diavata", "name_ru": "Diavatá", "tz": "", "district": "Kentrikí Makedonía"}, {"id": 79, "name": "Nea Moudania", "name_ru": "Néa Moudaniá", "tz": "", "district": "Kentrikí Makedonía"}, {"id": 80, "name": "Porto Rafti", "name_ru": "Pórto Ráfti", "tz": "", "district": "Attikí"}, {"id": 81, "name": "Nea Artaki", "name_ru": "Néa Artáki", "tz": "", "district": "Stereá Elláda"}, {"id": 82, "name": "Argostoli", "name_ru": "Argostóli", "tz": "", "district": "Ionía Nísia"}, {"id": 83, "name": "Nea Michaniona", "name_ru": "Néa Michanióna", "tz": "", "district": "Kentrikí Makedonía"}, {"id": 84, "name": "Sindos", "name_ru": "Síndos", "tz": "", "district": "Kentrikí Makedonía"}, {"id": 85, "name": "Farsala", "name_ru": "Fársala", "tz": "", "district": "Thessalía"}, {"id": 86, "name": "Spata", "name_ru": "Spáta", "tz": "", "district": "Attikí"}, {"id": 87, "name": "Nea Peramos", "name_ru": "Néa Péramos", "tz": "", "district": "Attikí"}, {"id": 88, "name": "Siteia", "name_ru": "Siteía", "tz": "", "district": "Kríti"}, {"id": 89, "name": "Didymoteicho", "name_ru": "Didymóteicho", "tz": "", "district": "Anatolikí Makedonía kai Thráki"}, {"id": 90, "name": "Epanomi", "name_ru": "Epanomí", "tz": "", "district": "Kentrikí Makedonía"}, {"id": 91, "name": "Chrysoupoli", "name_ru": "Chrysoúpoli", "tz": "", "district": "Anatolikí Makedonía kai Thráki"}, {"id": 92, "name": "Mournies", "name_ru": "Mourniés", "tz": "", "district": "Kríti"}, {"id": 93, "name": "Kalampaka", "name_ru": "Kalampáka", "tz": "", "district": "Thessalía"}, {"id": 94, "name": "Giannouli", "name_ru": "Giánnouli", "tz": "", "district": "Thessalía"}, {"id": 95, "name": "Lagkadas", "name_ru": "Lagkadás", "tz": "", "district": "Kentrikí Makedonía"}, {"id": 96, "name": "Almyros", "name_ru": "Almyrós", "tz": "", "district": "Thessalía"}, {"id": 97, "name": "Koufalia", "name_ru": "Koufália", "tz": "", "district": "Kentrikí Makedonía"}, {"id": 98, "name": "Nea Kallikrateia", "name_ru": "Néa Kallikráteia", "tz": "", "district": "Kentrikí Makedonía"}, {"id": 99, "name": "Elassona", "name_ru": "Elassóna", "tz": "", "district": "Thessalía"}, {"id": 100, "name": "Chalastra", "name_ru": "Chalástra", "tz": "", "district": "Kentrikí Makedonía"}, {"id": 101, "name": "Lavrio", "name_ru": "Lávrio", "tz": "", "district": "Attikí"}, {"id": 102, "name": "Karpenisi", "name_ru": "Karpenísi", "tz": "", "district": "Stereá Elláda"}, {"id": 103, "name": "Marathonas", "name_ru": "Marathónas", "tz": "", "district": "Attikí"}, {"id": 104, "name": "Polykastro", "name_ru": "Polýkastro", "tz": "", "district": "Kentrikí Makedonía"}, {"id": 105, "name": "Kato Achaia", "name_ru": "Káto Achaḯa", "tz": "", "district": "Dytikí Elláda"}, {"id": 106, "name": "Aigina", "name_ru": "Aígina", "tz": "", "district": "Attikí"}, {"id": 107, "name": "Litochoro", "name_ru": "Litóchoro", "tz": "", "district": "Kentrikí Makedonía"}, {"id": 108, "name": "Aridaia", "name_ru": "Aridaía", "tz": "", "district": "Kentrikí Makedonía"}, {"id": 109, "name": "Neo Karlovasi", "name_ru": "Néo Karlovási", "tz": "", "district": "Voreío Aigaío"}, {"id": 110, "name": "Neoi Epivates", "name_ru": "Néoi Epivátes", "tz": "", "district": "Kentrikí Makedonía"}, {"id": 111, "name": "Rio", "name_ru": "Río", "tz": "", "district": "Dytikí Elláda"}, {"id": 112, "name": "Souda", "name_ru": "Soúda", "tz": "", "district": "Kríti"}, {"id": 113, "name": "Kounoupidiana", "name_ru": "Kounoupidianá", "tz": "", "district": "Kríti"}, {"id": 114, "name": "Anavyssos", "name_ru": "Anávyssos", "tz": "", "district": "Attikí"}, {"id": 115, "name": "Agria", "name_ru": "Agriá", "tz": "", "district": "Thessalía"}, {"id": 116, "name": "Messini", "name_ru": "Messíni", "tz": "", "district": "Peloponnísos"}, {"id": 117, "name": "Myrina", "name_ru": "Mýrina", "tz": "", "district": "Voreío Aigaío"}, {"id": 118, "name": "Polygyros", "name_ru": "Polýgyros", "tz": "", "district": "Kentrikí Makedonía"}, {"id": 119, "name": "Megalopoli", "name_ru": "Megalópoli", "tz": "", "district": "Peloponnísos"}, {"id": 120, "name": "Filiatra", "name_ru": "Filiatrá", "tz": "", "district": "Peloponnísos"}, {"id": 121, "name": "Nerokouros", "name_ru": "Nerokoúros", "tz": "", "district": "Kríti"}, {"id": 122, "name": "Dionysos", "name_ru": "Diónysos", "tz": "", "district": "Attikí"}, {"id": 123, "name": "Psachna", "name_ru": "Psachná", "tz": "", "district": "Stereá Elláda"}, {"id": 124, "name": "Xylokastro", "name_ru": "Xylókastro", "tz": "", "district": "Peloponnísos"}, {"id": 125, "name": "Filyro", "name_ru": "Fílyro", "tz": "", "district": "Kentrikí Makedonía"}, {"id": 126, "name": "Kremasti", "name_ru": "Kremastí", "tz": "", "district": "Notío Aigaío"}, {"id": 127, "name": "Siatista", "name_ru": "Siátista", "tz": "", "district": "Dytikí Makedonía"}, {"id": 128, "name": "Feres", "name_ru": "Féres", "tz": "", "district": "Anatolikí Makedonía kai Thráki"}, {"id": 129, "name": "Tympaki", "name_ru": "Tympáki", "tz": "", "district": "Kríti"}, {"id": 130, "name": "Vrontados", "name_ru": "Vrontádos", "tz": "", "district": "Voreío Aigaío"}, {"id": 131, "name": "Archangelos", "name_ru": "Archángelos", "tz": "", "district": "Notío Aigaío"}, {"id": 132, "name": "Skydra", "name_ru": "Skýdra", "tz": "", "district": "Kentrikí Makedonía"}, {"id": 133, "name": "Kyparissia", "name_ru": "Kyparissía", "tz": "", "district": "Peloponnísos"}, {"id": 134, "name": "Nea Anchialos", "name_ru": "Néa Anchiálos", "tz": "", "district": "Thessalía"}, {"id": 135, "name": "Karystos", "name_ru": "Kárystos", "tz": "", "district": "Stereá Elláda"}, {"id": 136, "name": "Orchomenos", "name_ru": "Orchomenós", "tz": "", "district": "Stereá Elláda"}, {"id": 137, "name": "Gargalianoi", "name_ru": "Gargaliánoi", "tz": "", "district": "Peloponnísos"}]