[{"id": 1, "name": "Guatemala City", "name_ru": "Guatemala City", "tz": "", "district": "Guatemala"}, {"id": 2, "name": "Villa Nueva", "name_ru": "Villa Nueva", "tz": "", "district": "Guatemala"}, {"id": 3, "name": "Coatepeque", "name_ru": "Coatepeque", "tz": "", "district": "Quetzaltenango"}, {"id": 4, "name": "San Pedro Carcha", "name_ru": "San Pedro Carchá", "tz": "", "district": "Alta Verapaz"}, {"id": 5, "name": "Coban", "name_ru": "Cobán", "tz": "", "district": "Alta Verapaz"}, {"id": 6, "name": "Quetzaltenango", "name_ru": "Quetzaltenango", "tz": "", "district": "Quetzaltenango"}, {"id": 7, "name": "San Juan Sacatepequez", "name_ru": "San Juan Sacatepéquez", "tz": "", "district": "Guatemala"}, {"id": 8, "name": "Jutiapa", "name_ru": "Jutiapa", "tz": "", "district": "Jutiapa"}, {"id": 9, "name": "Flores", "name_ru": "Flores", "tz": "", "district": "Petén"}, {"id": 10, "name": "Momostenango", "name_ru": "Momostenango", "tz": "", "district": "Totonicapán"}, {"id": 11, "name": "San Luis", "name_ru": "San Luis", "tz": "", "district": "Petén"}, {"id": 12, "name": "Nueva Concepcion", "name_ru": "Nueva Concepción", "tz": "", "district": "Escuintla"}, {"id": 13, "name": "Santa Lucia Cotzumalguapa", "name_ru": "Santa Lucía Cotzumalguapa", "tz": "", "district": "Escuintla"}, {"id": 14, "name": "Amatitlan", "name_ru": "Amatitlán", "tz": "", "district": "Guatemala"}, {"id": 15, "name": "Jalapa", "name_ru": "Jalapa", "tz": "", "district": "Jalapa"}, {"id": 16, "name": "Totonicapan", "name_ru": "Totonicapán", "tz": "", "district": "Totonicapán"}, {"id": 17, "name": "Puerto Barrios", "name_ru": "Puerto Barrios", "tz": "", "district": "Izabal"}, {"id": 18, "name": "Escuintla", "name_ru": "Escuintla", "tz": "", "district": "Escuintla"}, {"id": 19, "name": "Morales", "name_ru": "Morales", "tz": "", "district": "Izabal"}, {"id": 20, "name": "Chichicastenango", "name_ru": "Chichicastenango", "tz": "", "district": "Quiché"}, {"id": 21, "name": "Malacatan", "name_ru": "Malacatán", "tz": "", "district": "San Marcos"}, {"id": 22, "name": "Mazatenango", "name_ru": "Mazatenango", "tz": "", "district": "Suchitepéquez"}, {"id": 23, "name": "Petapa", "name_ru": "Petapa", "tz": "", "district": "Guatemala"}, {"id": 24, "name": "Chiquimula", "name_ru": "Chiquimula", "tz": "", "district": "Chiquimula"}, {"id": 25, "name": "Salama", "name_ru": "Salamá", "tz": "", "district": "Baja Verapaz"}, {"id": 26, "name": "Zacapa", "name_ru": "Zacapa", "tz": "", "district": "Zacapa"}, {"id": 27, "name": "San Marcos", "name_ru": "San Marcos", "tz": "", "district": "San Marcos"}, {"id": 28, "name": "Solola", "name_ru": "Sololá", "tz": "", "district": "Sololá"}, {"id": 29, "name": "Antigua Guatemala", "name_ru": "Antigua Guatemala", "tz": "", "district": "Sacatepéquez"}, {"id": 30, "name": "Huehuetenango", "name_ru": "Huehuetenango", "tz": "", "district": "Huehuetenango"}, {"id": 31, "name": "Chimaltenango", "name_ru": "Chimaltenango", "tz": "", "district": "Chimaltenango"}, {"id": 32, "name": "Retalhuleu", "name_ru": "Retalhuleu", "tz": "", "district": "Retalhuleu"}, {"id": 33, "name": "Santa Cruz del Quiche", "name_ru": "Santa Cruz del Quiché", "tz": "", "district": "Quiché"}, {"id": 34, "name": "Santiago Sacatepequez", "name_ru": "Santiago Sacatepéquez", "tz": "", "district": "Sacatepéquez"}, {"id": 35, "name": "Cuilapa", "name_ru": "Cuilapa", "tz": "", "district": "Santa Rosa"}, {"id": 36, "name": "Guastatoya", "name_ru": "Guastatoya", "tz": "", "district": "El Progreso"}, {"id": 37, "name": "Senahu", "name_ru": "Senahú", "tz": "", "district": "Alta Verapaz"}, {"id": 38, "name": "Tacana", "name_ru": "Tacaná", "tz": "", "district": "San Marcos"}, {"id": 39, "name": "El Estor", "name_ru": "El Estor", "tz": "", "district": "Izabal"}, {"id": 40, "name": "Panzos", "name_ru": "Panzos", "tz": "", "district": "Alta Verapaz"}, {"id": 41, "name": "San Cristobal Verapaz", "name_ru": "San Cristóbal Verapaz", "tz": "", "district": "Alta Verapaz"}, {"id": 42, "name": "Livingston", "name_ru": "Lívingston", "tz": "", "district": "Izabal"}, {"id": 43, "name": "Chinautla", "name_ru": "Chinautla", "tz": "", "district": "Guatemala"}, {"id": 44, "name": "Fray Bartolome de Las Casas", "name_ru": "Fray Bartolomé de Las Casas", "tz": "", "district": "Alta Verapaz"}, {"id": 45, "name": "Villa Canales", "name_ru": "Villa Canales", "tz": "", "district": "Guatemala"}, {"id": 46, "name": "Santa Maria La Pila", "name_ru": "Santa María La Pila", "tz": "", "district": "Alta Verapaz"}, {"id": 47, "name": "Chisec", "name_ru": "Chisec", "tz": "", "district": "Alta Verapaz"}, {"id": 48, "name": "San Pedro Sacatepequez", "name_ru": "San Pedro Sacatepéquez", "tz": "", "district": "San Marcos"}, {"id": 49, "name": "San Francisco El Alto", "name_ru": "San Francisco El Alto", "tz": "", "district": "Totonicapán"}, {"id": 50, "name": "Purulha", "name_ru": "Purulhá", "tz": "", "district": "Baja Verapaz"}, {"id": 51, "name": "Los Amates", "name_ru": "Los Amates", "tz": "", "district": "Izabal"}, {"id": 52, "name": "Esquipulas", "name_ru": "Esquipulas", "tz": "", "district": "Chiquimula"}, {"id": 53, "name": "Santa Catarina Pinula", "name_ru": "Santa Catarina Pinula", "tz": "", "district": "Guatemala"}, {"id": 54, "name": "Palin", "name_ru": "Palín", "tz": "", "district": "Escuintla"}, {"id": 55, "name": "San Juan Chamelco", "name_ru": "San Juan Chamelco", "tz": "", "district": "Alta Verapaz"}, {"id": 56, "name": "Nahuala", "name_ru": "Nahualá", "tz": "", "district": "Sololá"}, {"id": 57, "name": "Iztapa", "name_ru": "Iztapa", "tz": "", "district": "Escuintla"}, {"id": 58, "name": "Cubulco", "name_ru": "Cubulco", "tz": "", "district": "Baja Verapaz"}, {"id": 59, "name": "Tecpan Guatemala", "name_ru": "Tecpán Guatemala", "tz": "", "district": "Chimaltenango"}, {"id": 60, "name": "Comitancillo", "name_ru": "Comitancillo", "tz": "", "district": "San Marcos"}, {"id": 61, "name": "Sayaxche", "name_ru": "Sayaxché", "tz": "", "district": "Petén"}, {"id": 62, "name": "Concepcion Tutuapa", "name_ru": "Concepción Tutuapa", "tz": "", "district": "San Marcos"}, {"id": 63, "name": "Santa Maria Chiquimula", "name_ru": "Santa María Chiquimula", "tz": "", "district": "Totonicapán"}, {"id": 64, "name": "La Gomera", "name_ru": "La Gomera", "tz": "", "district": "Escuintla"}, {"id": 65, "name": "Tiquisate", "name_ru": "Tiquisate", "tz": "", "district": "Escuintla"}, {"id": 66, "name": "Tajumulco", "name_ru": "Tajumulco", "tz": "", "district": "San Marcos"}, {"id": 67, "name": "Tucuru", "name_ru": "Tucurú", "tz": "", "district": "Alta Verapaz"}, {"id": 68, "name": "Cuyotenango", "name_ru": "Cuyotenango", "tz": "", "district": "Suchitepéquez"}, {"id": 69, "name": "Gualan", "name_ru": "Gualán", "tz": "", "district": "Zacapa"}, {"id": 70, "name": "Palencia", "name_ru": "Palencia", "tz": "", "district": "Guatemala"}, {"id": 71, "name": "Santa Catarina Ixtahuacan", "name_ru": "Santa Catarina Ixtahuacán", "tz": "", "district": "Sololá"}, {"id": 72, "name": "San Francisco", "name_ru": "San Francisco", "tz": "", "district": "Petén"}, {"id": 73, "name": "San Jose Pinula", "name_ru": "San José Pinula", "tz": "", "district": "Guatemala"}, {"id": 74, "name": "Santiago Atitlan", "name_ru": "Santiago Atitlán", "tz": "", "district": "Sololá"}, {"id": 75, "name": "San Pedro Ayampuc", "name_ru": "San Pedro Ayampuc", "tz": "", "district": "Guatemala"}, {"id": 76, "name": "Rabinal", "name_ru": "Rabinal", "tz": "", "district": "Baja Verapaz"}, {"id": 77, "name": "San Cristobal Totonicapan", "name_ru": "San Cristóbal Totonicapán", "tz": "", "district": "Totonicapán"}, {"id": 78, "name": "Poptun", "name_ru": "Poptún", "tz": "", "district": "Petén"}, {"id": 79, "name": "Tactic", "name_ru": "Tactic", "tz": "", "district": "Alta Verapaz"}, {"id": 80, "name": "Uspantan", "name_ru": "Uspantán", "tz": "", "district": "Quiché"}, {"id": 81, "name": "El Tumbador", "name_ru": "El Tumbador", "tz": "", "district": "San Marcos"}, {"id": 82, "name": "Asuncion Mita", "name_ru": "Asunción Mita", "tz": "", "district": "Jutiapa"}, {"id": 83, "name": "San Agustin Acasaguastlan", "name_ru": "San Agustín Acasaguastlán", "tz": "", "district": "El Progreso"}, {"id": 84, "name": "Raxruha", "name_ru": "Raxruhá", "tz": "", "district": "Alta Verapaz"}, {"id": 85, "name": "Dolores", "name_ru": "Dolores", "tz": "", "district": "Petén"}, {"id": 86, "name": "La Union", "name_ru": "La Unión", "tz": "", "district": "Zacapa"}, {"id": 87, "name": "San Miguel Chicaj", "name_ru": "San Miguel Chicaj", "tz": "", "district": "Baja Verapaz"}, {"id": 88, "name": "Santa Cruz Verapaz", "name_ru": "Santa Cruz Verapaz", "tz": "", "district": "Alta Verapaz"}, {"id": 89, "name": "San Miguel Ixtahuacan", "name_ru": "San Miguel Ixtahuacán", "tz": "", "district": "San Marcos"}, {"id": 90, "name": "Champerico", "name_ru": "Champerico", "tz": "", "district": "Retalhuleu"}, {"id": 91, "name": "Todos Santos Cuchumatan", "name_ru": "Todos Santos Cuchumatán", "tz": "", "district": "Huehuetenango"}, {"id": 92, "name": "Cantel", "name_ru": "Cantel", "tz": "", "district": "Quetzaltenango"}, {"id": 93, "name": "Ciudad Tecun Uman", "name_ru": "Ciudad Tecún Umán", "tz": "", "district": "San Marcos"}, {"id": 94, "name": "Fraijanes", "name_ru": "Fraijanes", "tz": "", "district": "Guatemala"}, {"id": 95, "name": "Sanarate", "name_ru": "Sanarate", "tz": "", "district": "El Progreso"}, {"id": 96, "name": "Mataquescuintla", "name_ru": "Mataquescuintla", "tz": "", "district": "Jalapa"}, {"id": 97, "name": "Olintepeque", "name_ru": "Olintepeque", "tz": "", "district": "Quetzaltenango"}, {"id": 98, "name": "San Andres Itzapa", "name_ru": "San Andrés Itzapa", "tz": "", "district": "Chimaltenango"}, {"id": 99, "name": "Santo Domingo Suchitepequez", "name_ru": "Santo Domingo Suchitepéquez", "tz": "", "district": "Suchitepéquez"}, {"id": 100, "name": "Chajul", "name_ru": "Chajul", "tz": "", "district": "Quiché"}, {"id": 101, "name": "San Pedro Sacatepequez", "name_ru": "San Pedro Sacatepéquez", "tz": "", "district": "Guatemala"}, {"id": 102, "name": "San Andres Xecul", "name_ru": "San Andrés Xecul", "tz": "", "district": "Totonicapán"}, {"id": 103, "name": "Ciudad Vieja", "name_ru": "Ciudad Vieja", "tz": "", "district": "Sacatepéquez"}, {"id": 104, "name": "San Agustin Chahal", "name_ru": "San Agustín Chahal", "tz": "", "district": "Alta Verapaz"}, {"id": 105, "name": "Nenton", "name_ru": "Nentón", "tz": "", "district": "Huehuetenango"}, {"id": 106, "name": "Sibinal", "name_ru": "Sibinal", "tz": "", "district": "San Marcos"}, {"id": 107, "name": "Ixchiguan", "name_ru": "Ixchiguán", "tz": "", "district": "San Marcos"}, {"id": 108, "name": "Lanquin", "name_ru": "Lanquín", "tz": "", "district": "Alta Verapaz"}, {"id": 109, "name": "Colotenango", "name_ru": "Colotenango", "tz": "", "district": "Huehuetenango"}, {"id": 110, "name": "San Lucas Sacatepequez", "name_ru": "San Lucas Sacatepéquez", "tz": "", "district": "Sacatepéquez"}, {"id": 111, "name": "San Juan Ixcoy", "name_ru": "San Juan Ixcoy", "tz": "", "district": "Huehuetenango"}, {"id": 112, "name": "San Lucas Toliman", "name_ru": "San Lucas Tolimán", "tz": "", "district": "Sololá"}, {"id": 113, "name": "Santa Lucia La Reforma", "name_ru": "Santa Lucia La Reforma", "tz": "", "district": "Totonicapán"}, {"id": 114, "name": "La Blanca", "name_ru": "La Blanca", "tz": "", "district": "San Marcos"}, {"id": 115, "name": "San Martin Sacatepequez", "name_ru": "San Martín Sacatepéquez", "tz": "", "district": "Quetzaltenango"}, {"id": 116, "name": "Cabrican", "name_ru": "Cabricán", "tz": "", "district": "Quetzaltenango"}, {"id": 117, "name": "Tamahu", "name_ru": "Tamahú", "tz": "", "district": "Alta Verapaz"}, {"id": 118, "name": "Puerto San Jose", "name_ru": "Puerto San José", "tz": "", "district": "Escuintla"}, {"id": 119, "name": "Comapa", "name_ru": "Comapa", "tz": "", "district": "Jutiapa"}, {"id": 120, "name": "Olopa", "name_ru": "Olopa", "tz": "", "district": "Chiquimula"}, {"id": 121, "name": "Santa Lucia Utatlan", "name_ru": "Santa Lucía Utatlán", "tz": "", "district": "Sololá"}, {"id": 122, "name": "El Tejar", "name_ru": "El Tejar", "tz": "", "district": "Chimaltenango"}, {"id": 123, "name": "Taxisco", "name_ru": "Taxisco", "tz": "", "district": "Santa Rosa"}, {"id": 124, "name": "La Democracia", "name_ru": "La Democracia", "tz": "", "district": "Escuintla"}, {"id": 125, "name": "San Raimundo", "name_ru": "San Raimundo", "tz": "", "district": "Guatemala"}, {"id": 126, "name": "Zacualpa", "name_ru": "Zacualpa", "tz": "", "district": "Quiché"}, {"id": 127, "name": "El Progreso", "name_ru": "El Progreso", "tz": "", "district": "Jutiapa"}, {"id": 128, "name": "San Andres Villa Seca", "name_ru": "San Andrés Villa Seca", "tz": "", "district": "Retalhuleu"}, {"id": 129, "name": "Siquinala", "name_ru": "Siquinalá", "tz": "", "district": "Escuintla"}, {"id": 130, "name": "Ocos", "name_ru": "Ocós", "tz": "", "district": "San Marcos"}, {"id": 131, "name": "Teculutan", "name_ru": "Teculután", "tz": "", "district": "Zacapa"}, {"id": 132, "name": "Ciudad Melchor de Mencos", "name_ru": "Ciudad Melchor de Mencos", "tz": "", "district": "Petén"}, {"id": 133, "name": "San Jose Ojetenam", "name_ru": "San José Ojetenam", "tz": "", "district": "San Marcos"}, {"id": 134, "name": "San Antonio Sacatepequez", "name_ru": "San Antonio Sacatepéquez", "tz": "", "district": "San Marcos"}, {"id": 135, "name": "El Quetzal", "name_ru": "El Quetzal", "tz": "", "district": "San Marcos"}, {"id": 136, "name": "Salcaja", "name_ru": "Salcajá", "tz": "", "district": "Quetzaltenango"}, {"id": 137, "name": "Huitan", "name_ru": "Huitán", "tz": "", "district": "Quetzaltenango"}, {"id": 138, "name": "Yupiltepeque", "name_ru": "Yupiltepeque", "tz": "", "district": "Jutiapa"}, {"id": 139, "name": "Almolonga", "name_ru": "Almolonga", "tz": "", "district": "Quetzaltenango"}, {"id": 140, "name": "San Felipe", "name_ru": "San Felipe", "tz": "", "district": "Retalhuleu"}, {"id": 141, "name": "Sipacapa", "name_ru": "Sipacapa", "tz": "", "district": "San Marcos"}, {"id": 142, "name": "Alotenango", "name_ru": "Alotenango", "tz": "", "district": "Sacatepéquez"}, {"id": 143, "name": "Cajola", "name_ru": "Cajolá", "tz": "", "district": "Quetzaltenango"}, {"id": 144, "name": "Palestina de los Altos", "name_ru": "Palestina de los Altos", "tz": "", "district": "Quetzaltenango"}, {"id": 145, "name": "Pajapita", "name_ru": "Pajapita", "tz": "", "district": "San Marcos"}, {"id": 146, "name": "Santa Cruz Naranjo", "name_ru": "Santa Cruz Naranjo", "tz": "", "district": "Santa Rosa"}, {"id": 147, "name": "San Cristobal Cucho", "name_ru": "San Cristóbal Cucho", "tz": "", "district": "San Marcos"}, {"id": 148, "name": "Guanagazapa", "name_ru": "Guanagazapa", "tz": "", "district": "Escuintla"}, {"id": 149, "name": "Atescatempa", "name_ru": "Atescatempa", "tz": "", "district": "Jutiapa"}, {"id": 150, "name": "Santa Maria de Jesus", "name_ru": "Santa María de Jesús", "tz": "", "district": "Sacatepéquez"}, {"id": 151, "name": "San Rafael Pie de la Cuesta", "name_ru": "San Rafael Pie de la Cuesta", "tz": "", "district": "San Marcos"}, {"id": 152, "name": "Conguaco", "name_ru": "Conguaco", "tz": "", "district": "Jutiapa"}, {"id": 153, "name": "San Antonio La Paz", "name_ru": "San Antonio La Paz", "tz": "", "district": "El Progreso"}, {"id": 154, "name": "Cabanas", "name_ru": "Cabañas", "tz": "", "district": "Zacapa"}, {"id": 155, "name": "Pastores", "name_ru": "Pastores", "tz": "", "district": "Sacatepéquez"}, {"id": 156, "name": "Guazacapan", "name_ru": "Guazacapán", "tz": "", "district": "Santa Rosa"}, {"id": 157, "name": "San Bartolo", "name_ru": "San Bartolo", "tz": "", "district": "Totonicapán"}, {"id": 158, "name": "San Jorge", "name_ru": "San Jorge", "tz": "", "district": "Zacapa"}, {"id": 159, "name": "Agua Blanca", "name_ru": "Agua Blanca", "tz": "", "district": "Jutiapa"}, {"id": 160, "name": "Usumatlan", "name_ru": "Usumatlán", "tz": "", "district": "Zacapa"}, {"id": 161, "name": "Chiquimulilla", "name_ru": "Chiquimulilla", "tz": "", "district": "Santa Rosa"}, {"id": 162, "name": "Zunil", "name_ru": "Zunil", "tz": "", "district": "Quetzaltenango"}, {"id": 163, "name": "San Antonio Palopo", "name_ru": "San Antonio Palopó", "tz": "", "district": "Sololá"}, {"id": 164, "name": "Huite", "name_ru": "Huité", "tz": "", "district": "Zacapa"}, {"id": 165, "name": "El Palmar", "name_ru": "El Palmar", "tz": "", "district": "Quetzaltenango"}, {"id": 166, "name": "Esquipulas Palo Gordo", "name_ru": "Esquipulas Palo Gordo", "tz": "", "district": "San Marcos"}, {"id": 167, "name": "Panajachel", "name_ru": "Panajachel", "tz": "", "district": "Sololá"}, {"id": 168, "name": "Morazan", "name_ru": "Morazán", "tz": "", "district": "El Progreso"}, {"id": 169, "name": "Sansare", "name_ru": "Sansare", "tz": "", "district": "El Progreso"}, {"id": 170, "name": "Santa Ana Huista", "name_ru": "Santa Ana Huista", "tz": "", "district": "Huehuetenango"}, {"id": 171, "name": "Estanzuela", "name_ru": "Estanzuela", "tz": "", "district": "Zacapa"}, {"id": 172, "name": "San Pedro La Laguna", "name_ru": "San Pedro La Laguna", "tz": "", "district": "Sololá"}, {"id": 173, "name": "El Chol", "name_ru": "El Chol", "tz": "", "district": "Baja Verapaz"}, {"id": 174, "name": "San Juan La Laguna", "name_ru": "San Juan La Laguna", "tz": "", "district": "Sololá"}, {"id": 175, "name": "Santa Clara La Laguna", "name_ru": "Santa Clara La Laguna", "tz": "", "district": "Sololá"}, {"id": 176, "name": "Sipacate", "name_ru": "Sipacate", "tz": "", "district": "Escuintla"}, {"id": 177, "name": "Jerez", "name_ru": "Jerez", "tz": "", "district": "Jutiapa"}, {"id": 178, "name": "Canilla", "name_ru": "Canillá", "tz": "", "district": "Quiché"}, {"id": 179, "name": "La Libertad", "name_ru": "La Libertad", "tz": "", "district": "Petén"}, {"id": 180, "name": "Sibilia", "name_ru": "Sibilia", "tz": "", "district": "Quetzaltenango"}, {"id": 181, "name": "Chinique", "name_ru": "Chinique", "tz": "", "district": "Quiché"}, {"id": 182, "name": "Santa Ana", "name_ru": "Santa Ana", "tz": "", "district": "Petén"}, {"id": 183, "name": "San Diego", "name_ru": "San Diego", "tz": "", "district": "Zacapa"}, {"id": 184, "name": "San Miguel Siguila", "name_ru": "San Miguel Sigüilá", "tz": "", "district": "Quetzaltenango"}, {"id": 185, "name": "San Vicente Pacaya", "name_ru": "San Vicente Pacaya", "tz": "", "district": "Escuintla"}, {"id": 186, "name": "Chuarrancho", "name_ru": "Chuarrancho", "tz": "", "district": "Guatemala"}, {"id": 187, "name": "San Cristobal Acasaguastlan", "name_ru": "San Cristóbal Acasaguastlán", "tz": "", "district": "El Progreso"}, {"id": 188, "name": "San Miguel Panan", "name_ru": "San Miguel Panán", "tz": "", "district": "Suchitepéquez"}, {"id": 189, "name": "San Jose del Golfo", "name_ru": "San José del Golfo", "tz": "", "district": "Guatemala"}]