[{"id": 1, "name": "Georgetown", "name_ru": "Georgetown", "tz": "", "district": "Demerara-Mahaica"}, {"id": 2, "name": "New Amsterdam", "name_ru": "New Amsterdam", "tz": "", "district": "East Berbice-Corentyne"}, {"id": 3, "name": "Linden", "name_ru": "Linden", "tz": "", "district": "Upper Demerara-Berbice"}, {"id": 4, "name": "Bartica", "name_ru": "Bartica", "tz": "", "district": "Cuyuni-Mazaruni"}, {"id": 5, "name": "Lethem", "name_ru": "Lethem", "tz": "", "district": "Upper Takutu-Upper Essequibo"}, {"id": 6, "name": "Mabaruma", "name_ru": "Mabaruma", "tz": "", "district": "Barima-Waini"}, {"id": 7, "name": "Vreed-en-Hoop", "name_ru": "Vreed-en-Hoop", "tz": "", "district": "Essequibo Islands-West Demerara"}, {"id": 8, "name": "Fort Wellington", "name_ru": "Fort Wellington", "tz": "", "district": "Mahaica-Berbice"}, {"id": 9, "name": "Mahdia", "name_ru": "Mahdia", "tz": "", "district": "Potaro-Siparuni"}, {"id": 10, "name": "Anna Regina", "name_ru": "Anna Regina", "tz": "", "district": "Pomeroon-Supenaam"}, {"id": 11, "name": "Princetown", "name_ru": "Princetown", "tz": "", "district": "East Berbice-Corentyne"}, {"id": 12, "name": "Ituni", "name_ru": "Ituni", "tz": "", "district": "Upper Demerara-Berbice"}]