[{"id": 1, "name": "Comayaguela", "name_ru": "Comayagüela", "tz": "", "district": "Francisco Morazán"}, {"id": 2, "name": "Tegucigalpa", "name_ru": "Tegucigalpa", "tz": "", "district": "Francisco Morazán"}, {"id": 3, "name": "San Pedro Sula", "name_ru": "San Pedro Sula", "tz": "", "district": "Cortés"}, {"id": 4, "name": "Choloma", "name_ru": "Choloma", "tz": "", "district": "Cortés"}, {"id": 5, "name": "La Ceiba", "name_ru": "La Ceiba", "tz": "", "district": "Atlántida"}, {"id": 6, "name": "Puerto Cortes", "name_ru": "Puerto Cortés", "tz": "", "district": "Cortés"}, {"id": 7, "name": "Villanueva", "name_ru": "Villanueva", "tz": "", "district": "Cortés"}, {"id": 8, "name": "Comayagua", "name_ru": "Comayagua", "tz": "", "district": "Comayagua"}, {"id": 9, "name": "El Progreso", "name_ru": "El Progreso", "tz": "", "district": "Yoro"}, {"id": 10, "name": "Ciudad Choluteca", "name_ru": "Ciudad Choluteca", "tz": "", "district": "Choluteca"}, {"id": 11, "name": "Yoro", "name_ru": "Yoro", "tz": "", "district": "Yoro"}, {"id": 12, "name": "Santa Rosa de Copan", "name_ru": "Santa Rosa de Copán", "tz": "", "district": "Copán"}, {"id": 13, "name": "Gracias", "name_ru": "Gracias", "tz": "", "district": "Lempira"}, {"id": 14, "name": "La Paz", "name_ru": "La Paz", "tz": "", "district": "La Paz"}, {"id": 15, "name": "Juticalpa", "name_ru": "Juticalpa", "tz": "", "district": "Olancho"}, {"id": 16, "name": "Trujillo", "name_ru": "Trujillo", "tz": "", "district": "Colón"}, {"id": 17, "name": "Santa Barbara", "name_ru": "Santa Bárbara", "tz": "", "district": "Santa Bárbara"}, {"id": 18, "name": "La Esperanza", "name_ru": "La Esperanza", "tz": "", "district": "Intibucá"}, {"id": 19, "name": "Nacaome", "name_ru": "Nacaome", "tz": "", "district": "Valle"}, {"id": 20, "name": "Yuscaran", "name_ru": "Yuscarán", "tz": "", "district": "El Paraíso"}, {"id": 21, "name": "Roatan", "name_ru": "Roatán", "tz": "", "district": "Islas de la Bahía"}, {"id": 22, "name": "Nueva Ocotepeque", "name_ru": "Nueva Ocotepeque", "tz": "", "district": "Ocotepeque"}, {"id": 23, "name": "Puerto Lempira", "name_ru": "Puerto Lempira", "tz": "", "district": "Gracias a Dios"}, {"id": 24, "name": "Tela", "name_ru": "Tela", "tz": "", "district": "Atlántida"}, {"id": 25, "name": "La Lima", "name_ru": "La Lima", "tz": "", "district": "Cortés"}, {"id": 26, "name": "Tocoa", "name_ru": "Tocoa", "tz": "", "district": "Colón"}, {"id": 27, "name": "Catacamas", "name_ru": "Catacamas", "tz": "", "district": "Olancho"}, {"id": 28, "name": "San Lorenzo", "name_ru": "San Lorenzo", "tz": "", "district": "Valle"}, {"id": 29, "name": "Copan", "name_ru": "Copán", "tz": "", "district": "Copán"}, {"id": 30, "name": "Siguatepeque", "name_ru": "Siguatepeque", "tz": "", "district": "Comayagua"}, {"id": 31, "name": "Olanchito", "name_ru": "Olanchito", "tz": "", "district": "Yoro"}, {"id": 32, "name": "Cofradia", "name_ru": "Cofradía", "tz": "", "district": "Cortés"}, {"id": 33, "name": "Yorito", "name_ru": "Yorito", "tz": "", "district": "Yoro"}, {"id": 34, "name": "San Marcos", "name_ru": "San Marcos", "tz": "", "district": "Ocotepeque"}, {"id": 35, "name": "La Entrada", "name_ru": "La Entrada", "tz": "", "district": "Copán"}, {"id": 36, "name": "Talanga", "name_ru": "Talanga", "tz": "", "district": "Francisco Morazán"}, {"id": 37, "name": "San Francisco", "name_ru": "San Francisco", "tz": "", "district": "Atlántida"}, {"id": 38, "name": "La Alianza", "name_ru": "La Alianza", "tz": "", "district": "Valle"}, {"id": 39, "name": "Brus Laguna", "name_ru": "Brus Laguna", "tz": "", "district": "Gracias a Dios"}]