[{"id": 1, "name": "Zagreb", "name_ru": "Zagreb", "tz": "", "district": "Zagreb, Grad"}, {"id": 2, "name": "Split", "name_ru": "Split", "tz": "", "district": "Splitsko-Dalmatinska Županija"}, {"id": 3, "name": "Rijeka", "name_ru": "Rijeka", "tz": "", "district": "Primorsko-Goranska Županija"}, {"id": 4, "name": "Osijek", "name_ru": "Osijek", "tz": "", "district": "Osječko-Baranjska Županija"}, {"id": 5, "name": "Zadar", "name_ru": "Zadar", "tz": "", "district": "Zadarska Županija"}, {"id": 6, "name": "Slavonski Brod", "name_ru": "Slavonski Brod", "tz": "", "district": "Brodsko-Posavska Županija"}, {"id": 7, "name": "Sibenik", "name_ru": "Šibenik", "tz": "", "district": "Šibensko-Kninska Županija"}, {"id": 8, "name": "Dubrovnik", "name_ru": "Dubrovnik", "tz": "", "district": "Dubrovačko-Neretvanska Županija"}, {"id": 9, "name": "Bjelovar", "name_ru": "Bjelovar", "tz": "", "district": "Bjelovarsko-Bilogorska Županija"}, {"id": 10, "name": "Sisak", "name_ru": "Sisak", "tz": "", "district": "Sisačko-Moslavačka Županija"}, {"id": 11, "name": "Cakovec", "name_ru": "Čakovec", "tz": "", "district": "Međimurska Županija"}, {"id": 12, "name": "Vukovar", "name_ru": "Vukovar", "tz": "", "district": "Vukovarsko-Srijemska Županija"}, {"id": 13, "name": "Virovitica", "name_ru": "Virovitica", "tz": "", "district": "Virovitičko-Podravska Županija"}, {"id": 14, "name": "Gospic", "name_ru": "Gospić", "tz": "", "district": "Ličko-Senjska Županija"}, {"id": 15, "name": "Varazdin", "name_ru": "Varaždin", "tz": "", "district": "Varaždinska Županija"}, {"id": 16, "name": "Koprivnica", "name_ru": "Koprivnica", "tz": "", "district": "Koprivničko-Križevačka Županija"}, {"id": 17, "name": "Pozega", "name_ru": "Požega", "tz": "", "district": "Požeško-Slavonska Županija"}, {"id": 18, "name": "Krapina", "name_ru": "Krapina", "tz": "", "district": "Krapinsko-Zagorska Županija"}, {"id": 19, "name": "Pazin", "name_ru": "Pazin", "tz": "", "district": "Istarska Županija"}, {"id": 20, "name": "Velika Gorica", "name_ru": "Velika Gorica", "tz": "", "district": "Zagrebačka Županija"}, {"id": 21, "name": "Pula", "name_ru": "Pula", "tz": "", "district": "Istarska Županija"}, {"id": 22, "name": "Karlovac", "name_ru": "Karlovac", "tz": "", "district": "Karlovačka Županija"}, {"id": 23, "name": "Kastel Stari", "name_ru": "Kaštel Stari", "tz": "", "district": "Splitsko-Dalmatinska Županija"}, {"id": 24, "name": "Solin", "name_ru": "Solin", "tz": "", "district": "Splitsko-Dalmatinska Županija"}, {"id": 25, "name": "Samobor", "name_ru": "Samobor", "tz": "", "district": "Zagrebačka Županija"}, {"id": 26, "name": "Vrbovec", "name_ru": "Vrbovec", "tz": "", "district": "Zagrebačka Županija"}, {"id": 27, "name": "Ivanic-Grad", "name_ru": "Ivanić-Grad", "tz": "", "district": "Zagrebačka Županija"}, {"id": 28, "name": "Rovinj", "name_ru": "Rovinj", "tz": "", "district": "Istarska Županija"}, {"id": 29, "name": "Trogir", "name_ru": "Trogir", "tz": "", "district": "Splitsko-Dalmatinska Županija"}, {"id": 30, "name": "Zupanja", "name_ru": "Županja", "tz": "", "district": "Vukovarsko-Srijemska Županija"}, {"id": 31, "name": "Nova Gradiska", "name_ru": "Nova Gradiška", "tz": "", "district": "Brodsko-Posavska Županija"}, {"id": 32, "name": "Opatija", "name_ru": "Opatija", "tz": "", "district": "Primorsko-Goranska Županija"}, {"id": 33, "name": "Labin", "name_ru": "Labin", "tz": "", "district": "Istarska Županija"}, {"id": 34, "name": "Crikvenica", "name_ru": "Crikvenica", "tz": "", "district": "Primorsko-Goranska Županija"}, {"id": 35, "name": "Kastav", "name_ru": "Kastav", "tz": "", "district": "Primorsko-Goranska Županija"}, {"id": 36, "name": "Krizevci", "name_ru": "Križevci", "tz": "", "district": "Koprivničko-Križevačka Županija"}, {"id": 37, "name": "Knin", "name_ru": "Knin", "tz": "", "district": "Šibensko-Kninska Županija"}, {"id": 38, "name": "Slatina", "name_ru": "Slatina", "tz": "", "district": "Virovitičko-Podravska Županija"}, {"id": 39, "name": "Daruvar", "name_ru": "Daruvar", "tz": "", "district": "Bjelovarsko-Bilogorska Županija"}, {"id": 40, "name": "Cepin", "name_ru": "Čepin", "tz": "", "district": "Osječko-Baranjska Županija"}, {"id": 41, "name": "Ogulin", "name_ru": "Ogulin", "tz": "", "district": "Karlovačka Županija"}, {"id": 42, "name": "Bedekovcina", "name_ru": "Bedekovčina", "tz": "", "district": "Krapinsko-Zagorska Županija"}, {"id": 43, "name": "Nasice", "name_ru": "Našice", "tz": "", "district": "Osječko-Baranjska Županija"}, {"id": 44, "name": "Porec", "name_ru": "Poreč", "tz": "", "district": "Istarska Županija"}, {"id": 45, "name": "Kriz", "name_ru": "Križ", "tz": "", "district": "Zagrebačka Županija"}, {"id": 46, "name": "Cavle", "name_ru": "Čavle", "tz": "", "district": "Primorsko-Goranska Županija"}, {"id": 47, "name": "Novska", "name_ru": "Novska", "tz": "", "district": "Sisačko-Moslavačka Županija"}, {"id": 48, "name": "Belisce", "name_ru": "Belišće", "tz": "", "district": "Osječko-Baranjska Županija"}, {"id": 49, "name": "Ploce", "name_ru": "Ploče", "tz": "", "district": "Dubrovačko-Neretvanska Županija"}, {"id": 50, "name": "Krk", "name_ru": "Krk", "tz": "", "district": "Primorsko-Goranska Županija"}, {"id": 51, "name": "Vodice", "name_ru": "Vodice", "tz": "", "district": "Šibensko-Kninska Županija"}, {"id": 52, "name": "Ivankovo", "name_ru": "Ivankovo", "tz": "", "district": "Vukovarsko-Srijemska Županija"}, {"id": 53, "name": "Donji Miholjac", "name_ru": "Donji Miholjac", "tz": "", "district": "Osječko-Baranjska Županija"}, {"id": 54, "name": "Cestica", "name_ru": "Cestica", "tz": "", "district": "Varaždinska Županija"}, {"id": 55, "name": "Darda", "name_ru": "Darda", "tz": "", "district": "Osječko-Baranjska Županija"}, {"id": 56, "name": "Buje", "name_ru": "Buje", "tz": "", "district": "Istarska Županija"}, {"id": 57, "name": "Ilok", "name_ru": "Ilok", "tz": "", "district": "Vukovarsko-Srijemska Županija"}]