[{"id": 1, "name": "Port-au-Prince", "name_ru": "Port-au-Prince", "tz": "", "district": "Ouest"}, {"id": 2, "name": "Carrefour", "name_ru": "Carrefour", "tz": "", "district": "Ouest"}, {"id": 3, "name": "Petion-Ville", "name_ru": "Pétion-Ville", "tz": "", "district": "Ouest"}, {"id": 4, "name": "Gonaives", "name_ru": "Gonaïves", "tz": "", "district": "Artibonite"}, {"id": 5, "name": "Delmas", "name_ru": "Delmas", "tz": "", "district": "Ouest"}, {"id": 6, "name": "Cap-Haitien", "name_ru": "Cap-Haïtien", "tz": "", "district": "Nord"}, {"id": 7, "name": "Les Cayes", "name_ru": "Les Cayes", "tz": "", "district": "Sud"}, {"id": 8, "name": "Saint-Marc", "name_ru": "Saint-Marc", "tz": "", "district": "Artibonite"}, {"id": 9, "name": "Port-de-Paix", "name_ru": "Port-de-Paix", "tz": "", "district": "Nord-Ouest"}, {"id": 10, "name": "Jacmel", "name_ru": "Jacmel", "tz": "", "district": "Sud-Est"}, {"id": 11, "name": "Jeremie", "name_ru": "Jérémie", "tz": "", "district": "Grand’Anse"}, {"id": 12, "name": "Hinche", "name_ru": "Hinche", "tz": "", "district": "Centre"}, {"id": 13, "name": "Fort Liberte", "name_ru": "Fort Liberté", "tz": "", "district": "Nord-Est"}, {"id": 14, "name": "Miragoane", "name_ru": "Miragoâne", "tz": "", "district": "Nippes"}, {"id": 15, "name": "Belladere", "name_ru": "Belladère", "tz": "", "district": "Centre"}]