[{"id": 1, "name": "Budapest", "name_ru": "Budapest", "tz": "", "district": "Budapest"}, {"id": 2, "name": "Debrecen", "name_ru": "Debrecen", "tz": "", "district": "Hajdú-Bihar"}, {"id": 3, "name": "Szeged", "name_ru": "Szeged", "tz": "", "district": "Csongrád"}, {"id": 4, "name": "Miskolc", "name_ru": "Miskolc", "tz": "", "district": "Borsod-Abaúj-Zemplén"}, {"id": 5, "name": "Pecs", "name_ru": "Pécs", "tz": "", "district": "Baranya"}, {"id": 6, "name": "Gyor", "name_ru": "Győr", "tz": "", "district": "Győr-Moson-Sopron"}, {"id": 7, "name": "Nyiregyhaza", "name_ru": "Nyíregyháza", "tz": "", "district": "Szabolcs-Szatmár-Bereg"}, {"id": 8, "name": "Kecskemet", "name_ru": "Kecskemét", "tz": "", "district": "Bács-Kiskun"}, {"id": 9, "name": "Szekesfehervar", "name_ru": "Székesfehérvár", "tz": "", "district": "Fejér"}, {"id": 10, "name": "Szombathely", "name_ru": "Szombathely", "tz": "", "district": "Vas"}, {"id": 11, "name": "Szolnok", "name_ru": "Szolnok", "tz": "", "district": "Jász-Nagykun-Szolnok"}, {"id": 12, "name": "Tatabanya", "name_ru": "Tatabánya", "tz": "", "district": "Komárom-Esztergom"}, {"id": 13, "name": "Sopron", "name_ru": "Sopron", "tz": "", "district": "Sopron"}, {"id": 14, "name": "Kaposvar", "name_ru": "Kaposvár", "tz": "", "district": "Somogy"}, {"id": 15, "name": "Veszprem", "name_ru": "Veszprém", "tz": "", "district": "Veszprém"}, {"id": 16, "name": "Bekescsaba", "name_ru": "Békéscsaba", "tz": "", "district": "Békés"}, {"id": 17, "name": "Zalaegerszeg", "name_ru": "Zalaegerszeg", "tz": "", "district": "Zala"}, {"id": 18, "name": "Eger", "name_ru": "Eger", "tz": "", "district": "Heves"}, {"id": 19, "name": "Nagykanizsa", "name_ru": "Nagykanizsa", "tz": "", "district": "Nagykanizsa"}, {"id": 20, "name": "Dunaujvaros", "name_ru": "Dunaújváros", "tz": "", "district": "Dunaújváros"}, {"id": 21, "name": "Hodmezovasarhely", "name_ru": "Hódmezővásárhely", "tz": "", "district": "Hódmezővásárhely"}, {"id": 22, "name": "Salgotarjan", "name_ru": "Salgótarján", "tz": "", "district": "Nógrád"}, {"id": 23, "name": "Szekszard", "name_ru": "Szekszárd", "tz": "", "district": "Tolna"}, {"id": 24, "name": "Erd", "name_ru": "Érd", "tz": "", "district": "Pest"}, {"id": 25, "name": "Dunakeszi", "name_ru": "Dunakeszi", "tz": "", "district": "Pest"}, {"id": 26, "name": "Szigetszentmiklos", "name_ru": "Szigetszentmiklós", "tz": "", "district": "Pest"}, {"id": 27, "name": "Cegled", "name_ru": "Cegléd", "tz": "", "district": "Pest"}, {"id": 28, "name": "Baja", "name_ru": "Baja", "tz": "", "district": "Bács-Kiskun"}, {"id": 29, "name": "Mosonmagyarovar", "name_ru": "Mosonmagyaróvár", "tz": "", "district": "Győr-Moson-Sopron"}, {"id": 30, "name": "Vac", "name_ru": "Vác", "tz": "", "district": "Pest"}, {"id": 31, "name": "Godollo", "name_ru": "Gödöllő", "tz": "", "district": "Pest"}, {"id": 32, "name": "Ozd", "name_ru": "Ózd", "tz": "", "district": "Borsod-Abaúj-Zemplén"}, {"id": 33, "name": "Hajduboszormeny", "name_ru": "Hajdúböszörmény", "tz": "", "district": "Hajdú-Bihar"}, {"id": 34, "name": "Papa", "name_ru": "Pápa", "tz": "", "district": "Veszprém"}, {"id": 35, "name": "Budaors", "name_ru": "Budaörs", "tz": "", "district": "Pest"}, {"id": 36, "name": "Gyula", "name_ru": "Gyula", "tz": "", "district": "Békés"}, {"id": 37, "name": "Kiskunfelegyhaza", "name_ru": "Kiskunfélegyháza", "tz": "", "district": "Bács-Kiskun"}, {"id": 38, "name": "Gyongyos", "name_ru": "Gyöngyös", "tz": "", "district": "Heves"}, {"id": 39, "name": "Esztergom", "name_ru": "Esztergom", "tz": "", "district": "Komárom-Esztergom"}, {"id": 40, "name": "Ajka", "name_ru": "Ajka", "tz": "", "district": "Veszprém"}, {"id": 41, "name": "Szentendre", "name_ru": "Szentendre", "tz": "", "district": "Pest"}, {"id": 42, "name": "Oroshaza", "name_ru": "Orosháza", "tz": "", "district": "Békés"}, {"id": 43, "name": "Szentes", "name_ru": "Szentes", "tz": "", "district": "Csongrád"}, {"id": 44, "name": "Kiskunhalas", "name_ru": "Kiskunhalas", "tz": "", "district": "Bács-Kiskun"}, {"id": 45, "name": "Jaszbereny", "name_ru": "Jászberény", "tz": "", "district": "Jász-Nagykun-Szolnok"}, {"id": 46, "name": "Siofok", "name_ru": "Siófok", "tz": "", "district": "Somogy"}, {"id": 47, "name": "Kazincbarcika", "name_ru": "Kazincbarcika", "tz": "", "district": "Borsod-Abaúj-Zemplén"}, {"id": 48, "name": "Gyal", "name_ru": "Gyál", "tz": "", "district": "Pest"}, {"id": 49, "name": "Hajduszoboszlo", "name_ru": "Hajdúszoboszló", "tz": "", "district": "Hajdú-Bihar"}, {"id": 50, "name": "Tata", "name_ru": "Tata", "tz": "", "district": "Komárom-Esztergom"}, {"id": 51, "name": "Nagykoros", "name_ru": "Nagykőrös", "tz": "", "district": "Pest"}, {"id": 52, "name": "Komlo", "name_ru": "Komló", "tz": "", "district": "Baranya"}, {"id": 53, "name": "Dunaharaszti", "name_ru": "Dunaharaszti", "tz": "", "district": "Pest"}, {"id": 54, "name": "Mako", "name_ru": "Makó", "tz": "", "district": "Csongrád"}, {"id": 55, "name": "Vecses", "name_ru": "Vecsés", "tz": "", "district": "Pest"}, {"id": 56, "name": "Hatvan", "name_ru": "Hatvan", "tz": "", "district": "Heves"}, {"id": 57, "name": "Fot", "name_ru": "Fót", "tz": "", "district": "Pest"}, {"id": 58, "name": "Torokszentmiklos", "name_ru": "Törökszentmiklós", "tz": "", "district": "Jász-Nagykun-Szolnok"}, {"id": 59, "name": "Komarom", "name_ru": "Komárom", "tz": "", "district": "Komárom-Esztergom"}, {"id": 60, "name": "Karcag", "name_ru": "Karcag", "tz": "", "district": "Jász-Nagykun-Szolnok"}, {"id": 61, "name": "Varpalota", "name_ru": "Várpalota", "tz": "", "district": "Veszprém"}, {"id": 62, "name": "Keszthely", "name_ru": "Keszthely", "tz": "", "district": "Zala"}, {"id": 63, "name": "Szigethalom", "name_ru": "Szigethalom", "tz": "", "district": "Pest"}, {"id": 64, "name": "Veresegyhaz", "name_ru": "Veresegyház", "tz": "", "district": "Pest"}, {"id": 65, "name": "God", "name_ru": "Göd", "tz": "", "district": "Pest"}, {"id": 66, "name": "Gyomro", "name_ru": "Gyömrő", "tz": "", "district": "Pest"}, {"id": 67, "name": "Paks", "name_ru": "Paks", "tz": "", "district": "Tolna"}, {"id": 68, "name": "Szazhalombatta", "name_ru": "Százhalombatta", "tz": "", "district": "Pest"}, {"id": 69, "name": "Monor", "name_ru": "Monor", "tz": "", "district": "Pest"}, {"id": 70, "name": "Bekes", "name_ru": "Békés", "tz": "", "district": "Békés"}, {"id": 71, "name": "Dombovar", "name_ru": "Dombóvár", "tz": "", "district": "Tolna"}, {"id": 72, "name": "Oroszlany", "name_ru": "Oroszlány", "tz": "", "district": "Komárom-Esztergom"}, {"id": 73, "name": "Dabas", "name_ru": "Dabas", "tz": "", "district": "Pest"}, {"id": 74, "name": "Pomaz", "name_ru": "Pomáz", "tz": "", "district": "Pest"}, {"id": 75, "name": "Mohacs", "name_ru": "Mohács", "tz": "", "district": "Baranya"}, {"id": 76, "name": "Balmazujvaros", "name_ru": "Balmazújváros", "tz": "", "district": "Hajdú-Bihar"}, {"id": 77, "name": "Mateszalka", "name_ru": "Mátészalka", "tz": "", "district": "Szabolcs-Szatmár-Bereg"}, {"id": 78, "name": "Hajdunanas", "name_ru": "Hajdúnánás", "tz": "", "district": "Hajdú-Bihar"}, {"id": 79, "name": "Kisvarda", "name_ru": "Kisvárda", "tz": "", "district": "Szabolcs-Szatmár-Bereg"}, {"id": 80, "name": "Pecel", "name_ru": "Pécel", "tz": "", "district": "Pest"}, {"id": 81, "name": "Mezokovesd", "name_ru": "Mezőkövesd", "tz": "", "district": "Borsod-Abaúj-Zemplén"}, {"id": 82, "name": "Mezotur", "name_ru": "Mezőtúr", "tz": "", "district": "Jász-Nagykun-Szolnok"}, {"id": 83, "name": "Csongrad", "name_ru": "Csongrád", "tz": "", "district": "Csongrád"}, {"id": 84, "name": "Kalocsa", "name_ru": "Kalocsa", "tz": "", "district": "Bács-Kiskun"}, {"id": 85, "name": "Szarvas", "name_ru": "Szarvas", "tz": "", "district": "Békés"}, {"id": 86, "name": "Budakeszi", "name_ru": "Budakeszi", "tz": "", "district": "Pest"}, {"id": 87, "name": "Tapolca", "name_ru": "Tapolca", "tz": "", "district": "Veszprém"}, {"id": 88, "name": "Sarvar", "name_ru": "Sárvár", "tz": "", "district": "Vas"}, {"id": 89, "name": "Pilisvorosvar", "name_ru": "Pilisvörösvár", "tz": "", "district": "Pest"}, {"id": 90, "name": "Tiszaujvaros", "name_ru": "Tiszaújváros", "tz": "", "district": "Borsod-Abaúj-Zemplén"}, {"id": 91, "name": "Balassagyarmat", "name_ru": "Balassagyarmat", "tz": "", "district": "Nógrád"}, {"id": 92, "name": "Berettyoujfalu", "name_ru": "Berettyóújfalu", "tz": "", "district": "Hajdú-Bihar"}, {"id": 93, "name": "Torokbalint", "name_ru": "Törökbálint", "tz": "", "district": "Pest"}, {"id": 94, "name": "Kerepestarcsa", "name_ru": "Kerepestarcsa", "tz": "", "district": "Pest"}, {"id": 95, "name": "Abony", "name_ru": "Abony", "tz": "", "district": "Pest"}, {"id": 96, "name": "Puspokladany", "name_ru": "Püspökladány", "tz": "", "district": "Hajdú-Bihar"}, {"id": 97, "name": "Biatorbagy", "name_ru": "Biatorbágy", "tz": "", "district": "Pest"}, {"id": 98, "name": "Mor", "name_ru": "Mór", "tz": "", "district": "Fejér"}, {"id": 99, "name": "Kiskoros", "name_ru": "Kiskőrös", "tz": "", "district": "Bács-Kiskun"}, {"id": 100, "name": "Satoraljaujhely", "name_ru": "Sátoraljaújhely", "tz": "", "district": "Borsod-Abaúj-Zemplén"}, {"id": 101, "name": "Diosd", "name_ru": "Diósd", "tz": "", "district": "Pest"}, {"id": 102, "name": "Balatonfured", "name_ru": "Balatonfüred", "tz": "", "district": "Veszprém"}, {"id": 103, "name": "Bonyhad", "name_ru": "Bonyhád", "tz": "", "district": "Tolna"}, {"id": 104, "name": "Hajdusamson", "name_ru": "Hajdúsámson", "tz": "", "district": "Hajdú-Bihar"}, {"id": 105, "name": "Dorog", "name_ru": "Dorog", "tz": "", "district": "Komárom-Esztergom"}, {"id": 106, "name": "Maglod", "name_ru": "Maglód", "tz": "", "district": "Pest"}, {"id": 107, "name": "Ujfeherto", "name_ru": "Újfehértó", "tz": "", "district": "Szabolcs-Szatmár-Bereg"}, {"id": 108, "name": "Gyomaendrod", "name_ru": "Gyomaendrőd", "tz": "", "district": "Békés"}, {"id": 109, "name": "Hajduhadhaz", "name_ru": "Hajdúhadház", "tz": "", "district": "Hajdú-Bihar"}, {"id": 110, "name": "Albertirsa", "name_ru": "Albertirsa", "tz": "", "district": "Pest"}, {"id": 111, "name": "Tiszavasvari", "name_ru": "Tiszavasvári", "tz": "", "district": "Szabolcs-Szatmár-Bereg"}, {"id": 112, "name": "Nagykata", "name_ru": "Nagykáta", "tz": "", "district": "Pest"}, {"id": 113, "name": "Budakalasz", "name_ru": "Budakalász", "tz": "", "district": "Pest"}, {"id": 114, "name": "Ullo", "name_ru": "Üllő", "tz": "", "district": "Pest"}, {"id": 115, "name": "Bicske", "name_ru": "Bicske", "tz": "", "district": "Fejér"}, {"id": 116, "name": "Tiszakecske", "name_ru": "Tiszakécske", "tz": "", "district": "Bács-Kiskun"}, {"id": 117, "name": "Koszeg", "name_ru": "Kőszeg", "tz": "", "district": "Vas"}, {"id": 118, "name": "Sajoszentpeter", "name_ru": "Sajószentpéter", "tz": "", "district": "Borsod-Abaúj-Zemplén"}, {"id": 119, "name": "Nyirbator", "name_ru": "Nyírbátor", "tz": "", "district": "Szabolcs-Szatmár-Bereg"}, {"id": 120, "name": "Sarbogard", "name_ru": "Sárbogárd", "tz": "", "district": "Fejér"}, {"id": 121, "name": "Pilis", "name_ru": "Pilis", "tz": "", "district": "Pest"}, {"id": 122, "name": "Halasztelek", "name_ru": "Halásztelek", "tz": "", "district": "Pest"}, {"id": 123, "name": "Isaszeg", "name_ru": "Isaszeg", "tz": "", "district": "Pest"}, {"id": 124, "name": "Batonyterenye", "name_ru": "Bátonyterenye", "tz": "", "district": "Nógrád"}, {"id": 125, "name": "Kormend", "name_ru": "Körmend", "tz": "", "district": "Vas"}, {"id": 126, "name": "Solymar", "name_ru": "Solymár", "tz": "", "district": "Pest"}, {"id": 127, "name": "Sarospatak", "name_ru": "Sárospatak", "tz": "", "district": "Borsod-Abaúj-Zemplén"}, {"id": 128, "name": "Lajosmizse", "name_ru": "Lajosmizse", "tz": "", "district": "Bács-Kiskun"}, {"id": 129, "name": "Gardony", "name_ru": "Gárdony", "tz": "", "district": "Fejér"}, {"id": 130, "name": "Marcali", "name_ru": "Marcali", "tz": "", "district": "Somogy"}, {"id": 131, "name": "Tolna", "name_ru": "Tolna", "tz": "", "district": "Tolna"}, {"id": 132, "name": "Rackeve", "name_ru": "Ráckeve", "tz": "", "district": "Pest"}, {"id": 133, "name": "Kiskunmajsa", "name_ru": "Kiskunmajsa", "tz": "", "district": "Bács-Kiskun"}, {"id": 134, "name": "Kisujszallas", "name_ru": "Kisújszállás", "tz": "", "district": "Jász-Nagykun-Szolnok"}, {"id": 135, "name": "Celldomolk", "name_ru": "Celldömölk", "tz": "", "district": "Vas"}, {"id": 136, "name": "Tiszafoldvar", "name_ru": "Tiszaföldvár", "tz": "", "district": "Jász-Nagykun-Szolnok"}, {"id": 137, "name": "Tiszafured", "name_ru": "Tiszafüred", "tz": "", "district": "Jász-Nagykun-Szolnok"}, {"id": 138, "name": "Szigetvar", "name_ru": "Szigetvár", "tz": "", "district": "Baranya"}, {"id": 139, "name": "Barcs", "name_ru": "Barcs", "tz": "", "district": "Somogy"}, {"id": 140, "name": "Tokol", "name_ru": "Tököl", "tz": "", "district": "Pest"}, {"id": 141, "name": "Nagyatad", "name_ru": "Nagyatád", "tz": "", "district": "Somogy"}, {"id": 142, "name": "Kapuvar", "name_ru": "Kapuvár", "tz": "", "district": "Győr-Moson-Sopron"}, {"id": 143, "name": "Csomor", "name_ru": "Csömör", "tz": "", "district": "Pest"}, {"id": 144, "name": "Heves", "name_ru": "Heves", "tz": "", "district": "Heves"}, {"id": 145, "name": "Tarnok", "name_ru": "Tárnok", "tz": "", "district": "Pest"}, {"id": 146, "name": "Csorna", "name_ru": "Csorna", "tz": "", "district": "Győr-Moson-Sopron"}, {"id": 147, "name": "Mezobereny", "name_ru": "Mezőberény", "tz": "", "district": "Békés"}, {"id": 148, "name": "Sarkad", "name_ru": "Sarkad", "tz": "", "district": "Békés"}, {"id": 149, "name": "Ocsa", "name_ru": "Ócsa", "tz": "", "district": "Pest"}, {"id": 150, "name": "Erdokertes", "name_ru": "Erdőkertes", "tz": "", "district": "Pest"}, {"id": 151, "name": "Edeleny", "name_ru": "Edelény", "tz": "", "district": "Borsod-Abaúj-Zemplén"}, {"id": 152, "name": "Nagykallo", "name_ru": "Nagykálló", "tz": "", "district": "Szabolcs-Szatmár-Bereg"}, {"id": 153, "name": "Urom", "name_ru": "Üröm", "tz": "", "district": "Pest"}, {"id": 154, "name": "Paszto", "name_ru": "Pásztó", "tz": "", "district": "Nógrád"}, {"id": 155, "name": "Siklos", "name_ru": "Siklós", "tz": "", "district": "Baranya"}, {"id": 156, "name": "Szentgotthard", "name_ru": "Szentgotthárd", "tz": "", "district": "Vas"}, {"id": 157, "name": "Kiskunlachaza", "name_ru": "Kiskunlacháza", "tz": "", "district": "Pest"}, {"id": 158, "name": "Piliscsaba", "name_ru": "Piliscsaba", "tz": "", "district": "Pest"}, {"id": 159, "name": "Nagykovacsi", "name_ru": "Nagykovácsi", "tz": "", "district": "Pest"}, {"id": 160, "name": "Balatonalmadi", "name_ru": "Balatonalmádi", "tz": "", "district": "Veszprém"}, {"id": 161, "name": "Hajdudorog", "name_ru": "Hajdúdorog", "tz": "", "district": "Hajdú-Bihar"}, {"id": 162, "name": "Vasarosnameny", "name_ru": "Vásárosnamény", "tz": "", "district": "Szabolcs-Szatmár-Bereg"}, {"id": 163, "name": "Szeghalom", "name_ru": "Szeghalom", "tz": "", "district": "Békés"}, {"id": 164, "name": "Szerencs", "name_ru": "Szerencs", "tz": "", "district": "Borsod-Abaúj-Zemplén"}, {"id": 165, "name": "Nadudvar", "name_ru": "Nádudvar", "tz": "", "district": "Hajdú-Bihar"}, {"id": 166, "name": "Dunafoldvar", "name_ru": "Dunaföldvár", "tz": "", "district": "Tolna"}, {"id": 167, "name": "Dunavarsany", "name_ru": "Dunavarsány", "tz": "", "district": "Pest"}, {"id": 168, "name": "Turkeve", "name_ru": "Túrkeve", "tz": "", "district": "Jász-Nagykun-Szolnok"}, {"id": 169, "name": "Derecske", "name_ru": "Derecske", "tz": "", "district": "Hajdú-Bihar"}, {"id": 170, "name": "Kecel", "name_ru": "Kecel", "tz": "", "district": "Bács-Kiskun"}, {"id": 171, "name": "Jaszapati", "name_ru": "Jászapáti", "tz": "", "district": "Jász-Nagykun-Szolnok"}, {"id": 172, "name": "Janoshalma", "name_ru": "Jánoshalma", "tz": "", "district": "Bács-Kiskun"}, {"id": 173, "name": "Kunszentmiklos", "name_ru": "Kunszentmiklós", "tz": "", "district": "Bács-Kiskun"}, {"id": 174, "name": "Ercsi", "name_ru": "Ercsi", "tz": "", "district": "Fejér"}, {"id": 175, "name": "Fehergyarmat", "name_ru": "Fehérgyarmat", "tz": "", "district": "Szabolcs-Szatmár-Bereg"}, {"id": 176, "name": "Kunszentmarton", "name_ru": "Kunszentmárton", "tz": "", "district": "Jász-Nagykun-Szolnok"}, {"id": 177, "name": "Tamasi", "name_ru": "Tamási", "tz": "", "district": "Tolna"}, {"id": 178, "name": "Polgar", "name_ru": "Polgár", "tz": "", "district": "Hajdú-Bihar"}, {"id": 179, "name": "Tura", "name_ru": "Tura", "tz": "", "district": "Pest"}, {"id": 180, "name": "Sandorfalva", "name_ru": "Sándorfalva", "tz": "", "district": "Csongrád"}, {"id": 181, "name": "Jaszarokszallas", "name_ru": "Jászárokszállás", "tz": "", "district": "Jász-Nagykun-Szolnok"}, {"id": 182, "name": "Nyiradony", "name_ru": "Nyíradony", "tz": "", "district": "Hajdú-Bihar"}, {"id": 183, "name": "Paty", "name_ru": "Páty", "tz": "", "district": "Pest"}, {"id": 184, "name": "Orbottyan", "name_ru": "Őrbottyán", "tz": "", "district": "Pest"}, {"id": 185, "name": "Kunhegyes", "name_ru": "Kunhegyes", "tz": "", "district": "Jász-Nagykun-Szolnok"}, {"id": 186, "name": "Lenti", "name_ru": "Lenti", "tz": "", "district": "Zala"}, {"id": 187, "name": "Nyergesujfalu", "name_ru": "Nyergesújfalu", "tz": "", "district": "Komárom-Esztergom"}, {"id": 188, "name": "Fuzesabony", "name_ru": "Füzesabony", "tz": "", "district": "Heves"}, {"id": 189, "name": "Soltvadkert", "name_ru": "Soltvadkert", "tz": "", "district": "Bács-Kiskun"}, {"id": 190, "name": "Devavanya", "name_ru": "Dévaványa", "tz": "", "district": "Békés"}, {"id": 191, "name": "Letavertes", "name_ru": "Létavértes", "tz": "", "district": "Hajdú-Bihar"}, {"id": 192, "name": "Mogyorod", "name_ru": "Mogyoród", "tz": "", "district": "Pest"}, {"id": 193, "name": "Kistelek", "name_ru": "Kistelek", "tz": "", "district": "Csongrád"}, {"id": 194, "name": "Polgardi", "name_ru": "Polgárdi", "tz": "", "district": "Fejér"}, {"id": 195, "name": "Zirc", "name_ru": "Zirc", "tz": "", "district": "Veszprém"}, {"id": 196, "name": "Felsozsolca", "name_ru": "Felsőzsolca", "tz": "", "district": "Borsod-Abaúj-Zemplén"}, {"id": 197, "name": "Veszto", "name_ru": "Vésztő", "tz": "", "district": "Békés"}, {"id": 198, "name": "Acs", "name_ru": "Ács", "tz": "", "district": "Komárom-Esztergom"}, {"id": 199, "name": "Ibrany", "name_ru": "Ibrány", "tz": "", "district": "Szabolcs-Szatmár-Bereg"}, {"id": 200, "name": "Enying", "name_ru": "Enying", "tz": "", "district": "Fejér"}, {"id": 201, "name": "Mindszent", "name_ru": "Mindszent", "tz": "", "district": "Csongrád"}, {"id": 202, "name": "Nyirtelek", "name_ru": "Nyírtelek", "tz": "", "district": "Szabolcs-Szatmár-Bereg"}, {"id": 203, "name": "Kozarmisleny", "name_ru": "Kozármisleny", "tz": "", "district": "Baranya"}, {"id": 204, "name": "Gyorujbarat", "name_ru": "Győrújbarát", "tz": "", "district": "Győr-Moson-Sopron"}, {"id": 205, "name": "Kerekegyhaza", "name_ru": "Kerekegyháza", "tz": "", "district": "Bács-Kiskun"}, {"id": 206, "name": "Aszod", "name_ru": "Aszód", "tz": "", "district": "Pest"}, {"id": 207, "name": "Putnok", "name_ru": "Putnok", "tz": "", "district": "Borsod-Abaúj-Zemplén"}, {"id": 208, "name": "Teglas", "name_ru": "Téglás", "tz": "", "district": "Hajdú-Bihar"}, {"id": 209, "name": "Bacsalmas", "name_ru": "Bácsalmás", "tz": "", "district": "Bács-Kiskun"}, {"id": 210, "name": "Taksony", "name_ru": "Taksony", "tz": "", "district": "Pest"}, {"id": 211, "name": "Nagyecsed", "name_ru": "Nagyecsed", "tz": "", "district": "Szabolcs-Szatmár-Bereg"}, {"id": 212, "name": "Martfu", "name_ru": "Martfů", "tz": "", "district": "Jász-Nagykun-Szolnok"}, {"id": 213, "name": "Szentlorinc", "name_ru": "Szentlőrinc", "tz": "", "district": "Baranya"}, {"id": 214, "name": "Zalaszentgrot", "name_ru": "Zalaszentgrót", "tz": "", "district": "Zala"}, {"id": 215, "name": "Fegyvernek", "name_ru": "Fegyvernek", "tz": "", "district": "Jász-Nagykun-Szolnok"}, {"id": 216, "name": "Encs", "name_ru": "Encs", "tz": "", "district": "Borsod-Abaúj-Zemplén"}, {"id": 217, "name": "Bataszek", "name_ru": "Bátaszék", "tz": "", "district": "Tolna"}, {"id": 218, "name": "Balkany", "name_ru": "Balkány", "tz": "", "district": "Szabolcs-Szatmár-Bereg"}, {"id": 219, "name": "Tapioszecso", "name_ru": "Tápiószecső", "tz": "", "district": "Pest"}, {"id": 220, "name": "Morahalom", "name_ru": "Mórahalom", "tz": "", "district": "Csongrád"}, {"id": 221, "name": "Solt", "name_ru": "Solt", "tz": "", "district": "Bács-Kiskun"}, {"id": 222, "name": "Szabadszallas", "name_ru": "Szabadszállás", "tz": "", "district": "Bács-Kiskun"}, {"id": 223, "name": "Ujszasz", "name_ru": "Újszász", "tz": "", "district": "Jász-Nagykun-Szolnok"}, {"id": 224, "name": "Sumeg", "name_ru": "Sümeg", "tz": "", "district": "Veszprém"}, {"id": 225, "name": "Janossomorja", "name_ru": "Jánossomorja", "tz": "", "district": "Győr-Moson-Sopron"}, {"id": 226, "name": "Totkomlos", "name_ru": "Tótkomlós", "tz": "", "district": "Békés"}, {"id": 227, "name": "Tapioszele", "name_ru": "Tápiószele", "tz": "", "district": "Pest"}, {"id": 228, "name": "Balatonboglar", "name_ru": "Balatonboglár", "tz": "", "district": "Somogy"}, {"id": 229, "name": "Berhida", "name_ru": "Berhida", "tz": "", "district": "Veszprém"}, {"id": 230, "name": "Pusztaszabolcs", "name_ru": "Pusztaszabolcs", "tz": "", "district": "Fejér"}, {"id": 231, "name": "Kaba", "name_ru": "Kaba", "tz": "", "district": "Hajdú-Bihar"}, {"id": 232, "name": "Mezokovacshaza", "name_ru": "Mezőkovácsháza", "tz": "", "district": "Békés"}, {"id": 233, "name": "Tahitofalu", "name_ru": "Tahitófalu", "tz": "", "district": "Pest"}, {"id": 234, "name": "Martonvasar", "name_ru": "Martonvásár", "tz": "", "district": "Fejér"}, {"id": 235, "name": "Kartal", "name_ru": "Kartal", "tz": "", "district": "Pest"}, {"id": 236, "name": "Jaszfenyszaru", "name_ru": "Jászfényszaru", "tz": "", "district": "Jász-Nagykun-Szolnok"}, {"id": 237, "name": "Fuzesgyarmat", "name_ru": "Füzesgyarmat", "tz": "", "district": "Békés"}, {"id": 238, "name": "Nagyhalasz", "name_ru": "Nagyhalász", "tz": "", "district": "Szabolcs-Szatmár-Bereg"}, {"id": 239, "name": "Domsod", "name_ru": "Dömsöd", "tz": "", "district": "Pest"}, {"id": 240, "name": "Szada", "name_ru": "Szada", "tz": "", "district": "Pest"}, {"id": 241, "name": "Hosszupalyi", "name_ru": "Hosszúpályi", "tz": "", "district": "Hajdú-Bihar"}, {"id": 242, "name": "Zsambek", "name_ru": "Zsámbék", "tz": "", "district": "Pest"}, {"id": 243, "name": "Tat", "name_ru": "Tát", "tz": "", "district": "Komárom-Esztergom"}, {"id": 244, "name": "Mezocsat", "name_ru": "Mezőcsát", "tz": "", "district": "Borsod-Abaúj-Zemplén"}, {"id": 245, "name": "Lorinci", "name_ru": "Lőrinci", "tz": "", "district": "Heves"}, {"id": 246, "name": "Velence", "name_ru": "Velence", "tz": "", "district": "Fejér"}, {"id": 247, "name": "Izsak", "name_ru": "Izsák", "tz": "", "district": "Bács-Kiskun"}, {"id": 248, "name": "Szecseny", "name_ru": "Szécsény", "tz": "", "district": "Nógrád"}, {"id": 249, "name": "Battonya", "name_ru": "Battonya", "tz": "", "district": "Békés"}, {"id": 250, "name": "Jaszladany", "name_ru": "Jászladány", "tz": "", "district": "Jász-Nagykun-Szolnok"}, {"id": 251, "name": "Komadi", "name_ru": "Komádi", "tz": "", "district": "Hajdú-Bihar"}, {"id": 252, "name": "Vamospercs", "name_ru": "Vámospércs", "tz": "", "district": "Hajdú-Bihar"}, {"id": 253, "name": "Szikszo", "name_ru": "Szikszó", "tz": "", "district": "Borsod-Abaúj-Zemplén"}, {"id": 254, "name": "Rakoczifalva", "name_ru": "Rákóczifalva", "tz": "", "district": "Jász-Nagykun-Szolnok"}, {"id": 255, "name": "Kisber", "name_ru": "Kisbér", "tz": "", "district": "Komárom-Esztergom"}, {"id": 256, "name": "Egyek", "name_ru": "Egyek", "tz": "", "district": "Hajdú-Bihar"}, {"id": 257, "name": "Balatonlelle", "name_ru": "Balatonlelle", "tz": "", "district": "Somogy"}, {"id": 258, "name": "Alsonemedi", "name_ru": "Alsónémedi", "tz": "", "district": "Pest"}, {"id": 259, "name": "Kunmadaras", "name_ru": "Kunmadaras", "tz": "", "district": "Jász-Nagykun-Szolnok"}, {"id": 260, "name": "Tiszalok", "name_ru": "Tiszalök", "tz": "", "district": "Szabolcs-Szatmár-Bereg"}, {"id": 261, "name": "Csakvar", "name_ru": "Csákvár", "tz": "", "district": "Fejér"}, {"id": 262, "name": "Tapioszentmarton", "name_ru": "Tápiószentmárton", "tz": "", "district": "Pest"}, {"id": 263, "name": "Bugyi", "name_ru": "Bugyi", "tz": "", "district": "Pest"}, {"id": 264, "name": "Jaszkiser", "name_ru": "Jászkisér", "tz": "", "district": "Jász-Nagykun-Szolnok"}, {"id": 265, "name": "Tiszaluc", "name_ru": "Tiszalúc", "tz": "", "district": "Borsod-Abaúj-Zemplén"}, {"id": 266, "name": "Tiszaalpar", "name_ru": "Tiszaalpár", "tz": "", "district": "Bács-Kiskun"}]