[{"id": 1, "name": "Jerusalem", "name_ru": "Jerusalem", "tz": "", "district": "Jerusalem"}, {"id": 2, "name": "Tel Aviv-Yafo", "name_ru": "Tel Aviv-Yafo", "tz": "", "district": "Tel Aviv"}, {"id": 3, "name": "Haifa", "name_ru": "Haifa", "tz": "", "district": "Haifa"}, {"id": 4, "name": "Rishon LeZiyyon", "name_ru": "Rishon LeẔiyyon", "tz": "", "district": "Central"}, {"id": 5, "name": "Petah Tiqwa", "name_ru": "Petaẖ Tiqwa", "tz": "", "district": "Central"}, {"id": 6, "name": "Ashdod", "name_ru": "Ashdod", "tz": "", "district": "Southern"}, {"id": 7, "name": "Netanya", "name_ru": "Netanya", "tz": "", "district": "Central"}, {"id": 8, "name": "Beersheba", "name_ru": "Beersheba", "tz": "", "district": "Southern"}, {"id": 9, "name": "Bene Beraq", "name_ru": "Bené Beraq", "tz": "", "district": "Tel Aviv"}, {"id": 10, "name": "Holon", "name_ru": "Holon", "tz": "", "district": "Tel Aviv"}, {"id": 11, "name": "Ramat Gan", "name_ru": "Ramat Gan", "tz": "", "district": "Tel Aviv"}, {"id": 12, "name": "Bat Yam", "name_ru": "Bat Yam", "tz": "", "district": "Tel Aviv"}, {"id": 13, "name": "Ashqelon", "name_ru": "Ashqelon", "tz": "", "district": "Southern"}, {"id": 14, "name": "Rehovot", "name_ru": "Reẖovot", "tz": "", "district": "Central"}, {"id": 15, "name": "Bet Shemesh", "name_ru": "Bet Shemesh", "tz": "", "district": "Jerusalem"}, {"id": 16, "name": "Kefar Sava", "name_ru": "Kefar Sava", "tz": "", "district": "Central"}, {"id": 17, "name": "Herzliyya", "name_ru": "Herẕliyya", "tz": "", "district": "Tel Aviv"}, {"id": 18, "name": "Nazareth", "name_ru": "Nazareth", "tz": "", "district": "Northern"}, {"id": 19, "name": "Ra`ananna", "name_ru": "Ra‘ananna", "tz": "", "district": "Central"}, {"id": 20, "name": "Ramla", "name_ru": "Ramla", "tz": "", "district": "Central"}, {"id": 21, "name": "Givatayim", "name_ru": "Givatayim", "tz": "", "district": "Tel Aviv"}, {"id": 22, "name": "Hod HaSharon", "name_ru": "Hod HaSharon", "tz": "", "district": "Central"}, {"id": 23, "name": "Qiryat Ata", "name_ru": "Qiryat Ata", "tz": "", "district": "Haifa"}, {"id": 24, "name": "Rosh Ha`Ayin", "name_ru": "Rosh Ha‘Ayin", "tz": "", "district": "Central"}, {"id": 25, "name": "Umm el Fahm", "name_ru": "Umm el Faḥm", "tz": "", "district": "Haifa"}, {"id": 26, "name": "Nes Ziyyona", "name_ru": "Nes Ẕiyyona", "tz": "", "district": "Central"}, {"id": 27, "name": "El`ad", "name_ru": "El‘ad", "tz": "", "district": "Central"}, {"id": 28, "name": "Ramat HaSharon", "name_ru": "Ramat HaSharon", "tz": "", "district": "Tel Aviv"}, {"id": 29, "name": "Karmiel", "name_ru": "Karmiel", "tz": "", "district": "Northern"}, {"id": 30, "name": "Qiryat Ono", "name_ru": "Qiryat Ono", "tz": "", "district": "Tel Aviv"}, {"id": 31, "name": "Ben Zakkay", "name_ru": "Ben Zakkay", "tz": "", "district": "Central"}, {"id": 32, "name": "Qiryat Bialik", "name_ru": "Qiryat Bialik", "tz": "", "district": "Haifa"}, {"id": 33, "name": "Or Yehuda", "name_ru": "Or Yehuda", "tz": "", "district": "Tel Aviv"}, {"id": 34, "name": "Shefar`am", "name_ru": "Shefar‘am", "tz": "", "district": "Northern"}, {"id": 35, "name": "Yehud", "name_ru": "Yehud", "tz": "", "district": "Central"}, {"id": 36, "name": "Giv`at Shemu'el", "name_ru": "Giv‘at Shemu’él", "tz": "", "district": "Central"}, {"id": 37, "name": "Gedera", "name_ru": "Gedera", "tz": "", "district": "Central"}, {"id": 38, "name": "Et Tira", "name_ru": "Eṭ Ṭīra", "tz": "", "district": "Central"}, {"id": 39, "name": "Gan Yavne", "name_ru": "Gan Yavne", "tz": "", "district": "Central"}, {"id": 40, "name": "Kafr Qasim", "name_ru": "Kafr Qāsim", "tz": "", "district": "Central"}, {"id": 41, "name": "Qalansuwa", "name_ru": "Qalansuwa", "tz": "", "district": "Central"}, {"id": 42, "name": "Hadera", "name_ru": "Hadera", "tz": "", "district": "Haifa"}, {"id": 43, "name": "Modi`in Makkabbim Re`ut", "name_ru": "Modi‘in Makkabbim Re‘ut", "tz": "", "district": "Central"}, {"id": 44, "name": "Lod", "name_ru": "Lod", "tz": "", "district": "Central"}, {"id": 45, "name": "Rahat", "name_ru": "Rahat", "tz": "", "district": "Southern"}, {"id": 46, "name": "Nahariyya", "name_ru": "Nahariyya", "tz": "", "district": "Northern"}, {"id": 47, "name": "Eilat", "name_ru": "Eilat", "tz": "", "district": "Southern"}, {"id": 48, "name": "`Akko", "name_ru": "‘Akko", "tz": "", "district": "Northern"}, {"id": 49, "name": "Afula", "name_ru": "Afula", "tz": "", "district": "Northern"}, {"id": 50, "name": "Tiberias", "name_ru": "Tiberias", "tz": "", "district": "Northern"}, {"id": 51, "name": "Pardes Hanna Karkur", "name_ru": "Pardés H̱anna Karkur", "tz": "", "district": "Haifa"}, {"id": 52, "name": "Et Taiyiba", "name_ru": "Eṭ Ṭaiyiba", "tz": "", "district": "Central"}, {"id": 53, "name": "Qiryat Mozqin", "name_ru": "Qiryat Moẕqin", "tz": "", "district": "Haifa"}, {"id": 54, "name": "Qiryat Yam", "name_ru": "Qiryat Yam", "tz": "", "district": "Haifa"}, {"id": 55, "name": "Ma`alot Tarshiha", "name_ru": "Ma‘alot Tarshīḥā", "tz": "", "district": "Northern"}, {"id": 56, "name": "Zefat", "name_ru": "Ẕefat", "tz": "", "district": "Northern"}, {"id": 57, "name": "Tamra", "name_ru": "Tamra", "tz": "", "district": "Northern"}, {"id": 58, "name": "Dimona", "name_ru": "Dimona", "tz": "", "district": "Southern"}, {"id": 59, "name": "Sakhnin", "name_ru": "Sakhnīn", "tz": "", "district": "Northern"}, {"id": 60, "name": "Netivot", "name_ru": "Netivot", "tz": "", "district": "Southern"}, {"id": 61, "name": "Ofaqim", "name_ru": "Ofaqim", "tz": "", "district": "Southern"}, {"id": 62, "name": "Migdal Ha`Emeq", "name_ru": "Migdal Ha‘Emeq", "tz": "", "district": "Northern"}, {"id": 63, "name": "Nesher", "name_ru": "Nesher", "tz": "", "district": "Haifa"}, {"id": 64, "name": "Arad", "name_ru": "Arad", "tz": "", "district": "Southern"}, {"id": 65, "name": "Kefar Yona", "name_ru": "Kefar Yona", "tz": "", "district": "Central"}, {"id": 66, "name": "Tirat Karmel", "name_ru": "Tirat Karmel", "tz": "", "district": "Haifa"}, {"id": 67, "name": "Sederot", "name_ru": "Sederot", "tz": "", "district": "Southern"}, {"id": 68, "name": "Qiryat Mal'akhi", "name_ru": "Qiryat Mal’akhi", "tz": "", "district": "Southern"}, {"id": 69, "name": "Qiryat Shemona", "name_ru": "Qiryat Shemona", "tz": "", "district": "Northern"}, {"id": 70, "name": "Yoqne`am `Illit", "name_ru": "Yoqne‘am ‘Illit", "tz": "", "district": "Northern"}, {"id": 71, "name": "Be'er Ya`aqov", "name_ru": "Be’er Ya‘aqov", "tz": "", "district": "Central"}, {"id": 72, "name": "Or `Aqiva", "name_ru": "Or ‘Aqiva", "tz": "", "district": "Haifa"}, {"id": 73, "name": "Bet She'an", "name_ru": "Bet She’an", "tz": "", "district": "Northern"}, {"id": 74, "name": "Majdal Shams", "name_ru": "Majdal Shams", "tz": "", "district": "Northern"}, {"id": 75, "name": "Jisr ez Zarqa", "name_ru": "Jisr ez Zarqā", "tz": "", "district": "Haifa"}, {"id": 76, "name": "Omer", "name_ru": "Omer", "tz": "", "district": "Southern"}, {"id": 77, "name": "Buq`ata", "name_ru": "Buq‘ātā", "tz": "", "district": "Northern"}]