[{"id": 1, "name": "Delhi", "name_ru": "Delhi", "tz": "", "district": "Delhi"}, {"id": 2, "name": "Mumbai", "name_ru": "Mumbai", "tz": "", "district": "Mahārāshtra"}, {"id": 3, "name": "Kolkata", "name_ru": "Kolkāta", "tz": "", "district": "West Bengal"}, {"id": 4, "name": "Bangalore", "name_ru": "Bangalore", "tz": "", "district": "Karnātaka"}, {"id": 5, "name": "Chennai", "name_ru": "Chennai", "tz": "", "district": "Tamil Nādu"}, {"id": 6, "name": "Hyderabad", "name_ru": "Hyderābād", "tz": "", "district": "Telangana"}, {"id": 7, "name": "Pune", "name_ru": "Pune", "tz": "", "district": "Mahārāshtra"}, {"id": 8, "name": "Ahmedabad", "name_ru": "Ahmedabad", "tz": "", "district": "Gujarāt"}, {"id": 9, "name": "Allahabad", "name_ru": "Allahābād", "tz": "", "district": "Uttar Pradesh"}, {"id": 10, "name": "Surat", "name_ru": "Sūrat", "tz": "", "district": "Gujarāt"}, {"id": 11, "name": "Lucknow", "name_ru": "Lucknow", "tz": "", "district": "Uttar Pradesh"}, {"id": 12, "name": "Jaipur", "name_ru": "Jaipur", "tz": "", "district": "Rājasthān"}, {"id": 13, "name": "Cawnpore", "name_ru": "Cawnpore", "tz": "", "district": "Uttar Pradesh"}, {"id": 14, "name": "Mirzapur", "name_ru": "Mirzāpur", "tz": "", "district": "Uttar Pradesh"}, {"id": 15, "name": "Nagpur", "name_ru": "Nāgpur", "tz": "", "district": "Mahārāshtra"}, {"id": 16, "name": "Ghaziabad", "name_ru": "Ghāziābād", "tz": "", "district": "Uttar Pradesh"}, {"id": 17, "name": "Vadodara", "name_ru": "Vadodara", "tz": "", "district": "Gujarāt"}, {"id": 18, "name": "Vishakhapatnam", "name_ru": "Vishākhapatnam", "tz": "", "district": "Andhra Pradesh"}, {"id": 19, "name": "Indore", "name_ru": "Indore", "tz": "", "district": "Madhya Pradesh"}, {"id": 20, "name": "Thane", "name_ru": "Thāne", "tz": "", "district": "Mahārāshtra"}, {"id": 21, "name": "Bhopal", "name_ru": "Bhopāl", "tz": "", "district": "Madhya Pradesh"}, {"id": 22, "name": "Patna", "name_ru": "Patna", "tz": "", "district": "Bihār"}, {"id": 23, "name": "Bilaspur", "name_ru": "Bilāspur", "tz": "", "district": "Chhattīsgarh"}, {"id": 24, "name": "Ludhiana", "name_ru": "Ludhiāna", "tz": "", "district": "Punjab"}, {"id": 25, "name": "Agra", "name_ru": "Āgra", "tz": "", "district": "Uttar Pradesh"}, {"id": 26, "name": "Kalyan", "name_ru": "Kalyān", "tz": "", "district": "Mahārāshtra"}, {"id": 27, "name": "Madurai", "name_ru": "Madurai", "tz": "", "district": "Tamil Nādu"}, {"id": 28, "name": "Jamshedpur", "name_ru": "Jamshedpur", "tz": "", "district": "Jharkhand"}, {"id": 29, "name": "Nasik", "name_ru": "Nāsik", "tz": "", "district": "Mahārāshtra"}, {"id": 30, "name": "Faridabad", "name_ru": "Farīdābād", "tz": "", "district": "Haryāna"}, {"id": 31, "name": "Aurangabad", "name_ru": "Aurangābād", "tz": "", "district": "Mahārāshtra"}, {"id": 32, "name": "Rajkot", "name_ru": "Rājkot", "tz": "", "district": "Gujarāt"}, {"id": 33, "name": "Meerut", "name_ru": "Meerut", "tz": "", "district": "Uttar Pradesh"}, {"id": 34, "name": "Jabalpur", "name_ru": "Jabalpur", "tz": "", "district": "Madhya Pradesh"}, {"id": 35, "name": "Dhanbad", "name_ru": "Dhanbād", "tz": "", "district": "Jharkhand"}, {"id": 36, "name": "Varanasi", "name_ru": "Vārānasi", "tz": "", "district": "Uttar Pradesh"}, {"id": 37, "name": "Srinagar", "name_ru": "Srīnagar", "tz": "", "district": "Jammu and Kashmīr"}, {"id": 38, "name": "Amritsar", "name_ru": "Amritsar", "tz": "", "district": "Punjab"}, {"id": 39, "name": "Aligarh", "name_ru": "Alīgarh", "tz": "", "district": "Uttar Pradesh"}, {"id": 40, "name": "Guwahati", "name_ru": "Guwāhāti", "tz": "", "district": "Assam"}, {"id": 41, "name": "Bhilai", "name_ru": "Bhilai", "tz": "", "district": "Chhattīsgarh"}, {"id": 42, "name": "Haora", "name_ru": "Hāora", "tz": "", "district": "West Bengal"}, {"id": 43, "name": "Ranchi", "name_ru": "Rānchi", "tz": "", "district": "Jharkhand"}, {"id": 44, "name": "Gwalior", "name_ru": "Gwalior", "tz": "", "district": "Madhya Pradesh"}, {"id": 45, "name": "Bezwada", "name_ru": "Bezwāda", "tz": "", "district": "Andhra Pradesh"}, {"id": 46, "name": "Chandigarh", "name_ru": "Chandīgarh", "tz": "", "district": "Chandīgarh"}, {"id": 47, "name": "Jodhpur", "name_ru": "Jodhpur", "tz": "", "district": "Rājasthān"}, {"id": 48, "name": "Mysore", "name_ru": "Mysore", "tz": "", "district": "Karnātaka"}, {"id": 49, "name": "Raipur", "name_ru": "Raipur", "tz": "", "district": "Chhattīsgarh"}, {"id": 50, "name": "Kota", "name_ru": "Kota", "tz": "", "district": "Rājasthān"}, {"id": 51, "name": "New Delhi", "name_ru": "New Delhi", "tz": "", "district": "Delhi"}, {"id": 52, "name": "Bareilly", "name_ru": "Bareilly", "tz": "", "district": "Uttar Pradesh"}, {"id": 53, "name": "Coimbatore", "name_ru": "Coimbatore", "tz": "", "district": "Tamil Nādu"}, {"id": 54, "name": "Solapur", "name_ru": "Solāpur", "tz": "", "district": "Mahārāshtra"}, {"id": 55, "name": "Trichinopoly", "name_ru": "Trichinopoly", "tz": "", "district": "Tamil Nādu"}, {"id": 56, "name": "Hubli", "name_ru": "Hubli", "tz": "", "district": "Karnātaka"}, {"id": 57, "name": "Jalandhar", "name_ru": "Jalandhar", "tz": "", "district": "Punjab"}, {"id": 58, "name": "Bhubaneshwar", "name_ru": "Bhubaneshwar", "tz": "", "district": "Odisha"}, {"id": 59, "name": "Moradabad", "name_ru": "Morādābād", "tz": "", "district": "Uttar Pradesh"}, {"id": 60, "name": "Kolhapur", "name_ru": "Kolhāpur", "tz": "", "district": "Mahārāshtra"}, {"id": 61, "name": "Thiruvananthapuram", "name_ru": "Thiruvananthapuram", "tz": "", "district": "Kerala"}, {"id": 62, "name": "Bhiwandi", "name_ru": "Bhiwandi", "tz": "", "district": "Mahārāshtra"}, {"id": 63, "name": "Saharanpur", "name_ru": "Sahāranpur", "tz": "", "district": "Uttar Pradesh"}, {"id": 64, "name": "Warangal", "name_ru": "Warangal", "tz": "", "district": "Telangana"}, {"id": 65, "name": "Salem", "name_ru": "Salem", "tz": "", "district": "Tamil Nādu"}, {"id": 66, "name": "Malegaon", "name_ru": "Mālegaon", "tz": "", "district": "Mahārāshtra"}, {"id": 67, "name": "Kochi", "name_ru": "Kochi", "tz": "", "district": "Kerala"}, {"id": 68, "name": "Gorakhpur", "name_ru": "Gorakhpur", "tz": "", "district": "Uttar Pradesh"}, {"id": 69, "name": "Shimoga", "name_ru": "Shimoga", "tz": "", "district": "Karnātaka"}, {"id": 70, "name": "Guntur", "name_ru": "Guntūr", "tz": "", "district": "Andhra Pradesh"}, {"id": 71, "name": "Tiruppur", "name_ru": "Tiruppūr", "tz": "", "district": "Tamil Nādu"}, {"id": 72, "name": "Raurkela", "name_ru": "Raurkela", "tz": "", "district": "Odisha"}, {"id": 73, "name": "Mangalore", "name_ru": "Mangalore", "tz": "", "district": "Karnātaka"}, {"id": 74, "name": "Nanded", "name_ru": "Nānded", "tz": "", "district": "Mahārāshtra"}, {"id": 75, "name": "Cuttack", "name_ru": "Cuttack", "tz": "", "district": "Odisha"}, {"id": 76, "name": "Tumkur", "name_ru": "Tumkūr", "tz": "", "district": "Karnātaka"}, {"id": 77, "name": "Chanda", "name_ru": "Chānda", "tz": "", "district": "Mahārāshtra"}, {"id": 78, "name": "Dehra Dun", "name_ru": "Dehra Dūn", "tz": "", "district": "Uttarakhand"}, {"id": 79, "name": "Durgapur", "name_ru": "Durgāpur", "tz": "", "district": "West Bengal"}, {"id": 80, "name": "Asansol", "name_ru": "Āsansol", "tz": "", "district": "West Bengal"}, {"id": 81, "name": "Bhavnagar", "name_ru": "Bhāvnagar", "tz": "", "district": "Gujarāt"}, {"id": 82, "name": "Nellore", "name_ru": "Nellore", "tz": "", "district": "Andhra Pradesh"}, {"id": 83, "name": "Amravati", "name_ru": "Amrāvati", "tz": "", "district": "Mahārāshtra"}, {"id": 84, "name": "Ajmer", "name_ru": "Ajmer", "tz": "", "district": "Rājasthān"}, {"id": 85, "name": "Tinnevelly", "name_ru": "Tinnevelly", "tz": "", "district": "Tamil Nādu"}, {"id": 86, "name": "Bikaner", "name_ru": "Bīkaner", "tz": "", "district": "Rājasthān"}, {"id": 87, "name": "Agartala", "name_ru": "Agartala", "tz": "", "district": "Tripura"}, {"id": 88, "name": "Ujjain", "name_ru": "Ujjain", "tz": "", "district": "Madhya Pradesh"}, {"id": 89, "name": "Ulhasnagar", "name_ru": "Ulhāsnagar", "tz": "", "district": "Mahārāshtra"}, {"id": 90, "name": "Jhansi", "name_ru": "Jhānsi", "tz": "", "district": "Uttar Pradesh"}, {"id": 91, "name": "Davangere", "name_ru": "Davangere", "tz": "", "district": "Karnātaka"}, {"id": 92, "name": "Jammu", "name_ru": "Jammu", "tz": "", "district": "Jammu and Kashmīr"}, {"id": 93, "name": "Belgaum", "name_ru": "Belgaum", "tz": "", "district": "Karnātaka"}, {"id": 94, "name": "Gulbarga", "name_ru": "Gulbarga", "tz": "", "district": "Karnātaka"}, {"id": 95, "name": "Jamnagar", "name_ru": "Jāmnagar", "tz": "", "district": "Gujarāt"}, {"id": 96, "name": "Dhulia", "name_ru": "Dhūlia", "tz": "", "district": "Mahārāshtra"}, {"id": 97, "name": "Gaya", "name_ru": "Gaya", "tz": "", "district": "Bihār"}, {"id": 98, "name": "Jalgaon", "name_ru": "Jalgaon", "tz": "", "district": "Mahārāshtra"}, {"id": 99, "name": "Kurnool", "name_ru": "Kurnool", "tz": "", "district": "Andhra Pradesh"}, {"id": 100, "name": "Udaipur", "name_ru": "Udaipur", "tz": "", "district": "Rājasthān"}, {"id": 101, "name": "Bellary", "name_ru": "Bellary", "tz": "", "district": "Karnātaka"}, {"id": 102, "name": "Sangli", "name_ru": "Sāngli", "tz": "", "district": "Mahārāshtra"}, {"id": 103, "name": "Tuticorin", "name_ru": "Tuticorin", "tz": "", "district": "Tamil Nādu"}, {"id": 104, "name": "Calicut", "name_ru": "Calicut", "tz": "", "district": "Kerala"}, {"id": 105, "name": "Akola", "name_ru": "Akola", "tz": "", "district": "Mahārāshtra"}, {"id": 106, "name": "Bhagalpur", "name_ru": "Bhāgalpur", "tz": "", "district": "Bihār"}, {"id": 107, "name": "Quilon", "name_ru": "Quilon", "tz": "", "district": "Kerala"}, {"id": 108, "name": "Sikar", "name_ru": "Sīkar", "tz": "", "district": "Rājasthān"}, {"id": 109, "name": "Bhatpara", "name_ru": "Bhātpāra", "tz": "", "district": "West Bengal"}, {"id": 110, "name": "Kakinada", "name_ru": "Kākināda", "tz": "", "district": "Andhra Pradesh"}, {"id": 111, "name": "Bhilwara", "name_ru": "Bhīlwāra", "tz": "", "district": "Rājasthān"}, {"id": 112, "name": "Nizamabad", "name_ru": "Nizāmābād", "tz": "", "district": "Telangana"}, {"id": 113, "name": "Panihati", "name_ru": "Pānihāti", "tz": "", "district": "West Bengal"}, {"id": 114, "name": "Parbhani", "name_ru": "Parbhani", "tz": "", "district": "Mahārāshtra"}, {"id": 115, "name": "Rohtak", "name_ru": "Rohtak", "tz": "", "district": "Haryāna"}, {"id": 116, "name": "Latur", "name_ru": "Lātūr", "tz": "", "district": "Mahārāshtra"}, {"id": 117, "name": "Rajapalaiyam", "name_ru": "Rājapālaiyam", "tz": "", "district": "Tamil Nādu"}, {"id": 118, "name": "Ahmadnagar", "name_ru": "Ahmadnagar", "tz": "", "district": "Mahārāshtra"}, {"id": 119, "name": "Rajahmundry", "name_ru": "Rājahmundry", "tz": "", "district": "Andhra Pradesh"}, {"id": 120, "name": "Cuddapah", "name_ru": "Cuddapah", "tz": "", "district": "Andhra Pradesh"}, {"id": 121, "name": "Muzaffarpur", "name_ru": "Muzaffarpur", "tz": "", "district": "Bihār"}, {"id": 122, "name": "Alwar", "name_ru": "Alwar", "tz": "", "district": "Rājasthān"}, {"id": 123, "name": "Brahmapur", "name_ru": "Brahmapur", "tz": "", "district": "Odisha"}, {"id": 124, "name": "Kamarhati", "name_ru": "Kāmārhāti", "tz": "", "district": "West Bengal"}, {"id": 125, "name": "Mathura", "name_ru": "Mathura", "tz": "", "district": "Uttar Pradesh"}, {"id": 126, "name": "Patiala", "name_ru": "Patiāla", "tz": "", "district": "Punjab"}, {"id": 127, "name": "Saugor", "name_ru": "Saugor", "tz": "", "district": "Madhya Pradesh"}, {"id": 128, "name": "Bijapur", "name_ru": "Bijāpur", "tz": "", "district": "Karnātaka"}, {"id": 129, "name": "Shahjanpur", "name_ru": "Shāhjānpur", "tz": "", "district": "Uttar Pradesh"}, {"id": 130, "name": "Junagadh", "name_ru": "Jūnāgadh", "tz": "", "district": "Gujarāt"}, {"id": 131, "name": "Trichur", "name_ru": "Trichūr", "tz": "", "district": "Kerala"}, {"id": 132, "name": "Barddhaman", "name_ru": "Barddhamān", "tz": "", "district": "West Bengal"}, {"id": 133, "name": "Purnea", "name_ru": "Purnea", "tz": "", "district": "Bihār"}, {"id": 134, "name": "Sambalpur", "name_ru": "Sambalpur", "tz": "", "district": "Odisha"}, {"id": 135, "name": "Firozabad", "name_ru": "Fīrozābād", "tz": "", "district": "Uttar Pradesh"}, {"id": 136, "name": "Hisar", "name_ru": "Hisar", "tz": "", "district": "Haryāna"}, {"id": 137, "name": "Rampur", "name_ru": "Rāmpur", "tz": "", "district": "Uttar Pradesh"}, {"id": 138, "name": "Bali", "name_ru": "Bāli", "tz": "", "district": "West Bengal"}, {"id": 139, "name": "Panipat", "name_ru": "Pānīpat", "tz": "", "district": "Haryāna"}, {"id": 140, "name": "Aizawl", "name_ru": "Āīzawl", "tz": "", "district": "Mizoram"}, {"id": 141, "name": "Karimnagar", "name_ru": "Karīmnagar", "tz": "", "district": "Telangana"}, {"id": 142, "name": "Bhuj", "name_ru": "Bhuj", "tz": "", "district": "Gujarāt"}, {"id": 143, "name": "Ichalkaranji", "name_ru": "Ichalkaranji", "tz": "", "district": "Mahārāshtra"}, {"id": 144, "name": "Hospet", "name_ru": "Hospet", "tz": "", "district": "Karnātaka"}, {"id": 145, "name": "Bhatinda", "name_ru": "Bhatinda", "tz": "", "district": "Punjab"}, {"id": 146, "name": "Sannai", "name_ru": "Sannai", "tz": "", "district": "Madhya Pradesh"}, {"id": 147, "name": "Barasat", "name_ru": "Bārāsat", "tz": "", "district": "West Bengal"}, {"id": 148, "name": "Ratlam", "name_ru": "Ratlām", "tz": "", "district": "Madhya Pradesh"}, {"id": 149, "name": "Drug", "name_ru": "Drug", "tz": "", "district": "Chhattīsgarh"}, {"id": 150, "name": "Handwara", "name_ru": "Handwāra", "tz": "", "district": "Jammu and Kashmīr"}, {"id": 151, "name": "Imphal", "name_ru": "Imphāl", "tz": "", "district": "Manipur"}, {"id": 152, "name": "Anantapur", "name_ru": "Anantapur", "tz": "", "district": "Andhra Pradesh"}, {"id": 153, "name": "Etawah", "name_ru": "Etāwah", "tz": "", "district": "Uttar Pradesh"}, {"id": 154, "name": "Raichur", "name_ru": "Rāichūr", "tz": "", "district": "Karnātaka"}, {"id": 155, "name": "Bharatpur", "name_ru": "Bharatpur", "tz": "", "district": "Rājasthān"}, {"id": 156, "name": "Begusarai", "name_ru": "Begusarai", "tz": "", "district": "Bihār"}, {"id": 157, "name": "Sonipat", "name_ru": "Sonīpat", "tz": "", "district": "Haryāna"}, {"id": 158, "name": "Shrirampur", "name_ru": "Shrīrāmpur", "tz": "", "district": "West Bengal"}, {"id": 159, "name": "Hapur", "name_ru": "Hāpur", "tz": "", "district": "Uttar Pradesh"}, {"id": 160, "name": "Ramgundam", "name_ru": "Rāmgundam", "tz": "", "district": "Telangana"}, {"id": 161, "name": "Uluberiya", "name_ru": "Uluberiya", "tz": "", "district": "West Bengal"}, {"id": 162, "name": "Puducherry", "name_ru": "Puducherry", "tz": "", "district": "Puducherry"}, {"id": 163, "name": "Porbandar", "name_ru": "Porbandar", "tz": "", "district": "Gujarāt"}, {"id": 164, "name": "Vizianagaram", "name_ru": "Vizianagaram", "tz": "", "district": "Andhra Pradesh"}, {"id": 165, "name": "Pali", "name_ru": "Pāli", "tz": "", "district": "Rājasthān"}, {"id": 166, "name": "Nadiad", "name_ru": "Nadiād", "tz": "", "district": "Gujarāt"}, {"id": 167, "name": "Nagercoil", "name_ru": "Nāgercoil", "tz": "", "district": "Tamil Nādu"}, {"id": 168, "name": "Karnal", "name_ru": "Karnāl", "tz": "", "district": "Haryāna"}, {"id": 169, "name": "Puri", "name_ru": "Puri", "tz": "", "district": "Odisha"}, {"id": 170, "name": "Tanjore", "name_ru": "Tanjore", "tz": "", "district": "Tamil Nādu"}, {"id": 171, "name": "Secunderabad", "name_ru": "Secunderābād", "tz": "", "district": "Telangana"}, {"id": 172, "name": "Sambhal", "name_ru": "Sambhal", "tz": "", "district": "Uttar Pradesh"}, {"id": 173, "name": "Shiliguri", "name_ru": "Shiliguri", "tz": "", "district": "West Bengal"}, {"id": 174, "name": "Naihati", "name_ru": "Naihāti", "tz": "", "district": "West Bengal"}, {"id": 175, "name": "Shimla", "name_ru": "Shimla", "tz": "", "district": "Himāchal Pradesh"}, {"id": 176, "name": "Kharagpur", "name_ru": "Kharagpur", "tz": "", "district": "West Bengal"}, {"id": 177, "name": "Dindigul", "name_ru": "Dindigul", "tz": "", "district": "Tamil Nādu"}, {"id": 178, "name": "Ingraj Bazar", "name_ru": "Ingrāj Bāzār", "tz": "", "district": "West Bengal"}, {"id": 179, "name": "Ongole", "name_ru": "Ongole", "tz": "", "district": "Andhra Pradesh"}, {"id": 180, "name": "Ellore", "name_ru": "Ellore", "tz": "", "district": "Andhra Pradesh"}, {"id": 181, "name": "Haldia", "name_ru": "Haldia", "tz": "", "district": "West Bengal"}, {"id": 182, "name": "Gurgaon", "name_ru": "Gurgaon", "tz": "", "district": "Haryāna"}, {"id": 183, "name": "Bulandshahr", "name_ru": "Bulandshahr", "tz": "", "district": "Uttar Pradesh"}, {"id": 184, "name": "Baharampur", "name_ru": "Baharampur", "tz": "", "district": "West Bengal"}, {"id": 185, "name": "Chakradharpur", "name_ru": "Chakradharpur", "tz": "", "district": "Jharkhand"}, {"id": 186, "name": "Madhyamgram", "name_ru": "Madhyamgram", "tz": "", "district": "West Bengal"}, {"id": 187, "name": "Burhanpur", "name_ru": "Burhānpur", "tz": "", "district": "Madhya Pradesh"}, {"id": 188, "name": "Khammam", "name_ru": "Khammam", "tz": "", "district": "Telangana"}, {"id": 189, "name": "Bhiwani", "name_ru": "Bhiwāni", "tz": "", "district": "Haryāna"}, {"id": 190, "name": "Ghandinagar", "name_ru": "Ghāndīnagar", "tz": "", "district": "Gujarāt"}, {"id": 191, "name": "Hugli", "name_ru": "Hugli", "tz": "", "district": "West Bengal"}, {"id": 192, "name": "Mahbubnagar", "name_ru": "Mahbūbnagar", "tz": "", "district": "Telangana"}, {"id": 193, "name": "Nandyal", "name_ru": "Nandyāl", "tz": "", "district": "Andhra Pradesh"}, {"id": 194, "name": "Raiganj", "name_ru": "Rāiganj", "tz": "", "district": "West Bengal"}, {"id": 195, "name": "Barakpur", "name_ru": "Bārākpur", "tz": "", "district": "West Bengal"}, {"id": 196, "name": "Mahesana", "name_ru": "Mahesāna", "tz": "", "district": "Gujarāt"}, {"id": 197, "name": "Batala", "name_ru": "Batāla", "tz": "", "district": "Punjab"}, {"id": 198, "name": "Bhusaval", "name_ru": "Bhusāval", "tz": "", "district": "Mahārāshtra"}, {"id": 199, "name": "Bahraigh", "name_ru": "Bahraigh", "tz": "", "district": "Uttar Pradesh"}, {"id": 200, "name": "Tonk", "name_ru": "Tonk", "tz": "", "district": "Rājasthān"}, {"id": 201, "name": "Sirsa", "name_ru": "Sirsa", "tz": "", "district": "Haryāna"}, {"id": 202, "name": "Jaunpur", "name_ru": "Jaunpur", "tz": "", "district": "Uttar Pradesh"}, {"id": 203, "name": "Dam Dam", "name_ru": "Dam Dam", "tz": "", "district": "West Bengal"}, {"id": 204, "name": "Madanapalle", "name_ru": "Madanapalle", "tz": "", "district": "Andhra Pradesh"}, {"id": 205, "name": "Alleppey", "name_ru": "Alleppey", "tz": "", "district": "Kerala"}, {"id": 206, "name": "Vellore", "name_ru": "Vellore", "tz": "", "district": "Tamil Nādu"}, {"id": 207, "name": "Titagarh", "name_ru": "Titāgarh", "tz": "", "district": "West Bengal"}, {"id": 208, "name": "Chandannagar", "name_ru": "Chandannagar", "tz": "", "district": "West Bengal"}, {"id": 209, "name": "Cuddalore", "name_ru": "Cuddalore", "tz": "", "district": "Tamil Nādu"}, {"id": 210, "name": "Chirala", "name_ru": "Chīrāla", "tz": "", "district": "Andhra Pradesh"}, {"id": 211, "name": "Deo", "name_ru": "Deo", "tz": "", "district": "Bihār"}, {"id": 212, "name": "Bidar", "name_ru": "Bīdar", "tz": "", "district": "Karnātaka"}, {"id": 213, "name": "Machilipatnam", "name_ru": "Machilīpatnam", "tz": "", "district": "Andhra Pradesh"}, {"id": 214, "name": "Medinipur", "name_ru": "Medinīpur", "tz": "", "district": "West Bengal"}, {"id": 215, "name": "Baramula", "name_ru": "Bāramūla", "tz": "", "district": "Jammu and Kashmīr"}, {"id": 216, "name": "Fatehpur", "name_ru": "Fatehpur", "tz": "", "district": "Uttar Pradesh"}, {"id": 217, "name": "Tenali", "name_ru": "Tenāli", "tz": "", "district": "Andhra Pradesh"}, {"id": 218, "name": "Udipi", "name_ru": "Udipi", "tz": "", "district": "Karnātaka"}, {"id": 219, "name": "Sitalpur", "name_ru": "Sitalpur", "tz": "", "district": "Uttar Pradesh"}, {"id": 220, "name": "Conjeeveram", "name_ru": "Conjeeveram", "tz": "", "district": "Tamil Nādu"}, {"id": 221, "name": "Proddatur", "name_ru": "Proddatūr", "tz": "", "district": "Andhra Pradesh"}, {"id": 222, "name": "Navsari", "name_ru": "Navsāri", "tz": "", "district": "Gujarāt"}, {"id": 223, "name": "Godhra", "name_ru": "Godhra", "tz": "", "district": "Gujarāt"}, {"id": 224, "name": "Budaun", "name_ru": "Budaun", "tz": "", "district": "Uttar Pradesh"}, {"id": 225, "name": "Chittoor", "name_ru": "Chittoor", "tz": "", "district": "Andhra Pradesh"}, {"id": 226, "name": "Krishnanagar", "name_ru": "Krishnanagar", "tz": "", "district": "West Bengal"}, {"id": 227, "name": "Bharuch", "name_ru": "Bharūch", "tz": "", "district": "Gujarāt"}, {"id": 228, "name": "Saharsa", "name_ru": "Saharsa", "tz": "", "district": "Bihār"}, {"id": 229, "name": "Haripur", "name_ru": "Harīpur", "tz": "", "district": "Punjab"}, {"id": 230, "name": "Pathankot", "name_ru": "Pathānkot", "tz": "", "district": "Punjab"}, {"id": 231, "name": "Vidisha", "name_ru": "Vidisha", "tz": "", "district": "Madhya Pradesh"}, {"id": 232, "name": "Nalgonda", "name_ru": "Nalgonda", "tz": "", "district": "Telangana"}, {"id": 233, "name": "Balurghat", "name_ru": "Bālurghāt", "tz": "", "district": "West Bengal"}, {"id": 234, "name": "Dibrugarh", "name_ru": "Dibrugarh", "tz": "", "district": "Assam"}, {"id": 235, "name": "Veraval", "name_ru": "Verāval", "tz": "", "district": "Gujarāt"}, {"id": 236, "name": "Fyzabad", "name_ru": "Fyzābād", "tz": "", "district": "Uttar Pradesh"}, {"id": 237, "name": "Silchar", "name_ru": "Silchar", "tz": "", "district": "Assam"}, {"id": 238, "name": "Shantipur", "name_ru": "Shāntipur", "tz": "", "district": "West Bengal"}, {"id": 239, "name": "Hindupur", "name_ru": "Hindupur", "tz": "", "district": "Andhra Pradesh"}, {"id": 240, "name": "Erode", "name_ru": "Erode", "tz": "", "district": "Tamil Nādu"}, {"id": 241, "name": "Beawar", "name_ru": "Beāwar", "tz": "", "district": "Rājasthān"}, {"id": 242, "name": "Mauli", "name_ru": "Mauli", "tz": "", "district": "Punjab"}, {"id": 243, "name": "Habra", "name_ru": "Hābra", "tz": "", "district": "West Bengal"}, {"id": 244, "name": "Ambala", "name_ru": "Ambāla", "tz": "", "district": "Haryāna"}, {"id": 245, "name": "Etah", "name_ru": "Etah", "tz": "", "district": "Uttar Pradesh"}, {"id": 246, "name": "Shillong", "name_ru": "Shillong", "tz": "", "district": "Meghālaya"}, {"id": 247, "name": "Kolar", "name_ru": "Kolār", "tz": "", "district": "Karnātaka"}, {"id": 248, "name": "Bhimavaram", "name_ru": "Bhīmavaram", "tz": "", "district": "Andhra Pradesh"}, {"id": 249, "name": "Mandsaur", "name_ru": "Mandsaur", "tz": "", "district": "Madhya Pradesh"}, {"id": 250, "name": "Kumbakonam", "name_ru": "Kumbakonam", "tz": "", "district": "Tamil Nādu"}, {"id": 251, "name": "Chicacole", "name_ru": "Chicacole", "tz": "", "district": "Andhra Pradesh"}, {"id": 252, "name": "Tiruvannamalai", "name_ru": "Tiruvannāmalai", "tz": "", "district": "Tamil Nādu"}, {"id": 253, "name": "Mandya", "name_ru": "Mandya", "tz": "", "district": "Karnātaka"}, {"id": 254, "name": "Bankura", "name_ru": "Bānkura", "tz": "", "district": "West Bengal"}, {"id": 255, "name": "Gondia", "name_ru": "Gondiā", "tz": "", "district": "Mahārāshtra"}, {"id": 256, "name": "Hassan", "name_ru": "Hassan", "tz": "", "district": "Karnātaka"}, {"id": 257, "name": "Pilibhit", "name_ru": "Pīlibhīt", "tz": "", "district": "Uttar Pradesh"}, {"id": 258, "name": "Palghat", "name_ru": "Pālghāt", "tz": "", "district": "Kerala"}, {"id": 259, "name": "Palakollu", "name_ru": "Pālakollu", "tz": "", "district": "Andhra Pradesh"}, {"id": 260, "name": "Abohar", "name_ru": "Abohar", "tz": "", "district": "Punjab"}, {"id": 261, "name": "Kanchrapara", "name_ru": "Kānchrāpāra", "tz": "", "district": "West Bengal"}, {"id": 262, "name": "Hanumangarh", "name_ru": "Hanumāngarh", "tz": "", "district": "Rājasthān"}, {"id": 263, "name": "Hathras", "name_ru": "Hāthras", "tz": "", "district": "Uttar Pradesh"}, {"id": 264, "name": "Basirhat", "name_ru": "Basīrhat", "tz": "", "district": "West Bengal"}, {"id": 265, "name": "Navadwip", "name_ru": "Navadwīp", "tz": "", "district": "West Bengal"}, {"id": 266, "name": "Guntakal", "name_ru": "Guntakal", "tz": "", "district": "Andhra Pradesh"}, {"id": 267, "name": "Halisahar", "name_ru": "Hālīsahar", "tz": "", "district": "West Bengal"}, {"id": 268, "name": "Rishra", "name_ru": "Rishra", "tz": "", "district": "West Bengal"}, {"id": 269, "name": "Baidyabati", "name_ru": "Baidyabāti", "tz": "", "district": "West Bengal"}, {"id": 270, "name": "Dharmavaram", "name_ru": "Dharmavaram", "tz": "", "district": "Andhra Pradesh"}, {"id": 271, "name": "Ghazipur", "name_ru": "Ghazīpur", "tz": "", "district": "Uttar Pradesh"}, {"id": 272, "name": "Puruliya", "name_ru": "Puruliya", "tz": "", "district": "West Bengal"}, {"id": 273, "name": "Darjeeling", "name_ru": "Darjeeling", "tz": "", "district": "West Bengal"}, {"id": 274, "name": "Gudivada", "name_ru": "Gudivāda", "tz": "", "district": "Andhra Pradesh"}, {"id": 275, "name": "Sopur", "name_ru": "Sopur", "tz": "", "district": "Jammu and Kashmīr"}, {"id": 276, "name": "Adilabad", "name_ru": "Adilābād", "tz": "", "district": "Telangana"}, {"id": 277, "name": "Narasaraopet", "name_ru": "Narasaraopet", "tz": "", "district": "Andhra Pradesh"}, {"id": 278, "name": "Yavatmal", "name_ru": "Yavatmāl", "tz": "", "district": "Mahārāshtra"}, {"id": 279, "name": "Chittaurgarh", "name_ru": "Chittaurgarh", "tz": "", "district": "Rājasthān"}, {"id": 280, "name": "Bansbaria", "name_ru": "Bānsbāria", "tz": "", "district": "West Bengal"}, {"id": 281, "name": "Siddipet", "name_ru": "Siddipet", "tz": "", "district": "Telangana"}, {"id": 282, "name": "Valparai", "name_ru": "Vālpārai", "tz": "", "district": "Tamil Nādu"}, {"id": 283, "name": "Osmanabad", "name_ru": "Osmānābād", "tz": "", "district": "Mahārāshtra"}, {"id": 284, "name": "Champdani", "name_ru": "Champdani", "tz": "", "district": "West Bengal"}, {"id": 285, "name": "Khardah", "name_ru": "Khardah", "tz": "", "district": "West Bengal"}, {"id": 286, "name": "Bangaon", "name_ru": "Bangaon", "tz": "", "district": "West Bengal"}, {"id": 287, "name": "Tadpatri", "name_ru": "Tādpatri", "tz": "", "district": "Andhra Pradesh"}, {"id": 288, "name": "Islamabad", "name_ru": "Islāmābād", "tz": "", "district": "Jammu and Kashmīr"}, {"id": 289, "name": "Jalpaiguri", "name_ru": "Jalpāiguri", "tz": "", "district": "West Bengal"}, {"id": 290, "name": "Suriapet", "name_ru": "Suriāpet", "tz": "", "district": "Telangana"}, {"id": 291, "name": "Tadepallegudem", "name_ru": "Tādepallegūdem", "tz": "", "district": "Andhra Pradesh"}, {"id": 292, "name": "Kalyani", "name_ru": "Kalyani", "tz": "", "district": "West Bengal"}, {"id": 293, "name": "Negapatam", "name_ru": "Negapatam", "tz": "", "district": "Tamil Nādu"}, {"id": 294, "name": "Bundi", "name_ru": "Būndi", "tz": "", "district": "Rājasthān"}, {"id": 295, "name": "Bhadreswar", "name_ru": "Bhadreswar", "tz": "", "district": "West Bengal"}, {"id": 296, "name": "Chilakalurupet", "name_ru": "Chilakalūrupet", "tz": "", "district": "Andhra Pradesh"}, {"id": 297, "name": "Port Blair", "name_ru": "Port Blair", "tz": "", "district": "Andaman and Nicobar Islands"}, {"id": 298, "name": "Gangtok", "name_ru": "Gangtok", "tz": "", "district": "Sikkim"}, {"id": 299, "name": "Dhulian", "name_ru": "Dhuliān", "tz": "", "district": "West Bengal"}, {"id": 300, "name": "Kohima", "name_ru": "Kohīma", "tz": "", "district": "Nāgāland"}, {"id": 301, "name": "Marmagao", "name_ru": "Marmagao", "tz": "", "district": "Goa"}, {"id": 302, "name": "Jangipur", "name_ru": "Jangipur", "tz": "", "district": "West Bengal"}, {"id": 303, "name": "Baj Baj", "name_ru": "Baj Baj", "tz": "", "district": "West Bengal"}, {"id": 304, "name": "Tanuku", "name_ru": "Tanuku", "tz": "", "district": "Andhra Pradesh"}, {"id": 305, "name": "Siuri", "name_ru": "Siuri", "tz": "", "district": "West Bengal"}, {"id": 306, "name": "Tamluk", "name_ru": "Tamlūk", "tz": "", "district": "West Bengal"}, {"id": 307, "name": "Bankra", "name_ru": "Bankra", "tz": "", "district": "West Bengal"}, {"id": 308, "name": "Nagari", "name_ru": "Nagari", "tz": "", "district": "Andhra Pradesh"}, {"id": 309, "name": "Chakapara", "name_ru": "Chakapara", "tz": "", "district": "West Bengal"}, {"id": 310, "name": "Itanagar", "name_ru": "Itānagar", "tz": "", "district": "Arunāchal Pradesh"}, {"id": 311, "name": "Mundka", "name_ru": "Mūndka", "tz": "", "district": "Delhi"}, {"id": 312, "name": "Baruipur", "name_ru": "Bāruipur", "tz": "", "district": "West Bengal"}, {"id": 313, "name": "Mandapeta", "name_ru": "Mandapeta", "tz": "", "district": "Andhra Pradesh"}, {"id": 314, "name": "Bhimunipatnam", "name_ru": "Bhīmunipatnam", "tz": "", "district": "Andhra Pradesh"}, {"id": 315, "name": "Pithapuram", "name_ru": "Pithāpuram", "tz": "", "district": "Andhra Pradesh"}, {"id": 316, "name": "Amalapuram", "name_ru": "Amalāpuram", "tz": "", "district": "Andhra Pradesh"}, {"id": 317, "name": "Bodupal", "name_ru": "Bodupāl", "tz": "", "district": "Telangana"}, {"id": 318, "name": "Gobardanga", "name_ru": "Gobārdānga", "tz": "", "district": "West Bengal"}, {"id": 319, "name": "Diamond Harbour", "name_ru": "Diamond Harbour", "tz": "", "district": "West Bengal"}, {"id": 320, "name": "Daman", "name_ru": "Damān", "tz": "", "district": "Damān and Diu"}, {"id": 321, "name": "Amudalavalasa", "name_ru": "Amudālavalasa", "tz": "", "district": "Andhra Pradesh"}, {"id": 322, "name": "Kankuria", "name_ru": "Kānkuria", "tz": "", "district": "West Bengal"}, {"id": 323, "name": "Pujali", "name_ru": "Pujali", "tz": "", "district": "West Bengal"}, {"id": 324, "name": "Chittaranjan", "name_ru": "Chittaranjan", "tz": "", "district": "West Bengal"}, {"id": 325, "name": "Panaji", "name_ru": "Panaji", "tz": "", "district": "Goa"}, {"id": 326, "name": "Kaippakancheri", "name_ru": "Kaippakanchēri", "tz": "", "district": "Kerala"}, {"id": 327, "name": "Sankrail", "name_ru": "Sānkrāil", "tz": "", "district": "West Bengal"}, {"id": 328, "name": "Elesvaram", "name_ru": "Elesvaram", "tz": "", "district": "Andhra Pradesh"}, {"id": 329, "name": "Tarakeswar", "name_ru": "Tarakeswar", "tz": "", "district": "West Bengal"}, {"id": 330, "name": "Nibria", "name_ru": "Nibria", "tz": "", "district": "West Bengal"}, {"id": 331, "name": "Kuli", "name_ru": "Kuli", "tz": "", "district": "West Bengal"}, {"id": 332, "name": "Beldanga", "name_ru": "Beldānga", "tz": "", "district": "West Bengal"}, {"id": 333, "name": "Saranga", "name_ru": "Saranga", "tz": "", "district": "West Bengal"}, {"id": 334, "name": "Jaynagar-Majilpur", "name_ru": "Jaynagar-Majilpur", "tz": "", "district": "West Bengal"}, {"id": 335, "name": "Panchla", "name_ru": "Pānchla", "tz": "", "district": "West Bengal"}, {"id": 336, "name": "Mamidalapadu", "name_ru": "Māmidālapādu", "tz": "", "district": "Andhra Pradesh"}, {"id": 337, "name": "Jalhalli", "name_ru": "Jālhalli", "tz": "", "district": "Karnātaka"}, {"id": 338, "name": "Poranki", "name_ru": "Poranki", "tz": "", "district": "Andhra Pradesh"}, {"id": 339, "name": "Sundararaopeta", "name_ru": "Sundararaopeta", "tz": "", "district": "Andhra Pradesh"}, {"id": 340, "name": "Bauria", "name_ru": "Bāuria", "tz": "", "district": "West Bengal"}, {"id": 341, "name": "Dumjor", "name_ru": "Dumjor", "tz": "", "district": "West Bengal"}, {"id": 342, "name": "Mahiari", "name_ru": "Mahiari", "tz": "", "district": "West Bengal"}, {"id": 343, "name": "Mayahaura", "name_ru": "Mayahaura", "tz": "", "district": "West Bengal"}, {"id": 344, "name": "Dispur", "name_ru": "Dispur", "tz": "", "district": "Assam"}, {"id": 345, "name": "Malancha", "name_ru": "Mālancha", "tz": "", "district": "West Bengal"}, {"id": 346, "name": "Raghudebbati", "name_ru": "Raghudebbati", "tz": "", "district": "West Bengal"}, {"id": 347, "name": "Nahazari", "name_ru": "Nahāzāri", "tz": "", "district": "West Bengal"}, {"id": 348, "name": "Giria", "name_ru": "Giria", "tz": "", "district": "West Bengal"}, {"id": 349, "name": "Baharu", "name_ru": "Baharu", "tz": "", "district": "West Bengal"}, {"id": 350, "name": "Jagdispur", "name_ru": "Jagdispur", "tz": "", "district": "West Bengal"}, {"id": 351, "name": "Ramnagar", "name_ru": "Ramnagar", "tz": "", "district": "West Bengal"}, {"id": 352, "name": "Jaypul", "name_ru": "Jaypul", "tz": "", "district": "West Bengal"}, {"id": 353, "name": "Dogachi", "name_ru": "Dogāchi", "tz": "", "district": "West Bengal"}, {"id": 354, "name": "Janai", "name_ru": "Janāi", "tz": "", "district": "West Bengal"}, {"id": 355, "name": "Bahagalpur", "name_ru": "Bāhāgalpur", "tz": "", "district": "West Bengal"}, {"id": 356, "name": "Muragacha", "name_ru": "Muragācha", "tz": "", "district": "West Bengal"}, {"id": 357, "name": "Chandi", "name_ru": "Chandi", "tz": "", "district": "West Bengal"}, {"id": 358, "name": "Saktipur", "name_ru": "Saktipur", "tz": "", "district": "West Bengal"}, {"id": 359, "name": "Bhabanipur", "name_ru": "Bhabānipur", "tz": "", "district": "West Bengal"}, {"id": 360, "name": "Bandlaguda", "name_ru": "Bandlagūda", "tz": "", "district": "Telangana"}, {"id": 361, "name": "Begampur", "name_ru": "Begampur", "tz": "", "district": "West Bengal"}, {"id": 362, "name": "Amtala", "name_ru": "Amtala", "tz": "", "district": "West Bengal"}, {"id": 363, "name": "Velivennu", "name_ru": "Velivennu", "tz": "", "district": "Andhra Pradesh"}, {"id": 364, "name": "Begampur", "name_ru": "Begampur", "tz": "", "district": "West Bengal"}, {"id": 365, "name": "Kalinagar", "name_ru": "Kalinagar", "tz": "", "district": "West Bengal"}, {"id": 366, "name": "Natshal", "name_ru": "Natshal", "tz": "", "district": "West Bengal"}, {"id": 367, "name": "Chaital", "name_ru": "Chaital", "tz": "", "district": "West Bengal"}, {"id": 368, "name": "Dhamua", "name_ru": "Dhāmua", "tz": "", "district": "West Bengal"}, {"id": 369, "name": "Multi", "name_ru": "Multi", "tz": "", "district": "West Bengal"}, {"id": 370, "name": "Chandpur", "name_ru": "Chāndpur", "tz": "", "district": "West Bengal"}, {"id": 371, "name": "Sahapur", "name_ru": "Sāhāpur", "tz": "", "district": "West Bengal"}, {"id": 372, "name": "Amgachia", "name_ru": "Amgachia", "tz": "", "district": "West Bengal"}, {"id": 373, "name": "Laskarpar", "name_ru": "Laskarpar", "tz": "", "district": "West Bengal"}, {"id": 374, "name": "Nimpot", "name_ru": "Nimpot", "tz": "", "district": "West Bengal"}, {"id": 375, "name": "Harua", "name_ru": "Hārua", "tz": "", "district": "West Bengal"}, {"id": 376, "name": "Nazira", "name_ru": "Nāzira", "tz": "", "district": "West Bengal"}, {"id": 377, "name": "Krishnapur", "name_ru": "Krishnapur", "tz": "", "district": "West Bengal"}, {"id": 378, "name": "Nalpur", "name_ru": "Nalpur", "tz": "", "district": "West Bengal"}, {"id": 379, "name": "Mahadipur", "name_ru": "Mahadipur", "tz": "", "district": "West Bengal"}, {"id": 380, "name": "Iarpur", "name_ru": "Iarpur", "tz": "", "district": "West Bengal"}, {"id": 381, "name": "Raspunji", "name_ru": "Raspunji", "tz": "", "district": "West Bengal"}, {"id": 382, "name": "Nijgaon Paranpur", "name_ru": "Nijgaon Parānpur", "tz": "", "district": "West Bengal"}, {"id": 383, "name": "Ballalpur", "name_ru": "Ballālpur", "tz": "", "district": "West Bengal"}, {"id": 384, "name": "Kavaratti", "name_ru": "Kavaratti", "tz": "", "district": "Lakshadweep"}, {"id": 385, "name": "Patra", "name_ru": "Pātra", "tz": "", "district": "West Bengal"}, {"id": 386, "name": "Chandnidaha", "name_ru": "Chāndnidaha", "tz": "", "district": "West Bengal"}, {"id": 387, "name": "Nabagram", "name_ru": "Nabagrām", "tz": "", "district": "West Bengal"}, {"id": 388, "name": "Hilora", "name_ru": "Hilora", "tz": "", "district": "West Bengal"}, {"id": 389, "name": "Imamnagar", "name_ru": "Imamnagar", "tz": "", "district": "West Bengal"}, {"id": 390, "name": "Serpur", "name_ru": "Serpur", "tz": "", "district": "West Bengal"}, {"id": 391, "name": "Dignagar", "name_ru": "Dīgnagar", "tz": "", "district": "West Bengal"}, {"id": 392, "name": "Palta", "name_ru": "Palta", "tz": "", "district": "West Bengal"}, {"id": 393, "name": "Beonta", "name_ru": "Beonta", "tz": "", "district": "West Bengal"}, {"id": 394, "name": "Andharmanik", "name_ru": "Andharmanik", "tz": "", "district": "West Bengal"}, {"id": 395, "name": "Balbalpara", "name_ru": "Balbalpāra", "tz": "", "district": "West Bengal"}, {"id": 396, "name": "Bhandardaha", "name_ru": "Bhandārdaha", "tz": "", "district": "West Bengal"}, {"id": 397, "name": "Jajigram", "name_ru": "Jājigrām", "tz": "", "district": "West Bengal"}, {"id": 398, "name": "Alipur", "name_ru": "Alipur", "tz": "", "district": "West Bengal"}, {"id": 399, "name": "Burul", "name_ru": "Burul", "tz": "", "district": "West Bengal"}, {"id": 400, "name": "Purbba Ramnagar", "name_ru": "Purbba Ramnagar", "tz": "", "district": "West Bengal"}, {"id": 401, "name": "Bansabati", "name_ru": "Bansabāti", "tz": "", "district": "West Bengal"}, {"id": 402, "name": "Bodai", "name_ru": "Bodāi", "tz": "", "district": "West Bengal"}, {"id": 403, "name": "Uttarbhag", "name_ru": "Uttarbhag", "tz": "", "district": "West Bengal"}, {"id": 404, "name": "Gacha", "name_ru": "Gācha", "tz": "", "district": "West Bengal"}, {"id": 405, "name": "Gotra", "name_ru": "Gotra", "tz": "", "district": "West Bengal"}, {"id": 406, "name": "Bamanpukur", "name_ru": "Bāmanpukur", "tz": "", "district": "West Bengal"}, {"id": 407, "name": "Padmarha", "name_ru": "Padmarhā", "tz": "", "district": "West Bengal"}, {"id": 408, "name": "Ramkrishnapur", "name_ru": "Ramkrishnapur", "tz": "", "district": "West Bengal"}, {"id": 409, "name": "Iswaripur", "name_ru": "Iswaripur", "tz": "", "district": "West Bengal"}, {"id": 410, "name": "Nadabhanga", "name_ru": "Nadābhānga", "tz": "", "district": "West Bengal"}, {"id": 411, "name": "Bishnupur", "name_ru": "Bishnupur", "tz": "", "district": "West Bengal"}, {"id": 412, "name": "Bhasa", "name_ru": "Bhāsa", "tz": "", "district": "West Bengal"}, {"id": 413, "name": "Bodra", "name_ru": "Bodra", "tz": "", "district": "West Bengal"}, {"id": 414, "name": "Tinsukia", "name_ru": "Tinsukia", "tz": "", "district": "Assam"}, {"id": 415, "name": "Khambhat", "name_ru": "Khambhāt", "tz": "", "district": "Gujarāt"}, {"id": 416, "name": "Aurangabad", "name_ru": "Aurangābād", "tz": "", "district": "Bihār"}, {"id": 417, "name": "Chakdaha", "name_ru": "Chākdaha", "tz": "", "district": "West Bengal"}, {"id": 418, "name": "Contai", "name_ru": "Contai", "tz": "", "district": "West Bengal"}, {"id": 419, "name": "Rayachoti", "name_ru": "Rāyachoti", "tz": "", "district": "Andhra Pradesh"}, {"id": 420, "name": "Kavali", "name_ru": "Kāvali", "tz": "", "district": "Andhra Pradesh"}, {"id": 421, "name": "Mancheral", "name_ru": "Mancherāl", "tz": "", "district": "Telangana"}, {"id": 422, "name": "Kairana", "name_ru": "Kairāna", "tz": "", "district": "Uttar Pradesh"}, {"id": 423, "name": "Kadiri", "name_ru": "Kadiri", "tz": "", "district": "Andhra Pradesh"}, {"id": 424, "name": "Madgaon", "name_ru": "Madgaon", "tz": "", "district": "Goa"}, {"id": 425, "name": "Ootacamund", "name_ru": "Ootacamund", "tz": "", "district": "Tamil Nādu"}, {"id": 426, "name": "Faridkot", "name_ru": "Farīdkot", "tz": "", "district": "Punjab"}, {"id": 427, "name": "Anakapalle", "name_ru": "Anakāpalle", "tz": "", "district": "Andhra Pradesh"}, {"id": 428, "name": "Garulia", "name_ru": "Garulia", "tz": "", "district": "West Bengal"}, {"id": 429, "name": "Sirsilla", "name_ru": "Sirsilla", "tz": "", "district": "Telangana"}, {"id": 430, "name": "Katoya", "name_ru": "Kātoya", "tz": "", "district": "West Bengal"}, {"id": 431, "name": "Kamareddipet", "name_ru": "Kāmāreddipet", "tz": "", "district": "Telangana"}, {"id": 432, "name": "Bolpur", "name_ru": "Bolpur", "tz": "", "district": "West Bengal"}, {"id": 433, "name": "Gumla", "name_ru": "Gumlā", "tz": "", "district": "Jharkhand"}, {"id": 434, "name": "Simdega", "name_ru": "Simdega", "tz": "", "district": "Jharkhand"}, {"id": 435, "name": "Kottagudem", "name_ru": "Kottagūdem", "tz": "", "district": "Telangana"}, {"id": 436, "name": "Koch Bihar", "name_ru": "Koch Bihār", "tz": "", "district": "West Bengal"}, {"id": 437, "name": "Bodhan", "name_ru": "Bodhan", "tz": "", "district": "Telangana"}, {"id": 438, "name": "Karur", "name_ru": "Karūr", "tz": "", "district": "Tamil Nādu"}, {"id": 439, "name": "Mangalagiri", "name_ru": "Mangalagiri", "tz": "", "district": "Andhra Pradesh"}, {"id": 440, "name": "Bapatla", "name_ru": "Bāpatla", "tz": "", "district": "Andhra Pradesh"}, {"id": 441, "name": "Markapur", "name_ru": "Mārkāpur", "tz": "", "district": "Andhra Pradesh"}, {"id": 442, "name": "Malaut", "name_ru": "Malaut", "tz": "", "district": "Punjab"}, {"id": 443, "name": "Badvel", "name_ru": "Badvel", "tz": "", "district": "Andhra Pradesh"}, {"id": 444, "name": "Jorhat", "name_ru": "Jorhāt", "tz": "", "district": "Assam"}, {"id": 445, "name": "Basavakalyan", "name_ru": "Basavakalyān", "tz": "", "district": "Karnātaka"}, {"id": 446, "name": "Beypore", "name_ru": "Beypore", "tz": "", "district": "Kerala"}, {"id": 447, "name": "Bishnupur", "name_ru": "Bishnupur", "tz": "", "district": "West Bengal"}, {"id": 448, "name": "Koratla", "name_ru": "Koratla", "tz": "", "district": "Telangana"}, {"id": 449, "name": "Pulivendla", "name_ru": "Pulivendla", "tz": "", "district": "Andhra Pradesh"}, {"id": 450, "name": "Alipur Duar", "name_ru": "Alīpur Duār", "tz": "", "district": "West Bengal"}, {"id": 451, "name": "Jaisalmer", "name_ru": "Jaisalmer", "tz": "", "district": "Rājasthān"}, {"id": 452, "name": "Tadepalle", "name_ru": "Tādepalle", "tz": "", "district": "Andhra Pradesh"}, {"id": 453, "name": "Gadwal", "name_ru": "Gadwāl", "tz": "", "district": "Telangana"}, {"id": 454, "name": "Jatani", "name_ru": "Jatani", "tz": "", "district": "Odisha"}, {"id": 455, "name": "Kodad", "name_ru": "Kodād", "tz": "", "district": "Telangana"}, {"id": 456, "name": "Nawalgarh", "name_ru": "Nawalgarh", "tz": "", "district": "Rājasthān"}, {"id": 457, "name": "Armur", "name_ru": "Armūr", "tz": "", "district": "Telangana"}, {"id": 458, "name": "Jhargram", "name_ru": "Jhārgrām", "tz": "", "district": "West Bengal"}, {"id": 459, "name": "Wanparti", "name_ru": "Wanparti", "tz": "", "district": "Telangana"}, {"id": 460, "name": "Chamrajnagar", "name_ru": "Chāmrājnagar", "tz": "", "district": "Karnātaka"}, {"id": 461, "name": "Ponnuru", "name_ru": "Ponnūru", "tz": "", "district": "Andhra Pradesh"}, {"id": 462, "name": "Chandralapadu", "name_ru": "Chandralapādu", "tz": "", "district": "Andhra Pradesh"}, {"id": 463, "name": "Vinukonda", "name_ru": "Vinukonda", "tz": "", "district": "Andhra Pradesh"}, {"id": 464, "name": "Tezpur", "name_ru": "Tezpur", "tz": "", "district": "Assam"}, {"id": 465, "name": "Narasapur", "name_ru": "Narasapur", "tz": "", "district": "Andhra Pradesh"}, {"id": 466, "name": "Panskura", "name_ru": "Pānskura", "tz": "", "district": "West Bengal"}, {"id": 467, "name": "Rampur Hat", "name_ru": "Rāmpur Hat", "tz": "", "district": "West Bengal"}, {"id": 468, "name": "Lonavale", "name_ru": "Lonāvale", "tz": "", "district": "Mahārāshtra"}, {"id": 469, "name": "Samalkot", "name_ru": "Sāmalkot", "tz": "", "district": "Andhra Pradesh"}, {"id": 470, "name": "Kalna", "name_ru": "Kālna", "tz": "", "district": "West Bengal"}, {"id": 471, "name": "Kothapet", "name_ru": "Kothāpet", "tz": "", "district": "Telangana"}, {"id": 472, "name": "Macherla", "name_ru": "Mācherla", "tz": "", "district": "Andhra Pradesh"}, {"id": 473, "name": "Kandukur", "name_ru": "Kandukūr", "tz": "", "district": "Andhra Pradesh"}, {"id": 474, "name": "Sattenapalle", "name_ru": "Sattenapalle", "tz": "", "district": "Andhra Pradesh"}, {"id": 475, "name": "Bobbili", "name_ru": "Bobbili", "tz": "", "district": "Andhra Pradesh"}, {"id": 476, "name": "Vrindavan", "name_ru": "Vrindāvan", "tz": "", "district": "Uttar Pradesh"}, {"id": 477, "name": "Gangarampur", "name_ru": "Gangārāmpur", "tz": "", "district": "West Bengal"}, {"id": 478, "name": "Kandi", "name_ru": "Kāndi", "tz": "", "district": "West Bengal"}, {"id": 479, "name": "Belampalli", "name_ru": "Belampalli", "tz": "", "district": "Telangana"}, {"id": 480, "name": "Pithoragarh", "name_ru": "Pithorāgarh", "tz": "", "district": "Uttarakhand"}, {"id": 481, "name": "Puttur", "name_ru": "Puttūr", "tz": "", "district": "Andhra Pradesh"}, {"id": 482, "name": "Islampur", "name_ru": "Islāmpur", "tz": "", "district": "West Bengal"}, {"id": 483, "name": "Punganuru", "name_ru": "Punganūru", "tz": "", "district": "Andhra Pradesh"}, {"id": 484, "name": "Nandod", "name_ru": "Nāndod", "tz": "", "district": "Gujarāt"}, {"id": 485, "name": "Palmaner", "name_ru": "Palmaner", "tz": "", "district": "Andhra Pradesh"}, {"id": 486, "name": "Jalor", "name_ru": "Jalor", "tz": "", "district": "Rājasthān"}, {"id": 487, "name": "Kaliyaganj", "name_ru": "Kāliyāganj", "tz": "", "district": "West Bengal"}, {"id": 488, "name": "Vikarabad", "name_ru": "Vikārābād", "tz": "", "district": "Telangana"}, {"id": 489, "name": "Baduria", "name_ru": "Badūria", "tz": "", "district": "West Bengal"}, {"id": 490, "name": "Dholka", "name_ru": "Dholka", "tz": "", "district": "Gujarāt"}, {"id": 491, "name": "Tuni", "name_ru": "Tuni", "tz": "", "district": "Andhra Pradesh"}, {"id": 492, "name": "Jaggayyapeta", "name_ru": "Jaggayyapeta", "tz": "", "district": "Andhra Pradesh"}, {"id": 493, "name": "Venkatagiri", "name_ru": "Venkatagiri", "tz": "", "district": "Andhra Pradesh"}, {"id": 494, "name": "Sihor", "name_ru": "Sihor", "tz": "", "district": "Gujarāt"}, {"id": 495, "name": "Jangaon", "name_ru": "Jangaon", "tz": "", "district": "Telangana"}, {"id": 496, "name": "Mandamari", "name_ru": "Mandamāri", "tz": "", "district": "Telangana"}, {"id": 497, "name": "Diu", "name_ru": "Diu", "tz": "", "district": "Damān and Diu"}, {"id": 498, "name": "Metpalli", "name_ru": "Metpalli", "tz": "", "district": "Telangana"}, {"id": 499, "name": "Repalle", "name_ru": "Repalle", "tz": "", "district": "Andhra Pradesh"}, {"id": 500, "name": "Peddapuram", "name_ru": "Peddāpuram", "tz": "", "district": "Andhra Pradesh"}, {"id": 501, "name": "Bhadrachalam", "name_ru": "Bhadrāchalam", "tz": "", "district": "Telangana"}, {"id": 502, "name": "Ajodhya", "name_ru": "Ajodhya", "tz": "", "district": "Uttar Pradesh"}, {"id": 503, "name": "Bhainsa", "name_ru": "Bhainsa", "tz": "", "district": "Telangana"}, {"id": 504, "name": "Prattipadu", "name_ru": "Prattipādu", "tz": "", "district": "Andhra Pradesh"}, {"id": 505, "name": "Jasdan", "name_ru": "Jasdan", "tz": "", "district": "Gujarāt"}, {"id": 506, "name": "Vuyyuru", "name_ru": "Vuyyūru", "tz": "", "district": "Andhra Pradesh"}, {"id": 507, "name": "Nandikotkur", "name_ru": "Nandikotkūr", "tz": "", "district": "Andhra Pradesh"}, {"id": 508, "name": "Dhupgari", "name_ru": "Dhupgāri", "tz": "", "district": "West Bengal"}, {"id": 509, "name": "Jammalamadugu", "name_ru": "Jammalamadugu", "tz": "", "district": "Andhra Pradesh"}, {"id": 510, "name": "Rameswaram", "name_ru": "Rāmeswaram", "tz": "", "district": "Tamil Nādu"}, {"id": 511, "name": "Murshidabad", "name_ru": "Murshidābād", "tz": "", "district": "West Bengal"}, {"id": 512, "name": "Sainthia", "name_ru": "Sainthia", "tz": "", "district": "West Bengal"}, {"id": 513, "name": "Charkhi Dadri", "name_ru": "Charkhi Dādri", "tz": "", "district": "Haryāna"}, {"id": 514, "name": "Nandigama", "name_ru": "Nandigāma", "tz": "", "district": "Andhra Pradesh"}, {"id": 515, "name": "Nidadavole", "name_ru": "Nidadavole", "tz": "", "district": "Andhra Pradesh"}, {"id": 516, "name": "Addanki", "name_ru": "Addanki", "tz": "", "district": "Andhra Pradesh"}, {"id": 517, "name": "Nilothi", "name_ru": "Nilothi", "tz": "", "district": "Haryāna"}, {"id": 518, "name": "Mahbubabad", "name_ru": "Mahbūbābād", "tz": "", "district": "Telangana"}, {"id": 519, "name": "Berubari", "name_ru": "Berubāri", "tz": "", "district": "West Bengal"}, {"id": 520, "name": "Akbarpur", "name_ru": "Akbarpur", "tz": "", "district": "Uttar Pradesh"}, {"id": 521, "name": "Karsiyang", "name_ru": "Kārsiyāng", "tz": "", "district": "West Bengal"}, {"id": 522, "name": "Rajgir", "name_ru": "Rājgīr", "tz": "", "district": "Bihār"}, {"id": 523, "name": "Nalhati", "name_ru": "Nalhāti", "tz": "", "district": "West Bengal"}, {"id": 524, "name": "Memari", "name_ru": "Memāri", "tz": "", "district": "West Bengal"}, {"id": 525, "name": "Rajaori", "name_ru": "Rajaori", "tz": "", "district": "Jammu and Kashmīr"}, {"id": 526, "name": "Pileru", "name_ru": "Pīleru", "tz": "", "district": "Andhra Pradesh"}, {"id": 527, "name": "Peddapalli", "name_ru": "Peddapalli", "tz": "", "district": "Telangana"}, {"id": 528, "name": "Naini Tal", "name_ru": "Naini Tal", "tz": "", "district": "Uttarakhand"}, {"id": 529, "name": "Kovvur", "name_ru": "Kovvūr", "tz": "", "district": "Andhra Pradesh"}, {"id": 530, "name": "Channarayapatna", "name_ru": "Channarāyapatna", "tz": "", "district": "Karnātaka"}, {"id": 531, "name": "Maihar", "name_ru": "Maihar", "tz": "", "district": "Madhya Pradesh"}, {"id": 532, "name": "Junnar", "name_ru": "Junnar", "tz": "", "district": "Mahārāshtra"}, {"id": 533, "name": "Kalimpong", "name_ru": "Kālimpong", "tz": "", "district": "West Bengal"}, {"id": 534, "name": "Atmakur", "name_ru": "Atmakūr", "tz": "", "district": "Andhra Pradesh"}, {"id": 535, "name": "Solan", "name_ru": "Solan", "tz": "", "district": "Himāchal Pradesh"}, {"id": 536, "name": "Vetapalem", "name_ru": "Vetapālem", "tz": "", "district": "Andhra Pradesh"}, {"id": 537, "name": "Taki", "name_ru": "Tāki", "tz": "", "district": "West Bengal"}, {"id": 538, "name": "Betamcherla", "name_ru": "Betamcherla", "tz": "", "district": "Andhra Pradesh"}, {"id": 539, "name": "Penumur", "name_ru": "Penumūr", "tz": "", "district": "Andhra Pradesh"}, {"id": 540, "name": "Dwarka", "name_ru": "Dwārka", "tz": "", "district": "Gujarāt"}, {"id": 541, "name": "Kadiyam", "name_ru": "Kadiyam", "tz": "", "district": "Andhra Pradesh"}, {"id": 542, "name": "Dubrajpur", "name_ru": "Dubrājpur", "tz": "", "district": "West Bengal"}, {"id": 543, "name": "Pathanamthitta", "name_ru": "Pathanāmthitta", "tz": "", "district": "Kerala"}, {"id": 544, "name": "Sitalkuchi", "name_ru": "Sitalkuchi", "tz": "", "district": "West Bengal"}, {"id": 545, "name": "Dalkola", "name_ru": "Dālkola", "tz": "", "district": "West Bengal"}, {"id": 546, "name": "Ichchapuram", "name_ru": "Ichchāpuram", "tz": "", "district": "Andhra Pradesh"}, {"id": 547, "name": "Mahe", "name_ru": "Mahē", "tz": "", "district": "Kerala"}, {"id": 548, "name": "Kanigiri", "name_ru": "Kanigiri", "tz": "", "district": "Andhra Pradesh"}, {"id": 549, "name": "Dinhata", "name_ru": "Dīnhāta", "tz": "", "district": "West Bengal"}, {"id": 550, "name": "Huzurnagar", "name_ru": "Huzūrnagar", "tz": "", "district": "Telangana"}, {"id": 551, "name": "Kodaikanal", "name_ru": "Kodaikānal", "tz": "", "district": "Tamil Nādu"}, {"id": 552, "name": "Udhampur", "name_ru": "Udhampur", "tz": "", "district": "Jammu and Kashmīr"}, {"id": 553, "name": "Vempalle", "name_ru": "Vempalle", "tz": "", "district": "Andhra Pradesh"}, {"id": 554, "name": "Medchal", "name_ru": "Medchal", "tz": "", "district": "Telangana"}, {"id": 555, "name": "Uravakonda", "name_ru": "Uravakonda", "tz": "", "district": "Andhra Pradesh"}, {"id": 556, "name": "Guskhara", "name_ru": "Guskhara", "tz": "", "district": "West Bengal"}, {"id": 557, "name": "Yellandu", "name_ru": "Yellandu", "tz": "", "district": "Telangana"}, {"id": 558, "name": "Giddalur", "name_ru": "Giddalūr", "tz": "", "district": "Andhra Pradesh"}, {"id": 559, "name": "Balarampur", "name_ru": "Balarāmpur", "tz": "", "district": "West Bengal"}, {"id": 560, "name": "Angamali", "name_ru": "Angamāli", "tz": "", "district": "Kerala"}, {"id": 561, "name": "Vemalwada", "name_ru": "Vemalwāda", "tz": "", "district": "Telangana"}, {"id": 562, "name": "Narsipatnam", "name_ru": "Narsīpatnam", "tz": "", "district": "Andhra Pradesh"}, {"id": 563, "name": "Shrirangapattana", "name_ru": "Shrīrangapattana", "tz": "", "district": "Karnātaka"}, {"id": 564, "name": "Shamsabad", "name_ru": "Shamsābād", "tz": "", "district": "Telangana"}, {"id": 565, "name": "Almora", "name_ru": "Almora", "tz": "", "district": "Uttarakhand"}, {"id": 566, "name": "Kondapalle", "name_ru": "Kondapalle", "tz": "", "district": "Andhra Pradesh"}, {"id": 567, "name": "Debagram", "name_ru": "Debagrām", "tz": "", "district": "West Bengal"}, {"id": 568, "name": "Fatehpur Sikri", "name_ru": "Fatehpur Sīkri", "tz": "", "district": "Uttar Pradesh"}, {"id": 569, "name": "Jamikunta", "name_ru": "Jamikunta", "tz": "", "district": "Telangana"}, {"id": 570, "name": "Darsi", "name_ru": "Darsi", "tz": "", "district": "Andhra Pradesh"}, {"id": 571, "name": "Umaria", "name_ru": "Umaria", "tz": "", "district": "Madhya Pradesh"}, {"id": 572, "name": "Kovur", "name_ru": "Kovūr", "tz": "", "district": "Andhra Pradesh"}, {"id": 573, "name": "Erraguntla", "name_ru": "Erraguntla", "tz": "", "district": "Andhra Pradesh"}, {"id": 574, "name": "Naspur", "name_ru": "Nāspur", "tz": "", "district": "Telangana"}, {"id": 575, "name": "Kalyandrug", "name_ru": "Kalyandrug", "tz": "", "district": "Andhra Pradesh"}, {"id": 576, "name": "Mangur", "name_ru": "Mangūr", "tz": "", "district": "Telangana"}, {"id": 577, "name": "Tummapala", "name_ru": "Tummapāla", "tz": "", "district": "Andhra Pradesh"}, {"id": 578, "name": "Pedana", "name_ru": "Pedana", "tz": "", "district": "Andhra Pradesh"}, {"id": 579, "name": "Pandua", "name_ru": "Pandua", "tz": "", "district": "West Bengal"}, {"id": 580, "name": "Lalgola", "name_ru": "Lālgola", "tz": "", "district": "West Bengal"}, {"id": 581, "name": "Mussoorie", "name_ru": "Mussoorie", "tz": "", "district": "Uttarakhand"}, {"id": 582, "name": "Margram", "name_ru": "Mārgrām", "tz": "", "district": "West Bengal"}, {"id": 583, "name": "Podili", "name_ru": "Podili", "tz": "", "district": "Andhra Pradesh"}, {"id": 584, "name": "Uran", "name_ru": "Uran", "tz": "", "district": "Mahārāshtra"}, {"id": 585, "name": "Mainaguri", "name_ru": "Maināguri", "tz": "", "district": "West Bengal"}, {"id": 586, "name": "Egra", "name_ru": "Egra", "tz": "", "district": "West Bengal"}, {"id": 587, "name": "Leh", "name_ru": "Leh", "tz": "", "district": "Jammu and Kashmīr"}, {"id": 588, "name": "Chimakurti", "name_ru": "Chimākurti", "tz": "", "district": "Andhra Pradesh"}, {"id": 589, "name": "Koratgi", "name_ru": "Koratgi", "tz": "", "district": "Karnātaka"}, {"id": 590, "name": "Garaimari", "name_ru": "Garaimāri", "tz": "", "district": "West Bengal"}, {"id": 591, "name": "Devarkonda", "name_ru": "Devarkonda", "tz": "", "district": "Telangana"}, {"id": 592, "name": "Pattikonda", "name_ru": "Pattikonda", "tz": "", "district": "Andhra Pradesh"}, {"id": 593, "name": "Atmakur", "name_ru": "Ātmakūr", "tz": "", "district": "Andhra Pradesh"}, {"id": 594, "name": "Sonamukhi", "name_ru": "Sonāmukhi", "tz": "", "district": "West Bengal"}, {"id": 595, "name": "Khunti", "name_ru": "Khunti", "tz": "", "district": "Jharkhand"}, {"id": 596, "name": "Nakrekal", "name_ru": "Nakrekal", "tz": "", "district": "Telangana"}, {"id": 597, "name": "Kodumur", "name_ru": "Kodumur", "tz": "", "district": "Andhra Pradesh"}, {"id": 598, "name": "Srungavarapukota", "name_ru": "Srungavarapukota", "tz": "", "district": "Andhra Pradesh"}, {"id": 599, "name": "Kalwakurti", "name_ru": "Kalwākurti", "tz": "", "district": "Telangana"}, {"id": 600, "name": "Banswada", "name_ru": "Bānswāda", "tz": "", "district": "Telangana"}, {"id": 601, "name": "Silvassa", "name_ru": "Silvassa", "tz": "", "district": "Dādra and Nagar Haveli"}, {"id": 602, "name": "Kotagiri", "name_ru": "Kotagiri", "tz": "", "district": "Tamil Nādu"}, {"id": 603, "name": "Ramanayyapeta", "name_ru": "Rāmanayyapeta", "tz": "", "district": "Andhra Pradesh"}, {"id": 604, "name": "Tanguturu", "name_ru": "Tangutūru", "tz": "", "district": "Andhra Pradesh"}, {"id": 605, "name": "Varandarapilli", "name_ru": "Varandarapilli", "tz": "", "district": "Kerala"}, {"id": 606, "name": "Payakaraopeta", "name_ru": "Pāyakarāopeta", "tz": "", "district": "Andhra Pradesh"}, {"id": 607, "name": "Penukonda", "name_ru": "Penukonda", "tz": "", "district": "Andhra Pradesh"}, {"id": 608, "name": "Bandipura", "name_ru": "Bandipura", "tz": "", "district": "Jammu and Kashmīr"}, {"id": 609, "name": "Suluru", "name_ru": "Sūlūru", "tz": "", "district": "Andhra Pradesh"}, {"id": 610, "name": "Panchanandapur", "name_ru": "Panchānandapur", "tz": "", "district": "West Bengal"}, {"id": 611, "name": "Pamidi", "name_ru": "Pāmidi", "tz": "", "district": "Andhra Pradesh"}, {"id": 612, "name": "Gilarchat", "name_ru": "Gilarchāt", "tz": "", "district": "West Bengal"}, {"id": 613, "name": "Guruzala", "name_ru": "Guruzāla", "tz": "", "district": "Andhra Pradesh"}, {"id": 614, "name": "Narasannapeta", "name_ru": "Narasannapeta", "tz": "", "district": "Andhra Pradesh"}, {"id": 615, "name": "Chintalapudi", "name_ru": "Chintalapūdi", "tz": "", "district": "Andhra Pradesh"}, {"id": 616, "name": "Renigunta", "name_ru": "Renigunta", "tz": "", "district": "Andhra Pradesh"}, {"id": 617, "name": "Kottapeta", "name_ru": "Kottapeta", "tz": "", "district": "Andhra Pradesh"}, {"id": 618, "name": "Raghunathpur", "name_ru": "Raghunāthpur", "tz": "", "district": "West Bengal"}, {"id": 619, "name": "Attili", "name_ru": "Attili", "tz": "", "district": "Andhra Pradesh"}, {"id": 620, "name": "Gajwel", "name_ru": "Gajwel", "tz": "", "district": "Telangana"}, {"id": 621, "name": "Singarayakonda", "name_ru": "Singarāyakonda", "tz": "", "district": "Andhra Pradesh"}, {"id": 622, "name": "Avanigadda", "name_ru": "Avanigadda", "tz": "", "district": "Andhra Pradesh"}, {"id": 623, "name": "Khed Brahma", "name_ru": "Khed Brahma", "tz": "", "district": "Gujarāt"}, {"id": 624, "name": "Aklvidu", "name_ru": "Aklvidu", "tz": "", "district": "Andhra Pradesh"}, {"id": 625, "name": "Mogalturru", "name_ru": "Mogalturru", "tz": "", "district": "Andhra Pradesh"}, {"id": 626, "name": "Balarampur", "name_ru": "Balarāmpur", "tz": "", "district": "West Bengal"}, {"id": 627, "name": "Gorantla", "name_ru": "Gorantla", "tz": "", "district": "Andhra Pradesh"}, {"id": 628, "name": "Mummidivaram", "name_ru": "Mummidivaram", "tz": "", "district": "Andhra Pradesh"}, {"id": 629, "name": "Khajuraho", "name_ru": "Khajurāho", "tz": "", "district": "Madhya Pradesh"}, {"id": 630, "name": "Ashwaraopeta", "name_ru": "Ashwarāopeta", "tz": "", "district": "Telangana"}, {"id": 631, "name": "Yadiki", "name_ru": "Yādiki", "tz": "", "district": "Andhra Pradesh"}, {"id": 632, "name": "Kosigi", "name_ru": "Kosigi", "tz": "", "district": "Andhra Pradesh"}, {"id": 633, "name": "Chandrakona", "name_ru": "Chandrakona", "tz": "", "district": "West Bengal"}, {"id": 634, "name": "Gauripur", "name_ru": "Gauripur", "tz": "", "district": "Assam"}, {"id": 635, "name": "Koilkuntla", "name_ru": "Koilkuntla", "tz": "", "district": "Andhra Pradesh"}, {"id": 636, "name": "Bagula", "name_ru": "Bagulā", "tz": "", "district": "West Bengal"}, {"id": 637, "name": "Kulgam", "name_ru": "Kulgam", "tz": "", "district": "Jammu and Kashmīr"}, {"id": 638, "name": "Velugodu", "name_ru": "Velugodu", "tz": "", "district": "Andhra Pradesh"}, {"id": 639, "name": "Asafabad", "name_ru": "Asafābād", "tz": "", "district": "Telangana"}, {"id": 640, "name": "Abu", "name_ru": "Abu", "tz": "", "district": "Rājasthān"}, {"id": 641, "name": "Singur", "name_ru": "Singur", "tz": "", "district": "West Bengal"}, {"id": 642, "name": "Curchorem", "name_ru": "Curchorem", "tz": "", "district": "Goa"}, {"id": 643, "name": "Pushkar", "name_ru": "Pushkar", "tz": "", "district": "Rājasthān"}, {"id": 644, "name": "Bukkarayasamudram", "name_ru": "Bukkarāyasamudram", "tz": "", "district": "Andhra Pradesh"}, {"id": 645, "name": "Ganapavaram", "name_ru": "Ganapavaram", "tz": "", "district": "Andhra Pradesh"}, {"id": 646, "name": "Pamarru", "name_ru": "Pāmarru", "tz": "", "district": "Andhra Pradesh"}, {"id": 647, "name": "Chagallu", "name_ru": "Chāgallu", "tz": "", "district": "Andhra Pradesh"}, {"id": 648, "name": "Sarapaka", "name_ru": "Sarapāka", "tz": "", "district": "Telangana"}, {"id": 649, "name": "Pakala", "name_ru": "Pākāla", "tz": "", "district": "Andhra Pradesh"}, {"id": 650, "name": "Maruturu", "name_ru": "Mārutūru", "tz": "", "district": "Andhra Pradesh"}, {"id": 651, "name": "Husnabad", "name_ru": "Husnābād", "tz": "", "district": "Telangana"}, {"id": 652, "name": "Kuppam", "name_ru": "Kuppam", "tz": "", "district": "Andhra Pradesh"}, {"id": 653, "name": "Madakasira", "name_ru": "Madakasīra", "tz": "", "district": "Andhra Pradesh"}, {"id": 654, "name": "Mailavaram", "name_ru": "Mailavaram", "tz": "", "district": "Andhra Pradesh"}, {"id": 655, "name": "Tufanganj", "name_ru": "Tufānganj", "tz": "", "district": "West Bengal"}, {"id": 656, "name": "Nellimarla", "name_ru": "Nellimarla", "tz": "", "district": "Andhra Pradesh"}, {"id": 657, "name": "Kosgi", "name_ru": "Kosgi", "tz": "", "district": "Telangana"}, {"id": 658, "name": "Kaikalur", "name_ru": "Kaikalūr", "tz": "", "district": "Andhra Pradesh"}, {"id": 659, "name": "Tehata", "name_ru": "Tehata", "tz": "", "district": "West Bengal"}, {"id": 660, "name": "Parkal", "name_ru": "Parkāl", "tz": "", "district": "Telangana"}, {"id": 661, "name": "Chagalamarri", "name_ru": "Chāgalamarri", "tz": "", "district": "Andhra Pradesh"}, {"id": 662, "name": "Umrapur", "name_ru": "Umrāpur", "tz": "", "district": "West Bengal"}, {"id": 663, "name": "Krishnapur", "name_ru": "Krishnapur", "tz": "", "district": "West Bengal"}, {"id": 664, "name": "Kattanam", "name_ru": "Kattanam", "tz": "", "district": "Kerala"}, {"id": 665, "name": "Nizampatam", "name_ru": "Nizāmpatam", "tz": "", "district": "Andhra Pradesh"}, {"id": 666, "name": "Gannavaram", "name_ru": "Gannavaram", "tz": "", "district": "Andhra Pradesh"}, {"id": 667, "name": "Ghatkesar", "name_ru": "Ghatkesar", "tz": "", "district": "Telangana"}, {"id": 668, "name": "Palashi", "name_ru": "Palāshi", "tz": "", "district": "West Bengal"}, {"id": 669, "name": "Palkonda", "name_ru": "Pālkonda", "tz": "", "district": "Andhra Pradesh"}, {"id": 670, "name": "Andal", "name_ru": "Andāl", "tz": "", "district": "West Bengal"}, {"id": 671, "name": "Achampet", "name_ru": "Achampet", "tz": "", "district": "Andhra Pradesh"}, {"id": 672, "name": "Banganapalle", "name_ru": "Banganapalle", "tz": "", "district": "Andhra Pradesh"}, {"id": 673, "name": "Kamalapuram", "name_ru": "Kāmalāpuram", "tz": "", "district": "Andhra Pradesh"}, {"id": 674, "name": "Vinjamur", "name_ru": "Vinjamūr", "tz": "", "district": "Andhra Pradesh"}, {"id": 675, "name": "Karlapalem", "name_ru": "Karlapālem", "tz": "", "district": "Andhra Pradesh"}, {"id": 676, "name": "Nalua", "name_ru": "Nalua", "tz": "", "district": "West Bengal"}, {"id": 677, "name": "Mundra", "name_ru": "Mundra", "tz": "", "district": "Gujarāt"}, {"id": 678, "name": "Chandragiri", "name_ru": "Chandragiri", "tz": "", "district": "Andhra Pradesh"}, {"id": 679, "name": "Marahra", "name_ru": "Mārahra", "tz": "", "district": "Uttar Pradesh"}, {"id": 680, "name": "Sompeta", "name_ru": "Sompeta", "tz": "", "district": "Andhra Pradesh"}, {"id": 681, "name": "Belur", "name_ru": "Belūr", "tz": "", "district": "Karnātaka"}, {"id": 682, "name": "Kanniyakumari", "name_ru": "Kanniyākumāri", "tz": "", "district": "Tamil Nādu"}, {"id": 683, "name": "Namburu", "name_ru": "Nambūru", "tz": "", "district": "Andhra Pradesh"}, {"id": 684, "name": "Ramjibanpur", "name_ru": "Rāmjībanpur", "tz": "", "district": "West Bengal"}, {"id": 685, "name": "Kakdwip", "name_ru": "Kākdwīp", "tz": "", "district": "West Bengal"}, {"id": 686, "name": "Kanekallu", "name_ru": "Kanekallu", "tz": "", "district": "Andhra Pradesh"}, {"id": 687, "name": "Jhalida", "name_ru": "Jhalidā", "tz": "", "district": "West Bengal"}, {"id": 688, "name": "Jaggampeta", "name_ru": "Jaggampeta", "tz": "", "district": "Andhra Pradesh"}, {"id": 689, "name": "Dharmsala", "name_ru": "Dharmsāla", "tz": "", "district": "Himāchal Pradesh"}, {"id": 690, "name": "Somandepalle", "name_ru": "Somandepalle", "tz": "", "district": "Andhra Pradesh"}, {"id": 691, "name": "Sirvar", "name_ru": "Sirvār", "tz": "", "district": "Karnātaka"}, {"id": 692, "name": "Chinna Ganjam", "name_ru": "Chinna Ganjām", "tz": "", "district": "Andhra Pradesh"}, {"id": 693, "name": "Srikhanda", "name_ru": "Srikhanda", "tz": "", "district": "West Bengal"}, {"id": 694, "name": "Narapala", "name_ru": "Nārapala", "tz": "", "district": "Andhra Pradesh"}, {"id": 695, "name": "Badkulla", "name_ru": "Bādkulla", "tz": "", "district": "West Bengal"}, {"id": 696, "name": "Chilkuru", "name_ru": "Chilkūru", "tz": "", "district": "Telangana"}, {"id": 697, "name": "Chautapal", "name_ru": "Chautāpal", "tz": "", "district": "Telangana"}, {"id": 698, "name": "Rampur", "name_ru": "Rāmpur", "tz": "", "district": "West Bengal"}, {"id": 699, "name": "Tiruvur", "name_ru": "Tiruvūr", "tz": "", "district": "Andhra Pradesh"}, {"id": 700, "name": "Bhagabanpur", "name_ru": "Bhagabānpur", "tz": "", "district": "West Bengal"}, {"id": 701, "name": "Jadcherla", "name_ru": "Jadcherla", "tz": "", "district": "Telangana"}, {"id": 702, "name": "Mellacheruvu", "name_ru": "Mellacheruvu", "tz": "", "district": "Telangana"}, {"id": 703, "name": "Tadikonda", "name_ru": "Tādikonda", "tz": "", "district": "Andhra Pradesh"}, {"id": 704, "name": "Rajmahal", "name_ru": "Rājmahal", "tz": "", "district": "West Bengal"}, {"id": 705, "name": "Debipur", "name_ru": "Debīpur", "tz": "", "district": "West Bengal"}, {"id": 706, "name": "Kulu", "name_ru": "Kulu", "tz": "", "district": "Himāchal Pradesh"}, {"id": 707, "name": "Vissannapeta", "name_ru": "Vissannapeta", "tz": "", "district": "Andhra Pradesh"}, {"id": 708, "name": "Kotta Kalidindi", "name_ru": "Kottá Kalidindi", "tz": "", "district": "Andhra Pradesh"}, {"id": 709, "name": "Vayalpad", "name_ru": "Vāyalpād", "tz": "", "district": "Andhra Pradesh"}, {"id": 710, "name": "Veldurti", "name_ru": "Veldurti", "tz": "", "district": "Andhra Pradesh"}, {"id": 711, "name": "Maripad", "name_ru": "Maripād", "tz": "", "district": "Telangana"}, {"id": 712, "name": "Belakoba", "name_ru": "Belākoba", "tz": "", "district": "West Bengal"}, {"id": 713, "name": "Panchgram", "name_ru": "Pānchgrām", "tz": "", "district": "West Bengal"}, {"id": 714, "name": "Inkollu", "name_ru": "Inkollu", "tz": "", "district": "Andhra Pradesh"}, {"id": 715, "name": "Manthani", "name_ru": "Manthani", "tz": "", "district": "Telangana"}, {"id": 716, "name": "Pernamitta", "name_ru": "Pernamitta", "tz": "", "district": "Andhra Pradesh"}, {"id": 717, "name": "Gokavaram", "name_ru": "Gokavaram", "tz": "", "district": "Andhra Pradesh"}, {"id": 718, "name": "Kembhavi", "name_ru": "Kembhāvi", "tz": "", "district": "Karnātaka"}, {"id": 719, "name": "Phirangipuram", "name_ru": "Phirangipuram", "tz": "", "district": "Andhra Pradesh"}, {"id": 720, "name": "Kasimkota", "name_ru": "Kasimkota", "tz": "", "district": "Andhra Pradesh"}, {"id": 721, "name": "Dighirpar", "name_ru": "Dighirpār", "tz": "", "district": "West Bengal"}, {"id": 722, "name": "Dharmapuri", "name_ru": "Dharmāpuri", "tz": "", "district": "Telangana"}, {"id": 723, "name": "Challapalle", "name_ru": "Challapalle", "tz": "", "district": "Andhra Pradesh"}, {"id": 724, "name": "Kottapeta", "name_ru": "Kottapeta", "tz": "", "district": "Andhra Pradesh"}, {"id": 725, "name": "Bahutal", "name_ru": "Bahutāl", "tz": "", "district": "West Bengal"}, {"id": 726, "name": "Penugonda", "name_ru": "Penugonda", "tz": "", "district": "Andhra Pradesh"}, {"id": 727, "name": "Mahalandi", "name_ru": "Mahālandi", "tz": "", "district": "West Bengal"}, {"id": 728, "name": "Gonegandla", "name_ru": "Gonegandla", "tz": "", "district": "Andhra Pradesh"}, {"id": 729, "name": "Gokarna", "name_ru": "Gokarna", "tz": "", "district": "West Bengal"}, {"id": 730, "name": "Rentachintala", "name_ru": "Rentachintala", "tz": "", "district": "Andhra Pradesh"}, {"id": 731, "name": "Kamavarapukota", "name_ru": "Kāmavarapukota", "tz": "", "district": "Andhra Pradesh"}, {"id": 732, "name": "Barnia", "name_ru": "Bārnia", "tz": "", "district": "West Bengal"}, {"id": 733, "name": "Ramayampet", "name_ru": "Rāmāyampet", "tz": "", "district": "Telangana"}, {"id": 734, "name": "Podalakur", "name_ru": "Podalakūr", "tz": "", "district": "Andhra Pradesh"}, {"id": 735, "name": "Chopadandi", "name_ru": "Chopadandi", "tz": "", "district": "Telangana"}, {"id": 736, "name": "Khed", "name_ru": "Khed", "tz": "", "district": "Mahārāshtra"}, {"id": 737, "name": "Kompalle", "name_ru": "Kompalle", "tz": "", "district": "Telangana"}, {"id": 738, "name": "Khirpai", "name_ru": "Khirpai", "tz": "", "district": "West Bengal"}, {"id": 739, "name": "Kolluru", "name_ru": "Kollūru", "tz": "", "district": "Andhra Pradesh"}, {"id": 740, "name": "Mitrapur", "name_ru": "Mitrapur", "tz": "", "district": "West Bengal"}, {"id": 741, "name": "Islampur", "name_ru": "Islāmpur", "tz": "", "district": "West Bengal"}, {"id": 742, "name": "Bhagwangola", "name_ru": "Bhagwāngola", "tz": "", "district": "West Bengal"}, {"id": 743, "name": "Galivedu", "name_ru": "Gālivedu", "tz": "", "district": "Andhra Pradesh"}, {"id": 744, "name": "Raikal", "name_ru": "Rāikal", "tz": "", "district": "Telangana"}, {"id": 745, "name": "Kota", "name_ru": "Kota", "tz": "", "district": "Andhra Pradesh"}, {"id": 746, "name": "Chennur", "name_ru": "Chennūr", "tz": "", "district": "Andhra Pradesh"}, {"id": 747, "name": "Sultanabad", "name_ru": "Sultānābād", "tz": "", "district": "Telangana"}, {"id": 748, "name": "Sanatikri", "name_ru": "Sānātikri", "tz": "", "district": "West Bengal"}, {"id": 749, "name": "Tadikalapudi", "name_ru": "Tadikalapūdi", "tz": "", "district": "Andhra Pradesh"}, {"id": 750, "name": "Patapatnam", "name_ru": "Pātapatnam", "tz": "", "district": "Andhra Pradesh"}, {"id": 751, "name": "Balkonda", "name_ru": "Bālkonda", "tz": "", "district": "Telangana"}, {"id": 752, "name": "Porumamilla", "name_ru": "Porumāmilla", "tz": "", "district": "Andhra Pradesh"}, {"id": 753, "name": "Kallur", "name_ru": "Kallūr", "tz": "", "district": "Telangana"}, {"id": 754, "name": "Udayagiri", "name_ru": "Udayagiri", "tz": "", "district": "Andhra Pradesh"}, {"id": 755, "name": "Kolakaluru", "name_ru": "Kolakalūru", "tz": "", "district": "Andhra Pradesh"}, {"id": 756, "name": "Vontimitta", "name_ru": "Vontimitta", "tz": "", "district": "Andhra Pradesh"}, {"id": 757, "name": "Seven Pagodas", "name_ru": "Seven Pagodas", "tz": "", "district": "Tamil Nādu"}, {"id": 758, "name": "Utnur", "name_ru": "Utnūr", "tz": "", "district": "Telangana"}, {"id": 759, "name": "Undi", "name_ru": "Undi", "tz": "", "district": "Andhra Pradesh"}, {"id": 760, "name": "Hariharpara", "name_ru": "Hariharpāra", "tz": "", "district": "West Bengal"}, {"id": 761, "name": "Vijayapuri North", "name_ru": "Vijayapuri North", "tz": "", "district": "Telangana"}, {"id": 762, "name": "Antarvedi", "name_ru": "Antarvedi", "tz": "", "district": "Andhra Pradesh"}, {"id": 763, "name": "Viraghattam", "name_ru": "Vīraghattam", "tz": "", "district": "Andhra Pradesh"}, {"id": 764, "name": "Chilamatturu", "name_ru": "Chilamattūru", "tz": "", "district": "Andhra Pradesh"}, {"id": 765, "name": "Maddikera", "name_ru": "Maddikera", "tz": "", "district": "Andhra Pradesh"}, {"id": 766, "name": "Tondangi", "name_ru": "Tondangi", "tz": "", "district": "Andhra Pradesh"}, {"id": 767, "name": "Kambaduru", "name_ru": "Kambadūru", "tz": "", "district": "Andhra Pradesh"}, {"id": 768, "name": "Kohir", "name_ru": "Kohīr", "tz": "", "district": "Telangana"}, {"id": 769, "name": "Pyapali", "name_ru": "Pyāpali", "tz": "", "district": "Andhra Pradesh"}, {"id": 770, "name": "Haldibari", "name_ru": "Haldībāri", "tz": "", "district": "West Bengal"}, {"id": 771, "name": "Muttukuru", "name_ru": "Muttukūru", "tz": "", "district": "Andhra Pradesh"}, {"id": 772, "name": "Cumbum", "name_ru": "Cumbum", "tz": "", "district": "Andhra Pradesh"}, {"id": 773, "name": "Relangi", "name_ru": "Relangi", "tz": "", "district": "Andhra Pradesh"}, {"id": 774, "name": "Konarka", "name_ru": "Konārka", "tz": "", "district": "Odisha"}, {"id": 775, "name": "Putaparti", "name_ru": "Putaparti", "tz": "", "district": "Andhra Pradesh"}, {"id": 776, "name": "Dattapulia", "name_ru": "Dattapulia", "tz": "", "district": "West Bengal"}, {"id": 777, "name": "Bara", "name_ru": "Bāra", "tz": "", "district": "West Bengal"}, {"id": 778, "name": "Antarvedipalem", "name_ru": "Antarvedipālem", "tz": "", "district": "Andhra Pradesh"}, {"id": 779, "name": "Chipurupalle", "name_ru": "Chīpurupalle", "tz": "", "district": "Andhra Pradesh"}, {"id": 780, "name": "Kankipadu", "name_ru": "Kankipādu", "tz": "", "district": "Andhra Pradesh"}, {"id": 781, "name": "Sindhnur", "name_ru": "Sindhnūr", "tz": "", "district": "Karnātaka"}, {"id": 782, "name": "Yellareddi", "name_ru": "Yellāreddi", "tz": "", "district": "Telangana"}, {"id": 783, "name": "Hanamsagar", "name_ru": "Hanamsāgar", "tz": "", "district": "Karnātaka"}, {"id": 784, "name": "Cherrapunji", "name_ru": "Cherrapunji", "tz": "", "district": "Meghālaya"}, {"id": 785, "name": "Bikkavolu", "name_ru": "Bikkavolu", "tz": "", "district": "Andhra Pradesh"}, {"id": 786, "name": "Madanpur", "name_ru": "Madanpur", "tz": "", "district": "West Bengal"}, {"id": 787, "name": "Holalagondi", "name_ru": "Holalagondi", "tz": "", "district": "Andhra Pradesh"}, {"id": 788, "name": "Odlabari", "name_ru": "Odlābāri", "tz": "", "district": "West Bengal"}, {"id": 789, "name": "Kottavalasa", "name_ru": "Kottavalasa", "tz": "", "district": "Andhra Pradesh"}, {"id": 790, "name": "Penuganchiprolu", "name_ru": "Penuganchiprolu", "tz": "", "district": "Andhra Pradesh"}, {"id": 791, "name": "Bhanukumari", "name_ru": "Bhānukumāri", "tz": "", "district": "West Bengal"}, {"id": 792, "name": "Kottacheruvu", "name_ru": "Kottacheruvu", "tz": "", "district": "Andhra Pradesh"}, {"id": 793, "name": "Lingal", "name_ru": "Lingāl", "tz": "", "district": "Telangana"}, {"id": 794, "name": "Korangal", "name_ru": "Korangal", "tz": "", "district": "Telangana"}, {"id": 795, "name": "Dornakal", "name_ru": "Dornakal", "tz": "", "district": "Telangana"}, {"id": 796, "name": "Barjora", "name_ru": "Barjora", "tz": "", "district": "West Bengal"}, {"id": 797, "name": "Unguturu", "name_ru": "Ungutūru", "tz": "", "district": "Andhra Pradesh"}, {"id": 798, "name": "Domkonda", "name_ru": "Domkonda", "tz": "", "district": "Telangana"}, {"id": 799, "name": "Karempudi", "name_ru": "Kārempūdi", "tz": "", "district": "Andhra Pradesh"}, {"id": 800, "name": "Amaravati", "name_ru": "Amarāvati", "tz": "", "district": "Andhra Pradesh"}, {"id": 801, "name": "Belpukur", "name_ru": "Belpukur", "tz": "", "district": "West Bengal"}, {"id": 802, "name": "Undrajavaram", "name_ru": "Undrājavaram", "tz": "", "district": "Andhra Pradesh"}, {"id": 803, "name": "Daulatnagar", "name_ru": "Daulatnagar", "tz": "", "district": "West Bengal"}, {"id": 804, "name": "Peddavadlapudi", "name_ru": "Peddavadlapūdi", "tz": "", "district": "Andhra Pradesh"}, {"id": 805, "name": "Yedapalli", "name_ru": "Yedapalli", "tz": "", "district": "Telangana"}, {"id": 806, "name": "Tezu", "name_ru": "Tezu", "tz": "", "district": "Arunāchal Pradesh"}, {"id": 807, "name": "Duvva", "name_ru": "Duvva", "tz": "", "district": "Andhra Pradesh"}, {"id": 808, "name": "Bhimadolu", "name_ru": "Bhīmadolu", "tz": "", "district": "Andhra Pradesh"}, {"id": 809, "name": "Rajnagar", "name_ru": "Rājnagar", "tz": "", "district": "West Bengal"}, {"id": 810, "name": "Dundigal", "name_ru": "Dundigal", "tz": "", "district": "Telangana"}, {"id": 811, "name": "Sabang", "name_ru": "Sābang", "tz": "", "district": "West Bengal"}, {"id": 812, "name": "Kumirimora", "name_ru": "Kumirimora", "tz": "", "district": "West Bengal"}, {"id": 813, "name": "Chityal", "name_ru": "Chityāl", "tz": "", "district": "Telangana"}, {"id": 814, "name": "Kathevaram", "name_ru": "Kathevaram", "tz": "", "district": "Andhra Pradesh"}, {"id": 815, "name": "Polavaram", "name_ru": "Polavaram", "tz": "", "district": "Andhra Pradesh"}, {"id": 816, "name": "Champadanga", "name_ru": "Champādānga", "tz": "", "district": "West Bengal"}, {"id": 817, "name": "Kaladgi", "name_ru": "Kalādgi", "tz": "", "district": "Karnātaka"}, {"id": 818, "name": "Paruchuru", "name_ru": "Paruchūru", "tz": "", "district": "Andhra Pradesh"}, {"id": 819, "name": "Ghoradal", "name_ru": "Ghorādal", "tz": "", "district": "West Bengal"}, {"id": 820, "name": "Uppada", "name_ru": "Uppāda", "tz": "", "district": "Andhra Pradesh"}, {"id": 821, "name": "Nallajerla", "name_ru": "Nallajerla", "tz": "", "district": "Andhra Pradesh"}, {"id": 822, "name": "Amrabad", "name_ru": "Amrābād", "tz": "", "district": "Telangana"}, {"id": 823, "name": "Ponduru", "name_ru": "Pondūru", "tz": "", "district": "Andhra Pradesh"}, {"id": 824, "name": "Sabbavaram", "name_ru": "Sabbavaram", "tz": "", "district": "Andhra Pradesh"}, {"id": 825, "name": "Kollipara", "name_ru": "Kollipara", "tz": "", "district": "Andhra Pradesh"}, {"id": 826, "name": "Patiram", "name_ru": "Pātiram", "tz": "", "district": "West Bengal"}, {"id": 827, "name": "Gopalnagar", "name_ru": "Gopālnagar", "tz": "", "district": "West Bengal"}, {"id": 828, "name": "Kankandighi", "name_ru": "Kankandighi", "tz": "", "district": "West Bengal"}, {"id": 829, "name": "Cossimbazar", "name_ru": "Cossimbāzār", "tz": "", "district": "West Bengal"}, {"id": 830, "name": "Panchgani", "name_ru": "Pānchgani", "tz": "", "district": "Mahārāshtra"}, {"id": 831, "name": "Tirmaigiri", "name_ru": "Tirmaigiri", "tz": "", "district": "Telangana"}, {"id": 832, "name": "Bichkunda", "name_ru": "Bichkunda", "tz": "", "district": "Telangana"}, {"id": 833, "name": "Kalikiri", "name_ru": "Kalikiri", "tz": "", "district": "Andhra Pradesh"}, {"id": 834, "name": "Peddakurapadu", "name_ru": "Peddakūrapādu", "tz": "", "district": "Andhra Pradesh"}, {"id": 835, "name": "Turbihal", "name_ru": "Turbihāl", "tz": "", "district": "Karnātaka"}, {"id": 836, "name": "Panjipara", "name_ru": "Panjīpāra", "tz": "", "district": "West Bengal"}, {"id": 837, "name": "Jami", "name_ru": "Jāmi", "tz": "", "district": "Andhra Pradesh"}, {"id": 838, "name": "Duvvuru", "name_ru": "Duvvūru", "tz": "", "district": "Andhra Pradesh"}, {"id": 839, "name": "Venkatagirikota", "name_ru": "Venkatagirikota", "tz": "", "district": "Andhra Pradesh"}, {"id": 840, "name": "Kumarkhali", "name_ru": "Kumarkhāli", "tz": "", "district": "West Bengal"}, {"id": 841, "name": "Domahani", "name_ru": "Domahani", "tz": "", "district": "West Bengal"}, {"id": 842, "name": "Gurgunta", "name_ru": "Gurgunta", "tz": "", "district": "Karnātaka"}, {"id": 843, "name": "Lokapur", "name_ru": "Lokāpur", "tz": "", "district": "Karnātaka"}, {"id": 844, "name": "Kharar", "name_ru": "Kharar", "tz": "", "district": "West Bengal"}, {"id": 845, "name": "Battulapalle", "name_ru": "Battulapalle", "tz": "", "district": "Andhra Pradesh"}, {"id": 846, "name": "Parigi", "name_ru": "Parigi", "tz": "", "district": "Andhra Pradesh"}, {"id": 847, "name": "Kotra", "name_ru": "Kotra", "tz": "", "district": "West Bengal"}, {"id": 848, "name": "Mudhol", "name_ru": "Mudhol", "tz": "", "district": "Telangana"}, {"id": 849, "name": "Sirur", "name_ru": "Sirūr", "tz": "", "district": "Karnātaka"}, {"id": 850, "name": "Kesabpur", "name_ru": "Kesabpur", "tz": "", "district": "West Bengal"}, {"id": 851, "name": "Nagar", "name_ru": "Nagar", "tz": "", "district": "West Bengal"}, {"id": 852, "name": "Motkur", "name_ru": "Motkūr", "tz": "", "district": "Telangana"}, {"id": 853, "name": "Damarcherla", "name_ru": "Dāmarcherla", "tz": "", "district": "Telangana"}, {"id": 854, "name": "Kaviti", "name_ru": "Kaviti", "tz": "", "district": "Andhra Pradesh"}, {"id": 855, "name": "Madugula", "name_ru": "Mādugula", "tz": "", "district": "Andhra Pradesh"}, {"id": 856, "name": "Karvetnagar", "name_ru": "Kārvetnagar", "tz": "", "district": "Andhra Pradesh"}, {"id": 857, "name": "Pebberu", "name_ru": "Pebberu", "tz": "", "district": "Telangana"}, {"id": 858, "name": "Pittalavanipalem", "name_ru": "Pittalavānipālem", "tz": "", "district": "Andhra Pradesh"}, {"id": 859, "name": "Betma", "name_ru": "Betma", "tz": "", "district": "Madhya Pradesh"}, {"id": 860, "name": "Karedu", "name_ru": "Karedu", "tz": "", "district": "Andhra Pradesh"}, {"id": 861, "name": "Dubak", "name_ru": "Dubak", "tz": "", "district": "Telangana"}, {"id": 862, "name": "Savalgi", "name_ru": "Sāvalgi", "tz": "", "district": "Karnātaka"}, {"id": 863, "name": "Gundugolanu", "name_ru": "Gundugolanu", "tz": "", "district": "Andhra Pradesh"}, {"id": 864, "name": "Kankon", "name_ru": "Kānkon", "tz": "", "district": "Goa"}, {"id": 865, "name": "Chamarru", "name_ru": "Chāmarru", "tz": "", "district": "Andhra Pradesh"}, {"id": 866, "name": "Namchi", "name_ru": "Namchi", "tz": "", "district": "Sikkim"}, {"id": 867, "name": "Ichora", "name_ru": "Ichora", "tz": "", "district": "Telangana"}, {"id": 868, "name": "Gopalpur", "name_ru": "Gopālpur", "tz": "", "district": "West Bengal"}, {"id": 869, "name": "Nandipeta", "name_ru": "Nandipeta", "tz": "", "district": "Telangana"}, {"id": 870, "name": "Buttayagudem", "name_ru": "Buttāyagūdem", "tz": "", "district": "Andhra Pradesh"}, {"id": 871, "name": "Doddanahalli", "name_ru": "Doddanahalli", "tz": "", "district": "Karnātaka"}, {"id": 872, "name": "Duggirala", "name_ru": "Duggirāla", "tz": "", "district": "Andhra Pradesh"}, {"id": 873, "name": "Sher Muhammadpuram", "name_ru": "Sher Muhammadpuram", "tz": "", "district": "Andhra Pradesh"}, {"id": 874, "name": "Ghambiraopet", "name_ru": "Ghambiraopet", "tz": "", "district": "Telangana"}, {"id": 875, "name": "Mangalkot", "name_ru": "Mangalkot", "tz": "", "district": "West Bengal"}, {"id": 876, "name": "Khem Karan", "name_ru": "Khem Karan", "tz": "", "district": "Punjab"}, {"id": 877, "name": "Sonada", "name_ru": "Sonāda", "tz": "", "district": "West Bengal"}, {"id": 878, "name": "Bukkapatnam", "name_ru": "Bukkapatnam", "tz": "", "district": "Andhra Pradesh"}, {"id": 879, "name": "Khargram", "name_ru": "Khargrām", "tz": "", "district": "West Bengal"}, {"id": 880, "name": "Fakirtaki", "name_ru": "Fakirtaki", "tz": "", "district": "West Bengal"}, {"id": 881, "name": "Prattipadu", "name_ru": "Prattipādu", "tz": "", "district": "Andhra Pradesh"}, {"id": 882, "name": "Chennur", "name_ru": "Chennūr", "tz": "", "district": "Andhra Pradesh"}, {"id": 883, "name": "Antardipa", "name_ru": "Antardipa", "tz": "", "district": "West Bengal"}, {"id": 884, "name": "Tetagunta", "name_ru": "Tetagunta", "tz": "", "district": "Andhra Pradesh"}, {"id": 885, "name": "Amarapuuram", "name_ru": "Amarāpuuram", "tz": "", "district": "Karnātaka"}, {"id": 886, "name": "Mirik", "name_ru": "Mirik", "tz": "", "district": "West Bengal"}, {"id": 887, "name": "Kalipatnam", "name_ru": "Kālipatnam", "tz": "", "district": "Andhra Pradesh"}, {"id": 888, "name": "Biknur", "name_ru": "Biknūr", "tz": "", "district": "Telangana"}, {"id": 889, "name": "Denduluru", "name_ru": "Dendulūru", "tz": "", "district": "Andhra Pradesh"}, {"id": 890, "name": "Pedda Adsarlapalli", "name_ru": "Pedda Adsarlapalli", "tz": "", "district": "Telangana"}, {"id": 891, "name": "Tanakallu", "name_ru": "Tanakallu", "tz": "", "district": "Andhra Pradesh"}, {"id": 892, "name": "Chebrolu", "name_ru": "Chebrolu", "tz": "", "district": "Andhra Pradesh"}, {"id": 893, "name": "Allur", "name_ru": "Allūr", "tz": "", "district": "Andhra Pradesh"}, {"id": 894, "name": "Ganapavaram", "name_ru": "Ganapavaram", "tz": "", "district": "Andhra Pradesh"}, {"id": 895, "name": "Lakhipur", "name_ru": "Lakhipur", "tz": "", "district": "West Bengal"}, {"id": 896, "name": "Pedda Vegi", "name_ru": "Pedda Vegi", "tz": "", "district": "Andhra Pradesh"}, {"id": 897, "name": "Falimari", "name_ru": "Falimāri", "tz": "", "district": "West Bengal"}, {"id": 898, "name": "Edlapadu", "name_ru": "Edlapādu", "tz": "", "district": "Andhra Pradesh"}, {"id": 899, "name": "Doranala", "name_ru": "Doranāla", "tz": "", "district": "Andhra Pradesh"}, {"id": 900, "name": "Balupur", "name_ru": "Bālupur", "tz": "", "district": "West Bengal"}, {"id": 901, "name": "Krosuru", "name_ru": "Krosūru", "tz": "", "district": "Andhra Pradesh"}, {"id": 902, "name": "Bara Belun", "name_ru": "Bara Belun", "tz": "", "district": "West Bengal"}, {"id": 903, "name": "Ambhua", "name_ru": "Ambhua", "tz": "", "district": "West Bengal"}, {"id": 904, "name": "Rudra Nagar", "name_ru": "Rudra Nagar", "tz": "", "district": "West Bengal"}, {"id": 905, "name": "Kautalam", "name_ru": "Kautālam", "tz": "", "district": "Andhra Pradesh"}, {"id": 906, "name": "Karanchedu", "name_ru": "Kāranchedu", "tz": "", "district": "Andhra Pradesh"}, {"id": 907, "name": "Meghraj", "name_ru": "Meghraj", "tz": "", "district": "Gujarāt"}, {"id": 908, "name": "Nagalapuram", "name_ru": "Nāgalāpuram", "tz": "", "district": "Andhra Pradesh"}, {"id": 909, "name": "Mayureswar", "name_ru": "Mayūreswar", "tz": "", "district": "West Bengal"}, {"id": 910, "name": "Narayanavanam", "name_ru": "Nārāyanavanam", "tz": "", "district": "Andhra Pradesh"}, {"id": 911, "name": "Talsur", "name_ru": "Tālsur", "tz": "", "district": "West Bengal"}, {"id": 912, "name": "Dammapeta", "name_ru": "Dammapeta", "tz": "", "district": "Telangana"}, {"id": 913, "name": "Kushmanchi", "name_ru": "Kushmanchi", "tz": "", "district": "Telangana"}, {"id": 914, "name": "Owk", "name_ru": "Owk", "tz": "", "district": "Andhra Pradesh"}, {"id": 915, "name": "Kurabalakota", "name_ru": "Kurabalakota", "tz": "", "district": "Andhra Pradesh"}, {"id": 916, "name": "Nandavaram", "name_ru": "Nandavaram", "tz": "", "district": "Andhra Pradesh"}, {"id": 917, "name": "Rajanagaram", "name_ru": "Rājānagaram", "tz": "", "district": "Andhra Pradesh"}, {"id": 918, "name": "Amarchinta", "name_ru": "Amarchinta", "tz": "", "district": "Telangana"}, {"id": 919, "name": "Kundurpi", "name_ru": "Kundurpi", "tz": "", "district": "Andhra Pradesh"}, {"id": 920, "name": "Srikrishnapur", "name_ru": "Srikrishnapur", "tz": "", "district": "West Bengal"}, {"id": 921, "name": "Kalakada", "name_ru": "Kalakada", "tz": "", "district": "Andhra Pradesh"}, {"id": 922, "name": "Orchha", "name_ru": "Orchha", "tz": "", "district": "Madhya Pradesh"}, {"id": 923, "name": "Satyavedu", "name_ru": "Satyavedu", "tz": "", "district": "Andhra Pradesh"}, {"id": 924, "name": "Muzaffarnagar", "name_ru": "Muzaffarnagar", "tz": "", "district": "Uttar Pradesh"}, {"id": 925, "name": "Fatehpur", "name_ru": "Fatehpur", "tz": "", "district": "West Bengal"}, {"id": 926, "name": "Rambilli", "name_ru": "Rāmbilli", "tz": "", "district": "Andhra Pradesh"}, {"id": 927, "name": "Mortad", "name_ru": "Mortād", "tz": "", "district": "Telangana"}, {"id": 928, "name": "Ramchandrapur", "name_ru": "Rāmchandrapur", "tz": "", "district": "West Bengal"}, {"id": 929, "name": "Bhagirathpur", "name_ru": "Bhagirathpur", "tz": "", "district": "West Bengal"}, {"id": 930, "name": "Konakondla", "name_ru": "Konakondla", "tz": "", "district": "Andhra Pradesh"}, {"id": 931, "name": "Kodmial", "name_ru": "Kodmiāl", "tz": "", "district": "Telangana"}, {"id": 932, "name": "Kadur Sahib", "name_ru": "Kadūr Sāhib", "tz": "", "district": "Punjab"}, {"id": 933, "name": "Bhattiprolu", "name_ru": "Bhattiprolu", "tz": "", "district": "Andhra Pradesh"}, {"id": 934, "name": "Sonakhal", "name_ru": "Sonakhal", "tz": "", "district": "West Bengal"}, {"id": 935, "name": "Nekarikallu", "name_ru": "Nekarikallu", "tz": "", "district": "Andhra Pradesh"}, {"id": 936, "name": "Naliya", "name_ru": "Naliya", "tz": "", "district": "Gujarāt"}, {"id": 937, "name": "Ravutulapudi", "name_ru": "Ravutulapūdi", "tz": "", "district": "Andhra Pradesh"}, {"id": 938, "name": "Patrasaer", "name_ru": "Pātrasāer", "tz": "", "district": "West Bengal"}, {"id": 939, "name": "Perali", "name_ru": "Perali", "tz": "", "district": "Andhra Pradesh"}, {"id": 940, "name": "Galsi", "name_ru": "Galsi", "tz": "", "district": "West Bengal"}, {"id": 941, "name": "Nalgora", "name_ru": "Nalgora", "tz": "", "district": "West Bengal"}, {"id": 942, "name": "Sankhavaram", "name_ru": "Sankhavaram", "tz": "", "district": "Andhra Pradesh"}, {"id": 943, "name": "Allahdurg", "name_ru": "Allāhdurg", "tz": "", "district": "Telangana"}, {"id": 944, "name": "Kasba", "name_ru": "Kasba", "tz": "", "district": "Bihār"}, {"id": 945, "name": "Talupula", "name_ru": "Talupula", "tz": "", "district": "Andhra Pradesh"}, {"id": 946, "name": "Rolla", "name_ru": "Rolla", "tz": "", "district": "Andhra Pradesh"}, {"id": 947, "name": "Chota Mollakhali", "name_ru": "Chota Mollakhāli", "tz": "", "district": "West Bengal"}, {"id": 948, "name": "Ganga Sagar", "name_ru": "Ganga Sāgar", "tz": "", "district": "West Bengal"}, {"id": 949, "name": "Kamargani", "name_ru": "Kamargani", "tz": "", "district": "West Bengal"}, {"id": 950, "name": "Draksharama", "name_ru": "Drākshārāma", "tz": "", "district": "Andhra Pradesh"}, {"id": 951, "name": "Pudimadaka", "name_ru": "Pūdimadaka", "tz": "", "district": "Andhra Pradesh"}, {"id": 952, "name": "Nallamada", "name_ru": "Nallamada", "tz": "", "district": "Andhra Pradesh"}, {"id": 953, "name": "Ramabhadrapuram", "name_ru": "Rāmabhadrapuram", "tz": "", "district": "Andhra Pradesh"}, {"id": 954, "name": "Kamalapuram", "name_ru": "Kamalāpuram", "tz": "", "district": "Telangana"}, {"id": 955, "name": "Sangam", "name_ru": "Sangam", "tz": "", "district": "Andhra Pradesh"}, {"id": 956, "name": "Nadendla", "name_ru": "Nādendla", "tz": "", "district": "Andhra Pradesh"}, {"id": 957, "name": "Petua", "name_ru": "Petua", "tz": "", "district": "West Bengal"}, {"id": 958, "name": "Besagarahalli", "name_ru": "Besagarahalli", "tz": "", "district": "Karnātaka"}, {"id": 959, "name": "Chandur", "name_ru": "Chandūr", "tz": "", "district": "Telangana"}, {"id": 960, "name": "Karapa", "name_ru": "Karapa", "tz": "", "district": "Andhra Pradesh"}, {"id": 961, "name": "Akhnur", "name_ru": "Akhnūr", "tz": "", "district": "Jammu and Kashmīr"}, {"id": 962, "name": "Janapul", "name_ru": "Janāpul", "tz": "", "district": "West Bengal"}, {"id": 963, "name": "Karimpur", "name_ru": "Karīmpur", "tz": "", "district": "West Bengal"}, {"id": 964, "name": "Pragadavaram", "name_ru": "Pragadavaram", "tz": "", "district": "Andhra Pradesh"}, {"id": 965, "name": "Tripurantakam", "name_ru": "Tripurāntakam", "tz": "", "district": "Andhra Pradesh"}, {"id": 966, "name": "Munagapaka", "name_ru": "Munagapāka", "tz": "", "district": "Andhra Pradesh"}, {"id": 967, "name": "Chinnamandem", "name_ru": "Chinnamandem", "tz": "", "district": "Andhra Pradesh"}, {"id": 968, "name": "Kattipudi", "name_ru": "Kattipūdi", "tz": "", "district": "Andhra Pradesh"}, {"id": 969, "name": "Daulatpur", "name_ru": "Daulatpur", "tz": "", "district": "West Bengal"}, {"id": 970, "name": "Ketugram", "name_ru": "Ketugrām", "tz": "", "district": "West Bengal"}, {"id": 971, "name": "Koppaka", "name_ru": "Koppāka", "tz": "", "district": "Andhra Pradesh"}, {"id": 972, "name": "Gok", "name_ru": "Gok", "tz": "", "district": "West Bengal"}, {"id": 973, "name": "Gudlavalleru", "name_ru": "Gudlavalleru", "tz": "", "district": "Andhra Pradesh"}, {"id": 974, "name": "Kotur", "name_ru": "Kotūr", "tz": "", "district": "Telangana"}, {"id": 975, "name": "Komarolu", "name_ru": "Komarolu", "tz": "", "district": "Andhra Pradesh"}, {"id": 976, "name": "Valaparla", "name_ru": "Valaparla", "tz": "", "district": "Andhra Pradesh"}, {"id": 977, "name": "Jaipur", "name_ru": "Jaipur", "tz": "", "district": "West Bengal"}, {"id": 978, "name": "Paikpara", "name_ru": "Pāikpāra", "tz": "", "district": "West Bengal"}, {"id": 979, "name": "Narkatpalli", "name_ru": "Narkatpalli", "tz": "", "district": "Telangana"}, {"id": 980, "name": "Lakkireddipalle", "name_ru": "Lakkireddipalle", "tz": "", "district": "Andhra Pradesh"}, {"id": 981, "name": "Khasbalanda", "name_ru": "Khāsbalanda", "tz": "", "district": "West Bengal"}, {"id": 982, "name": "Telkapalli", "name_ru": "Telkapalli", "tz": "", "district": "Telangana"}, {"id": 983, "name": "Devanakonda", "name_ru": "Devanakonda", "tz": "", "district": "Andhra Pradesh"}, {"id": 984, "name": "Potavaram", "name_ru": "Potavaram", "tz": "", "district": "Andhra Pradesh"}, {"id": 985, "name": "Para", "name_ru": "Pāra", "tz": "", "district": "West Bengal"}, {"id": 986, "name": "Borgampad", "name_ru": "Borgampād", "tz": "", "district": "Telangana"}, {"id": 987, "name": "Lepakshi", "name_ru": "Lepākshi", "tz": "", "district": "Andhra Pradesh"}, {"id": 988, "name": "Kirlampudi", "name_ru": "Kirlampūdi", "tz": "", "district": "Andhra Pradesh"}, {"id": 989, "name": "Samalpur", "name_ru": "Samalpur", "tz": "", "district": "West Bengal"}, {"id": 990, "name": "Somireddipalle", "name_ru": "Somireddipalle", "tz": "", "district": "Andhra Pradesh"}, {"id": 991, "name": "Mungod", "name_ru": "Mungod", "tz": "", "district": "Telangana"}, {"id": 992, "name": "Kottapalem", "name_ru": "Kottapālem", "tz": "", "district": "Andhra Pradesh"}, {"id": 993, "name": "Ramannapeta", "name_ru": "Rāmannapeta", "tz": "", "district": "Telangana"}, {"id": 994, "name": "Dhantola", "name_ru": "Dhāntola", "tz": "", "district": "West Bengal"}, {"id": 995, "name": "Lingampet", "name_ru": "Lingampet", "tz": "", "district": "Telangana"}, {"id": 996, "name": "Reddigudem", "name_ru": "Reddigūdem", "tz": "", "district": "Andhra Pradesh"}, {"id": 997, "name": "Kanakpur", "name_ru": "Kanakpur", "tz": "", "district": "West Bengal"}, {"id": 998, "name": "Datian", "name_ru": "Datian", "tz": "", "district": "Bihār"}, {"id": 999, "name": "Srisailain", "name_ru": "Srīsailain", "tz": "", "district": "Andhra Pradesh"}, {"id": 1000, "name": "Panasapadu", "name_ru": "Panasapādu", "tz": "", "district": "Andhra Pradesh"}, {"id": 1001, "name": "Roddam", "name_ru": "Roddam", "tz": "", "district": "Andhra Pradesh"}, {"id": 1002, "name": "Kalinagar", "name_ru": "Kalinagar", "tz": "", "district": "West Bengal"}, {"id": 1003, "name": "Ganapavaram", "name_ru": "Ganapavaram", "tz": "", "district": "Andhra Pradesh"}, {"id": 1004, "name": "Belagola", "name_ru": "Belagola", "tz": "", "district": "Karnātaka"}, {"id": 1005, "name": "Manteswar", "name_ru": "Manteswar", "tz": "", "district": "West Bengal"}, {"id": 1006, "name": "Bellamkonda", "name_ru": "Bellamkonda", "tz": "", "district": "Andhra Pradesh"}, {"id": 1007, "name": "Bomareddipalli", "name_ru": "Bomareddipalli", "tz": "", "district": "Telangana"}, {"id": 1008, "name": "Kilkunda", "name_ru": "Kilkunda", "tz": "", "district": "Tamil Nādu"}, {"id": 1009, "name": "Tulin", "name_ru": "Tūlin", "tz": "", "district": "West Bengal"}, {"id": 1010, "name": "Manubolu", "name_ru": "Manubolu", "tz": "", "district": "Andhra Pradesh"}, {"id": 1011, "name": "Hadiaya", "name_ru": "Hadiāya", "tz": "", "district": "Punjab"}, {"id": 1012, "name": "Honwada", "name_ru": "Honwāda", "tz": "", "district": "Telangana"}, {"id": 1013, "name": "Satgachia", "name_ru": "Sātgāchia", "tz": "", "district": "West Bengal"}, {"id": 1014, "name": "Basudebpur", "name_ru": "Bāsudebpur", "tz": "", "district": "West Bengal"}, {"id": 1015, "name": "Elurupadu", "name_ru": "Elūrupādu", "tz": "", "district": "Andhra Pradesh"}, {"id": 1016, "name": "Malior", "name_ru": "Mālior", "tz": "", "district": "West Bengal"}, {"id": 1017, "name": "Chunakhali", "name_ru": "Chunakhali", "tz": "", "district": "West Bengal"}, {"id": 1018, "name": "Muragacha", "name_ru": "Muragācha", "tz": "", "district": "West Bengal"}, {"id": 1019, "name": "Panchgara", "name_ru": "Panchgara", "tz": "", "district": "West Bengal"}, {"id": 1020, "name": "Gopalpur", "name_ru": "Gopālpur", "tz": "", "district": "West Bengal"}, {"id": 1021, "name": "Dhanwada", "name_ru": "Dhanwāda", "tz": "", "district": "Telangana"}, {"id": 1022, "name": "Kinhalu", "name_ru": "Kinhālu", "tz": "", "district": "Karnātaka"}, {"id": 1023, "name": "Bilaspur", "name_ru": "Bilāspur", "tz": "", "district": "Haryāna"}, {"id": 1024, "name": "Chilakhana", "name_ru": "Chilakhāna", "tz": "", "district": "West Bengal"}, {"id": 1025, "name": "Lakhya", "name_ru": "Lakhya", "tz": "", "district": "West Bengal"}, {"id": 1026, "name": "Kalaikunda", "name_ru": "Kalaīkunda", "tz": "", "district": "West Bengal"}, {"id": 1027, "name": "Nutakki", "name_ru": "Nūtakki", "tz": "", "district": "Andhra Pradesh"}, {"id": 1028, "name": "Ahmadpur", "name_ru": "Ahmadpur", "tz": "", "district": "West Bengal"}, {"id": 1029, "name": "Barwan", "name_ru": "Barwān", "tz": "", "district": "West Bengal"}, {"id": 1030, "name": "Santamaguluru", "name_ru": "Santamāgulūru", "tz": "", "district": "Andhra Pradesh"}, {"id": 1031, "name": "Dodarasinakere", "name_ru": "Dodarasinakere", "tz": "", "district": "Karnātaka"}, {"id": 1032, "name": "Pagidyala", "name_ru": "Pagidyāla", "tz": "", "district": "Andhra Pradesh"}, {"id": 1033, "name": "Zafargarh", "name_ru": "Zafargarh", "tz": "", "district": "Telangana"}, {"id": 1034, "name": "Kathia", "name_ru": "Kāthia", "tz": "", "district": "West Bengal"}, {"id": 1035, "name": "Kattamuru", "name_ru": "Kattamūru", "tz": "", "district": "Andhra Pradesh"}, {"id": 1036, "name": "Kaikaram", "name_ru": "Kaikaram", "tz": "", "district": "Andhra Pradesh"}, {"id": 1037, "name": "Konidena", "name_ru": "Konidena", "tz": "", "district": "Andhra Pradesh"}, {"id": 1038, "name": "Dunigram", "name_ru": "Dunigrām", "tz": "", "district": "West Bengal"}, {"id": 1039, "name": "Uppalaguptam", "name_ru": "Uppalaguptam", "tz": "", "district": "Andhra Pradesh"}, {"id": 1040, "name": "Muddanuru", "name_ru": "Muddanūru", "tz": "", "district": "Andhra Pradesh"}, {"id": 1041, "name": "Gandlapenta", "name_ru": "Gāndlapenta", "tz": "", "district": "Andhra Pradesh"}, {"id": 1042, "name": "Dumargram", "name_ru": "Dumargrām", "tz": "", "district": "West Bengal"}, {"id": 1043, "name": "Mashat", "name_ru": "Mashāt", "tz": "", "district": "West Bengal"}, {"id": 1044, "name": "Uppugunduru", "name_ru": "Uppugunduru", "tz": "", "district": "Andhra Pradesh"}, {"id": 1045, "name": "Udburu", "name_ru": "Udburu", "tz": "", "district": "Jharkhand"}, {"id": 1046, "name": "Dattapara", "name_ru": "Dattapāra", "tz": "", "district": "West Bengal"}, {"id": 1047, "name": "Jujharpur", "name_ru": "Jujhārpur", "tz": "", "district": "West Bengal"}, {"id": 1048, "name": "Bhogapuram", "name_ru": "Bhogāpuram", "tz": "", "district": "Andhra Pradesh"}, {"id": 1049, "name": "Kaliganj", "name_ru": "Kāliganj", "tz": "", "district": "West Bengal"}, {"id": 1050, "name": "Nirna", "name_ru": "Nirna", "tz": "", "district": "Karnātaka"}, {"id": 1051, "name": "Damargidda", "name_ru": "Dāmargidda", "tz": "", "district": "Telangana"}, {"id": 1052, "name": "Ayas", "name_ru": "Ayas", "tz": "", "district": "West Bengal"}, {"id": 1053, "name": "Rajapudi", "name_ru": "Rājapūdi", "tz": "", "district": "Andhra Pradesh"}, {"id": 1054, "name": "Durgi", "name_ru": "Durgi", "tz": "", "district": "Andhra Pradesh"}, {"id": 1055, "name": "Molagavalli", "name_ru": "Molagavalli", "tz": "", "district": "Andhra Pradesh"}, {"id": 1056, "name": "Bahira", "name_ru": "Bahira", "tz": "", "district": "West Bengal"}, {"id": 1057, "name": "Penaballi", "name_ru": "Penaballi", "tz": "", "district": "Telangana"}, {"id": 1058, "name": "Gorsa", "name_ru": "Gorsa", "tz": "", "district": "West Bengal"}, {"id": 1059, "name": "Jajireddigudem", "name_ru": "Jājireddigūdem", "tz": "", "district": "Telangana"}, {"id": 1060, "name": "Nagayalanka", "name_ru": "Nāgāyalanka", "tz": "", "district": "Andhra Pradesh"}, {"id": 1061, "name": "Maddur", "name_ru": "Maddūr", "tz": "", "district": "Telangana"}, {"id": 1062, "name": "Bishnupur", "name_ru": "Bishnupur", "tz": "", "district": "West Bengal"}, {"id": 1063, "name": "Saktigarh", "name_ru": "Saktigarh", "tz": "", "district": "West Bengal"}, {"id": 1064, "name": "Munagala", "name_ru": "Munagāla", "tz": "", "district": "Telangana"}, {"id": 1065, "name": "Kurichedu", "name_ru": "Kurichedu", "tz": "", "district": "Andhra Pradesh"}, {"id": 1066, "name": "Belakvadi", "name_ru": "Belakvādi", "tz": "", "district": "Karnātaka"}, {"id": 1067, "name": "Nurpur", "name_ru": "Nurpur", "tz": "", "district": "West Bengal"}, {"id": 1068, "name": "Bhaluka", "name_ru": "Bhāluka", "tz": "", "district": "West Bengal"}, {"id": 1069, "name": "Alipukur", "name_ru": "Alipukur", "tz": "", "district": "West Bengal"}, {"id": 1070, "name": "Chaubaria", "name_ru": "Chaubaria", "tz": "", "district": "West Bengal"}, {"id": 1071, "name": "Kotabommali", "name_ru": "Kotabommāli", "tz": "", "district": "Andhra Pradesh"}, {"id": 1072, "name": "Guttikonda", "name_ru": "Guttikonda", "tz": "", "district": "Andhra Pradesh"}, {"id": 1073, "name": "Dirusumarru", "name_ru": "Dirusumarru", "tz": "", "district": "Andhra Pradesh"}, {"id": 1074, "name": "Kotalpur", "name_ru": "Kotālpur", "tz": "", "district": "West Bengal"}, {"id": 1075, "name": "Jigarhati", "name_ru": "Jigarhāti", "tz": "", "district": "West Bengal"}, {"id": 1076, "name": "Tummalacheruvu", "name_ru": "Tummalacheruvu", "tz": "", "district": "Telangana"}, {"id": 1077, "name": "Dharmajigudem", "name_ru": "Dharmājigūdem", "tz": "", "district": "Andhra Pradesh"}, {"id": 1078, "name": "Kovvali", "name_ru": "Kovvali", "tz": "", "district": "Andhra Pradesh"}, {"id": 1079, "name": "Bhogalt", "name_ru": "Bhogālt", "tz": "", "district": "West Bengal"}, {"id": 1080, "name": "Maisaram", "name_ru": "Maisaram", "tz": "", "district": "Telangana"}, {"id": 1081, "name": "Hingalganj", "name_ru": "Hingalganj", "tz": "", "district": "West Bengal"}, {"id": 1082, "name": "Gudluru", "name_ru": "Gudlūru", "tz": "", "district": "Andhra Pradesh"}, {"id": 1083, "name": "Bandamurlanka", "name_ru": "Bandamūrlanka", "tz": "", "district": "Andhra Pradesh"}, {"id": 1084, "name": "Kalicherla", "name_ru": "Kalicherla", "tz": "", "district": "Andhra Pradesh"}, {"id": 1085, "name": "Mustafabad", "name_ru": "Mustafābād", "tz": "", "district": "Telangana"}, {"id": 1086, "name": "Channubanda", "name_ru": "Channubanda", "tz": "", "district": "Andhra Pradesh"}, {"id": 1087, "name": "Islampur", "name_ru": "Islāmpur", "tz": "", "district": "West Bengal"}, {"id": 1088, "name": "Ranjal", "name_ru": "Ranjal", "tz": "", "district": "Telangana"}, {"id": 1089, "name": "Keregodu", "name_ru": "Keregodu", "tz": "", "district": "Karnātaka"}, {"id": 1090, "name": "Gampalagudem", "name_ru": "Gampalagūdem", "tz": "", "district": "Andhra Pradesh"}, {"id": 1091, "name": "Pullalacheruvu", "name_ru": "Pullalacheruvu", "tz": "", "district": "Andhra Pradesh"}, {"id": 1092, "name": "Makkuva", "name_ru": "Makkuva", "tz": "", "district": "Andhra Pradesh"}, {"id": 1093, "name": "Madnur", "name_ru": "Madnūr", "tz": "", "district": "Telangana"}, {"id": 1094, "name": "Harike", "name_ru": "Harīke", "tz": "", "district": "Punjab"}, {"id": 1095, "name": "Adigoppula", "name_ru": "Adigoppula", "tz": "", "district": "Andhra Pradesh"}, {"id": 1096, "name": "Panuria", "name_ru": "Pānuria", "tz": "", "district": "West Bengal"}, {"id": 1097, "name": "Chitvel", "name_ru": "Chitvel", "tz": "", "district": "Andhra Pradesh"}, {"id": 1098, "name": "Talgachhi", "name_ru": "Tālgāchhi", "tz": "", "district": "West Bengal"}, {"id": 1099, "name": "Jagatballabhpur", "name_ru": "Jagatballabhpur", "tz": "", "district": "West Bengal"}, {"id": 1100, "name": "Kismatpur", "name_ru": "Kismatpur", "tz": "", "district": "Telangana"}, {"id": 1101, "name": "Kalkuni", "name_ru": "Kālkuni", "tz": "", "district": "Karnātaka"}, {"id": 1102, "name": "Barasat", "name_ru": "Bārāsat", "tz": "", "district": "West Bengal"}, {"id": 1103, "name": "Teranikallu", "name_ru": "Teranikallu", "tz": "", "district": "Andhra Pradesh"}, {"id": 1104, "name": "Virapalle", "name_ru": "Vīrapalle", "tz": "", "district": "Andhra Pradesh"}, {"id": 1105, "name": "Vidapanakallu", "name_ru": "Vidapanakallu", "tz": "", "district": "Andhra Pradesh"}, {"id": 1106, "name": "Navipet", "name_ru": "Navipet", "tz": "", "district": "Telangana"}, {"id": 1107, "name": "Jasaikati", "name_ru": "Jasāikāti", "tz": "", "district": "West Bengal"}, {"id": 1108, "name": "Bhagabatipur", "name_ru": "Bhagabatipur", "tz": "", "district": "West Bengal"}, {"id": 1109, "name": "Manipur", "name_ru": "Manipur", "tz": "", "district": "West Bengal"}, {"id": 1110, "name": "Raiparthi", "name_ru": "Rāiparthi", "tz": "", "district": "Telangana"}, {"id": 1111, "name": "Bagalvad", "name_ru": "Bāgalvād", "tz": "", "district": "Karnātaka"}, {"id": 1112, "name": "Bontapalli", "name_ru": "Bontapalli", "tz": "", "district": "Telangana"}, {"id": 1113, "name": "Devarkadra", "name_ru": "Devarkadra", "tz": "", "district": "Telangana"}, {"id": 1114, "name": "Garbham", "name_ru": "Garbhām", "tz": "", "district": "Andhra Pradesh"}, {"id": 1115, "name": "Churulia", "name_ru": "Churulia", "tz": "", "district": "West Bengal"}, {"id": 1116, "name": "Anantasagaram", "name_ru": "Anantasāgaram", "tz": "", "district": "Andhra Pradesh"}, {"id": 1117, "name": "Yaragol", "name_ru": "Yaragol", "tz": "", "district": "Karnātaka"}, {"id": 1118, "name": "Penumaka", "name_ru": "Penumāka", "tz": "", "district": "Andhra Pradesh"}, {"id": 1119, "name": "Chintakommadinne", "name_ru": "Chintakommadinne", "tz": "", "district": "Andhra Pradesh"}, {"id": 1120, "name": "Korukollu", "name_ru": "Korukollu", "tz": "", "district": "Andhra Pradesh"}, {"id": 1121, "name": "Ginigera", "name_ru": "Ginigera", "tz": "", "district": "Karnātaka"}, {"id": 1122, "name": "Udramsar", "name_ru": "Udrāmsar", "tz": "", "district": "Rājasthān"}, {"id": 1123, "name": "Nakkapalle", "name_ru": "Nakkāpalle", "tz": "", "district": "Andhra Pradesh"}, {"id": 1124, "name": "Gangajalghati", "name_ru": "Gangājalghāti", "tz": "", "district": "West Bengal"}, {"id": 1125, "name": "Tungaturti", "name_ru": "Tungaturti", "tz": "", "district": "Telangana"}, {"id": 1126, "name": "Majlispur", "name_ru": "Majlispur", "tz": "", "district": "West Bengal"}, {"id": 1127, "name": "Peddapudi", "name_ru": "Peddapūdi", "tz": "", "district": "Andhra Pradesh"}, {"id": 1128, "name": "Chikhli", "name_ru": "Chikhli", "tz": "", "district": "Gujarāt"}, {"id": 1129, "name": "Madnakal", "name_ru": "Madnakal", "tz": "", "district": "Telangana"}, {"id": 1130, "name": "Galgali", "name_ru": "Galgali", "tz": "", "district": "Karnātaka"}, {"id": 1131, "name": "Kodakandla", "name_ru": "Kodakandla", "tz": "", "district": "Telangana"}, {"id": 1132, "name": "Chandpur", "name_ru": "Chandpur", "tz": "", "district": "West Bengal"}, {"id": 1133, "name": "Vidavaluru", "name_ru": "Vidavalūru", "tz": "", "district": "Andhra Pradesh"}, {"id": 1134, "name": "Gummadidola", "name_ru": "Gūmmadidola", "tz": "", "district": "Telangana"}, {"id": 1135, "name": "Khajuri", "name_ru": "Khājuri", "tz": "", "district": "West Bengal"}, {"id": 1136, "name": "Tamballapalle", "name_ru": "Tamballapalle", "tz": "", "district": "Andhra Pradesh"}, {"id": 1137, "name": "Ravinutala", "name_ru": "Rāvinūtala", "tz": "", "district": "Andhra Pradesh"}, {"id": 1138, "name": "Tekmal", "name_ru": "Tekmāl", "tz": "", "district": "Telangana"}, {"id": 1139, "name": "Berghom", "name_ru": "Berghom", "tz": "", "district": "West Bengal"}, {"id": 1140, "name": "Vijayapuri South", "name_ru": "Vijayapuri South", "tz": "", "district": "Andhra Pradesh"}, {"id": 1141, "name": "Konada", "name_ru": "Konāda", "tz": "", "district": "Andhra Pradesh"}, {"id": 1142, "name": "Dignagar", "name_ru": "Dīgnagar", "tz": "", "district": "West Bengal"}, {"id": 1143, "name": "Jagannathpur", "name_ru": "Jagannāthpur", "tz": "", "district": "West Bengal"}, {"id": 1144, "name": "Bibinagar", "name_ru": "Bībīnagar", "tz": "", "district": "Telangana"}, {"id": 1145, "name": "Venavanka", "name_ru": "Venavanka", "tz": "", "district": "Telangana"}, {"id": 1146, "name": "Rangampeta", "name_ru": "Rangampeta", "tz": "", "district": "Andhra Pradesh"}, {"id": 1147, "name": "Rodalkundi", "name_ru": "Rodalkundi", "tz": "", "district": "Karnātaka"}, {"id": 1148, "name": "Kotturu", "name_ru": "Kottūru", "tz": "", "district": "Andhra Pradesh"}, {"id": 1149, "name": "Kethepalli", "name_ru": "Kethepalli", "tz": "", "district": "Telangana"}, {"id": 1150, "name": "Dupadu", "name_ru": "Dūpādu", "tz": "", "district": "Andhra Pradesh"}, {"id": 1151, "name": "Chandipur", "name_ru": "Chandipur", "tz": "", "district": "West Bengal"}, {"id": 1152, "name": "Maliara", "name_ru": "Māliāra", "tz": "", "district": "West Bengal"}, {"id": 1153, "name": "Khandaghosh", "name_ru": "Khandaghosh", "tz": "", "district": "West Bengal"}, {"id": 1154, "name": "Kirugavalu", "name_ru": "Kirugāvalu", "tz": "", "district": "Karnātaka"}, {"id": 1155, "name": "Karatber", "name_ru": "Karatber", "tz": "", "district": "West Bengal"}, {"id": 1156, "name": "Kolleti Kota", "name_ru": "Kolleti Kota", "tz": "", "district": "Andhra Pradesh"}, {"id": 1157, "name": "Chiwemla", "name_ru": "Chiwemla", "tz": "", "district": "Telangana"}, {"id": 1158, "name": "Takkellapadu", "name_ru": "Takkellapādu", "tz": "", "district": "Andhra Pradesh"}, {"id": 1159, "name": "Dhanbela", "name_ru": "Dhanbela", "tz": "", "district": "West Bengal"}, {"id": 1160, "name": "Dommaranandyala", "name_ru": "Dommaranandyāla", "tz": "", "district": "Andhra Pradesh"}, {"id": 1161, "name": "Anigandlapadu", "name_ru": "Anigandlapādu", "tz": "", "district": "Andhra Pradesh"}, {"id": 1162, "name": "Kavuluru", "name_ru": "Kavulūru", "tz": "", "district": "Andhra Pradesh"}, {"id": 1163, "name": "Danagalli", "name_ru": "Danagalli", "tz": "", "district": "Karnātaka"}, {"id": 1164, "name": "Naushahra Panwan", "name_ru": "Naushahra Panwān", "tz": "", "district": "Punjab"}, {"id": 1165, "name": "Nallacheruvu", "name_ru": "Nallacheruvu", "tz": "", "district": "Andhra Pradesh"}, {"id": 1166, "name": "Peddakadaburu", "name_ru": "Peddakadabūru", "tz": "", "district": "Andhra Pradesh"}, {"id": 1167, "name": "Palakurti", "name_ru": "Pālakurti", "tz": "", "district": "Telangana"}, {"id": 1168, "name": "Timmapuram", "name_ru": "Timmāpuram", "tz": "", "district": "Andhra Pradesh"}, {"id": 1169, "name": "Ravipadu", "name_ru": "Rāvipādu", "tz": "", "district": "Andhra Pradesh"}, {"id": 1170, "name": "Lakhanpur", "name_ru": "Lakhanpur", "tz": "", "district": "Jharkhand"}, {"id": 1171, "name": "Pippara", "name_ru": "Pippara", "tz": "", "district": "Andhra Pradesh"}, {"id": 1172, "name": "Chiluvuru", "name_ru": "Chiluvūru", "tz": "", "district": "Andhra Pradesh"}, {"id": 1173, "name": "Kaligiri", "name_ru": "Kaligiri", "tz": "", "district": "Andhra Pradesh"}, {"id": 1174, "name": "Mulakalacheruvu", "name_ru": "Mulakalacheruvu", "tz": "", "district": "Andhra Pradesh"}, {"id": 1175, "name": "Birkur", "name_ru": "Bīrkur", "tz": "", "district": "Telangana"}, {"id": 1176, "name": "Gopalganj", "name_ru": "Gopālganj", "tz": "", "district": "West Bengal"}, {"id": 1177, "name": "Rebala", "name_ru": "Rebāla", "tz": "", "district": "Andhra Pradesh"}, {"id": 1178, "name": "Nandivelugu", "name_ru": "Nandivelugu", "tz": "", "district": "Andhra Pradesh"}, {"id": 1179, "name": "Bhatumra", "name_ru": "Bhātumra", "tz": "", "district": "Karnātaka"}, {"id": 1180, "name": "Bhandarhati", "name_ru": "Bhāndārhāti", "tz": "", "district": "West Bengal"}, {"id": 1181, "name": "Tulluru", "name_ru": "Tullūru", "tz": "", "district": "Andhra Pradesh"}, {"id": 1182, "name": "Narayanpur", "name_ru": "Nārāyanpur", "tz": "", "district": "Telangana"}, {"id": 1183, "name": "Niala Kondapalle", "name_ru": "Niāla Kondapalle", "tz": "", "district": "Telangana"}, {"id": 1184, "name": "Yazali", "name_ru": "Yāzali", "tz": "", "district": "Andhra Pradesh"}, {"id": 1185, "name": "Beraberi", "name_ru": "Berāberi", "tz": "", "district": "West Bengal"}, {"id": 1186, "name": "Gopalpur", "name_ru": "Gopālpur", "tz": "", "district": "West Bengal"}, {"id": 1187, "name": "Mahishkuchi", "name_ru": "Mahishkuchi", "tz": "", "district": "West Bengal"}, {"id": 1188, "name": "Pedda Ganjam", "name_ru": "Pedda Ganjām", "tz": "", "district": "Andhra Pradesh"}, {"id": 1189, "name": "Uchalon", "name_ru": "Uchalon", "tz": "", "district": "West Bengal"}, {"id": 1190, "name": "Huliyurdurga", "name_ru": "Huliyūrdurga", "tz": "", "district": "Karnātaka"}, {"id": 1191, "name": "Nekunapuram", "name_ru": "Nekunāpuram", "tz": "", "district": "Andhra Pradesh"}, {"id": 1192, "name": "Pokuru", "name_ru": "Pokūru", "tz": "", "district": "Andhra Pradesh"}, {"id": 1193, "name": "Bhadrapur", "name_ru": "Bhadrapur", "tz": "", "district": "West Bengal"}, {"id": 1194, "name": "Manali", "name_ru": "Manāli", "tz": "", "district": "Himāchal Pradesh"}, {"id": 1195, "name": "Mallepalli", "name_ru": "Mallepalli", "tz": "", "district": "Chhattīsgarh"}, {"id": 1196, "name": "Baruipara", "name_ru": "Baruipāra", "tz": "", "district": "West Bengal"}, {"id": 1197, "name": "Natavaram", "name_ru": "Nātavaram", "tz": "", "district": "Andhra Pradesh"}, {"id": 1198, "name": "Agali", "name_ru": "Agali", "tz": "", "district": "Andhra Pradesh"}, {"id": 1199, "name": "Barua Gopalpur", "name_ru": "Barua Gopālpur", "tz": "", "district": "West Bengal"}, {"id": 1200, "name": "Surampalle", "name_ru": "Sūrampalle", "tz": "", "district": "Andhra Pradesh"}, {"id": 1201, "name": "Bara Bakra", "name_ru": "Bara Bakra", "tz": "", "district": "West Bengal"}, {"id": 1202, "name": "Dhalpal", "name_ru": "Dhalpāl", "tz": "", "district": "West Bengal"}, {"id": 1203, "name": "Bajanki", "name_ru": "Bajanki", "tz": "", "district": "Telangana"}, {"id": 1204, "name": "Garladinne", "name_ru": "Gārladinne", "tz": "", "district": "Andhra Pradesh"}, {"id": 1205, "name": "Hire Kotankal", "name_ru": "Hire Kotankal", "tz": "", "district": "Karnātaka"}, {"id": 1206, "name": "Datura", "name_ru": "Dātura", "tz": "", "district": "West Bengal"}, {"id": 1207, "name": "Wajrakarur", "name_ru": "Wajrakarūr", "tz": "", "district": "Andhra Pradesh"}, {"id": 1208, "name": "Indrani", "name_ru": "Indrāni", "tz": "", "district": "West Bengal"}, {"id": 1209, "name": "Pata Pandillapalle", "name_ru": "Pāta Pandillapalle", "tz": "", "district": "Andhra Pradesh"}, {"id": 1210, "name": "Rajavommangi", "name_ru": "Rājavommangi", "tz": "", "district": "Andhra Pradesh"}, {"id": 1211, "name": "Sante Kasalgere", "name_ru": "Sante Kasalgere", "tz": "", "district": "Karnātaka"}, {"id": 1212, "name": "Mundlapadu", "name_ru": "Mundlapādu", "tz": "", "district": "Andhra Pradesh"}, {"id": 1213, "name": "Haripur", "name_ru": "Haripur", "tz": "", "district": "West Bengal"}, {"id": 1214, "name": "Bujang", "name_ru": "Bujang", "tz": "", "district": "West Bengal"}, {"id": 1215, "name": "Hatinda", "name_ru": "Hātinda", "tz": "", "district": "West Bengal"}, {"id": 1216, "name": "Mantur", "name_ru": "Mantūr", "tz": "", "district": "Karnātaka"}, {"id": 1217, "name": "Kirnahar", "name_ru": "Kirnāhar", "tz": "", "district": "West Bengal"}, {"id": 1218, "name": "Baireddipalle", "name_ru": "Baireddipalle", "tz": "", "district": "Andhra Pradesh"}, {"id": 1219, "name": "Mathampalli", "name_ru": "Mathampalli", "tz": "", "district": "Telangana"}, {"id": 1220, "name": "Pachipenta", "name_ru": "Pāchipenta", "tz": "", "district": "Andhra Pradesh"}, {"id": 1221, "name": "Radhangar", "name_ru": "Rādhāngar", "tz": "", "district": "West Bengal"}, {"id": 1222, "name": "Meliyaputtu", "name_ru": "Meliyāputtu", "tz": "", "district": "Andhra Pradesh"}, {"id": 1223, "name": "Baishata", "name_ru": "Bāishāta", "tz": "", "district": "West Bengal"}, {"id": 1224, "name": "Damaramadugu", "name_ru": "Dāmaramadugu", "tz": "", "district": "Andhra Pradesh"}, {"id": 1225, "name": "Kruttivennu", "name_ru": "Kruttivennu", "tz": "", "district": "Andhra Pradesh"}, {"id": 1226, "name": "Bestavarapeta", "name_ru": "Bestavārapeta", "tz": "", "district": "Andhra Pradesh"}, {"id": 1227, "name": "Namkhana", "name_ru": "Nāmkhāna", "tz": "", "district": "West Bengal"}, {"id": 1228, "name": "Muglispur", "name_ru": "Muglispur", "tz": "", "district": "West Bengal"}, {"id": 1229, "name": "Sheakhala", "name_ru": "Sheakhala", "tz": "", "district": "West Bengal"}, {"id": 1230, "name": "Ramasamudram", "name_ru": "Rāmasamudram", "tz": "", "district": "Andhra Pradesh"}, {"id": 1231, "name": "Bargari", "name_ru": "Bargāri", "tz": "", "district": "Punjab"}, {"id": 1232, "name": "Chelyama", "name_ru": "Chelyāma", "tz": "", "district": "West Bengal"}, {"id": 1233, "name": "Palagara", "name_ru": "Palagara", "tz": "", "district": "Andhra Pradesh"}, {"id": 1234, "name": "Gura", "name_ru": "Gura", "tz": "", "district": "West Bengal"}, {"id": 1235, "name": "Adwitnagar", "name_ru": "Adwitnagar", "tz": "", "district": "West Bengal"}, {"id": 1236, "name": "Ponnaluru", "name_ru": "Ponnalūru", "tz": "", "district": "Andhra Pradesh"}, {"id": 1237, "name": "Khatra", "name_ru": "Khātra", "tz": "", "district": "West Bengal"}, {"id": 1238, "name": "Belsur", "name_ru": "Belsur", "tz": "", "district": "West Bengal"}, {"id": 1239, "name": "Polaki", "name_ru": "Polāki", "tz": "", "district": "Andhra Pradesh"}, {"id": 1240, "name": "Yadamari", "name_ru": "Yādamari", "tz": "", "district": "Andhra Pradesh"}, {"id": 1241, "name": "Chataparru", "name_ru": "Chātaparru", "tz": "", "district": "Andhra Pradesh"}, {"id": 1242, "name": "Mulaguntapadu", "name_ru": "Mūlaguntapādu", "tz": "", "district": "Andhra Pradesh"}, {"id": 1243, "name": "Nirmanvi", "name_ru": "Nīrmānvi", "tz": "", "district": "Karnātaka"}, {"id": 1244, "name": "Raniganj", "name_ru": "Rānīganj", "tz": "", "district": "West Bengal"}, {"id": 1245, "name": "Krishnaranpur", "name_ru": "Krishnarānpur", "tz": "", "district": "West Bengal"}, {"id": 1246, "name": "Upputuru", "name_ru": "Upputūru", "tz": "", "district": "Andhra Pradesh"}, {"id": 1247, "name": "Annaram", "name_ru": "Annāram", "tz": "", "district": "Telangana"}, {"id": 1248, "name": "Simlapal", "name_ru": "Simlāpāl", "tz": "", "district": "West Bengal"}, {"id": 1249, "name": "Gosanimari Bandar", "name_ru": "Gosānimāri Bandar", "tz": "", "district": "West Bengal"}, {"id": 1250, "name": "Chinnakakani", "name_ru": "Chinnakākāni", "tz": "", "district": "Andhra Pradesh"}, {"id": 1251, "name": "Chilakapalem", "name_ru": "Chilakapālem", "tz": "", "district": "Andhra Pradesh"}, {"id": 1252, "name": "Nigan", "name_ru": "Nigan", "tz": "", "district": "West Bengal"}, {"id": 1253, "name": "Bijnapalli", "name_ru": "Bījnapalli", "tz": "", "district": "Telangana"}, {"id": 1254, "name": "Pipa", "name_ru": "Pipa", "tz": "", "district": "West Bengal"}, {"id": 1255, "name": "Chandrasekharapuram", "name_ru": "Chandrasekharāpuram", "tz": "", "district": "Andhra Pradesh"}, {"id": 1256, "name": "Chennekottapalle", "name_ru": "Chennekottapalle", "tz": "", "district": "Andhra Pradesh"}, {"id": 1257, "name": "Fatehpor", "name_ru": "Fatehpor", "tz": "", "district": "Jammu and Kashmīr"}, {"id": 1258, "name": "Mogallu", "name_ru": "Mogallu", "tz": "", "district": "Andhra Pradesh"}, {"id": 1259, "name": "Beluguppa", "name_ru": "Beluguppa", "tz": "", "district": "Andhra Pradesh"}, {"id": 1260, "name": "Rajbari", "name_ru": "Rājbāri", "tz": "", "district": "West Bengal"}, {"id": 1261, "name": "Parakaram", "name_ru": "Pārākaram", "tz": "", "district": "West Bengal"}, {"id": 1262, "name": "Chevella", "name_ru": "Chevella", "tz": "", "district": "Telangana"}, {"id": 1263, "name": "Karumanchi", "name_ru": "Kārumanchi", "tz": "", "district": "Andhra Pradesh"}, {"id": 1264, "name": "Belluru", "name_ru": "Bellūru", "tz": "", "district": "Karnātaka"}, {"id": 1265, "name": "Bandi Atmakuru", "name_ru": "Bandi Ātmakūru", "tz": "", "district": "Andhra Pradesh"}, {"id": 1266, "name": "Khanta", "name_ru": "Khanta", "tz": "", "district": "West Bengal"}, {"id": 1267, "name": "Kotauratla", "name_ru": "Kotauratla", "tz": "", "district": "Andhra Pradesh"}, {"id": 1268, "name": "Havaligi", "name_ru": "Hāvaligi", "tz": "", "district": "Andhra Pradesh"}, {"id": 1269, "name": "Chintalavalasa", "name_ru": "Chintalavalasa", "tz": "", "district": "Andhra Pradesh"}, {"id": 1270, "name": "Polba", "name_ru": "Polba", "tz": "", "district": "West Bengal"}, {"id": 1271, "name": "Mudinepalle", "name_ru": "Mudinepalle", "tz": "", "district": "Andhra Pradesh"}, {"id": 1272, "name": "Kurupam", "name_ru": "Kurupām", "tz": "", "district": "Andhra Pradesh"}, {"id": 1273, "name": "Hire Padsalgi", "name_ru": "Hire Padsalgi", "tz": "", "district": "Karnātaka"}, {"id": 1274, "name": "Valigonda", "name_ru": "Valigonda", "tz": "", "district": "Telangana"}, {"id": 1275, "name": "Sayampet", "name_ru": "Sāyampet", "tz": "", "district": "Telangana"}, {"id": 1276, "name": "Sibkalinagar", "name_ru": "Sibkālinagar", "tz": "", "district": "West Bengal"}, {"id": 1277, "name": "Pedda Bhogila", "name_ru": "Pedda Bhogila", "tz": "", "district": "Andhra Pradesh"}, {"id": 1278, "name": "Kodekal", "name_ru": "Kodekal", "tz": "", "district": "Karnātaka"}, {"id": 1279, "name": "Bagdaha", "name_ru": "Bāgdaha", "tz": "", "district": "West Bengal"}, {"id": 1280, "name": "Umarpur", "name_ru": "Umarpur", "tz": "", "district": "Jharkhand"}, {"id": 1281, "name": "Battili", "name_ru": "Battili", "tz": "", "district": "Odisha"}, {"id": 1282, "name": "Katangur", "name_ru": "Katangūr", "tz": "", "district": "Telangana"}, {"id": 1283, "name": "Kunchanapalle", "name_ru": "Kunchanapalle", "tz": "", "district": "Andhra Pradesh"}, {"id": 1284, "name": "Kalingapatnam", "name_ru": "Kalingapatnam", "tz": "", "district": "Andhra Pradesh"}, {"id": 1285, "name": "Aspari", "name_ru": "Āspari", "tz": "", "district": "Andhra Pradesh"}, {"id": 1286, "name": "Nekkonda", "name_ru": "Nekkonda", "tz": "", "district": "Telangana"}, {"id": 1287, "name": "Karalapadu", "name_ru": "Karālapādu", "tz": "", "district": "Andhra Pradesh"}, {"id": 1288, "name": "Rudravaram", "name_ru": "Rudravaram", "tz": "", "district": "Andhra Pradesh"}, {"id": 1289, "name": "Rangaipur", "name_ru": "Rāngaipur", "tz": "", "district": "West Bengal"}, {"id": 1290, "name": "Cherukuru", "name_ru": "Cherukūru", "tz": "", "district": "Andhra Pradesh"}, {"id": 1291, "name": "Ramapur", "name_ru": "Rāmapur", "tz": "", "district": "West Bengal"}, {"id": 1292, "name": "Ramthenga", "name_ru": "Rāmthenga", "tz": "", "district": "West Bengal"}, {"id": 1293, "name": "Devaruppal", "name_ru": "Devaruppal", "tz": "", "district": "Telangana"}, {"id": 1294, "name": "Morta", "name_ru": "Morta", "tz": "", "district": "Andhra Pradesh"}, {"id": 1295, "name": "Kennalu", "name_ru": "Kennālu", "tz": "", "district": "Karnātaka"}, {"id": 1296, "name": "Dhola", "name_ru": "Dhola", "tz": "", "district": "West Bengal"}, {"id": 1297, "name": "Bharatgarh", "name_ru": "Bharatgarh", "tz": "", "district": "West Bengal"}, {"id": 1298, "name": "Digambarpur", "name_ru": "Digambarpur", "tz": "", "district": "West Bengal"}, {"id": 1299, "name": "Annavaram", "name_ru": "Annavaram", "tz": "", "district": "Andhra Pradesh"}, {"id": 1300, "name": "Topla", "name_ru": "Toplā", "tz": "", "district": "Madhya Pradesh"}, {"id": 1301, "name": "Holavanhalli", "name_ru": "Holavanhalli", "tz": "", "district": "Karnātaka"}, {"id": 1302, "name": "Arakeri", "name_ru": "Arakeri", "tz": "", "district": "Karnātaka"}, {"id": 1303, "name": "Bagchara", "name_ru": "Bagchara", "tz": "", "district": "West Bengal"}, {"id": 1304, "name": "Dornipadu", "name_ru": "Dornipādu", "tz": "", "district": "Andhra Pradesh"}, {"id": 1305, "name": "Kamarpalli", "name_ru": "Kamarpalli", "tz": "", "district": "Telangana"}, {"id": 1306, "name": "Lingasamudram", "name_ru": "Lingasamudram", "tz": "", "district": "Andhra Pradesh"}, {"id": 1307, "name": "Mallarpur", "name_ru": "Mallārpur", "tz": "", "district": "West Bengal"}, {"id": 1308, "name": "Muppalla", "name_ru": "Muppālla", "tz": "", "district": "Andhra Pradesh"}, {"id": 1309, "name": "Badampudi", "name_ru": "Bādampūdi", "tz": "", "district": "Andhra Pradesh"}, {"id": 1310, "name": "Maipadu", "name_ru": "Maipādu", "tz": "", "district": "Andhra Pradesh"}, {"id": 1311, "name": "Bagela", "name_ru": "Bagela", "tz": "", "district": "West Bengal"}, {"id": 1312, "name": "Kandrakota", "name_ru": "Kāndrakota", "tz": "", "district": "Andhra Pradesh"}, {"id": 1313, "name": "Khopakati", "name_ru": "Khopākāti", "tz": "", "district": "West Bengal"}, {"id": 1314, "name": "Dwarapudi", "name_ru": "Dwārapūdi", "tz": "", "district": "Andhra Pradesh"}, {"id": 1315, "name": "Malkapuram", "name_ru": "Malkāpuram", "tz": "", "district": "Andhra Pradesh"}, {"id": 1316, "name": "Mohanpur", "name_ru": "Mohanpur", "tz": "", "district": "West Bengal"}, {"id": 1317, "name": "Chaudepalle", "name_ru": "Chaudepalle", "tz": "", "district": "Andhra Pradesh"}, {"id": 1318, "name": "Sasan", "name_ru": "Sāsan", "tz": "", "district": "West Bengal"}, {"id": 1319, "name": "Madhura", "name_ru": "Madhura", "tz": "", "district": "West Bengal"}, {"id": 1320, "name": "Katak Chincholi", "name_ru": "Katak Chincholi", "tz": "", "district": "Karnātaka"}, {"id": 1321, "name": "Amarkantak", "name_ru": "Amarkantak", "tz": "", "district": "Madhya Pradesh"}, {"id": 1322, "name": "Kalla", "name_ru": "Kālla", "tz": "", "district": "Andhra Pradesh"}, {"id": 1323, "name": "Salgundi", "name_ru": "Sālgundi", "tz": "", "district": "Karnātaka"}, {"id": 1324, "name": "Kongal", "name_ru": "Kongal", "tz": "", "district": "Telangana"}, {"id": 1325, "name": "Mohanpur", "name_ru": "Mohanpur", "tz": "", "district": "West Bengal"}, {"id": 1326, "name": "Lakkavaram", "name_ru": "Lakkavaram", "tz": "", "district": "Andhra Pradesh"}, {"id": 1327, "name": "Vempa", "name_ru": "Vempa", "tz": "", "district": "Andhra Pradesh"}, {"id": 1328, "name": "Bantumilli", "name_ru": "Bantumilli", "tz": "", "district": "Andhra Pradesh"}, {"id": 1329, "name": "Kantalia", "name_ru": "Kantālia", "tz": "", "district": "West Bengal"}, {"id": 1330, "name": "Rimbik", "name_ru": "Rimbik", "tz": "", "district": "West Bengal"}, {"id": 1331, "name": "Morgim", "name_ru": "Morgim", "tz": "", "district": "Goa"}, {"id": 1332, "name": "Palhalli", "name_ru": "Pālhalli", "tz": "", "district": "Karnātaka"}, {"id": 1333, "name": "Bondapalle", "name_ru": "Bondapalle", "tz": "", "district": "Andhra Pradesh"}, {"id": 1334, "name": "Pulipadu", "name_ru": "Pulipādu", "tz": "", "district": "Andhra Pradesh"}, {"id": 1335, "name": "Beliator", "name_ru": "Beliātor", "tz": "", "district": "West Bengal"}, {"id": 1336, "name": "Paidipadu", "name_ru": "Paidipādu", "tz": "", "district": "Andhra Pradesh"}, {"id": 1337, "name": "Mandirtala", "name_ru": "Mandirtala", "tz": "", "district": "West Bengal"}, {"id": 1338, "name": "Kanaganapalle", "name_ru": "Kanagānapalle", "tz": "", "district": "Andhra Pradesh"}, {"id": 1339, "name": "Tipparti", "name_ru": "Tipparti", "tz": "", "district": "Telangana"}, {"id": 1340, "name": "Etikoppaka", "name_ru": "Etikoppāka", "tz": "", "district": "Andhra Pradesh"}, {"id": 1341, "name": "Gadivemula", "name_ru": "Gadivemula", "tz": "", "district": "Andhra Pradesh"}, {"id": 1342, "name": "Tarachua", "name_ru": "Tārāchua", "tz": "", "district": "West Bengal"}, {"id": 1343, "name": "Kandlagunta", "name_ru": "Kandlagunta", "tz": "", "district": "Andhra Pradesh"}, {"id": 1344, "name": "Mudivarti", "name_ru": "Mudivarti", "tz": "", "district": "Andhra Pradesh"}, {"id": 1345, "name": "Obuladevarcheruvu", "name_ru": "Obuladevarcheruvu", "tz": "", "district": "Andhra Pradesh"}, {"id": 1346, "name": "Dariapur", "name_ru": "Dariapur", "tz": "", "district": "West Bengal"}, {"id": 1347, "name": "Murarai", "name_ru": "Murarai", "tz": "", "district": "West Bengal"}, {"id": 1348, "name": "Maddipadu", "name_ru": "Maddipādu", "tz": "", "district": "Andhra Pradesh"}, {"id": 1349, "name": "Amadaguru", "name_ru": "Amadagūru", "tz": "", "district": "Andhra Pradesh"}, {"id": 1350, "name": "Kondavidu", "name_ru": "Kondavīdu", "tz": "", "district": "Andhra Pradesh"}, {"id": 1351, "name": "Matsyapuri", "name_ru": "Matsyapuri", "tz": "", "district": "Andhra Pradesh"}, {"id": 1352, "name": "Moragudi", "name_ru": "Moragudi", "tz": "", "district": "Andhra Pradesh"}, {"id": 1353, "name": "Karimnagar", "name_ru": "Karimnagar", "tz": "", "district": "West Bengal"}, {"id": 1354, "name": "Timmapuram", "name_ru": "Timmāpuram", "tz": "", "district": "Telangana"}, {"id": 1355, "name": "Brahmanagudem", "name_ru": "Brāhmanagūdem", "tz": "", "district": "Andhra Pradesh"}, {"id": 1356, "name": "Hebbur", "name_ru": "Hebbūr", "tz": "", "district": "Karnātaka"}, {"id": 1357, "name": "Elangi", "name_ru": "Elangi", "tz": "", "district": "West Bengal"}, {"id": 1358, "name": "Palsa", "name_ru": "Palsa", "tz": "", "district": "West Bengal"}, {"id": 1359, "name": "Ventrapragada", "name_ru": "Ventrapragada", "tz": "", "district": "Andhra Pradesh"}, {"id": 1360, "name": "Mandadam", "name_ru": "Mandadam", "tz": "", "district": "Andhra Pradesh"}, {"id": 1361, "name": "Kotananduru", "name_ru": "Kotanandūru", "tz": "", "district": "Andhra Pradesh"}, {"id": 1362, "name": "Ellanuru", "name_ru": "Ellanūru", "tz": "", "district": "Andhra Pradesh"}, {"id": 1363, "name": "Sidhar", "name_ru": "Sidhar", "tz": "", "district": "West Bengal"}, {"id": 1364, "name": "Baswa", "name_ru": "Baswa", "tz": "", "district": "West Bengal"}, {"id": 1365, "name": "Digalgram", "name_ru": "Digalgrām", "tz": "", "district": "West Bengal"}, {"id": 1366, "name": "Kandaran", "name_ru": "Kandāran", "tz": "", "district": "West Bengal"}, {"id": 1367, "name": "Kavuru", "name_ru": "Kāvūru", "tz": "", "district": "Andhra Pradesh"}, {"id": 1368, "name": "Kasimpur", "name_ru": "Kāsimpur", "tz": "", "district": "West Bengal"}, {"id": 1369, "name": "Balatgi", "name_ru": "Balatgi", "tz": "", "district": "Karnātaka"}, {"id": 1370, "name": "Banpur", "name_ru": "Bānpur", "tz": "", "district": "West Bengal"}, {"id": 1371, "name": "Dumpagadapa", "name_ru": "Dumpagadapa", "tz": "", "district": "Andhra Pradesh"}, {"id": 1372, "name": "Racherla", "name_ru": "Rācherla", "tz": "", "district": "Andhra Pradesh"}, {"id": 1373, "name": "Galaga", "name_ru": "Galaga", "tz": "", "district": "Karnātaka"}, {"id": 1374, "name": "Mahurapur", "name_ru": "Mahurāpur", "tz": "", "district": "West Bengal"}, {"id": 1375, "name": "Andimatam", "name_ru": "Āndimatam", "tz": "", "district": "Tamil Nādu"}, {"id": 1376, "name": "Begunkudar", "name_ru": "Begunkudar", "tz": "", "district": "West Bengal"}, {"id": 1377, "name": "Kottapalle", "name_ru": "Kottapalle", "tz": "", "district": "Andhra Pradesh"}, {"id": 1378, "name": "Gobindapur", "name_ru": "Gobindapur", "tz": "", "district": "West Bengal"}, {"id": 1379, "name": "Kandgal", "name_ru": "Kandgal", "tz": "", "district": "Karnātaka"}, {"id": 1380, "name": "Tallacheruvu", "name_ru": "Tāllacheruvu", "tz": "", "district": "Andhra Pradesh"}, {"id": 1381, "name": "Ramchandrapur", "name_ru": "Rāmchandrapur", "tz": "", "district": "West Bengal"}, {"id": 1382, "name": "Manoharpur", "name_ru": "Manoharpur", "tz": "", "district": "West Bengal"}, {"id": 1383, "name": "Ratua", "name_ru": "Ratua", "tz": "", "district": "West Bengal"}, {"id": 1384, "name": "Raipur", "name_ru": "Raipur", "tz": "", "district": "West Bengal"}, {"id": 1385, "name": "Kodur", "name_ru": "Kodūr", "tz": "", "district": "Telangana"}, {"id": 1386, "name": "Natabari Hat", "name_ru": "Nātabāri Hāt", "tz": "", "district": "West Bengal"}, {"id": 1387, "name": "Bhelian", "name_ru": "Bheliān", "tz": "", "district": "West Bengal"}, {"id": 1388, "name": "Nizampur", "name_ru": "Nizāmpur", "tz": "", "district": "West Bengal"}, {"id": 1389, "name": "Baruva", "name_ru": "Bāruva", "tz": "", "district": "Andhra Pradesh"}, {"id": 1390, "name": "Khulna", "name_ru": "Khulna", "tz": "", "district": "West Bengal"}, {"id": 1391, "name": "Kariali", "name_ru": "Kariāli", "tz": "", "district": "West Bengal"}, {"id": 1392, "name": "Kyadgeri", "name_ru": "Kyādgeri", "tz": "", "district": "Karnātaka"}, {"id": 1393, "name": "Narathali", "name_ru": "Nārathali", "tz": "", "district": "West Bengal"}, {"id": 1394, "name": "Jakranpalli", "name_ru": "Jakrānpalli", "tz": "", "district": "Telangana"}, {"id": 1395, "name": "Nangli", "name_ru": "Nangli", "tz": "", "district": "Karnātaka"}, {"id": 1396, "name": "Algur", "name_ru": "Algūr", "tz": "", "district": "Karnātaka"}, {"id": 1397, "name": "Dodharye", "name_ru": "Dodharye", "tz": "", "district": "Karnātaka"}, {"id": 1398, "name": "Bandhkhola", "name_ru": "Bāndhkhola", "tz": "", "district": "West Bengal"}, {"id": 1399, "name": "Gavunipalli", "name_ru": "Gavunipalli", "tz": "", "district": "Karnātaka"}, {"id": 1400, "name": "Phulbari", "name_ru": "Phulbāri", "tz": "", "district": "West Bengal"}, {"id": 1401, "name": "Kanamarlapudi", "name_ru": "Kanamarlapūdi", "tz": "", "district": "Andhra Pradesh"}, {"id": 1402, "name": "Harispur", "name_ru": "Harispur", "tz": "", "district": "West Bengal"}, {"id": 1403, "name": "Peravali", "name_ru": "Peravali", "tz": "", "district": "Andhra Pradesh"}, {"id": 1404, "name": "Rentapalla", "name_ru": "Rentapālla", "tz": "", "district": "Andhra Pradesh"}, {"id": 1405, "name": "Kochcherla", "name_ru": "Kochcherla", "tz": "", "district": "Andhra Pradesh"}, {"id": 1406, "name": "Narendranagar", "name_ru": "Narendranagar", "tz": "", "district": "Uttarakhand"}, {"id": 1407, "name": "Ardavidu", "name_ru": "Ardavīdu", "tz": "", "district": "Andhra Pradesh"}, {"id": 1408, "name": "Elakkurichchi", "name_ru": "Elākkurichchi", "tz": "", "district": "Tamil Nādu"}, {"id": 1409, "name": "Mirkal", "name_ru": "Mirkal", "tz": "", "district": "Karnātaka"}, {"id": 1410, "name": "Sathaur", "name_ru": "Sathaur", "tz": "", "district": "West Bengal"}, {"id": 1411, "name": "Varadayyapalaiyam", "name_ru": "Varadayyapālaiyam", "tz": "", "district": "Andhra Pradesh"}, {"id": 1412, "name": "Jejur", "name_ru": "Jejur", "tz": "", "district": "West Bengal"}, {"id": 1413, "name": "Venkatakrishnarayapuram", "name_ru": "Venkatakrishnārayapuram", "tz": "", "district": "Andhra Pradesh"}, {"id": 1414, "name": "Jhikra", "name_ru": "Jhikra", "tz": "", "district": "West Bengal"}, {"id": 1415, "name": "Duttaluru", "name_ru": "Duttalūru", "tz": "", "district": "Andhra Pradesh"}, {"id": 1416, "name": "Durgapur", "name_ru": "Durgāpur", "tz": "", "district": "West Bengal"}, {"id": 1417, "name": "Khanta", "name_ru": "Khanta", "tz": "", "district": "West Bengal"}, {"id": 1418, "name": "Karavadi", "name_ru": "Karavadi", "tz": "", "district": "Andhra Pradesh"}, {"id": 1419, "name": "Jagdeopur", "name_ru": "Jagdeopur", "tz": "", "district": "Telangana"}, {"id": 1420, "name": "Chapirevula", "name_ru": "Chāpirevula", "tz": "", "district": "Andhra Pradesh"}, {"id": 1421, "name": "Somala", "name_ru": "Somala", "tz": "", "district": "Andhra Pradesh"}, {"id": 1422, "name": "Mehegram", "name_ru": "Mehegrām", "tz": "", "district": "West Bengal"}, {"id": 1423, "name": "Khedra", "name_ru": "Khedra", "tz": "", "district": "West Bengal"}, {"id": 1424, "name": "Uppalapadu", "name_ru": "Uppalapādu", "tz": "", "district": "Andhra Pradesh"}, {"id": 1425, "name": "Kukunuru", "name_ru": "Kukunūru", "tz": "", "district": "Telangana"}, {"id": 1426, "name": "Onda", "name_ru": "Onda", "tz": "", "district": "West Bengal"}, {"id": 1427, "name": "Muratpur", "name_ru": "Muratpur", "tz": "", "district": "West Bengal"}, {"id": 1428, "name": "Pedda Nandipadu", "name_ru": "Pedda Nandipādu", "tz": "", "district": "Andhra Pradesh"}, {"id": 1429, "name": "Bhujabalapatnam", "name_ru": "Bhujabalapatnam", "tz": "", "district": "Andhra Pradesh"}, {"id": 1430, "name": "Chopra", "name_ru": "Chopra", "tz": "", "district": "West Bengal"}, {"id": 1431, "name": "Sandhwan", "name_ru": "Sandhwān", "tz": "", "district": "Punjab"}, {"id": 1432, "name": "Talgram", "name_ru": "Tālgrām", "tz": "", "district": "West Bengal"}, {"id": 1433, "name": "Chinna Chintakunta", "name_ru": "Chinna Chintakunta", "tz": "", "district": "Telangana"}, {"id": 1434, "name": "Bhastara", "name_ru": "Bhāstāra", "tz": "", "district": "West Bengal"}, {"id": 1435, "name": "Ramakuppam", "name_ru": "Rāmakuppam", "tz": "", "district": "Andhra Pradesh"}, {"id": 1436, "name": "Kottakki", "name_ru": "Kottakki", "tz": "", "district": "Andhra Pradesh"}, {"id": 1437, "name": "Nandigram", "name_ru": "Nandīgrām", "tz": "", "district": "West Bengal"}, {"id": 1438, "name": "Harvi", "name_ru": "Harvi", "tz": "", "district": "Karnātaka"}, {"id": 1439, "name": "Loutolim", "name_ru": "Loutolim", "tz": "", "district": "Goa"}, {"id": 1440, "name": "Kuderu", "name_ru": "Kūderu", "tz": "", "district": "Andhra Pradesh"}, {"id": 1441, "name": "Kalavalapalle", "name_ru": "Kalavalapalle", "tz": "", "district": "Andhra Pradesh"}, {"id": 1442, "name": "Kondramutla", "name_ru": "Kondramutla", "tz": "", "district": "Andhra Pradesh"}, {"id": 1443, "name": "Bajargaon", "name_ru": "Bajargaon", "tz": "", "district": "West Bengal"}, {"id": 1444, "name": "Pusapatirega", "name_ru": "Pūsapātirega", "tz": "", "district": "Andhra Pradesh"}, {"id": 1445, "name": "Kyalanur", "name_ru": "Kyalanūr", "tz": "", "district": "Karnātaka"}, {"id": 1446, "name": "Attota", "name_ru": "Attota", "tz": "", "district": "Andhra Pradesh"}, {"id": 1447, "name": "Bisor", "name_ru": "Bisor", "tz": "", "district": "West Bengal"}, {"id": 1448, "name": "Sarenga", "name_ru": "Sārenga", "tz": "", "district": "West Bengal"}, {"id": 1449, "name": "Kochara", "name_ru": "Kochara", "tz": "", "district": "West Bengal"}, {"id": 1450, "name": "Murikipudi", "name_ru": "Murikipūdi", "tz": "", "district": "Andhra Pradesh"}, {"id": 1451, "name": "Medpalli", "name_ru": "Medpalli", "tz": "", "district": "Telangana"}, {"id": 1452, "name": "Khata", "name_ru": "Khata", "tz": "", "district": "Bihār"}, {"id": 1453, "name": "Musunuru", "name_ru": "Musunūru", "tz": "", "district": "Andhra Pradesh"}, {"id": 1454, "name": "Timmasamudram", "name_ru": "Timmasamudram", "tz": "", "district": "Andhra Pradesh"}, {"id": 1455, "name": "Chejerla", "name_ru": "Chejerla", "tz": "", "district": "Andhra Pradesh"}, {"id": 1456, "name": "Nirman", "name_ru": "Nirman", "tz": "", "district": "West Bengal"}, {"id": 1457, "name": "Mirle", "name_ru": "Mirle", "tz": "", "district": "Karnātaka"}, {"id": 1458, "name": "Radhanagar", "name_ru": "Rādhānagar", "tz": "", "district": "West Bengal"}, {"id": 1459, "name": "Fatehpur", "name_ru": "Fatehpur", "tz": "", "district": "West Bengal"}, {"id": 1460, "name": "Bhulki", "name_ru": "Bhulki", "tz": "", "district": "West Bengal"}, {"id": 1461, "name": "Ankapuram", "name_ru": "Ankāpuram", "tz": "", "district": "Telangana"}, {"id": 1462, "name": "Tarapur", "name_ru": "Tārāpur", "tz": "", "district": "West Bengal"}, {"id": 1463, "name": "Hatgacha", "name_ru": "Hātgācha", "tz": "", "district": "West Bengal"}, {"id": 1464, "name": "Kerimeri", "name_ru": "Kerimeri", "tz": "", "district": "Telangana"}, {"id": 1465, "name": "Terlam", "name_ru": "Terlām", "tz": "", "district": "Andhra Pradesh"}, {"id": 1466, "name": "Sakkarepatna", "name_ru": "Sakkarepatna", "tz": "", "district": "Karnātaka"}, {"id": 1467, "name": "Mungonda", "name_ru": "Mungonda", "tz": "", "district": "Andhra Pradesh"}, {"id": 1468, "name": "Bandarlapalli", "name_ru": "Bandarlapalli", "tz": "", "district": "Andhra Pradesh"}, {"id": 1469, "name": "Bevur", "name_ru": "Bevūr", "tz": "", "district": "Karnātaka"}, {"id": 1470, "name": "Konanki", "name_ru": "Konanki", "tz": "", "district": "Andhra Pradesh"}, {"id": 1471, "name": "Ranasthalam", "name_ru": "Ranasthalam", "tz": "", "district": "Andhra Pradesh"}, {"id": 1472, "name": "Birajnagar", "name_ru": "Birajnagar", "tz": "", "district": "West Bengal"}, {"id": 1473, "name": "Labpur", "name_ru": "Lābpur", "tz": "", "district": "West Bengal"}, {"id": 1474, "name": "Tummurukota", "name_ru": "Tummurukota", "tz": "", "district": "Andhra Pradesh"}, {"id": 1475, "name": "Tondapi", "name_ru": "Tondapi", "tz": "", "district": "Andhra Pradesh"}, {"id": 1476, "name": "Kothakota", "name_ru": "Kothakota", "tz": "", "district": "Telangana"}, {"id": 1477, "name": "Benior", "name_ru": "Benior", "tz": "", "district": "West Bengal"}, {"id": 1478, "name": "Nandalur", "name_ru": "Nandalūr", "tz": "", "district": "Andhra Pradesh"}, {"id": 1479, "name": "Valluru", "name_ru": "Vallūru", "tz": "", "district": "Andhra Pradesh"}, {"id": 1480, "name": "Kakumanu", "name_ru": "Kākumānu", "tz": "", "district": "Andhra Pradesh"}, {"id": 1481, "name": "Churakuti", "name_ru": "Chūrākuti", "tz": "", "district": "West Bengal"}, {"id": 1482, "name": "Panagarh", "name_ru": "Pānāgarh", "tz": "", "district": "West Bengal"}, {"id": 1483, "name": "Natalapadu", "name_ru": "Nātalapādu", "tz": "", "district": "Andhra Pradesh"}, {"id": 1484, "name": "Ambarpeta", "name_ru": "Ambārpeta", "tz": "", "district": "Andhra Pradesh"}, {"id": 1485, "name": "Majiyara", "name_ru": "Majiyara", "tz": "", "district": "West Bengal"}, {"id": 1486, "name": "Goyamara", "name_ru": "Goyamara", "tz": "", "district": "West Bengal"}, {"id": 1487, "name": "Pullampet", "name_ru": "Pullampet", "tz": "", "district": "Andhra Pradesh"}, {"id": 1488, "name": "Masarkal", "name_ru": "Masarkal", "tz": "", "district": "Karnātaka"}, {"id": 1489, "name": "Sitarampuram", "name_ru": "Sītarāmpuram", "tz": "", "district": "Andhra Pradesh"}, {"id": 1490, "name": "Gajapatinagaram", "name_ru": "Gajapatinagaram", "tz": "", "district": "Andhra Pradesh"}, {"id": 1491, "name": "Hattikuni", "name_ru": "Hattikuni", "tz": "", "district": "Karnātaka"}, {"id": 1492, "name": "Putalapattu", "name_ru": "Pūtalapattu", "tz": "", "district": "Andhra Pradesh"}, {"id": 1493, "name": "Kuvagam", "name_ru": "Kuvāgam", "tz": "", "district": "Tamil Nādu"}, {"id": 1494, "name": "Rhenok", "name_ru": "Rhenok", "tz": "", "district": "Sikkim"}, {"id": 1495, "name": "Kondamanjuluru", "name_ru": "Kondamanjulūru", "tz": "", "district": "Andhra Pradesh"}, {"id": 1496, "name": "Addatigala", "name_ru": "Addatīgala", "tz": "", "district": "Andhra Pradesh"}, {"id": 1497, "name": "Yelmanaid", "name_ru": "Yelmanaid", "tz": "", "district": "Telangana"}, {"id": 1498, "name": "Chillakur", "name_ru": "Chillakūr", "tz": "", "district": "Andhra Pradesh"}, {"id": 1499, "name": "Kotipalle", "name_ru": "Kotipalle", "tz": "", "district": "Andhra Pradesh"}, {"id": 1500, "name": "Kaldhari", "name_ru": "Kāldhari", "tz": "", "district": "Andhra Pradesh"}, {"id": 1501, "name": "Lingadahalli", "name_ru": "Lingadahalli", "tz": "", "district": "Karnātaka"}, {"id": 1502, "name": "Golugonda", "name_ru": "Golugonda", "tz": "", "district": "Andhra Pradesh"}, {"id": 1503, "name": "Budhakhali", "name_ru": "Budhakhāli", "tz": "", "district": "West Bengal"}, {"id": 1504, "name": "Kosuvaripalle", "name_ru": "Kosuvāripalle", "tz": "", "district": "Andhra Pradesh"}, {"id": 1505, "name": "Pedda Orampadu", "name_ru": "Pedda Orampādu", "tz": "", "district": "Andhra Pradesh"}, {"id": 1506, "name": "Jaldhoa", "name_ru": "Jāldhoa", "tz": "", "district": "West Bengal"}, {"id": 1507, "name": "Kalmali", "name_ru": "Kalmali", "tz": "", "district": "Karnātaka"}, {"id": 1508, "name": "Gottipadu", "name_ru": "Gottipādu", "tz": "", "district": "Andhra Pradesh"}, {"id": 1509, "name": "Putluru", "name_ru": "Putlūru", "tz": "", "district": "Andhra Pradesh"}, {"id": 1510, "name": "Kapileswarapuram", "name_ru": "Kapileswarapuram", "tz": "", "district": "Andhra Pradesh"}, {"id": 1511, "name": "Utukur", "name_ru": "Utukūr", "tz": "", "district": "Andhra Pradesh"}, {"id": 1512, "name": "Sabakpur", "name_ru": "Sabakpur", "tz": "", "district": "West Bengal"}, {"id": 1513, "name": "Piridi", "name_ru": "Piridi", "tz": "", "district": "Andhra Pradesh"}, {"id": 1514, "name": "Goli", "name_ru": "Goli", "tz": "", "district": "Andhra Pradesh"}, {"id": 1515, "name": "Pogiri", "name_ru": "Pogiri", "tz": "", "district": "Andhra Pradesh"}, {"id": 1516, "name": "Indiri", "name_ru": "Indiri", "tz": "", "district": "Karnātaka"}, {"id": 1517, "name": "Barabari", "name_ru": "Barabāri", "tz": "", "district": "West Bengal"}, {"id": 1518, "name": "Lingareddipalem", "name_ru": "Lingāreddipālem", "tz": "", "district": "Andhra Pradesh"}, {"id": 1519, "name": "Singareni", "name_ru": "Singareni", "tz": "", "district": "Telangana"}, {"id": 1520, "name": "Mejia", "name_ru": "Mejia", "tz": "", "district": "West Bengal"}, {"id": 1521, "name": "Tarlupadu", "name_ru": "Tarlupādu", "tz": "", "district": "Andhra Pradesh"}, {"id": 1522, "name": "Gopavaram", "name_ru": "Gopavaram", "tz": "", "district": "Andhra Pradesh"}, {"id": 1523, "name": "Rayna", "name_ru": "Rāyna", "tz": "", "district": "West Bengal"}, {"id": 1524, "name": "Tadimarri", "name_ru": "Tādimarri", "tz": "", "district": "Andhra Pradesh"}, {"id": 1525, "name": "Kistnapatam", "name_ru": "Kistnapatam", "tz": "", "district": "Andhra Pradesh"}, {"id": 1526, "name": "Karepalli", "name_ru": "Kārepalli", "tz": "", "district": "Telangana"}, {"id": 1527, "name": "Harirampur", "name_ru": "Harirāmpur", "tz": "", "district": "West Bengal"}, {"id": 1528, "name": "Fatehgarh Panjtur", "name_ru": "Fatehgarh Panjtur", "tz": "", "district": "Punjab"}, {"id": 1529, "name": "Pegadpalli", "name_ru": "Pegadpalli", "tz": "", "district": "Telangana"}, {"id": 1530, "name": "Chinna Pandraka", "name_ru": "Chinna Pāndrāka", "tz": "", "district": "Andhra Pradesh"}, {"id": 1531, "name": "Matmari", "name_ru": "Matmāri", "tz": "", "district": "Karnātaka"}, {"id": 1532, "name": "Lakshmisagar", "name_ru": "Lakshmisāgar", "tz": "", "district": "West Bengal"}, {"id": 1533, "name": "Kundapak", "name_ru": "Kundapāk", "tz": "", "district": "Telangana"}, {"id": 1534, "name": "Kallankurichchi", "name_ru": "Kallankurichchi", "tz": "", "district": "Tamil Nādu"}, {"id": 1535, "name": "Peddaravidu", "name_ru": "Peddāravīdu", "tz": "", "district": "Andhra Pradesh"}, {"id": 1536, "name": "Puncha", "name_ru": "Punchā", "tz": "", "district": "West Bengal"}, {"id": 1537, "name": "Gudipudi", "name_ru": "Gudipūdi", "tz": "", "district": "Andhra Pradesh"}, {"id": 1538, "name": "Cherlagudipadu", "name_ru": "Cherlagudipādu", "tz": "", "district": "Andhra Pradesh"}, {"id": 1539, "name": "Ramadugu", "name_ru": "Rāmadugu", "tz": "", "district": "Telangana"}, {"id": 1540, "name": "Gote", "name_ru": "Gote", "tz": "", "district": "Karnātaka"}, {"id": 1541, "name": "Vellalacheruvu", "name_ru": "Vellalacheruvu", "tz": "", "district": "Andhra Pradesh"}, {"id": 1542, "name": "Komarada", "name_ru": "Komarāda", "tz": "", "district": "Andhra Pradesh"}, {"id": 1543, "name": "Nujendla", "name_ru": "Nūjendla", "tz": "", "district": "Andhra Pradesh"}, {"id": 1544, "name": "Lansdowne", "name_ru": "Lansdowne", "tz": "", "district": "Uttarakhand"}, {"id": 1545, "name": "Dagadarti", "name_ru": "Dagadarti", "tz": "", "district": "Andhra Pradesh"}, {"id": 1546, "name": "Bhrigubanda", "name_ru": "Bhrigubanda", "tz": "", "district": "Andhra Pradesh"}, {"id": 1547, "name": "Kumargram", "name_ru": "Kumārgrām", "tz": "", "district": "West Bengal"}, {"id": 1548, "name": "Basudha", "name_ru": "Basudha", "tz": "", "district": "West Bengal"}, {"id": 1549, "name": "Jukal", "name_ru": "Jukal", "tz": "", "district": "Telangana"}, {"id": 1550, "name": "Mantada", "name_ru": "Mantāda", "tz": "", "district": "Andhra Pradesh"}, {"id": 1551, "name": "Nambulapulikunta", "name_ru": "Nambulapūlikunta", "tz": "", "district": "Andhra Pradesh"}, {"id": 1552, "name": "Kunaparajuparva", "name_ru": "Kūnaparājuparva", "tz": "", "district": "Andhra Pradesh"}, {"id": 1553, "name": "Dandepalii", "name_ru": "Dandepalii", "tz": "", "district": "Telangana"}, {"id": 1554, "name": "Dammalapadu", "name_ru": "Dammālapādu", "tz": "", "district": "Andhra Pradesh"}, {"id": 1555, "name": "Vanamaladinne", "name_ru": "Vanamaladinne", "tz": "", "district": "Andhra Pradesh"}, {"id": 1556, "name": "Kalavakuru", "name_ru": "Kalavakuru", "tz": "", "district": "Andhra Pradesh"}, {"id": 1557, "name": "Ramasamudram", "name_ru": "Rāmasamudram", "tz": "", "district": "Karnātaka"}, {"id": 1558, "name": "Virannapalem", "name_ru": "Vīrannapālem", "tz": "", "district": "Andhra Pradesh"}, {"id": 1559, "name": "Sitampeta", "name_ru": "Sītampeta", "tz": "", "district": "Andhra Pradesh"}, {"id": 1560, "name": "Gudivakalanka", "name_ru": "Gudivākalanka", "tz": "", "district": "Andhra Pradesh"}, {"id": 1561, "name": "Hamidi", "name_ru": "Hamidi", "tz": "", "district": "Punjab"}, {"id": 1562, "name": "Gazulmandiyam", "name_ru": "Gāzulmandiyam", "tz": "", "district": "Andhra Pradesh"}, {"id": 1563, "name": "Burda", "name_ru": "Burda", "tz": "", "district": "West Bengal"}, {"id": 1564, "name": "Gosaba", "name_ru": "Gosāba", "tz": "", "district": "West Bengal"}, {"id": 1565, "name": "Mustur", "name_ru": "Mustūr", "tz": "", "district": "Karnātaka"}, {"id": 1566, "name": "Korukonda", "name_ru": "Korukonda", "tz": "", "district": "Odisha"}, {"id": 1567, "name": "Aripanthan", "name_ru": "Arīpānthan", "tz": "", "district": "Jammu and Kashmīr"}, {"id": 1568, "name": "Maddikera Agraharam", "name_ru": "Maddikera Agrahāram", "tz": "", "district": "Andhra Pradesh"}, {"id": 1569, "name": "Kolavennu", "name_ru": "Kolavennu", "tz": "", "district": "Andhra Pradesh"}, {"id": 1570, "name": "Chingarali", "name_ru": "Chingarali", "tz": "", "district": "Karnātaka"}, {"id": 1571, "name": "Veguru", "name_ru": "Vegūru", "tz": "", "district": "Andhra Pradesh"}, {"id": 1572, "name": "Nandavaram", "name_ru": "Nandavaram", "tz": "", "district": "Andhra Pradesh"}, {"id": 1573, "name": "Nagareddipet", "name_ru": "Nāgareddipet", "tz": "", "district": "Telangana"}, {"id": 1574, "name": "Chandragudem", "name_ru": "Chandragūdem", "tz": "", "district": "Andhra Pradesh"}, {"id": 1575, "name": "Gorubathan", "name_ru": "Gorubathān", "tz": "", "district": "West Bengal"}, {"id": 1576, "name": "Thode", "name_ru": "Thode", "tz": "", "district": "West Bengal"}, {"id": 1577, "name": "Rolugunta", "name_ru": "Rolugunta", "tz": "", "district": "Andhra Pradesh"}, {"id": 1578, "name": "Velagaleru", "name_ru": "Velagaleru", "tz": "", "district": "Andhra Pradesh"}, {"id": 1579, "name": "Sayipeta", "name_ru": "Sāyipeta", "tz": "", "district": "Andhra Pradesh"}, {"id": 1580, "name": "Byadanur", "name_ru": "Byādanūr", "tz": "", "district": "Karnātaka"}, {"id": 1581, "name": "Kulumur", "name_ru": "Kulumūr", "tz": "", "district": "Tamil Nādu"}, {"id": 1582, "name": "Talamarla", "name_ru": "Talamarla", "tz": "", "district": "Andhra Pradesh"}, {"id": 1583, "name": "Bandarupalle", "name_ru": "Bandārupalle", "tz": "", "district": "Andhra Pradesh"}, {"id": 1584, "name": "Machareddi", "name_ru": "Māchareddi", "tz": "", "district": "Telangana"}, {"id": 1585, "name": "Peddapasupula", "name_ru": "Peddapasupula", "tz": "", "district": "Andhra Pradesh"}, {"id": 1586, "name": "Reddicherla", "name_ru": "Reddicherla", "tz": "", "district": "Andhra Pradesh"}, {"id": 1587, "name": "Manyapadu", "name_ru": "Manyapādu", "tz": "", "district": "Telangana"}, {"id": 1588, "name": "Samse", "name_ru": "Samse", "tz": "", "district": "Karnātaka"}, {"id": 1589, "name": "Virapapur", "name_ru": "Virapāpur", "tz": "", "district": "Karnātaka"}, {"id": 1590, "name": "Kasipet", "name_ru": "Kāsipet", "tz": "", "district": "Telangana"}, {"id": 1591, "name": "Gundrevula", "name_ru": "Gundrevula", "tz": "", "district": "Andhra Pradesh"}, {"id": 1592, "name": "Rebna", "name_ru": "Rebna", "tz": "", "district": "Telangana"}, {"id": 1593, "name": "Atluru", "name_ru": "Atlūru", "tz": "", "district": "Andhra Pradesh"}, {"id": 1594, "name": "Tirupati", "name_ru": "Tirupati", "tz": "", "district": "Andhra Pradesh"}, {"id": 1595, "name": "Rudravaram", "name_ru": "Rudravaram", "tz": "", "district": "Andhra Pradesh"}, {"id": 1596, "name": "Tuggali", "name_ru": "Tuggali", "tz": "", "district": "Andhra Pradesh"}, {"id": 1597, "name": "Mulakalapalle", "name_ru": "Mulakalapalle", "tz": "", "district": "Telangana"}, {"id": 1598, "name": "Somapalle", "name_ru": "Somapalle", "tz": "", "district": "Andhra Pradesh"}, {"id": 1599, "name": "Mallavaram", "name_ru": "Mallavaram", "tz": "", "district": "Andhra Pradesh"}, {"id": 1600, "name": "Venkatapuram", "name_ru": "Venkatāpuram", "tz": "", "district": "Telangana"}]