[{"id": 1, "name": "Baghdad", "name_ru": "Baghdad", "tz": "", "district": "Baghdād"}, {"id": 2, "name": "Mosul", "name_ru": "Mosul", "tz": "", "district": "Nīnawá"}, {"id": 3, "name": "Al Basrah", "name_ru": "Al Başrah", "tz": "", "district": "Al Başrah"}, {"id": 4, "name": "Kirkuk", "name_ru": "Kirkuk", "tz": "", "district": "Kirkūk"}, {"id": 5, "name": "Ar Ramadi", "name_ru": "Ar Ramādī", "tz": "", "district": "Al Anbār"}, {"id": 6, "name": "Erbil", "name_ru": "Erbil", "tz": "", "district": "Arbīl"}, {"id": 7, "name": "An Najaf", "name_ru": "An Najaf", "tz": "", "district": "An Najaf"}, {"id": 8, "name": "Karbala'", "name_ru": "Karbalā’", "tz": "", "district": "Karbalā’"}, {"id": 9, "name": "As Sulaymaniyah", "name_ru": "As Sulaymānīyah", "tz": "", "district": "As Sulaymānīyah"}, {"id": 10, "name": "An Nasiriyah", "name_ru": "An Nāşirīyah", "tz": "", "district": "Dhī Qār"}, {"id": 11, "name": "Al Hillah", "name_ru": "Al Ḩillah", "tz": "", "district": "Bābil"}, {"id": 12, "name": "Al `Amarah", "name_ru": "Al ‘Amārah", "tz": "", "district": "Maysān"}, {"id": 13, "name": "Ba`qubah", "name_ru": "Ba‘qūbah", "tz": "", "district": "Diyālá"}, {"id": 14, "name": "Ad Diwaniyah", "name_ru": "Ad Dīwānīyah", "tz": "", "district": "Al Qādisīyah"}, {"id": 15, "name": "Az Zubayr", "name_ru": "Az Zubayr", "tz": "", "district": "Al Başrah"}, {"id": 16, "name": "Dahuk", "name_ru": "Dahūk", "tz": "", "district": "Dahūk"}, {"id": 17, "name": "Al Fallujah", "name_ru": "Al Fallūjah", "tz": "", "district": "Al Anbār"}, {"id": 18, "name": "Al Kut", "name_ru": "Al Kūt", "tz": "", "district": "Wāsiţ"}, {"id": 19, "name": "Zakhu", "name_ru": "Zākhū", "tz": "", "district": "Dahūk"}, {"id": 20, "name": "As Samawah", "name_ru": "As Samāwah", "tz": "", "district": "Al Muthanná"}, {"id": 21, "name": "Al Kufah", "name_ru": "Al Kūfah", "tz": "", "district": "An Najaf"}, {"id": 22, "name": "Ash Shatrah", "name_ru": "Ash Shaţrah", "tz": "", "district": "Dhī Qār"}, {"id": 23, "name": "Samarra'", "name_ru": "Sāmarrā’", "tz": "", "district": "Şalāḩ ad Dīn"}, {"id": 24, "name": "Umm Qasr", "name_ru": "Umm Qaşr", "tz": "", "district": "Al Başrah"}, {"id": 25, "name": "Tikrit", "name_ru": "Tikrīt", "tz": "", "district": "Şalāḩ ad Dīn"}, {"id": 26, "name": "Al Faw", "name_ru": "Al Fāw", "tz": "", "district": "Al Başrah"}, {"id": 27, "name": "Nahiyat al Karmah", "name_ru": "Nāḩiyat al Karmah", "tz": "", "district": "Al Anbār"}, {"id": 28, "name": "Sinjar", "name_ru": "Sinjār", "tz": "", "district": "Nīnawá"}, {"id": 29, "name": "Al Hayy", "name_ru": "Al Ḩayy", "tz": "", "district": "Wāsiţ"}, {"id": 30, "name": "Tall `Afar", "name_ru": "Tall ‘Afar", "tz": "", "district": "Nīnawá"}, {"id": 31, "name": "Balad", "name_ru": "Balad", "tz": "", "district": "Şalāḩ ad Dīn"}, {"id": 32, "name": "Al Musayyib", "name_ru": "Al Musayyib", "tz": "", "district": "Bābil"}, {"id": 33, "name": "Az Zubaydiyah", "name_ru": "Az Zubaydīyah", "tz": "", "district": "Wāsiţ"}, {"id": 34, "name": "Hit", "name_ru": "Hīt", "tz": "", "district": "Al Anbār"}, {"id": 35, "name": "Halabjah", "name_ru": "Ḩalabjah", "tz": "", "district": "As Sulaymānīyah"}, {"id": 36, "name": "Bayji", "name_ru": "Bayjī", "tz": "", "district": "Şalāḩ ad Dīn"}, {"id": 37, "name": "Qaladizay", "name_ru": "Qalādizay", "tz": "", "district": "As Sulaymānīyah"}, {"id": 38, "name": "Mandali", "name_ru": "Mandalī", "tz": "", "district": "Diyālá"}, {"id": 39, "name": "Shaqlawah", "name_ru": "Shaqlāwah", "tz": "", "district": "Arbīl"}, {"id": 40, "name": "Ar Rutbah", "name_ru": "Ar Ruţbah", "tz": "", "district": "Al Anbār"}, {"id": 41, "name": "Kuysinjaq", "name_ru": "Kūysinjaq", "tz": "", "district": "Arbīl"}, {"id": 42, "name": "Rawah", "name_ru": "Rāwah", "tz": "", "district": "Al Anbār"}, {"id": 43, "name": "Hammam al `Alil", "name_ru": "Ḩammām al ‘Alīl", "tz": "", "district": "Nīnawá"}, {"id": 44, "name": "Al `Amadiyah", "name_ru": "Al ‘Amādīyah", "tz": "", "district": "Dahūk"}]