[{"id": 1, "name": "Tehran", "name_ru": "Tehran", "tz": "", "district": "Tehrān"}, {"id": 2, "name": "Mashhad", "name_ru": "Mashhad", "tz": "", "district": "Khorāsān-e Raẕavī"}, {"id": 3, "name": "Esfahan", "name_ru": "Eşfahān", "tz": "", "district": "Eşfahān"}, {"id": 4, "name": "Karaj", "name_ru": "Karaj", "tz": "", "district": "Alborz"}, {"id": 5, "name": "Shiraz", "name_ru": "Shīrāz", "tz": "", "district": "Fārs"}, {"id": 6, "name": "Tabriz", "name_ru": "Tabrīz", "tz": "", "district": "Āz̄arbāyjān-e Sharqī"}, {"id": 7, "name": "Qom", "name_ru": "Qom", "tz": "", "district": "Qom"}, {"id": 8, "name": "Ahvaz", "name_ru": "Ahvāz", "tz": "", "district": "Khūzestān"}, {"id": 9, "name": "Kermanshah", "name_ru": "Kermānshāh", "tz": "", "district": "Kermānshāh"}, {"id": 10, "name": "Orumiyeh", "name_ru": "Orūmīyeh", "tz": "", "district": "Āz̄arbāyjān-e Gharbī"}, {"id": 11, "name": "Rasht", "name_ru": "Rasht", "tz": "", "district": "Gīlān"}, {"id": 12, "name": "Bahar", "name_ru": "Bahār", "tz": "", "district": "Hamadān"}, {"id": 13, "name": "Zahedan", "name_ru": "Zāhedān", "tz": "", "district": "Sīstān va Balūchestān"}, {"id": 14, "name": "Hamadan", "name_ru": "Hamadān", "tz": "", "district": "Hamadān"}, {"id": 15, "name": "Kerman", "name_ru": "Kermān", "tz": "", "district": "Kermān"}, {"id": 16, "name": "Ardabil", "name_ru": "Ardabīl", "tz": "", "district": "Ardabīl"}, {"id": 17, "name": "Bandar `Abbas", "name_ru": "Bandar ‘Abbās", "tz": "", "district": "Hormozgān"}, {"id": 18, "name": "Arak", "name_ru": "Arāk", "tz": "", "district": "Markazī"}, {"id": 19, "name": "Eslamshahr", "name_ru": "Eslāmshahr", "tz": "", "district": "Tehrān"}, {"id": 20, "name": "Zanjan", "name_ru": "Zanjān", "tz": "", "district": "Zanjān"}, {"id": 21, "name": "Kashan", "name_ru": "Kāshān", "tz": "", "district": "Eşfahān"}, {"id": 22, "name": "Yazd", "name_ru": "Yazd", "tz": "", "district": "Yazd"}, {"id": 23, "name": "Sanandaj", "name_ru": "Sanandaj", "tz": "", "district": "Kordestān"}, {"id": 24, "name": "Qazvin", "name_ru": "Qazvīn", "tz": "", "district": "Qazvīn"}, {"id": 25, "name": "Khorramabad", "name_ru": "Khorramābād", "tz": "", "district": "Lorestān"}, {"id": 26, "name": "Madan", "name_ru": "Madan", "tz": "", "district": "Khūzestān"}, {"id": 27, "name": "Shahr-e Qods", "name_ru": "Shahr-e Qods", "tz": "", "district": "Tehrān"}, {"id": 28, "name": "Gorgan", "name_ru": "Gorgān", "tz": "", "district": "Golestān"}, {"id": 29, "name": "Shahriar", "name_ru": "Shahrīār", "tz": "", "district": "Tehrān"}, {"id": 30, "name": "Malard", "name_ru": "Malārd", "tz": "", "district": "Tehrān"}, {"id": 31, "name": "Sarta", "name_ru": "Sartā", "tz": "", "district": "Māzandarān"}, {"id": 32, "name": "Dezful", "name_ru": "Dezfūl", "tz": "", "district": "Khūzestān"}, {"id": 33, "name": "Babol", "name_ru": "Bābol", "tz": "", "district": "Māzandarān"}, {"id": 34, "name": "Sabzevar", "name_ru": "Sabzevār", "tz": "", "district": "Khorāsān-e Raẕavī"}, {"id": 35, "name": "Amol", "name_ru": "Āmol", "tz": "", "district": "Māzandarān"}, {"id": 36, "name": "Pakdasht", "name_ru": "Pākdasht", "tz": "", "district": "Tehrān"}, {"id": 37, "name": "Najafabad", "name_ru": "Najafābād", "tz": "", "district": "Eşfahān"}, {"id": 38, "name": "Borujerd", "name_ru": "Borūjerd", "tz": "", "district": "Lorestān"}, {"id": 39, "name": "Qarchak", "name_ru": "Qarchak", "tz": "", "district": "Tehrān"}, {"id": 40, "name": "Varamin", "name_ru": "Varāmīn", "tz": "", "district": "Tehrān"}, {"id": 41, "name": "Neyshabur", "name_ru": "Neyshābūr", "tz": "", "district": "Khorāsān-e Raẕavī"}, {"id": 42, "name": "Saveh", "name_ru": "Sāveh", "tz": "", "district": "Markazī"}, {"id": 43, "name": "Khomeyni Shahr", "name_ru": "Khomeynī Shahr", "tz": "", "district": "Eşfahān"}, {"id": 44, "name": "Nasim Shahr", "name_ru": "Nasīm Shahr", "tz": "", "district": "Tehrān"}, {"id": 45, "name": "Qa'em Shahr", "name_ru": "Qā’em Shahr", "tz": "", "district": "Māzandarān"}, {"id": 46, "name": "Bojnurd", "name_ru": "Bojnūrd", "tz": "", "district": "Khorāsān-e Shomālī"}, {"id": 47, "name": "Bandar-e Bushehr", "name_ru": "Bandar-e Būshehr", "tz": "", "district": "Būshehr"}, {"id": 48, "name": "Bukan", "name_ru": "Būkān", "tz": "", "district": "Āz̄arbāyjān-e Gharbī"}, {"id": 49, "name": "Semnan", "name_ru": "Semnān", "tz": "", "district": "Semnān"}, {"id": 50, "name": "Fardis", "name_ru": "Fardīs", "tz": "", "district": "Tehrān"}, {"id": 51, "name": "Khowy", "name_ru": "Khowy", "tz": "", "district": "Āz̄arbāyjān-e Gharbī"}, {"id": 52, "name": "Birjand", "name_ru": "Bīrjand", "tz": "", "district": "Khorāsān-e Jonūbī"}, {"id": 53, "name": "Maragheh", "name_ru": "Marāgheh", "tz": "", "district": "Āz̄arbāyjān-e Sharqī"}, {"id": 54, "name": "Sirjan", "name_ru": "Sīrjān", "tz": "", "district": "Kermān"}, {"id": 55, "name": "Shahin Shahr", "name_ru": "Shāhīn Shahr", "tz": "", "district": "Eşfahān"}, {"id": 56, "name": "Malayer", "name_ru": "Malāyer", "tz": "", "district": "Hamadān"}, {"id": 57, "name": "Mahabad", "name_ru": "Mahābād", "tz": "", "district": "Āz̄arbāyjān-e Gharbī"}, {"id": 58, "name": "Saqqez", "name_ru": "Saqqez", "tz": "", "district": "Kordestān"}, {"id": 59, "name": "Bandar-e Mahshahr", "name_ru": "Bandar-e Māhshahr", "tz": "", "district": "Khūzestān"}, {"id": 60, "name": "Rafsanjan", "name_ru": "Rafsanjān", "tz": "", "district": "Kermān"}, {"id": 61, "name": "Shahr-e Kord", "name_ru": "Shahr-e Kord", "tz": "", "district": "Chahār Maḩāl va Bakhtīārī"}, {"id": 62, "name": "Golmeh", "name_ru": "Golmeh", "tz": "", "district": "Īlām"}, {"id": 63, "name": "Gonbad-e Kavus", "name_ru": "Gonbad-e Kāvūs", "tz": "", "district": "Golestān"}, {"id": 64, "name": "Shahrud", "name_ru": "Shāhrūd", "tz": "", "district": "Semnān"}, {"id": 65, "name": "Marvdasht", "name_ru": "Marvdasht", "tz": "", "district": "Fārs"}, {"id": 66, "name": "Quchan", "name_ru": "Qūchān", "tz": "", "district": "Khorāsān-e Raẕavī"}, {"id": 67, "name": "Kamalshahr", "name_ru": "Kamālshahr", "tz": "", "district": "Alborz"}, {"id": 68, "name": "Jahrom", "name_ru": "Jahrom", "tz": "", "district": "Fārs"}, {"id": 69, "name": "Torbat-e Heydariyeh", "name_ru": "Torbat-e Ḩeydarīyeh", "tz": "", "district": "Khorāsān-e Raẕavī"}, {"id": 70, "name": "Piranshahr", "name_ru": "Pīrānshahr", "tz": "", "district": "Āz̄arbāyjān-e Gharbī"}, {"id": 71, "name": "Marivan", "name_ru": "Marīvān", "tz": "", "district": "Kordestān"}, {"id": 72, "name": "Andimeshk", "name_ru": "Andīmeshk", "tz": "", "district": "Khūzestān"}, {"id": 73, "name": "Shahreza", "name_ru": "Shahreẕā", "tz": "", "district": "Eşfahān"}, {"id": 74, "name": "Zabol", "name_ru": "Zābol", "tz": "", "district": "Sīstān va Balūchestān"}, {"id": 75, "name": "Khorramshahr", "name_ru": "Khorramshahr", "tz": "", "district": "Khūzestān"}, {"id": 76, "name": "Marand", "name_ru": "Marand", "tz": "", "district": "Āz̄arbāyjān-e Sharqī"}, {"id": 77, "name": "Jiroft", "name_ru": "Jīroft", "tz": "", "district": "Kermān"}, {"id": 78, "name": "Salmas", "name_ru": "Salmās", "tz": "", "district": "Āz̄arbāyjān-e Gharbī"}, {"id": 79, "name": "Bam", "name_ru": "Bam", "tz": "", "district": "Kermān"}, {"id": 80, "name": "Behbahan", "name_ru": "Behbahān", "tz": "", "district": "Khūzestān"}, {"id": 81, "name": "Dorud", "name_ru": "Dorūd", "tz": "", "district": "Lorestān"}, {"id": 82, "name": "Mohammad Shahr", "name_ru": "Moḩammad Shahr", "tz": "", "district": "Alborz"}, {"id": 83, "name": "Nazarabad", "name_ru": "Naz̧arābād", "tz": "", "district": "Alborz"}, {"id": 84, "name": "Bandar-e Anzali", "name_ru": "Bandar-e Anzalī", "tz": "", "district": "Gīlān"}, {"id": 85, "name": "Fasa", "name_ru": "Fasā", "tz": "", "district": "Fārs"}, {"id": 86, "name": "Borazjan", "name_ru": "Borāzjān", "tz": "", "district": "Būshehr"}, {"id": 87, "name": "Baneh", "name_ru": "Bāneh", "tz": "", "district": "Kordestān"}, {"id": 88, "name": "Yasuj", "name_ru": "Yāsūj", "tz": "", "district": "Kohgīlūyeh va Bowyer Aḩmad"}, {"id": 89, "name": "Chabahar", "name_ru": "Chābahār", "tz": "", "district": "Sīstān va Balūchestān"}, {"id": 90, "name": "Robat Karim", "name_ru": "Robāţ Karīm", "tz": "", "district": "Tehrān"}, {"id": 91, "name": "Khak-e `Ali", "name_ru": "Khāk-e ‘Alī", "tz": "", "district": "Qazvīn"}, {"id": 92, "name": "Kashmar", "name_ru": "Kāshmar", "tz": "", "district": "Khorāsān-e Raẕavī"}, {"id": 93, "name": "Shushtar", "name_ru": "Shūshtar", "tz": "", "district": "Khūzestān"}, {"id": 94, "name": "Ahar", "name_ru": "Ahar", "tz": "", "district": "Āz̄arbāyjān-e Sharqī"}, {"id": 95, "name": "Masjed Soleyman", "name_ru": "Masjed Soleymān", "tz": "", "district": "Khūzestān"}, {"id": 96, "name": "Torbat-e Jam", "name_ru": "Torbat-e Jām", "tz": "", "district": "Khorāsān-e Raẕavī"}, {"id": 97, "name": "Bumahen", "name_ru": "Būmahen", "tz": "", "district": "Tehrān"}, {"id": 98, "name": "Chahar Dangeh", "name_ru": "Chahār Dangeh", "tz": "", "district": "Tehrān"}, {"id": 99, "name": "Sari", "name_ru": "Sārī", "tz": "", "district": "Māzandarān"}, {"id": 100, "name": "Ilam", "name_ru": "Īlām", "tz": "", "district": "Īlām"}, {"id": 101, "name": "Abhar", "name_ru": "Abhar", "tz": "", "district": "Zanjān"}, {"id": 102, "name": "Kazerun", "name_ru": "Kāzerūn", "tz": "", "district": "Fārs"}, {"id": 103, "name": "Khowrasgan", "name_ru": "Khowrāsgān", "tz": "", "district": "Eşfahān"}, {"id": 104, "name": "Shirvan", "name_ru": "Shīrvān", "tz": "", "district": "Khorāsān-e Shomālī"}, {"id": 105, "name": "Meybod", "name_ru": "Meybod", "tz": "", "district": "Yazd"}, {"id": 106, "name": "Takestan", "name_ru": "Tākestān", "tz": "", "district": "Qazvīn"}, {"id": 107, "name": "Baharestan", "name_ru": "Bahārestān", "tz": "", "district": "Eşfahān"}, {"id": 108, "name": "Aligudarz", "name_ru": "Alīgūdarz", "tz": "", "district": "Lorestān"}, {"id": 109, "name": "Bonab", "name_ru": "Bonāb", "tz": "", "district": "Āz̄arbāyjān-e Sharqī"}, {"id": 110, "name": "Ardakan", "name_ru": "Ardakān", "tz": "", "district": "Yazd"}, {"id": 111, "name": "Naqadeh", "name_ru": "Naqadeh", "tz": "", "district": "Āz̄arbāyjān-e Gharbī"}, {"id": 112, "name": "Oshnaviyeh", "name_ru": "Oshnavīyeh", "tz": "", "district": "Āz̄arbāyjān-e Gharbī"}, {"id": 113, "name": "Bandar-e Genaveh", "name_ru": "Bandar-e Genāveh", "tz": "", "district": "Būshehr"}, {"id": 114, "name": "Mahdasht", "name_ru": "Māhdāsht", "tz": "", "district": "Tehrān"}, {"id": 115, "name": "Zarand", "name_ru": "Zarand", "tz": "", "district": "Kermān"}, {"id": 116, "name": "Mobarakeh", "name_ru": "Mobārakeh", "tz": "", "district": "Eşfahān"}, {"id": 117, "name": "Esfarayen", "name_ru": "Esfarāyen", "tz": "", "district": "Khorāsān-e Shomālī"}, {"id": 118, "name": "Damghan", "name_ru": "Dāmghān", "tz": "", "district": "Semnān"}, {"id": 119, "name": "Taybad", "name_ru": "Tāybād", "tz": "", "district": "Khorāsān-e Raẕavī"}, {"id": 120, "name": "Zarrin Shahr", "name_ru": "Zarrīn Shahr", "tz": "", "district": "Eşfahān"}, {"id": 121, "name": "Hashtgerd", "name_ru": "Hashtgerd", "tz": "", "district": "Alborz"}, {"id": 122, "name": "Aran Bidgol", "name_ru": "Ārān Bīdgol", "tz": "", "district": "Eşfahān"}, {"id": 123, "name": "Hashtpar", "name_ru": "Hashtpar", "tz": "", "district": "Gīlān"}, {"id": 124, "name": "Bijar", "name_ru": "Bījār", "tz": "", "district": "Kordestān"}, {"id": 125, "name": "Sardasht", "name_ru": "Sardasht", "tz": "", "district": "Āz̄arbāyjān-e Gharbī"}, {"id": 126, "name": "Ramhormoz", "name_ru": "Rāmhormoz", "tz": "", "district": "Khūzestān"}, {"id": 127, "name": "Garmsar", "name_ru": "Garmsār", "tz": "", "district": "Semnān"}, {"id": 128, "name": "Damavand", "name_ru": "Damāvand", "tz": "", "district": "Tehrān"}, {"id": 129, "name": "Golpayegan", "name_ru": "Golpāyegān", "tz": "", "district": "Eşfahān"}, {"id": 130, "name": "Azna", "name_ru": "Aznā", "tz": "", "district": "Lorestān"}, {"id": 131, "name": "Bafq", "name_ru": "Bāfq", "tz": "", "district": "Yazd"}, {"id": 132, "name": "Darcheh", "name_ru": "Darcheh", "tz": "", "district": "Eşfahān"}, {"id": 133, "name": "Takab", "name_ru": "Takāb", "tz": "", "district": "Āz̄arbāyjān-e Gharbī"}, {"id": 134, "name": "Sarab", "name_ru": "Sarāb", "tz": "", "district": "Āz̄arbāyjān-e Sharqī"}, {"id": 135, "name": "Gonabad", "name_ru": "Gonābād", "tz": "", "district": "Khorāsān-e Raẕavī"}, {"id": 136, "name": "Falavarjan", "name_ru": "Falāvarjān", "tz": "", "district": "Eşfahān"}, {"id": 137, "name": "Khalkhal", "name_ru": "Khalkhāl", "tz": "", "district": "Ardabīl"}, {"id": 138, "name": "Kahrizak", "name_ru": "Kahrīzak", "tz": "", "district": "Tehrān"}, {"id": 139, "name": "Ramsar", "name_ru": "Rāmsar", "tz": "", "district": "Māzandarān"}, {"id": 140, "name": "Sarpol-e Zahab", "name_ru": "Sarpol-e Z̄ahāb", "tz": "", "district": "Kermānshāh"}, {"id": 141, "name": "Baft", "name_ru": "Bāft", "tz": "", "district": "Kermān"}, {"id": 142, "name": "Gerash", "name_ru": "Gerāsh", "tz": "", "district": "Fārs"}, {"id": 143, "name": "Shahin Dezh", "name_ru": "Shāhīn Dezh", "tz": "", "district": "Āz̄arbāyjān-e Gharbī"}, {"id": 144, "name": "Nazerabad", "name_ru": "Nāz̧erābād", "tz": "", "district": "Yazd"}, {"id": 145, "name": "Khvaf", "name_ru": "Khvāf", "tz": "", "district": "Khorāsān-e Raẕavī"}, {"id": 146, "name": "Eshtehard", "name_ru": "Eshtehārd", "tz": "", "district": "Alborz"}, {"id": 147, "name": "Qahderijan", "name_ru": "Qahderījān", "tz": "", "district": "Eşfahān"}, {"id": 148, "name": "Evaz", "name_ru": "Evaz", "tz": "", "district": "Fārs"}, {"id": 149, "name": "Rudehen", "name_ru": "Rūdehen", "tz": "", "district": "Tehrān"}, {"id": 150, "name": "Bardaskan", "name_ru": "Bardaskan", "tz": "", "district": "Khorāsān-e Raẕavī"}, {"id": 151, "name": "Hadishahr", "name_ru": "Hādīshahr", "tz": "", "district": "Āz̄arbāyjān-e Sharqī"}, {"id": 152, "name": "Fuman", "name_ru": "Fūman", "tz": "", "district": "Gīlān"}, {"id": 153, "name": "Abarkuh", "name_ru": "Abarkūh", "tz": "", "district": "Yazd"}, {"id": 154, "name": "Qarah Zia' od Din", "name_ru": "Qarah Ẕīā’ od Dīn", "tz": "", "district": "Āz̄arbāyjān-e Gharbī"}, {"id": 155, "name": "Semirom", "name_ru": "Semīrom", "tz": "", "district": "Eşfahān"}, {"id": 156, "name": "Mahdishahr", "name_ru": "Mahdīshahr", "tz": "", "district": "Semnān"}, {"id": 157, "name": "Kelishad va Sudarjan", "name_ru": "Kelīshād va Sūdarjān", "tz": "", "district": "Eşfahān"}, {"id": 158, "name": "Sheyban", "name_ru": "Sheybān", "tz": "", "district": "Khūzestān"}, {"id": 159, "name": "Goldasht", "name_ru": "Goldasht", "tz": "", "district": "Eşfahān"}, {"id": 160, "name": "Marvast", "name_ru": "Marvast", "tz": "", "district": "Yazd"}, {"id": 161, "name": "Khvansar", "name_ru": "Khvānsār", "tz": "", "district": "Eşfahān"}, {"id": 162, "name": "Gaz", "name_ru": "Gaz", "tz": "", "district": "Eşfahān"}, {"id": 163, "name": "Khowrzuq", "name_ru": "Khowrzūq", "tz": "", "district": "Eşfahān"}, {"id": 164, "name": "Abrisham", "name_ru": "Abrīsham", "tz": "", "district": "Eşfahān"}, {"id": 165, "name": "Mahmudabad Nemuneh", "name_ru": "Maḩmūdābād Nemūneh", "tz": "", "district": "Qazvīn"}, {"id": 166, "name": "Kabudarahang", "name_ru": "Kabūdarāhang", "tz": "", "district": "Hamadān"}, {"id": 167, "name": "Bandar-e Kong", "name_ru": "Bandar-e Kong", "tz": "", "district": "Hormozgān"}, {"id": 168, "name": "Ashkezar", "name_ru": "Ashkezar", "tz": "", "district": "Yazd"}, {"id": 169, "name": "Abrandabad-e Shahediyeh", "name_ru": "Abrandābād-e Shāhedīyeh", "tz": "", "district": "Yazd"}, {"id": 170, "name": "Kherameh", "name_ru": "Kherāmeh", "tz": "", "district": "Fārs"}, {"id": 171, "name": "Taft", "name_ru": "Taft", "tz": "", "district": "Yazd"}, {"id": 172, "name": "Lavasan", "name_ru": "Lavāsān", "tz": "", "district": "Tehrān"}, {"id": 173, "name": "Feyzabad", "name_ru": "Feyẕābād", "tz": "", "district": "Khorāsān-e Raẕavī"}, {"id": 174, "name": "Dizicheh", "name_ru": "Dīzīcheh", "tz": "", "district": "Eşfahān"}, {"id": 175, "name": "Arsanjan", "name_ru": "Arsanjān", "tz": "", "district": "Fārs"}, {"id": 176, "name": "Sedeh Lanjan", "name_ru": "Sedeh Lanjān", "tz": "", "district": "Eşfahān"}, {"id": 177, "name": "Dehaqan", "name_ru": "Dehāqān", "tz": "", "district": "Eşfahān"}, {"id": 178, "name": "Chamgardan", "name_ru": "Chamgardān", "tz": "", "district": "Eşfahān"}, {"id": 179, "name": "Dehaq", "name_ru": "Dehaq", "tz": "", "district": "Eşfahān"}, {"id": 180, "name": "Tiran", "name_ru": "Tīrān", "tz": "", "district": "Eşfahān"}, {"id": 181, "name": "`Alavicheh", "name_ru": "‘Alavīcheh", "tz": "", "district": "Eşfahān"}, {"id": 182, "name": "Dastgerd", "name_ru": "Dastgerd", "tz": "", "district": "Eşfahān"}, {"id": 183, "name": "Joghtay", "name_ru": "Joghtāy", "tz": "", "district": "Khorāsān-e Raẕavī"}, {"id": 184, "name": "Amlash", "name_ru": "Amlash", "tz": "", "district": "Gīlān"}, {"id": 185, "name": "Ardestan", "name_ru": "Ardestān", "tz": "", "district": "Eşfahān"}, {"id": 186, "name": "Sepidan", "name_ru": "Sepīdān", "tz": "", "district": "Fārs"}, {"id": 187, "name": "Natanz", "name_ru": "Naţanz", "tz": "", "district": "Eşfahān"}, {"id": 188, "name": "Famenin", "name_ru": "Fāmenīn", "tz": "", "district": "Hamadān"}, {"id": 189, "name": "Khomam", "name_ru": "Khomām", "tz": "", "district": "Gīlān"}, {"id": 190, "name": "Fereydunshahr", "name_ru": "Fereydūnshahr", "tz": "", "district": "Eşfahān"}, {"id": 191, "name": "Kushk", "name_ru": "Kūshk", "tz": "", "district": "Eşfahān"}, {"id": 192, "name": "Shahr-e Herat", "name_ru": "Shahr-e Herāt", "tz": "", "district": "Yazd"}, {"id": 193, "name": "Varzaneh", "name_ru": "Varzaneh", "tz": "", "district": "Eşfahān"}, {"id": 194, "name": "Charmahin", "name_ru": "Charmahīn", "tz": "", "district": "Eşfahān"}, {"id": 195, "name": "Eyvanekey", "name_ru": "Eyvānekey", "tz": "", "district": "Semnān"}, {"id": 196, "name": "Sangan", "name_ru": "Sangān", "tz": "", "district": "Khorāsān-e Raẕavī"}, {"id": 197, "name": "Rezvanshahr", "name_ru": "Reẕvānshahr", "tz": "", "district": "Gīlān"}, {"id": 198, "name": "Ahram", "name_ru": "Ahram", "tz": "", "district": "Būshehr"}, {"id": 199, "name": "Zarach", "name_ru": "Zārach", "tz": "", "district": "Yazd"}, {"id": 200, "name": "Bajestan", "name_ru": "Bajestān", "tz": "", "district": "Khorāsān-e Raẕavī"}, {"id": 201, "name": "Pir Bakran", "name_ru": "Pīr Bakrān", "tz": "", "district": "Eşfahān"}, {"id": 202, "name": "Poldasht", "name_ru": "Poldasht", "tz": "", "district": "Āz̄arbāyjān-e Gharbī"}, {"id": 203, "name": "Qasr-e Shirin", "name_ru": "Qaşr-e Shīrīn", "tz": "", "district": "Kermānshāh"}, {"id": 204, "name": "Shahmirzad", "name_ru": "Shahmīrzād", "tz": "", "district": "Semnān"}, {"id": 205, "name": "Sa'in Qal`eh", "name_ru": "Şā’īn Qal‘eh", "tz": "", "district": "Zanjān"}, {"id": 206, "name": "Rayen", "name_ru": "Rāyen", "tz": "", "district": "Kermān"}, {"id": 207, "name": "Galleh Dar", "name_ru": "Galleh Dār", "tz": "", "district": "Fārs"}, {"id": 208, "name": "Bastak", "name_ru": "Bastak", "tz": "", "district": "Hormozgān"}, {"id": 209, "name": "Miandasht", "name_ru": "Mīāndasht", "tz": "", "district": "Eşfahān"}, {"id": 210, "name": "Sorkheh", "name_ru": "Sorkheh", "tz": "", "district": "Semnān"}, {"id": 211, "name": "Nashtifan", "name_ru": "Nashtīfān", "tz": "", "district": "Khorāsān-e Raẕavī"}, {"id": 212, "name": "Juraqan", "name_ru": "Jūraqān", "tz": "", "district": "Hamadān"}, {"id": 213, "name": "Banaruyeh", "name_ru": "Banārūyeh", "tz": "", "district": "Fārs"}, {"id": 214, "name": "Kaleybar", "name_ru": "Kaleybar", "tz": "", "district": "Āz̄arbāyjān-e Sharqī"}, {"id": 215, "name": "Bahabad", "name_ru": "Bahābād", "tz": "", "district": "Yazd"}, {"id": 216, "name": "Banak", "name_ru": "Banak", "tz": "", "district": "Būshehr"}, {"id": 217, "name": "Pa'in Chaf", "name_ru": "Pā’īn Chāf", "tz": "", "district": "Gīlān"}, {"id": 218, "name": "Zavareh", "name_ru": "Zavāreh", "tz": "", "district": "Eşfahān"}, {"id": 219, "name": "Azandarian", "name_ru": "Azandarīān", "tz": "", "district": "Hamadān"}, {"id": 220, "name": "Zazeran", "name_ru": "Zāzerān", "tz": "", "district": "Eşfahān"}, {"id": 221, "name": "Jamkaran", "name_ru": "Jamkarān", "tz": "", "district": "Qom"}, {"id": 222, "name": "Kahriz Sang", "name_ru": "Kahrīz Sang", "tz": "", "district": "Eşfahān"}, {"id": 223, "name": "Chaboksar", "name_ru": "Chāboksar", "tz": "", "district": "Gīlān"}, {"id": 224, "name": "Tazeh Shahr", "name_ru": "Tāzeh Shahr", "tz": "", "district": "Āz̄arbāyjān-e Gharbī"}, {"id": 225, "name": "Bahnemir", "name_ru": "Bahnemīr", "tz": "", "district": "Māzandarān"}, {"id": 226, "name": "Mehrdasht", "name_ru": "Mehrdasht", "tz": "", "district": "Yazd"}, {"id": 227, "name": "Firuraq", "name_ru": "Fīrūraq", "tz": "", "district": "Āz̄arbāyjān-e Gharbī"}, {"id": 228, "name": "Khondab", "name_ru": "Khondāb", "tz": "", "district": "Markazī"}, {"id": 229, "name": "Kabud Gonbad", "name_ru": "Kabūd Gonbad", "tz": "", "district": "Khorāsān-e Raẕavī"}, {"id": 230, "name": "Salameh", "name_ru": "Salāmeh", "tz": "", "district": "Khorāsān-e Raẕavī"}, {"id": 231, "name": "Khoshk Bijar", "name_ru": "Khoshk Bījār", "tz": "", "district": "Gīlān"}, {"id": 232, "name": "Roshtkhvar", "name_ru": "Roshtkhvār", "tz": "", "district": "Khorāsān-e Raẕavī"}, {"id": 233, "name": "Komijan", "name_ru": "Komījān", "tz": "", "district": "Markazī"}, {"id": 234, "name": "Chadegan", "name_ru": "Chādegān", "tz": "", "district": "Eşfahān"}, {"id": 235, "name": "Bafru'iyeh", "name_ru": "Bafrū’īyeh", "tz": "", "district": "Yazd"}, {"id": 236, "name": "Shabankareh", "name_ru": "Shabānkāreh", "tz": "", "district": "Būshehr"}, {"id": 237, "name": "Chaleshtar", "name_ru": "Chāleshtar", "tz": "", "district": "Chahār Maḩāl va Bakhtīārī"}, {"id": 238, "name": "Badalabad", "name_ru": "Badalābād", "tz": "", "district": "Āz̄arbāyjān-e Gharbī"}, {"id": 239, "name": "Guged", "name_ru": "Gūged", "tz": "", "district": "Eşfahān"}, {"id": 240, "name": "Bazargan", "name_ru": "Bāzargān", "tz": "", "district": "Āz̄arbāyjān-e Gharbī"}, {"id": 241, "name": "Beyram", "name_ru": "Beyram", "tz": "", "district": "Fārs"}, {"id": 242, "name": "Jowzdan", "name_ru": "Jowzdān", "tz": "", "district": "Eşfahān"}, {"id": 243, "name": "Bahman", "name_ru": "Bahman", "tz": "", "district": "Fārs"}, {"id": 244, "name": "Kondor", "name_ru": "Kondor", "tz": "", "district": "Khorāsān-e Raẕavī"}, {"id": 245, "name": "Aradan", "name_ru": "Ārādān", "tz": "", "district": "Semnān"}, {"id": 246, "name": "Khur", "name_ru": "Khūr", "tz": "", "district": "Eşfahān"}, {"id": 247, "name": "Darjazin", "name_ru": "Darjazīn", "tz": "", "district": "Semnān"}, {"id": 248, "name": "Mojen", "name_ru": "Mojen", "tz": "", "district": "Semnān"}, {"id": 249, "name": "Akbarabad", "name_ru": "Akbarābād", "tz": "", "district": "Fārs"}, {"id": 250, "name": "Nasrabad", "name_ru": "Naşrābād", "tz": "", "district": "Eşfahān"}, {"id": 251, "name": "Meymeh", "name_ru": "Meymeh", "tz": "", "district": "Eşfahān"}, {"id": 252, "name": "Rivash", "name_ru": "Rīvash", "tz": "", "district": "Khorāsān-e Raẕavī"}, {"id": 253, "name": "Manzariyeh", "name_ru": "Manz̧arīyeh", "tz": "", "district": "Eşfahān"}, {"id": 254, "name": "Narjeh", "name_ru": "Narjeh", "tz": "", "district": "Qazvīn"}, {"id": 255, "name": "Kalateh-ye Khij", "name_ru": "Kalāteh-ye Khīj", "tz": "", "district": "Semnān"}, {"id": 256, "name": "Chubar", "name_ru": "Chūbar", "tz": "", "district": "Gīlān"}, {"id": 257, "name": "Bidokht", "name_ru": "Bīdokht", "tz": "", "district": "Khorāsān-e Raẕavī"}, {"id": 258, "name": "Yengi Emam", "name_ru": "Yengī Emām", "tz": "", "district": "Alborz"}, {"id": 259, "name": "Hanna", "name_ru": "Ḩannā", "tz": "", "district": "Eşfahān"}, {"id": 260, "name": "Bandar-e Rig", "name_ru": "Bandar-e Rīg", "tz": "", "district": "Būshehr"}, {"id": 261, "name": "Abuzeydabad", "name_ru": "Abūzeydābād", "tz": "", "district": "Eşfahān"}, {"id": 262, "name": "Biland", "name_ru": "Bīland", "tz": "", "district": "Khorāsān-e Raẕavī"}]