[{"id": 1, "name": "Reykjavik", "name_ru": "Reykjavík", "tz": "", "district": ""}, {"id": 2, "name": "Kopavogur", "name_ru": "Kópavogur", "tz": "", "district": ""}, {"id": 3, "name": "Hafnarfjordhur", "name_ru": "Hafnarfjörður", "tz": "", "district": ""}, {"id": 4, "name": "Akureyri", "name_ru": "Akureyri", "tz": "", "district": "Norðurland Eystra"}, {"id": 5, "name": "Keflavik", "name_ru": "Keflavík", "tz": "", "district": "Suðurnes"}, {"id": 6, "name": "Gardhabaer", "name_ru": "Garðabær", "tz": "", "district": ""}, {"id": 7, "name": "Akranes", "name_ru": "Akranes", "tz": "", "district": "Vesturland"}, {"id": 8, "name": "Selfoss", "name_ru": "Selfoss", "tz": "", "district": "Suðurland"}, {"id": 9, "name": "Isafjordhur", "name_ru": "Ísafjörður", "tz": "", "district": "Vestfirðir"}, {"id": 10, "name": "Hofn", "name_ru": "Höfn", "tz": "", "district": "Austurland"}, {"id": 11, "name": "Egilsstadhir", "name_ru": "Egilsstaðir", "tz": "", "district": "Austurland"}, {"id": 12, "name": "Borgarnes", "name_ru": "Borgarnes", "tz": "", "district": "Vesturland"}, {"id": 13, "name": "Saudharkrokur", "name_ru": "Sauðárkrókur", "tz": "", "district": "Norðurland Vestra"}]