[{"id": 1, "name": "Kingston", "name_ru": "Kingston", "tz": "", "district": "Kingston"}, {"id": 2, "name": "Portmore", "name_ru": "Portmore", "tz": "", "district": "Saint Catherine"}, {"id": 3, "name": "May Pen", "name_ru": "May Pen", "tz": "", "district": "Clarendon"}, {"id": 4, "name": "Spanish Town", "name_ru": "Spanish Town", "tz": "", "district": "Saint Catherine"}, {"id": 5, "name": "Montego Bay", "name_ru": "Montego Bay", "tz": "", "district": "Saint James"}, {"id": 6, "name": "Half Way Tree", "name_ru": "Half Way Tree", "tz": "", "district": "Saint Andrew"}, {"id": 7, "name": "Mandeville", "name_ru": "Mandeville", "tz": "", "district": "Manchester"}, {"id": 8, "name": "Savanna-la-Mar", "name_ru": "Savanna-la-Mar", "tz": "", "district": "Westmoreland"}, {"id": 9, "name": "Port Antonio", "name_ru": "Port Antonio", "tz": "", "district": "Portland"}, {"id": 10, "name": "Saint Ann's Bay", "name_ru": "Saint Annâ€™s Bay", "tz": "", "district": "Saint Ann"}, {"id": 11, "name": "Port Maria", "name_ru": "Port Maria", "tz": "", "district": "Saint Mary"}, {"id": 12, "name": "Falmouth", "name_ru": "Falmouth", "tz": "", "district": "Trelawny"}, {"id": 13, "name": "Lucea", "name_ru": "Lucea", "tz": "", "district": "Hanover"}, {"id": 14, "name": "Black River", "name_ru": "Black River", "tz": "", "district": "Saint Elizabeth"}, {"id": 15, "name": "Morant Bay", "name_ru": "Morant Bay", "tz": "", "district": "Saint Thomas"}, {"id": 16, "name": "Old Harbour", "name_ru": "Old Harbour", "tz": "", "district": "Saint Catherine"}, {"id": 17, "name": "Linstead", "name_ru": "Linstead", "tz": "", "district": "Saint Catherine"}, {"id": 18, "name": "Port Morant", "name_ru": "Port Morant", "tz": "", "district": "Saint Thomas"}]