[{"id": 1, "name": "Amman", "name_ru": "Amman", "tz": "", "district": "Al ‘Āşimah"}, {"id": 2, "name": "Irbid", "name_ru": "Irbid", "tz": "", "district": "Irbid"}, {"id": 3, "name": "Az Zarqa'", "name_ru": "Az Zarqā’", "tz": "", "district": "Az Zarqā’"}, {"id": 4, "name": "Ar Ramtha", "name_ru": "Ar Ramthā", "tz": "", "district": "Irbid"}, {"id": 5, "name": "`Ajlun", "name_ru": "‘Ajlūn", "tz": "", "district": "‘Ajlūn"}, {"id": 6, "name": "Al `Aqabah", "name_ru": "Al ‘Aqabah", "tz": "", "district": "Al ‘Aqabah"}, {"id": 7, "name": "As Salt", "name_ru": "As Salţ", "tz": "", "district": "Al Balqā’"}, {"id": 8, "name": "Al Mafraq", "name_ru": "Al Mafraq", "tz": "", "district": "Al Mafraq"}, {"id": 9, "name": "Jarash", "name_ru": "Jarash", "tz": "", "district": "Jarash"}, {"id": 10, "name": "Ma`an", "name_ru": "Ma‘ān", "tz": "", "district": "Ma‘ān"}, {"id": 11, "name": "At Tafilah", "name_ru": "Aţ Ţafīlah", "tz": "", "district": "Aţ Ţafīlah"}, {"id": 12, "name": "Al Karak", "name_ru": "Al Karak", "tz": "", "district": "Al Karak"}, {"id": 13, "name": "Madaba", "name_ru": "Mādabā", "tz": "", "district": "Ma’dabā"}, {"id": 14, "name": "At Turrah", "name_ru": "Aţ Ţurrah", "tz": "", "district": "Irbid"}, {"id": 15, "name": "Al Hisn", "name_ru": "Al Ḩişn", "tz": "", "district": "Irbid"}, {"id": 16, "name": "AshShajarah", "name_ru": "AshShajarah", "tz": "", "district": "Irbid"}, {"id": 17, "name": "Kafr `Awan", "name_ru": "Kafr ‘Awān", "tz": "", "district": "Irbid"}, {"id": 18, "name": "Sakib", "name_ru": "Sākib", "tz": "", "district": "Jarash"}, {"id": 19, "name": "Kafr Rakib", "name_ru": "Kafr Rākib", "tz": "", "district": "Irbid"}]