[{"id": 1, "name": "Tokyo", "name_ru": "Tokyo", "tz": "", "district": "Tōkyō"}, {"id": 2, "name": "Osaka", "name_ru": "Ōsaka", "tz": "", "district": "Ōsaka"}, {"id": 3, "name": "Nagoya", "name_ru": "Nagoya", "tz": "", "district": "Aichi"}, {"id": 4, "name": "Yokohama", "name_ru": "Yokohama", "tz": "", "district": "Kanagawa"}, {"id": 5, "name": "Fukuoka", "name_ru": "Fukuoka", "tz": "", "district": "Fukuoka"}, {"id": 6, "name": "Sapporo", "name_ru": "Sapporo", "tz": "", "district": "Hokkaidō"}, {"id": 7, "name": "Kawasaki", "name_ru": "Kawasaki", "tz": "", "district": "Kanagawa"}, {"id": 8, "name": "Kobe", "name_ru": "Kōbe", "tz": "", "district": "Hyōgo"}, {"id": 9, "name": "Kyoto", "name_ru": "Kyōto", "tz": "", "district": "Kyōto"}, {"id": 10, "name": "Saitama", "name_ru": "Saitama", "tz": "", "district": "Saitama"}, {"id": 11, "name": "Hiroshima", "name_ru": "Hiroshima", "tz": "", "district": "Hiroshima"}, {"id": 12, "name": "Sendai", "name_ru": "Sendai", "tz": "", "district": "Miyagi"}, {"id": 13, "name": "Chiba", "name_ru": "Chiba", "tz": "", "district": "Chiba"}, {"id": 14, "name": "Setagaya", "name_ru": "Setagaya", "tz": "", "district": "Tōkyō"}, {"id": 15, "name": "Kitakyushu", "name_ru": "Kitakyūshū", "tz": "", "district": "Fukuoka"}, {"id": 16, "name": "Sakai", "name_ru": "Sakai", "tz": "", "district": "Ōsaka"}, {"id": 17, "name": "Niigata", "name_ru": "Niigata", "tz": "", "district": "Niigata"}, {"id": 18, "name": "Hamamatsu", "name_ru": "Hamamatsu", "tz": "", "district": "Shizuoka"}, {"id": 19, "name": "Nerima", "name_ru": "Nerima", "tz": "", "district": "Tōkyō"}, {"id": 20, "name": "Ota-ku", "name_ru": "Ōta-ku", "tz": "", "district": "Tōkyō"}, {"id": 21, "name": "Kumamoto", "name_ru": "Kumamoto", "tz": "", "district": "Kumamoto"}, {"id": 22, "name": "Sagamihara", "name_ru": "Sagamihara", "tz": "", "district": "Kanagawa"}, {"id": 23, "name": "Okayama", "name_ru": "Okayama", "tz": "", "district": "Okayama"}, {"id": 24, "name": "Edogawa", "name_ru": "Edogawa", "tz": "", "district": "Chiba"}, {"id": 25, "name": "Adachi", "name_ru": "Adachi", "tz": "", "district": "Tōkyō"}, {"id": 26, "name": "Shizuoka", "name_ru": "Shizuoka", "tz": "", "district": "Shizuoka"}, {"id": 27, "name": "Honcho", "name_ru": "Honchō", "tz": "", "district": "Chiba"}, {"id": 28, "name": "Kawaguchi", "name_ru": "Kawaguchi", "tz": "", "district": "Saitama"}, {"id": 29, "name": "Itabashi", "name_ru": "Itabashi", "tz": "", "district": "Tōkyō"}, {"id": 30, "name": "Suginami-ku", "name_ru": "Suginami-ku", "tz": "", "district": "Tōkyō"}, {"id": 31, "name": "Kagoshima", "name_ru": "Kagoshima", "tz": "", "district": "Kagoshima"}, {"id": 32, "name": "Hachioji", "name_ru": "Hachiōji", "tz": "", "district": "Tōkyō"}, {"id": 33, "name": "Koto-ku", "name_ru": "Kōtō-ku", "tz": "", "district": "Tōkyō"}, {"id": 34, "name": "Himeji", "name_ru": "Himeji", "tz": "", "district": "Hyōgo"}, {"id": 35, "name": "Utsunomiya", "name_ru": "Utsunomiya", "tz": "", "district": "Tochigi"}, {"id": 36, "name": "Matsuyama", "name_ru": "Matsuyama", "tz": "", "district": "Ehime"}, {"id": 37, "name": "Ichikawa", "name_ru": "Ichikawa", "tz": "", "district": "Chiba"}, {"id": 38, "name": "Matsudo", "name_ru": "Matsudo", "tz": "", "district": "Chiba"}, {"id": 39, "name": "Higashi-osaka", "name_ru": "Higashi-ōsaka", "tz": "", "district": "Ōsaka"}, {"id": 40, "name": "Nishinomiya-hama", "name_ru": "Nishinomiya-hama", "tz": "", "district": "Hyōgo"}, {"id": 41, "name": "Oita", "name_ru": "Ōita", "tz": "", "district": "Ōita"}, {"id": 42, "name": "Kurashiki", "name_ru": "Kurashiki", "tz": "", "district": "Okayama"}, {"id": 43, "name": "Katsushika-ku", "name_ru": "Katsushika-ku", "tz": "", "district": "Tōkyō"}, {"id": 44, "name": "Kanazawa", "name_ru": "Kanazawa", "tz": "", "district": "Ishikawa"}, {"id": 45, "name": "Fukuyama", "name_ru": "Fukuyama", "tz": "", "district": "Hiroshima"}, {"id": 46, "name": "Amagasaki", "name_ru": "Amagasaki", "tz": "", "district": "Hyōgo"}, {"id": 47, "name": "Fujisawa", "name_ru": "Fujisawa", "tz": "", "district": "Kanagawa"}, {"id": 48, "name": "Machida", "name_ru": "Machida", "tz": "", "district": "Tōkyō"}, {"id": 49, "name": "Kashiwa", "name_ru": "Kashiwa", "tz": "", "district": "Chiba"}, {"id": 50, "name": "Shinagawa-ku", "name_ru": "Shinagawa-ku", "tz": "", "district": "Tōkyō"}, {"id": 51, "name": "Aomori", "name_ru": "Aomori", "tz": "", "district": "Aomori"}, {"id": 52, "name": "Toyota", "name_ru": "Toyota", "tz": "", "district": "Aichi"}, {"id": 53, "name": "Takamatsu", "name_ru": "Takamatsu", "tz": "", "district": "Kagawa"}, {"id": 54, "name": "Toyama", "name_ru": "Toyama", "tz": "", "district": "Toyama"}, {"id": 55, "name": "Toyonaka", "name_ru": "Toyonaka", "tz": "", "district": "Ōsaka"}, {"id": 56, "name": "Nagasaki", "name_ru": "Nagasaki", "tz": "", "district": "Nagasaki"}, {"id": 57, "name": "Hirakata", "name_ru": "Hirakata", "tz": "", "district": "Ōsaka"}, {"id": 58, "name": "Gifu", "name_ru": "Gifu", "tz": "", "district": "Gifu"}, {"id": 59, "name": "Miyazaki", "name_ru": "Miyazaki", "tz": "", "district": "Miyazaki"}, {"id": 60, "name": "Minamisuita", "name_ru": "Minamisuita", "tz": "", "district": "Ōsaka"}, {"id": 61, "name": "Yokosuka", "name_ru": "Yokosuka", "tz": "", "district": "Kanagawa"}, {"id": 62, "name": "Okazaki", "name_ru": "Okazaki", "tz": "", "district": "Aichi"}, {"id": 63, "name": "Ichinomiya", "name_ru": "Ichinomiya", "tz": "", "district": "Aichi"}, {"id": 64, "name": "Toyohashi", "name_ru": "Toyohashi", "tz": "", "district": "Aichi"}, {"id": 65, "name": "Kita-ku", "name_ru": "Kita-ku", "tz": "", "district": "Tōkyō"}, {"id": 66, "name": "Takasaki", "name_ru": "Takasaki", "tz": "", "district": "Gunma"}, {"id": 67, "name": "Nagano", "name_ru": "Nagano", "tz": "", "district": "Nagano"}, {"id": 68, "name": "Shinjuku", "name_ru": "Shinjuku", "tz": "", "district": "Tōkyō"}, {"id": 69, "name": "Nakano", "name_ru": "Nakano", "tz": "", "district": "Tōkyō"}, {"id": 70, "name": "Kawagoe", "name_ru": "Kawagoe", "tz": "", "district": "Saitama"}, {"id": 71, "name": "Wakayama", "name_ru": "Wakayama", "tz": "", "district": "Wakayama"}, {"id": 72, "name": "Nara", "name_ru": "Nara", "tz": "", "district": "Nara"}, {"id": 73, "name": "Koshigaya", "name_ru": "Koshigaya", "tz": "", "district": "Saitama"}, {"id": 74, "name": "Takatsuki", "name_ru": "Takatsuki", "tz": "", "district": "Ōsaka"}, {"id": 75, "name": "Tokorozawa", "name_ru": "Tokorozawa", "tz": "", "district": "Saitama"}, {"id": 76, "name": "Otsu", "name_ru": "Ōtsu", "tz": "", "district": "Shiga"}, {"id": 77, "name": "Iwaki", "name_ru": "Iwaki", "tz": "", "district": "Fukushima"}, {"id": 78, "name": "Hirosaki", "name_ru": "Hirosaki", "tz": "", "district": "Aomori"}, {"id": 79, "name": "Maebashi", "name_ru": "Maebashi", "tz": "", "district": "Gunma"}, {"id": 80, "name": "Asahikawa", "name_ru": "Asahikawa", "tz": "", "district": "Hokkaidō"}, {"id": 81, "name": "Koriyama", "name_ru": "Koriyama", "tz": "", "district": "Fukushima"}, {"id": 82, "name": "Kochi", "name_ru": "Kōchi", "tz": "", "district": "Kōchi"}, {"id": 83, "name": "Naha", "name_ru": "Naha", "tz": "", "district": "Okinawa"}, {"id": 84, "name": "Toshima", "name_ru": "Toshima", "tz": "", "district": "Tōkyō"}, {"id": 85, "name": "Yokkaichi", "name_ru": "Yokkaichi", "tz": "", "district": "Mie"}, {"id": 86, "name": "Kasugai", "name_ru": "Kasugai", "tz": "", "district": "Aichi"}, {"id": 87, "name": "Meguro", "name_ru": "Meguro", "tz": "", "district": "Tōkyō"}, {"id": 88, "name": "Oakashicho", "name_ru": "Ōakashichō", "tz": "", "district": "Hyōgo"}, {"id": 89, "name": "Kurume", "name_ru": "Kurume", "tz": "", "district": "Fukuoka"}, {"id": 90, "name": "Akita", "name_ru": "Akita", "tz": "", "district": "Akita"}, {"id": 91, "name": "Sumida", "name_ru": "Sumida", "tz": "", "district": "Tōkyō"}, {"id": 92, "name": "Morioka", "name_ru": "Morioka", "tz": "", "district": "Iwate"}, {"id": 93, "name": "Ibaraki", "name_ru": "Ibaraki", "tz": "", "district": "Ōsaka"}, {"id": 94, "name": "Fukushima", "name_ru": "Fukushima", "tz": "", "district": "Fukushima"}, {"id": 95, "name": "Tsu", "name_ru": "Tsu", "tz": "", "district": "Mie"}, {"id": 96, "name": "Minato", "name_ru": "Minato", "tz": "", "district": "Tōkyō"}, {"id": 97, "name": "Fuchu", "name_ru": "Fuchū", "tz": "", "district": "Tōkyō"}, {"id": 98, "name": "Mito", "name_ru": "Mito", "tz": "", "district": "Ibaraki"}, {"id": 99, "name": "Ichihara", "name_ru": "Ichihara", "tz": "", "district": "Chiba"}, {"id": 100, "name": "Yao", "name_ru": "Yao", "tz": "", "district": "Nara"}, {"id": 101, "name": "Nagaoka", "name_ru": "Nagaoka", "tz": "", "district": "Niigata"}, {"id": 102, "name": "Kakogawacho-honmachi", "name_ru": "Kakogawachō-honmachi", "tz": "", "district": "Hyōgo"}, {"id": 103, "name": "Hiratsuka", "name_ru": "Hiratsuka", "tz": "", "district": "Kanagawa"}, {"id": 104, "name": "Fukui", "name_ru": "Fukui", "tz": "", "district": "Fukui"}, {"id": 105, "name": "Soka", "name_ru": "Sōka", "tz": "", "district": "Saitama"}, {"id": 106, "name": "Bunkyo-ku", "name_ru": "Bunkyō-ku", "tz": "", "district": "Tōkyō"}, {"id": 107, "name": "Tokushima", "name_ru": "Tokushima", "tz": "", "district": "Tokushima"}, {"id": 108, "name": "Shinozaki", "name_ru": "Shinozaki", "tz": "", "district": "Fukuoka"}, {"id": 109, "name": "Hakodate", "name_ru": "Hakodate", "tz": "", "district": "Hokkaidō"}, {"id": 110, "name": "Chofugaoka", "name_ru": "Chōfugaoka", "tz": "", "district": "Tōkyō"}, {"id": 111, "name": "Shibuya-ku", "name_ru": "Shibuya-ku", "tz": "", "district": "Tōkyō"}, {"id": 112, "name": "Chigasaki", "name_ru": "Chigasaki", "tz": "", "district": "Kanagawa"}, {"id": 113, "name": "Yato", "name_ru": "Yato", "tz": "", "district": "Kanagawa"}, {"id": 114, "name": "Yamagata", "name_ru": "Yamagata", "tz": "", "district": "Yamagata"}, {"id": 115, "name": "Tsukuba-kenkyugakuen-toshi", "name_ru": "Tsukuba-kenkyūgakuen-toshi", "tz": "", "district": "Ibaraki"}, {"id": 116, "name": "Fuji", "name_ru": "Fuji", "tz": "", "district": "Shizuoka"}, {"id": 117, "name": "Sasebo", "name_ru": "Sasebo", "tz": "", "district": "Nagasaki"}, {"id": 118, "name": "Arakawa", "name_ru": "Arakawa", "tz": "", "district": "Tōkyō"}, {"id": 119, "name": "Matsumoto", "name_ru": "Matsumoto", "tz": "", "district": "Nagano"}, {"id": 120, "name": "Neya", "name_ru": "Neya", "tz": "", "district": "Ōsaka"}, {"id": 121, "name": "Saga", "name_ru": "Saga", "tz": "", "district": "Saga"}, {"id": 122, "name": "Kasukabe", "name_ru": "Kasukabe", "tz": "", "district": "Saitama"}, {"id": 123, "name": "Ageoshimo", "name_ru": "Ageoshimo", "tz": "", "district": "Saitama"}, {"id": 124, "name": "Taito", "name_ru": "Taitō", "tz": "", "district": "Tōkyō"}, {"id": 125, "name": "Takarazuka", "name_ru": "Takarazuka", "tz": "", "district": "Hyōgo"}, {"id": 126, "name": "Atsugicho", "name_ru": "Atsugichō", "tz": "", "district": "Kanagawa"}, {"id": 127, "name": "Ota", "name_ru": "Ōta", "tz": "", "district": "Gunma"}, {"id": 128, "name": "Hachinohe", "name_ru": "Hachinohe", "tz": "", "district": "Aomori"}, {"id": 129, "name": "Nishitokyo", "name_ru": "Nishitōkyō", "tz": "", "district": "Tōkyō"}, {"id": 130, "name": "Kure", "name_ru": "Kure", "tz": "", "district": "Hiroshima"}, {"id": 131, "name": "Isesaki", "name_ru": "Isesaki", "tz": "", "district": "Gunma"}, {"id": 132, "name": "Kodaira", "name_ru": "Kodaira", "tz": "", "district": "Tōkyō"}, {"id": 133, "name": "Itami", "name_ru": "Itami", "tz": "", "district": "Hyōgo"}, {"id": 134, "name": "Kamirenjaku", "name_ru": "Kamirenjaku", "tz": "", "district": "Tōkyō"}, {"id": 135, "name": "Nagareyama", "name_ru": "Nagareyama", "tz": "", "district": "Chiba"}, {"id": 136, "name": "Yachiyo", "name_ru": "Yachiyo", "tz": "", "district": "Chiba"}, {"id": 137, "name": "Matsue", "name_ru": "Matsue", "tz": "", "district": "Shimane"}, {"id": 138, "name": "Higashi-Hiroshima", "name_ru": "Higashi-Hiroshima", "tz": "", "district": "Hiroshima"}, {"id": 139, "name": "Hino", "name_ru": "Hino", "tz": "", "district": "Tōkyō"}, {"id": 140, "name": "Suzuka", "name_ru": "Suzuka", "tz": "", "district": "Mie"}, {"id": 141, "name": "Kumagaya", "name_ru": "Kumagaya", "tz": "", "district": "Saitama"}, {"id": 142, "name": "Yamaguchi", "name_ru": "Yamaguchi", "tz": "", "district": "Yamaguchi"}, {"id": 143, "name": "Anjomachi", "name_ru": "Anjōmachi", "tz": "", "district": "Aichi"}, {"id": 144, "name": "Odawara", "name_ru": "Odawara", "tz": "", "district": "Kanagawa"}, {"id": 145, "name": "Kishiwada", "name_ru": "Kishiwada", "tz": "", "district": "Ōsaka"}, {"id": 146, "name": "Numazu", "name_ru": "Numazu", "tz": "", "district": "Shizuoka"}, {"id": 147, "name": "Tachikawa", "name_ru": "Tachikawa", "tz": "", "district": "Tōkyō"}, {"id": 148, "name": "Kofu", "name_ru": "Kōfu", "tz": "", "district": "Yamanashi"}, {"id": 149, "name": "Tottori", "name_ru": "Tottori", "tz": "", "district": "Tottori"}, {"id": 150, "name": "Joetsu", "name_ru": "Jōetsu", "tz": "", "district": "Niigata"}, {"id": 151, "name": "Toyokawa", "name_ru": "Toyokawa", "tz": "", "district": "Aichi"}, {"id": 152, "name": "Chuo-ku", "name_ru": "Chūō-ku", "tz": "", "district": "Tōkyō"}, {"id": 153, "name": "Narashino", "name_ru": "Narashino", "tz": "", "district": "Chiba"}, {"id": 154, "name": "Uji", "name_ru": "Uji", "tz": "", "district": "Kyōto"}, {"id": 155, "name": "Urayasu", "name_ru": "Urayasu", "tz": "", "district": "Chiba"}, {"id": 156, "name": "Kamakurayama", "name_ru": "Kamakurayama", "tz": "", "district": "Kanagawa"}, {"id": 157, "name": "Hitachi", "name_ru": "Hitachi", "tz": "", "district": "Ibaraki"}, {"id": 158, "name": "Izumo", "name_ru": "Izumo", "tz": "", "district": "Shimane"}, {"id": 159, "name": "Niiza", "name_ru": "Niiza", "tz": "", "district": "Saitama"}, {"id": 160, "name": "Sakura", "name_ru": "Sakura", "tz": "", "district": "Chiba"}, {"id": 161, "name": "Tomakomai", "name_ru": "Tomakomai", "tz": "", "district": "Hokkaidō"}, {"id": 162, "name": "Nishio", "name_ru": "Nishio", "tz": "", "district": "Aichi"}, {"id": 163, "name": "Oyama", "name_ru": "Oyama", "tz": "", "district": "Tochigi"}, {"id": 164, "name": "Iwata", "name_ru": "Iwata", "tz": "", "district": "Shizuoka"}, {"id": 165, "name": "Takaoka", "name_ru": "Takaoka", "tz": "", "district": "Toyama"}, {"id": 166, "name": "Obihiro", "name_ru": "Obihiro", "tz": "", "district": "Hokkaidō"}, {"id": 167, "name": "Hadano", "name_ru": "Hadano", "tz": "", "district": "Kanagawa"}, {"id": 168, "name": "Kushiro", "name_ru": "Kushiro", "tz": "", "district": "Hokkaidō"}, {"id": 169, "name": "Ube", "name_ru": "Ube", "tz": "", "district": "Yamaguchi"}, {"id": 170, "name": "Musashino", "name_ru": "Musashino", "tz": "", "district": "Tōkyō"}, {"id": 171, "name": "Miyakonojo", "name_ru": "Miyakonojō", "tz": "", "district": "Miyazaki"}, {"id": 172, "name": "Higashimurayama", "name_ru": "Higashimurayama", "tz": "", "district": "Tōkyō"}, {"id": 173, "name": "Ogaki", "name_ru": "Ōgaki", "tz": "", "district": "Gifu"}, {"id": 174, "name": "Matsuzaka", "name_ru": "Matsuzaka", "tz": "", "district": "Mie"}, {"id": 175, "name": "Kariya", "name_ru": "Kariya", "tz": "", "district": "Aichi"}, {"id": 176, "name": "Hitachi-Naka", "name_ru": "Hitachi-Naka", "tz": "", "district": "Ibaraki"}, {"id": 177, "name": "Tama", "name_ru": "Tama", "tz": "", "district": "Tōkyō"}, {"id": 178, "name": "Tochigi", "name_ru": "Tochigi", "tz": "", "district": "Tochigi"}, {"id": 179, "name": "Noda", "name_ru": "Noda", "tz": "", "district": "Chiba"}, {"id": 180, "name": "Ueda", "name_ru": "Ueda", "tz": "", "district": "Nagano"}, {"id": 181, "name": "Moriguchi", "name_ru": "Moriguchi", "tz": "", "district": "Ōsaka"}, {"id": 182, "name": "Kawashiri", "name_ru": "Kawashiri", "tz": "", "district": "Ōsaka"}, {"id": 183, "name": "Kukichuo", "name_ru": "Kukichūō", "tz": "", "district": "Saitama"}, {"id": 184, "name": "Asaka", "name_ru": "Asaka", "tz": "", "district": "Saitama"}, {"id": 185, "name": "Sayama", "name_ru": "Sayama", "tz": "", "district": "Saitama"}, {"id": 186, "name": "Komaki", "name_ru": "Komaki", "tz": "", "district": "Aichi"}, {"id": 187, "name": "Toda", "name_ru": "Toda", "tz": "", "district": "Saitama"}, {"id": 188, "name": "Imabari", "name_ru": "Imabari", "tz": "", "district": "Ehime"}, {"id": 189, "name": "Iruma", "name_ru": "Iruma", "tz": "", "district": "Saitama"}, {"id": 190, "name": "Yonago", "name_ru": "Yonago", "tz": "", "district": "Tottori"}, {"id": 191, "name": "Misato", "name_ru": "Misato", "tz": "", "district": "Chiba"}, {"id": 192, "name": "Kusatsu", "name_ru": "Kusatsu", "tz": "", "district": "Shiga"}, {"id": 193, "name": "Kakamigahara", "name_ru": "Kakamigahara", "tz": "", "district": "Gifu"}, {"id": 194, "name": "Okinawa", "name_ru": "Okinawa", "tz": "", "district": "Okinawa"}, {"id": 195, "name": "Ashikaga", "name_ru": "Ashikaga", "tz": "", "district": "Tochigi"}, {"id": 196, "name": "Fukayacho", "name_ru": "Fukayachō", "tz": "", "district": "Saitama"}, {"id": 197, "name": "Fujita", "name_ru": "Fujita", "tz": "", "district": "Shizuoka"}, {"id": 198, "name": "Kokubunji", "name_ru": "Kokubunji", "tz": "", "district": "Tōkyō"}, {"id": 199, "name": "Ebina", "name_ru": "Ebina", "tz": "", "district": "Kanagawa"}, {"id": 200, "name": "Kuwana", "name_ru": "Kuwana", "tz": "", "district": "Mie"}, {"id": 201, "name": "Mino", "name_ru": "Minō", "tz": "", "district": "Ōsaka"}, {"id": 202, "name": "Koga", "name_ru": "Koga", "tz": "", "district": "Ibaraki"}, {"id": 203, "name": "Ishizaki", "name_ru": "Ishizaki", "tz": "", "district": "Miyagi"}, {"id": 204, "name": "Tsuchiura", "name_ru": "Tsuchiura", "tz": "", "district": "Ibaraki"}, {"id": 205, "name": "Koganei", "name_ru": "Koganei", "tz": "", "district": "Tōkyō"}, {"id": 206, "name": "Zama", "name_ru": "Zama", "tz": "", "district": "Kanagawa"}, {"id": 207, "name": "Shunan", "name_ru": "Shūnan", "tz": "", "district": "Yamaguchi"}, {"id": 208, "name": "Kisarazu", "name_ru": "Kisarazu", "tz": "", "district": "Chiba"}, {"id": 209, "name": "Yaizu", "name_ru": "Yaizu", "tz": "", "district": "Shizuoka"}, {"id": 210, "name": "Inazawa", "name_ru": "Inazawa", "tz": "", "district": "Aichi"}, {"id": 211, "name": "Isahaya", "name_ru": "Isahaya", "tz": "", "district": "Nagasaki"}, {"id": 212, "name": "Ome", "name_ru": "Ōme", "tz": "", "district": "Tōkyō"}, {"id": 213, "name": "Abiko", "name_ru": "Abiko", "tz": "", "district": "Chiba"}, {"id": 214, "name": "Narita", "name_ru": "Narita", "tz": "", "district": "Chiba"}, {"id": 215, "name": "Onomichi", "name_ru": "Onomichi", "tz": "", "district": "Hiroshima"}, {"id": 216, "name": "Iwakuni", "name_ru": "Iwakuni", "tz": "", "district": "Yamaguchi"}, {"id": 217, "name": "Seto", "name_ru": "Seto", "tz": "", "district": "Aichi"}, {"id": 218, "name": "Kadoma", "name_ru": "Kadoma", "tz": "", "district": "Ōsaka"}, {"id": 219, "name": "Omiyacho", "name_ru": "Ōmiyachō", "tz": "", "district": "Shizuoka"}, {"id": 220, "name": "Osaki", "name_ru": "Ōsaki", "tz": "", "district": "Miyagi"}, {"id": 221, "name": "Iizuka", "name_ru": "Iizuka", "tz": "", "district": "Fukuoka"}, {"id": 222, "name": "Honcho", "name_ru": "Honchō", "tz": "", "district": "Saitama"}, {"id": 223, "name": "Daitocho", "name_ru": "Daitōchō", "tz": "", "district": "Ōsaka"}, {"id": 224, "name": "Matsubara", "name_ru": "Matsubara", "tz": "", "district": "Ōsaka"}, {"id": 225, "name": "Kirishima", "name_ru": "Kirishima", "tz": "", "district": "Kagoshima"}, {"id": 226, "name": "Uruma", "name_ru": "Uruma", "tz": "", "district": "Okinawa"}, {"id": 227, "name": "Ise", "name_ru": "Ise", "tz": "", "district": "Mie"}, {"id": 228, "name": "Honmachi", "name_ru": "Honmachi", "tz": "", "district": "Kumamoto"}, {"id": 229, "name": "Kashiwara", "name_ru": "Kashiwara", "tz": "", "district": "Nara"}, {"id": 230, "name": "Urasoe", "name_ru": "Urasoe", "tz": "", "district": "Okinawa"}, {"id": 231, "name": "Tsuruoka", "name_ru": "Tsuruoka", "tz": "", "district": "Yamagata"}, {"id": 232, "name": "Ebetsu", "name_ru": "Ebetsu", "tz": "", "district": "Hokkaidō"}, {"id": 233, "name": "Fujimino", "name_ru": "Fujimino", "tz": "", "district": "Saitama"}, {"id": 234, "name": "Handa", "name_ru": "Handa", "tz": "", "district": "Aichi"}, {"id": 235, "name": "Kasuga", "name_ru": "Kasuga", "tz": "", "district": "Fukuoka"}, {"id": 236, "name": "Akishima", "name_ru": "Akishima", "tz": "", "district": "Tōkyō"}, {"id": 237, "name": "Konosu", "name_ru": "Kōnosu", "tz": "", "district": "Saitama"}, {"id": 238, "name": "Ikoma", "name_ru": "Ikoma", "tz": "", "district": "Nara"}, {"id": 239, "name": "Aizuwakamatsu", "name_ru": "Aizuwakamatsu", "tz": "", "district": "Fukushima"}, {"id": 240, "name": "Nobeoka", "name_ru": "Nobeoka", "tz": "", "district": "Miyazaki"}, {"id": 241, "name": "Beppu", "name_ru": "Beppu", "tz": "", "district": "Ōita"}, {"id": 242, "name": "Shibuya", "name_ru": "Shibuya", "tz": "", "district": "Tōkyō"}, {"id": 243, "name": "Karatsu", "name_ru": "Karatsu", "tz": "", "district": "Saga"}, {"id": 244, "name": "Fujimi", "name_ru": "Fujimi", "tz": "", "district": "Saitama"}, {"id": 245, "name": "Nasushiobara", "name_ru": "Nasushiobara", "tz": "", "district": "Tochigi"}, {"id": 246, "name": "Tokai", "name_ru": "Tōkai", "tz": "", "district": "Aichi"}, {"id": 247, "name": "Koencho", "name_ru": "Kōenchō", "tz": "", "district": "Hokkaidō"}, {"id": 248, "name": "Niihama", "name_ru": "Niihama", "tz": "", "district": "Ehime"}, {"id": 249, "name": "Sano", "name_ru": "Sano", "tz": "", "district": "Tochigi"}, {"id": 250, "name": "Hatsukaichi", "name_ru": "Hatsukaichi", "tz": "", "district": "Hiroshima"}, {"id": 251, "name": "Kamagaya", "name_ru": "Kamagaya", "tz": "", "district": "Chiba"}, {"id": 252, "name": "Kakegawa", "name_ru": "Kakegawa", "tz": "", "district": "Shizuoka"}, {"id": 253, "name": "Nagahama", "name_ru": "Nagahama", "tz": "", "district": "Shiga"}, {"id": 254, "name": "Hofu", "name_ru": "Hōfu", "tz": "", "district": "Yamaguchi"}, {"id": 255, "name": "Hikone", "name_ru": "Hikone", "tz": "", "district": "Shiga"}, {"id": 256, "name": "Otaru", "name_ru": "Otaru", "tz": "", "district": "Hokkaidō"}, {"id": 257, "name": "Higashiomi", "name_ru": "Higashiōmi", "tz": "", "district": "Shiga"}, {"id": 258, "name": "Oshu", "name_ru": "Ōshū", "tz": "", "district": "Iwate"}, {"id": 259, "name": "Habikino", "name_ru": "Habikino", "tz": "", "district": "Ōsaka"}, {"id": 260, "name": "Ichinoseki", "name_ru": "Ichinoseki", "tz": "", "district": "Iwate"}, {"id": 261, "name": "Tondabayashicho", "name_ru": "Tondabayashichō", "tz": "", "district": "Ōsaka"}, {"id": 262, "name": "Kazo", "name_ru": "Kazo", "tz": "", "district": "Saitama"}, {"id": 263, "name": "Omuta", "name_ru": "Ōmuta", "tz": "", "district": "Fukuoka"}, {"id": 264, "name": "Shirayamamachi", "name_ru": "Shirayamamachi", "tz": "", "district": "Ishikawa"}, {"id": 265, "name": "Marugame", "name_ru": "Marugame", "tz": "", "district": "Kagawa"}, {"id": 266, "name": "Sandacho", "name_ru": "Sandachō", "tz": "", "district": "Hyōgo"}, {"id": 267, "name": "Mineshita", "name_ru": "Mineshita", "tz": "", "district": "Shizuoka"}, {"id": 268, "name": "Ikeda", "name_ru": "Ikeda", "tz": "", "district": "Hyōgo"}, {"id": 269, "name": "Tajimi", "name_ru": "Tajimi", "tz": "", "district": "Gifu"}, {"id": 270, "name": "Komatsu", "name_ru": "Komatsu", "tz": "", "district": "Ishikawa"}, {"id": 271, "name": "Kiryu", "name_ru": "Kiryū", "tz": "", "district": "Gunma"}, {"id": 272, "name": "Toride", "name_ru": "Toride", "tz": "", "district": "Ibaraki"}, {"id": 273, "name": "Onojo", "name_ru": "Ōnojō", "tz": "", "district": "Fukuoka"}, {"id": 274, "name": "Inzai", "name_ru": "Inzai", "tz": "", "district": "Chiba"}, {"id": 275, "name": "Chikushino", "name_ru": "Chikushino", "tz": "", "district": "Fukuoka"}, {"id": 276, "name": "Ginowan", "name_ru": "Ginowan", "tz": "", "district": "Okinawa"}, {"id": 277, "name": "Saijo", "name_ru": "Saijō", "tz": "", "district": "Ehime"}, {"id": 278, "name": "Isehara", "name_ru": "Isehara", "tz": "", "district": "Kanagawa"}, {"id": 279, "name": "Sakado", "name_ru": "Sakado", "tz": "", "district": "Saitama"}, {"id": 280, "name": "Kawachinagano", "name_ru": "Kawachinagano", "tz": "", "district": "Ōsaka"}, {"id": 281, "name": "Kanoya", "name_ru": "Kanoya", "tz": "", "district": "Kagoshima"}, {"id": 282, "name": "Konan", "name_ru": "Kōnan", "tz": "", "district": "Aichi"}, {"id": 283, "name": "Ashiya", "name_ru": "Ashiya", "tz": "", "district": "Hyōgo"}, {"id": 284, "name": "Yashio", "name_ru": "Yashio", "tz": "", "district": "Saitama"}, {"id": 285, "name": "Inagi", "name_ru": "Inagi", "tz": "", "district": "Tōkyō"}, {"id": 286, "name": "Komae", "name_ru": "Komae", "tz": "", "district": "Tōkyō"}, {"id": 287, "name": "Yotsukaido", "name_ru": "Yotsukaidō", "tz": "", "district": "Chiba"}, {"id": 288, "name": "Nisshin", "name_ru": "Nisshin", "tz": "", "district": "Aichi"}, {"id": 289, "name": "Obu", "name_ru": "Ōbu", "tz": "", "district": "Aichi"}, {"id": 290, "name": "Settsu", "name_ru": "Settsu", "tz": "", "district": "Ōsaka"}, {"id": 291, "name": "Wako", "name_ru": "Wakō", "tz": "", "district": "Saitama"}, {"id": 292, "name": "Ama", "name_ru": "Ama", "tz": "", "district": "Aichi"}, {"id": 293, "name": "Kitanagoya", "name_ru": "Kitanagoya", "tz": "", "district": "Aichi"}, {"id": 294, "name": "Higashiyamato", "name_ru": "Higashiyamato", "tz": "", "district": "Saitama"}, {"id": 295, "name": "Takasagocho-takasemachi", "name_ru": "Takasagochō-takasemachi", "tz": "", "district": "Hyōgo"}, {"id": 296, "name": "Warabi", "name_ru": "Warabi", "tz": "", "district": "Saitama"}, {"id": 297, "name": "Ayase", "name_ru": "Ayase", "tz": "", "district": "Kanagawa"}, {"id": 298, "name": "Owariasahi", "name_ru": "Owariasahi", "tz": "", "district": "Aichi"}, {"id": 299, "name": "Nagaoka", "name_ru": "Nagaoka", "tz": "", "district": "Kyōto"}, {"id": 300, "name": "Kunitachi", "name_ru": "Kunitachi", "tz": "", "district": "Tōkyō"}, {"id": 301, "name": "Shinkai", "name_ru": "Shinkai", "tz": "", "district": "Saitama"}, {"id": 302, "name": "Kiyose", "name_ru": "Kiyose", "tz": "", "district": "Saitama"}, {"id": 303, "name": "Kashiba", "name_ru": "Kashiba", "tz": "", "district": "Nara"}, {"id": 304, "name": "Izumiotsu", "name_ru": "Izumiōtsu", "tz": "", "district": "Ōsaka"}, {"id": 305, "name": "Katano", "name_ru": "Katano", "tz": "", "district": "Ōsaka"}, {"id": 306, "name": "Okegawa", "name_ru": "Okegawa", "tz": "", "district": "Saitama"}, {"id": 307, "name": "Joyo", "name_ru": "Jōyō", "tz": "", "district": "Kyōto"}, {"id": 308, "name": "Chiryu", "name_ru": "Chiryū", "tz": "", "district": "Aichi"}, {"id": 309, "name": "Musashimurayama", "name_ru": "Musashimurayama", "tz": "", "district": "Tōkyō"}, {"id": 310, "name": "Kiyosu", "name_ru": "Kiyosu", "tz": "", "district": "Aichi"}, {"id": 311, "name": "Dazaifu", "name_ru": "Dazaifu", "tz": "", "district": "Fukuoka"}, {"id": 312, "name": "Hekinan", "name_ru": "Hekinan", "tz": "", "district": "Aichi"}, {"id": 313, "name": "Yoshikawa", "name_ru": "Yoshikawa", "tz": "", "district": "Saitama"}, {"id": 314, "name": "Tsurugashima", "name_ru": "Tsurugashima", "tz": "", "district": "Saitama"}, {"id": 315, "name": "Yawata-shimizui", "name_ru": "Yawata-shimizui", "tz": "", "district": "Kyōto"}, {"id": 316, "name": "Chiyoda-ku", "name_ru": "Chiyoda-ku", "tz": "", "district": "Tōkyō"}, {"id": 317, "name": "Toyoake", "name_ru": "Toyoake", "tz": "", "district": "Aichi"}, {"id": 318, "name": "Hatogaya-honcho", "name_ru": "Hatogaya-honchō", "tz": "", "district": "Saitama"}, {"id": 319, "name": "Fujiidera", "name_ru": "Fujiidera", "tz": "", "district": "Ōsaka"}, {"id": 320, "name": "Kashiwara", "name_ru": "Kashiwara", "tz": "", "district": "Ōsaka"}, {"id": 321, "name": "Kitamoto", "name_ru": "Kitamoto", "tz": "", "district": "Saitama"}, {"id": 322, "name": "Tomigusuku", "name_ru": "Tomigusuku", "tz": "", "district": "Okinawa"}, {"id": 323, "name": "Nagakute", "name_ru": "Nagakute", "tz": "", "district": "Aichi"}, {"id": 324, "name": "Tagajo", "name_ru": "Tagajō", "tz": "", "district": "Miyagi"}, {"id": 325, "name": "Yamatotakada", "name_ru": "Yamatotakada", "tz": "", "district": "Nara"}, {"id": 326, "name": "Hasuda", "name_ru": "Hasuda", "tz": "", "district": "Saitama"}, {"id": 327, "name": "Osakasayama", "name_ru": "Ōsakasayama", "tz": "", "district": "Ōsaka"}, {"id": 328, "name": "Mukocho", "name_ru": "Mukōchō", "tz": "", "district": "Kyōto"}, {"id": 329, "name": "Tsushima", "name_ru": "Tsushima", "tz": "", "district": "Aichi"}, {"id": 330, "name": "Fussa", "name_ru": "Fussa", "tz": "", "district": "Tōkyō"}, {"id": 331, "name": "Koja", "name_ru": "Koja", "tz": "", "district": "Okinawa"}, {"id": 332, "name": "Nonoichi", "name_ru": "Nonoichi", "tz": "", "district": "Ishikawa"}, {"id": 333, "name": "Takaishi", "name_ru": "Takaishi", "tz": "", "district": "Ōsaka"}, {"id": 334, "name": "Zushi", "name_ru": "Zushi", "tz": "", "district": "Kanagawa"}, {"id": 335, "name": "Hamura", "name_ru": "Hamura", "tz": "", "district": "Saitama"}, {"id": 336, "name": "Shijonawate", "name_ru": "Shijōnawate", "tz": "", "district": "Ōsaka"}, {"id": 337, "name": "Fuchu", "name_ru": "Fuchū", "tz": "", "district": "Hiroshima"}, {"id": 338, "name": "Shiogama", "name_ru": "Shiogama", "tz": "", "district": "Miyagi"}, {"id": 339, "name": "Shiraoka", "name_ru": "Shiraoka", "tz": "", "district": "Saitama"}, {"id": 340, "name": "Iwakura", "name_ru": "Iwakura", "tz": "", "district": "Aichi"}, {"id": 341, "name": "Takahama", "name_ru": "Takahama", "tz": "", "district": "Aichi"}, {"id": 342, "name": "Suzukawa", "name_ru": "Suzukawa", "tz": "", "district": "Kanagawa"}, {"id": 343, "name": "Kasuya", "name_ru": "Kasuya", "tz": "", "district": "Fukuoka"}, {"id": 344, "name": "Inuma", "name_ru": "Inuma", "tz": "", "district": "Saitama"}, {"id": 345, "name": "Togo", "name_ru": "Tōgō", "tz": "", "district": "Aichi"}, {"id": 346, "name": "Kumatori", "name_ru": "Kumatori", "tz": "", "district": "Ōsaka"}, {"id": 347, "name": "Katsuren-haebaru", "name_ru": "Katsuren-haebaru", "tz": "", "district": "Okinawa"}, {"id": 348, "name": "Oizumi", "name_ru": "Ōizumi", "tz": "", "district": "Gunma"}, {"id": 349, "name": "Nakama", "name_ru": "Nakama", "tz": "", "district": "Fukuoka"}, {"id": 350, "name": "Miyoshidai", "name_ru": "Miyoshidai", "tz": "", "district": "Saitama"}, {"id": 351, "name": "Kanie", "name_ru": "Kanie", "tz": "", "district": "Aichi"}, {"id": 352, "name": "Oharu", "name_ru": "Ōharu", "tz": "", "district": "Aichi"}, {"id": 353, "name": "Harima", "name_ru": "Harima", "tz": "", "district": "Hyōgo"}, {"id": 354, "name": "Aizumi", "name_ru": "Aizumi", "tz": "", "district": "Tokushima"}, {"id": 355, "name": "Fuso", "name_ru": "Fusō", "tz": "", "district": "Aichi"}, {"id": 356, "name": "Nishihara", "name_ru": "Nishihara", "tz": "", "district": "Okinawa"}, {"id": 357, "name": "Minamishiro", "name_ru": "Minamishiro", "tz": "", "district": "Saitama"}, {"id": 358, "name": "Koryo", "name_ru": "Kōryō", "tz": "", "district": "Nara"}, {"id": 359, "name": "Kaita", "name_ru": "Kaita", "tz": "", "district": "Hiroshima"}, {"id": 360, "name": "Ninomiya", "name_ru": "Ninomiya", "tz": "", "district": "Kanagawa"}, {"id": 361, "name": "Mizumaki", "name_ru": "Mizumaki", "tz": "", "district": "Fukuoka"}, {"id": 362, "name": "Chatan", "name_ru": "Chatan", "tz": "", "district": "Okinawa"}, {"id": 363, "name": "Ginan", "name_ru": "Ginan", "tz": "", "district": "Gifu"}, {"id": 364, "name": "Oji", "name_ru": "Ōji", "tz": "", "district": "Nara"}, {"id": 365, "name": "Sanga", "name_ru": "Sanga", "tz": "", "district": "Ōsaka"}, {"id": 366, "name": "Kitajima", "name_ru": "Kitajima", "tz": "", "district": "Tokushima"}, {"id": 367, "name": "Kasamatsucho", "name_ru": "Kasamatsuchō", "tz": "", "district": "Gifu"}, {"id": 368, "name": "Kanmaki", "name_ru": "Kanmaki", "tz": "", "district": "Nara"}, {"id": 369, "name": "Yonabaru", "name_ru": "Yonabaru", "tz": "", "district": "Okinawa"}, {"id": 370, "name": "Showa", "name_ru": "Shōwa", "tz": "", "district": "Yamanashi"}, {"id": 371, "name": "Kitagata", "name_ru": "Kitagata", "tz": "", "district": "Gifu"}, {"id": 372, "name": "Utazu", "name_ru": "Utazu", "tz": "", "district": "Kagawa"}, {"id": 373, "name": "Tadaoka-higashi", "name_ru": "Tadaoka-higashi", "tz": "", "district": "Ōsaka"}, {"id": 374, "name": "Kawai", "name_ru": "Kawai", "tz": "", "district": "Nara"}, {"id": 375, "name": "Oyamazaki", "name_ru": "Ōyamazaki", "tz": "", "district": "Kyōto"}, {"id": 376, "name": "Toyoyama", "name_ru": "Toyoyama", "tz": "", "district": "Aichi"}, {"id": 377, "name": "Izumisano", "name_ru": "Izumisano", "tz": "", "district": "Ōsaka"}, {"id": 378, "name": "Kani", "name_ru": "Kani", "tz": "", "district": "Gifu"}, {"id": 379, "name": "Chikusei", "name_ru": "Chikusei", "tz": "", "district": "Ibaraki"}, {"id": 380, "name": "Tsuyama", "name_ru": "Tsuyama", "tz": "", "district": "Okayama"}, {"id": 381, "name": "Sakata", "name_ru": "Sakata", "tz": "", "district": "Yamagata"}, {"id": 382, "name": "Itoshima", "name_ru": "Itoshima", "tz": "", "district": "Fukuoka"}, {"id": 383, "name": "Saku", "name_ru": "Saku", "tz": "", "district": "Nagano"}, {"id": 384, "name": "Chitose", "name_ru": "Chitose", "tz": "", "district": "Hokkaidō"}, {"id": 385, "name": "Munakata", "name_ru": "Munakata", "tz": "", "district": "Fukuoka"}, {"id": 386, "name": "Iida", "name_ru": "Iida", "tz": "", "district": "Nagano"}, {"id": 387, "name": "Omura", "name_ru": "Ōmura", "tz": "", "district": "Nagasaki"}, {"id": 388, "name": "Kamisu", "name_ru": "Kamisu", "tz": "", "district": "Ibaraki"}, {"id": 389, "name": "Shimada", "name_ru": "Shimada", "tz": "", "district": "Shizuoka"}, {"id": 390, "name": "Kanuma", "name_ru": "Kanuma", "tz": "", "district": "Tochigi"}, {"id": 391, "name": "Shibata", "name_ru": "Shibata", "tz": "", "district": "Niigata"}, {"id": 392, "name": "Azumino", "name_ru": "Azumino", "tz": "", "district": "Nagano"}, {"id": 393, "name": "Sanjo", "name_ru": "Sanjō", "tz": "", "district": "Niigata"}, {"id": 394, "name": "Higashi-Matsuyama", "name_ru": "Higashi-Matsuyama", "tz": "", "district": "Saitama"}, {"id": 395, "name": "Hanamaki Onsen", "name_ru": "Hanamaki Onsen", "tz": "", "district": "Iwate"}, {"id": 396, "name": "Kitakami", "name_ru": "Kitakami", "tz": "", "district": "Iwate"}, {"id": 397, "name": "Satsumasendai", "name_ru": "Satsumasendai", "tz": "", "district": "Kagoshima"}, {"id": 398, "name": "Imizucho", "name_ru": "Imizuchō", "tz": "", "district": "Toyama"}, {"id": 399, "name": "Mihara", "name_ru": "Mihara", "tz": "", "district": "Hiroshima"}, {"id": 400, "name": "Koka", "name_ru": "Kōka", "tz": "", "district": "Shiga"}, {"id": 401, "name": "Sakai", "name_ru": "Sakai", "tz": "", "district": "Fukui"}, {"id": 402, "name": "Fukuroi", "name_ru": "Fukuroi", "tz": "", "district": "Shizuoka"}, {"id": 403, "name": "Mobara", "name_ru": "Mobara", "tz": "", "district": "Chiba"}, {"id": 404, "name": "Gotenba", "name_ru": "Gotenba", "tz": "", "district": "Shizuoka"}, {"id": 405, "name": "Kameoka", "name_ru": "Kameoka", "tz": "", "district": "Kyōto"}, {"id": 406, "name": "Kaizuka", "name_ru": "Kaizuka", "tz": "", "district": "Ōsaka"}, {"id": 407, "name": "Iga", "name_ru": "Iga", "tz": "", "district": "Mie"}, {"id": 408, "name": "Kitakoriyamacho", "name_ru": "Kitakōriyamachō", "tz": "", "district": "Nara"}, {"id": 409, "name": "Ushiku", "name_ru": "Ushiku", "tz": "", "district": "Ibaraki"}, {"id": 410, "name": "Sekimachi", "name_ru": "Sekimachi", "tz": "", "district": "Gifu"}, {"id": 411, "name": "Chita", "name_ru": "Chita", "tz": "", "district": "Aichi"}, {"id": 412, "name": "Takayama", "name_ru": "Takayama", "tz": "", "district": "Gifu"}, {"id": 413, "name": "Moriyama", "name_ru": "Moriyama", "tz": "", "district": "Shiga"}, {"id": 414, "name": "Yokotemachi", "name_ru": "Yokotemachi", "tz": "", "district": "Akita"}, {"id": 415, "name": "Nakatsu", "name_ru": "Nakatsu", "tz": "", "district": "Fukuoka"}, {"id": 416, "name": "Omihachiman", "name_ru": "Ōmihachiman", "tz": "", "district": "Shiga"}, {"id": 417, "name": "Muroran", "name_ru": "Muroran", "tz": "", "district": "Hokkaidō"}, {"id": 418, "name": "Shikokuchuo", "name_ru": "Shikokuchūō", "tz": "", "district": "Ehime"}, {"id": 419, "name": "Kimitsu", "name_ru": "Kimitsu", "tz": "", "district": "Chiba"}, {"id": 420, "name": "Kashiwazaki", "name_ru": "Kashiwazaki", "tz": "", "district": "Niigata"}, {"id": 421, "name": "Yonezawa", "name_ru": "Yonezawa", "tz": "", "district": "Yamagata"}, {"id": 422, "name": "Gamagori", "name_ru": "Gamagōri", "tz": "", "district": "Aichi"}, {"id": 423, "name": "Akiruno", "name_ru": "Akiruno", "tz": "", "district": "Tōkyō"}, {"id": 424, "name": "Echizen", "name_ru": "Echizen", "tz": "", "district": "Fukui"}, {"id": 425, "name": "Natori-shi", "name_ru": "Natori-shi", "tz": "", "district": "Miyagi"}, {"id": 426, "name": "Gyoda", "name_ru": "Gyōda", "tz": "", "district": "Saitama"}, {"id": 427, "name": "Hanno", "name_ru": "Hannō", "tz": "", "district": "Saitama"}, {"id": 428, "name": "Iwamizawa", "name_ru": "Iwamizawa", "tz": "", "district": "Hokkaidō"}, {"id": 429, "name": "Mooka", "name_ru": "Mooka", "tz": "", "district": "Tochigi"}, {"id": 430, "name": "Maizuru", "name_ru": "Maizuru", "tz": "", "district": "Kyōto"}, {"id": 431, "name": "Kizugawa", "name_ru": "Kizugawa", "tz": "", "district": "Kyōto"}, {"id": 432, "name": "Honjo", "name_ru": "Honjō", "tz": "", "district": "Saitama"}, {"id": 433, "name": "Tsubame", "name_ru": "Tsubame", "tz": "", "district": "Niigata"}, {"id": 434, "name": "Toyooka", "name_ru": "Toyooka", "tz": "", "district": "Hyōgo"}, {"id": 435, "name": "Nikko", "name_ru": "Nikkō", "tz": "", "district": "Tochigi"}, {"id": 436, "name": "Ryugasaki", "name_ru": "Ryūgasaki", "tz": "", "district": "Ibaraki"}, {"id": 437, "name": "Aira", "name_ru": "Aira", "tz": "", "district": "Kagoshima"}, {"id": 438, "name": "Nabari", "name_ru": "Nabari", "tz": "", "district": "Mie"}, {"id": 439, "name": "Kai", "name_ru": "Kai", "tz": "", "district": "Yamanashi"}, {"id": 440, "name": "Toyomamachi-teraike", "name_ru": "Toyomamachi-teraike", "tz": "", "district": "Miyagi"}, {"id": 441, "name": "Daisen", "name_ru": "Daisen", "tz": "", "district": "Akita"}, {"id": 442, "name": "Fukuchiyama", "name_ru": "Fukuchiyama", "tz": "", "district": "Kyōto"}, {"id": 443, "name": "Tosu", "name_ru": "Tosu", "tz": "", "district": "Saga"}, {"id": 444, "name": "Kyotanabe", "name_ru": "Kyōtanabe", "tz": "", "district": "Kyōto"}, {"id": 445, "name": "Nakatsugawa", "name_ru": "Nakatsugawa", "tz": "", "district": "Gifu"}, {"id": 446, "name": "Sasagawa", "name_ru": "Sasagawa", "tz": "", "district": "Fukushima"}, {"id": 447, "name": "Tatebayashi", "name_ru": "Tatebayashi", "tz": "", "district": "Gunma"}, {"id": 448, "name": "Amakusa", "name_ru": "Amakusa", "tz": "", "district": "Kumamoto"}, {"id": 449, "name": "Miki", "name_ru": "Miki", "tz": "", "district": "Hyōgo"}, {"id": 450, "name": "Tatsunocho-tominaga", "name_ru": "Tatsunochō-tominaga", "tz": "", "district": "Hyōgo"}, {"id": 451, "name": "Yurihonjo", "name_ru": "Yurihonjō", "tz": "", "district": "Akita"}, {"id": 452, "name": "Inuyama", "name_ru": "Inuyama", "tz": "", "district": "Gifu"}, {"id": 453, "name": "Kasama", "name_ru": "Kasama", "tz": "", "district": "Ibaraki"}, {"id": 454, "name": "Shibukawa", "name_ru": "Shibukawa", "tz": "", "district": "Gunma"}, {"id": 455, "name": "Otawara", "name_ru": "Ōtawara", "tz": "", "district": "Tochigi"}, {"id": 456, "name": "Ishioka", "name_ru": "Ishioka", "tz": "", "district": "Ibaraki"}, {"id": 457, "name": "Yukuhashi", "name_ru": "Yukuhashi", "tz": "", "district": "Fukuoka"}, {"id": 458, "name": "Katori", "name_ru": "Katori", "tz": "", "district": "Chiba"}, {"id": 459, "name": "Moriya", "name_ru": "Moriya", "tz": "", "district": "Ibaraki"}, {"id": 460, "name": "Ritto", "name_ru": "Rittō", "tz": "", "district": "Shiga"}, {"id": 461, "name": "Eniwa", "name_ru": "Eniwa", "tz": "", "district": "Hokkaidō"}, {"id": 462, "name": "Minami-Alps", "name_ru": "Minami-Alps", "tz": "", "district": "Yamanashi"}, {"id": 463, "name": "Uwajima", "name_ru": "Uwajima", "tz": "", "district": "Ehime"}, {"id": 464, "name": "Anan", "name_ru": "Anan", "tz": "", "district": "Tokushima"}, {"id": 465, "name": "Sabae", "name_ru": "Sabae", "tz": "", "district": "Fukui"}, {"id": 466, "name": "Tanabe", "name_ru": "Tanabe", "tz": "", "district": "Wakayama"}, {"id": 467, "name": "Soja", "name_ru": "Sōja", "tz": "", "district": "Okayama"}, {"id": 468, "name": "Odate", "name_ru": "Ōdate", "tz": "", "district": "Akita"}, {"id": 469, "name": "Fuefuki", "name_ru": "Fuefuki", "tz": "", "district": "Yamanashi"}, {"id": 470, "name": "Kashima", "name_ru": "Kashima", "tz": "", "district": "Ibaraki"}, {"id": 471, "name": "Hashima", "name_ru": "Hashima", "tz": "", "district": "Gifu"}, {"id": 472, "name": "Yachimata", "name_ru": "Yachimata", "tz": "", "district": "Chiba"}, {"id": 473, "name": "Fukutsu", "name_ru": "Fukutsu", "tz": "", "district": "Fukuoka"}, {"id": 474, "name": "Saiki", "name_ru": "Saiki", "tz": "", "district": "Ōita"}, {"id": 475, "name": "Shiojiri", "name_ru": "Shiojiri", "tz": "", "district": "Nagano"}, {"id": 476, "name": "Ina", "name_ru": "Ina", "tz": "", "district": "Nagano"}, {"id": 477, "name": "Ito", "name_ru": "Itō", "tz": "", "district": "Shizuoka"}, {"id": 478, "name": "Yanagawa", "name_ru": "Yanagawa", "tz": "", "district": "Fukuoka"}, {"id": 479, "name": "Miyoshi", "name_ru": "Miyoshi", "tz": "", "district": "Aichi"}, {"id": 480, "name": "Sodegaura", "name_ru": "Sodegaura", "tz": "", "district": "Chiba"}, {"id": 481, "name": "Tamana", "name_ru": "Tamana", "tz": "", "district": "Kumamoto"}, {"id": 482, "name": "Tenri", "name_ru": "Tenri", "tz": "", "district": "Nara"}, {"id": 483, "name": "Asahi", "name_ru": "Asahi", "tz": "", "district": "Chiba"}, {"id": 484, "name": "Tsuruga", "name_ru": "Tsuruga", "tz": "", "district": "Fukui"}, {"id": 485, "name": "Kurihara", "name_ru": "Kurihara", "tz": "", "district": "Miyagi"}, {"id": 486, "name": "Shiroi", "name_ru": "Shiroi", "tz": "", "district": "Chiba"}, {"id": 487, "name": "Nago", "name_ru": "Nago", "tz": "", "district": "Okinawa"}, {"id": 488, "name": "Kaga", "name_ru": "Kaga", "tz": "", "district": "Ishikawa"}, {"id": 489, "name": "Koshizuka", "name_ru": "Kōshizuka", "tz": "", "district": "Kumamoto"}, {"id": 490, "name": "Fujioka", "name_ru": "Fujioka", "tz": "", "district": "Gunma"}, {"id": 491, "name": "Tendo", "name_ru": "Tendō", "tz": "", "district": "Yamagata"}, {"id": 492, "name": "Itoman", "name_ru": "Itoman", "tz": "", "district": "Okinawa"}, {"id": 493, "name": "Mitoyo", "name_ru": "Mitoyo", "tz": "", "district": "Kagawa"}, {"id": 494, "name": "Hita", "name_ru": "Hita", "tz": "", "district": "Ōita"}, {"id": 495, "name": "Aisai", "name_ru": "Aisai", "tz": "", "district": "Aichi"}, {"id": 496, "name": "Tamba", "name_ru": "Tamba", "tz": "", "district": "Hyōgo"}, {"id": 497, "name": "Sennan", "name_ru": "Sennan", "tz": "", "district": "Ōsaka"}, {"id": 498, "name": "Koga", "name_ru": "Koga", "tz": "", "district": "Fukuoka"}, {"id": 499, "name": "Hashimoto", "name_ru": "Hashimoto", "tz": "", "district": "Wakayama"}, {"id": 500, "name": "Yame", "name_ru": "Yame", "tz": "", "district": "Fukuoka"}, {"id": 501, "name": "Shimotsuke", "name_ru": "Shimotsuke", "tz": "", "district": "Tochigi"}, {"id": 502, "name": "Towada", "name_ru": "Towada", "tz": "", "district": "Aomori"}, {"id": 503, "name": "Sanyo-Onoda", "name_ru": "Sanyō-Onoda", "tz": "", "district": "Yamaguchi"}, {"id": 504, "name": "Joso", "name_ru": "Jōsō", "tz": "", "district": "Ibaraki"}, {"id": 505, "name": "Ogori", "name_ru": "Ogōri", "tz": "", "district": "Fukuoka"}, {"id": 506, "name": "Kesennuma", "name_ru": "Kesennuma", "tz": "", "district": "Miyagi"}, {"id": 507, "name": "Hyuga", "name_ru": "Hyūga", "tz": "", "district": "Miyazaki"}, {"id": 508, "name": "Tahara", "name_ru": "Tahara", "tz": "", "district": "Aichi"}, {"id": 509, "name": "Chikuma", "name_ru": "Chikuma", "tz": "", "district": "Nagano"}, {"id": 510, "name": "Shirakawa", "name_ru": "Shirakawa", "tz": "", "district": "Fukushima"}, {"id": 511, "name": "Chichibu", "name_ru": "Chichibu", "tz": "", "district": "Saitama"}, {"id": 512, "name": "Kitahiroshima", "name_ru": "Kitahiroshima", "tz": "", "district": "Hokkaidō"}, {"id": 513, "name": "Tokoname", "name_ru": "Tokoname", "tz": "", "district": "Aichi"}, {"id": 514, "name": "Date", "name_ru": "Date", "tz": "", "district": "Fukushima"}, {"id": 515, "name": "Kokawa", "name_ru": "Kokawa", "tz": "", "district": "Wakayama"}, {"id": 516, "name": "Ishikari", "name_ru": "Ishikari", "tz": "", "district": "Hokkaidō"}, {"id": 517, "name": "Kosai", "name_ru": "Kosai", "tz": "", "district": "Shizuoka"}, {"id": 518, "name": "Choshi", "name_ru": "Choshi", "tz": "", "district": "Chiba"}, {"id": 519, "name": "Togane", "name_ru": "Tōgane", "tz": "", "district": "Chiba"}, {"id": 520, "name": "Mizuho", "name_ru": "Mizuho", "tz": "", "district": "Gifu"}, {"id": 521, "name": "Minokamo", "name_ru": "Minokamo", "tz": "", "district": "Gifu"}, {"id": 522, "name": "Uki", "name_ru": "Uki", "tz": "", "district": "Kumamoto"}, {"id": 523, "name": "Kudamatsu", "name_ru": "Kudamatsu", "tz": "", "district": "Yamaguchi"}, {"id": 524, "name": "Kan'onjicho", "name_ru": "Kan’onjichō", "tz": "", "district": "Kagawa"}, {"id": 525, "name": "Tama", "name_ru": "Tama", "tz": "", "district": "Okayama"}, {"id": 526, "name": "Murakami", "name_ru": "Murakami", "tz": "", "district": "Niigata"}, {"id": 527, "name": "Nogata", "name_ru": "Nōgata", "tz": "", "district": "Fukuoka"}, {"id": 528, "name": "Takizawa", "name_ru": "Takizawa", "tz": "", "district": "Iwate"}, {"id": 529, "name": "Hidaka", "name_ru": "Hidaka", "tz": "", "district": "Saitama"}, {"id": 530, "name": "Toki", "name_ru": "Toki", "tz": "", "district": "Gifu"}, {"id": 531, "name": "Narutocho-mitsuishi", "name_ru": "Narutochō-mitsuishi", "tz": "", "district": "Tokushima"}, {"id": 532, "name": "Chino", "name_ru": "Chino", "tz": "", "district": "Nagano"}, {"id": 533, "name": "Konan", "name_ru": "Konan", "tz": "", "district": "Shiga"}, {"id": 534, "name": "Funato", "name_ru": "Funato", "tz": "", "district": "Wakayama"}, {"id": 535, "name": "Minamiuonuma", "name_ru": "Minamiuonuma", "tz": "", "district": "Niigata"}, {"id": 536, "name": "Sakurai", "name_ru": "Sakurai", "tz": "", "district": "Nara"}, {"id": 537, "name": "Annaka", "name_ru": "Annaka", "tz": "", "district": "Gunma"}, {"id": 538, "name": "Nihonmatsu", "name_ru": "Nihonmatsu", "tz": "", "district": "Fukushima"}, {"id": 539, "name": "Sado", "name_ru": "Sado", "tz": "", "district": "Niigata"}, {"id": 540, "name": "Hanyu", "name_ru": "Hanyū", "tz": "", "district": "Saitama"}, {"id": 541, "name": "Hamada", "name_ru": "Hamada", "tz": "", "district": "Shimane"}, {"id": 542, "name": "Naka", "name_ru": "Naka", "tz": "", "district": "Ibaraki"}, {"id": 543, "name": "Mutsu", "name_ru": "Mutsu", "tz": "", "district": "Aomori"}, {"id": 544, "name": "Tomiya", "name_ru": "Tomiya", "tz": "", "district": "Miyagi"}, {"id": 545, "name": "Imaricho-ko", "name_ru": "Imarichō-kō", "tz": "", "district": "Saga"}, {"id": 546, "name": "Usa", "name_ru": "Usa", "tz": "", "district": "Ōita"}, {"id": 547, "name": "Minami-Soma", "name_ru": "Minami-Sōma", "tz": "", "district": "Fukushima"}, {"id": 548, "name": "Miyakojima", "name_ru": "Miyakojima", "tz": "", "district": "Okinawa"}, {"id": 549, "name": "Izumi", "name_ru": "Izumi", "tz": "", "district": "Kagoshima"}, {"id": 550, "name": "Bando", "name_ru": "Bandō", "tz": "", "district": "Ibaraki"}, {"id": 551, "name": "Tsukubamirai", "name_ru": "Tsukubamirai", "tz": "", "district": "Ibaraki"}, {"id": 552, "name": "Arao", "name_ru": "Arao", "tz": "", "district": "Kumamoto"}, {"id": 553, "name": "Satte", "name_ru": "Satte", "tz": "", "district": "Saitama"}, {"id": 554, "name": "Hannan", "name_ru": "Hannan", "tz": "", "district": "Ōsaka"}, {"id": 555, "name": "Nanao", "name_ru": "Nanao", "tz": "", "district": "Ishikawa"}, {"id": 556, "name": "Sakaidecho", "name_ru": "Sakaidechō", "tz": "", "district": "Kagawa"}, {"id": 557, "name": "Yuki", "name_ru": "Yūki", "tz": "", "district": "Ibaraki"}, {"id": 558, "name": "Kyotango", "name_ru": "Kyōtango", "tz": "", "district": "Kyōto"}, {"id": 559, "name": "Miyako", "name_ru": "Miyako", "tz": "", "district": "Iwate"}, {"id": 560, "name": "Goshogawara", "name_ru": "Goshogawara", "tz": "", "district": "Aomori"}, {"id": 561, "name": "Susono", "name_ru": "Susono", "tz": "", "district": "Shizuoka"}, {"id": 562, "name": "Nakagawa", "name_ru": "Nakagawa", "tz": "", "district": "Fukuoka"}, {"id": 563, "name": "Higashiura", "name_ru": "Higashiura", "tz": "", "district": "Aichi"}, {"id": 564, "name": "Yasu", "name_ru": "Yasu", "tz": "", "district": "Shiga"}, {"id": 565, "name": "Kameyama", "name_ru": "Kameyama", "tz": "", "district": "Mie"}, {"id": 566, "name": "Miyoshi", "name_ru": "Miyoshi", "tz": "", "district": "Hiroshima"}, {"id": 567, "name": "Nichinan", "name_ru": "Nichinan", "tz": "", "district": "Miyazaki"}, {"id": 568, "name": "Chikugo", "name_ru": "Chikugo", "tz": "", "district": "Fukuoka"}, {"id": 569, "name": "Noshiromachi", "name_ru": "Noshiromachi", "tz": "", "district": "Akita"}, {"id": 570, "name": "Tomisato", "name_ru": "Tomisato", "tz": "", "district": "Chiba"}, {"id": 571, "name": "Suzaka", "name_ru": "Suzaka", "tz": "", "district": "Nagano"}, {"id": 572, "name": "Tokamachi", "name_ru": "Tōkamachi", "tz": "", "district": "Niigata"}, {"id": 573, "name": "Hikari", "name_ru": "Hikari", "tz": "", "district": "Yamaguchi"}, {"id": 574, "name": "Asakura", "name_ru": "Asakura", "tz": "", "district": "Fukuoka"}, {"id": 575, "name": "Nomimachi", "name_ru": "Nomimachi", "tz": "", "district": "Ishikawa"}, {"id": 576, "name": "Midori", "name_ru": "Midori", "tz": "", "district": "Gunma"}, {"id": 577, "name": "Yamaga", "name_ru": "Yamaga", "tz": "", "district": "Kumamoto"}, {"id": 578, "name": "Omitama", "name_ru": "Omitama", "tz": "", "district": "Ibaraki"}, {"id": 579, "name": "Suwa", "name_ru": "Suwa", "tz": "", "district": "Nagano"}, {"id": 580, "name": "Ami", "name_ru": "Ami", "tz": "", "district": "Ibaraki"}, {"id": 581, "name": "Oamishirasato", "name_ru": "Ōamishirasato", "tz": "", "district": "Chiba"}, {"id": 582, "name": "Sanmu", "name_ru": "Sanmu", "tz": "", "district": "Chiba"}, {"id": 583, "name": "Ishigaki", "name_ru": "Ishigaki", "tz": "", "district": "Okinawa"}, {"id": 584, "name": "Shimotsucho-kominami", "name_ru": "Shimotsuchō-kominami", "tz": "", "district": "Wakayama"}, {"id": 585, "name": "Ena", "name_ru": "Ena", "tz": "", "district": "Gifu"}, {"id": 586, "name": "Okaya", "name_ru": "Okaya", "tz": "", "district": "Nagano"}, {"id": 587, "name": "Tonami", "name_ru": "Tonami", "tz": "", "district": "Toyama"}, {"id": 588, "name": "Higashine", "name_ru": "Higashine", "tz": "", "district": "Yamagata"}, {"id": 589, "name": "Takeocho-takeo", "name_ru": "Takeochō-takeo", "tz": "", "district": "Saga"}, {"id": 590, "name": "Ono", "name_ru": "Ono", "tz": "", "district": "Hyōgo"}, {"id": 591, "name": "Hitachi-ota", "name_ru": "Hitachi-ota", "tz": "", "district": "Ibaraki"}, {"id": 592, "name": "Kikugawa", "name_ru": "Kikugawa", "tz": "", "district": "Shizuoka"}, {"id": 593, "name": "Nanto", "name_ru": "Nanto", "tz": "", "district": "Toyama"}, {"id": 594, "name": "Gosen", "name_ru": "Gosen", "tz": "", "district": "Niigata"}, {"id": 595, "name": "Tomioka", "name_ru": "Tomioka", "tz": "", "district": "Gunma"}, {"id": 596, "name": "Noboribetsu", "name_ru": "Noboribetsu", "tz": "", "district": "Hokkaidō"}, {"id": 597, "name": "Fujiyoshida", "name_ru": "Fujiyoshida", "tz": "", "district": "Yamanashi"}, {"id": 598, "name": "Sanuki", "name_ru": "Sanuki", "tz": "", "district": "Kagawa"}, {"id": 599, "name": "Hioki", "name_ru": "Hioki", "tz": "", "district": "Kagoshima"}, {"id": 600, "name": "Shimeo", "name_ru": "Shimeo", "tz": "", "district": "Fukuoka"}, {"id": 601, "name": "Tamagawa", "name_ru": "Tamagawa", "tz": "", "district": "Fukuoka"}, {"id": 602, "name": "Izunokuni", "name_ru": "Izunokuni", "tz": "", "district": "Shizuoka"}, {"id": 603, "name": "Nakai", "name_ru": "Nakai", "tz": "", "district": "Kōchi"}, {"id": 604, "name": "Kurayoshi", "name_ru": "Kurayoshi", "tz": "", "district": "Tottori"}, {"id": 605, "name": "Kasaoka", "name_ru": "Kasaoka", "tz": "", "district": "Okayama"}, {"id": 606, "name": "Takashima", "name_ru": "Takashima", "tz": "", "district": "Shiga"}, {"id": 607, "name": "Kikuchi", "name_ru": "Kikuchi", "tz": "", "district": "Kumamoto"}, {"id": 608, "name": "Hokota", "name_ru": "Hokota", "tz": "", "district": "Ibaraki"}, {"id": 609, "name": "Shima", "name_ru": "Shima", "tz": "", "district": "Mie"}, {"id": 610, "name": "Kariya", "name_ru": "Kariya", "tz": "", "district": "Hyōgo"}, {"id": 611, "name": "Hokuto", "name_ru": "Hokuto", "tz": "", "district": "Hokkaidō"}, {"id": 612, "name": "Kitakata", "name_ru": "Kitakata", "tz": "", "district": "Fukushima"}, {"id": 613, "name": "Sugito", "name_ru": "Sugito", "tz": "", "district": "Saitama"}, {"id": 614, "name": "Nanjo", "name_ru": "Nanjō", "tz": "", "district": "Okinawa"}, {"id": 615, "name": "Sakura", "name_ru": "Sakura", "tz": "", "district": "Tochigi"}, {"id": 616, "name": "Tateyama", "name_ru": "Tateyama", "tz": "", "district": "Chiba"}, {"id": 617, "name": "Iwanuma", "name_ru": "Iwanuma", "tz": "", "district": "Miyagi"}, {"id": 618, "name": "Numata", "name_ru": "Numata", "tz": "", "district": "Gunma"}, {"id": 619, "name": "Nagaizumi", "name_ru": "Nagaizumi", "tz": "", "district": "Shizuoka"}, {"id": 620, "name": "Taketoyo", "name_ru": "Taketoyo", "tz": "", "district": "Aichi"}, {"id": 621, "name": "Kikuyo", "name_ru": "Kikuyō", "tz": "", "district": "Kumamoto"}, {"id": 622, "name": "Masuda", "name_ru": "Masuda", "tz": "", "district": "Shimane"}, {"id": 623, "name": "Hagi", "name_ru": "Hagi", "tz": "", "district": "Yamaguchi"}, {"id": 624, "name": "Otofuke", "name_ru": "Otofuke", "tz": "", "district": "Hokkaidō"}, {"id": 625, "name": "Goshikicho-aihara-minamidani", "name_ru": "Goshikichō-aihara-minamidani", "tz": "", "district": "Hyōgo"}, {"id": 626, "name": "Himi", "name_ru": "Himi", "tz": "", "district": "Toyama"}, {"id": 627, "name": "Yatomi", "name_ru": "Yatomi", "tz": "", "district": "Aichi"}, {"id": 628, "name": "Taniyama-chuo", "name_ru": "Taniyama-chūō", "tz": "", "district": "Kagoshima"}, {"id": 629, "name": "Ogimachi", "name_ru": "Ogimachi", "tz": "", "district": "Saga"}, {"id": 630, "name": "Shinshiro", "name_ru": "Shinshiro", "tz": "", "district": "Aichi"}, {"id": 631, "name": "Hokuto", "name_ru": "Hokuto", "tz": "", "district": "Yamanashi"}, {"id": 632, "name": "Makinohara", "name_ru": "Makinohara", "tz": "", "district": "Shizuoka"}, {"id": 633, "name": "Shimabara", "name_ru": "Shimabara", "tz": "", "district": "Nagasaki"}, {"id": 634, "name": "Kota", "name_ru": "Kōta", "tz": "", "district": "Aichi"}, {"id": 635, "name": "Kobayashi", "name_ru": "Kobayashi", "tz": "", "district": "Miyazaki"}, {"id": 636, "name": "Miura", "name_ru": "Miura", "tz": "", "district": "Kanagawa"}, {"id": 637, "name": "Obita", "name_ru": "Obita", "tz": "", "district": "Nagasaki"}, {"id": 638, "name": "Kasai", "name_ru": "Kasai", "tz": "", "district": "Hyōgo"}, {"id": 639, "name": "Akaiwa", "name_ru": "Akaiwa", "tz": "", "district": "Okayama"}, {"id": 640, "name": "Futtsu", "name_ru": "Futtsu", "tz": "", "district": "Chiba"}, {"id": 641, "name": "Nakano", "name_ru": "Nakano", "tz": "", "district": "Nagano"}, {"id": 642, "name": "Maniwa", "name_ru": "Maniwa", "tz": "", "district": "Okayama"}, {"id": 643, "name": "Minamishimabara", "name_ru": "Minamishimabara", "tz": "", "district": "Nagasaki"}, {"id": 644, "name": "Shimotsuma", "name_ru": "Shimotsuma", "tz": "", "district": "Ibaraki"}, {"id": 645, "name": "Nanbei", "name_ru": "Nanbei", "tz": "", "district": "Kanagawa"}, {"id": 646, "name": "Yuzawa", "name_ru": "Yuzawa", "tz": "", "district": "Akita"}, {"id": 647, "name": "Masaki", "name_ru": "Masaki", "tz": "", "district": "Ehime"}, {"id": 648, "name": "Kitaibaraki", "name_ru": "Kitaibaraki", "tz": "", "district": "Ibaraki"}, {"id": 649, "name": "Komoro", "name_ru": "Komoro", "tz": "", "district": "Nagano"}, {"id": 650, "name": "Unzen", "name_ru": "Unzen", "tz": "", "district": "Nagasaki"}, {"id": 651, "name": "Amami", "name_ru": "Amami", "tz": "", "district": "Okinawa"}, {"id": 652, "name": "Sumoto", "name_ru": "Sumoto", "tz": "", "district": "Hyōgo"}, {"id": 653, "name": "Awaji", "name_ru": "Awaji", "tz": "", "district": "Hyōgo"}, {"id": 654, "name": "Uozu", "name_ru": "Uozu", "tz": "", "district": "Toyama"}, {"id": 655, "name": "Kato", "name_ru": "Katō", "tz": "", "district": "Hyōgo"}, {"id": 656, "name": "Yomitan", "name_ru": "Yomitan", "tz": "", "district": "Okinawa"}, {"id": 657, "name": "Komono", "name_ru": "Komono", "tz": "", "district": "Mie"}, {"id": 658, "name": "Agano", "name_ru": "Agano", "tz": "", "district": "Niigata"}, {"id": 659, "name": "Aizawa", "name_ru": "Aizawa", "tz": "", "district": "Kanagawa"}, {"id": 660, "name": "Ozu", "name_ru": "Ōzu", "tz": "", "district": "Ehime"}, {"id": 661, "name": "Itoigawa", "name_ru": "Itoigawa", "tz": "", "district": "Niigata"}, {"id": 662, "name": "Kasumigaura", "name_ru": "Kasumigaura", "tz": "", "district": "Ibaraki"}, {"id": 663, "name": "Sagae", "name_ru": "Sagae", "tz": "", "district": "Yamagata"}, {"id": 664, "name": "Kurobeshin", "name_ru": "Kurobeshin", "tz": "", "district": "Toyama"}, {"id": 665, "name": "Mibu", "name_ru": "Mibu", "tz": "", "district": "Tochigi"}, {"id": 666, "name": "Takikawa", "name_ru": "Takikawa", "tz": "", "district": "Hokkaidō"}, {"id": 667, "name": "Mitsuke", "name_ru": "Mitsuke", "tz": "", "district": "Niigata"}, {"id": 668, "name": "Shibata", "name_ru": "Shibata", "tz": "", "district": "Miyagi"}, {"id": 669, "name": "Tamba-Sasayama", "name_ru": "Tamba-Sasayama", "tz": "", "district": "Hyōgo"}, {"id": 670, "name": "Higashimatsushima", "name_ru": "Higashimatsushima", "tz": "", "district": "Miyagi"}, {"id": 671, "name": "Inashiki", "name_ru": "Inashiki", "tz": "", "district": "Ibaraki"}, {"id": 672, "name": "Yoshinogawa", "name_ru": "Yoshinogawa", "tz": "", "district": "Tokushima"}, {"id": 673, "name": "Umi", "name_ru": "Umi", "tz": "", "district": "Fukuoka"}, {"id": 674, "name": "Hitachiomiya", "name_ru": "Hitachiomiya", "tz": "", "district": "Ibaraki"}, {"id": 675, "name": "Omagari", "name_ru": "Ōmagari", "tz": "", "district": "Akita"}, {"id": 676, "name": "Sakuragawa", "name_ru": "Sakuragawa", "tz": "", "district": "Ibaraki"}, {"id": 677, "name": "Ibusuki", "name_ru": "Ibusuki", "tz": "", "district": "Kagoshima"}, {"id": 678, "name": "Gujo", "name_ru": "Gujō", "tz": "", "district": "Gifu"}, {"id": 679, "name": "Nishiwaki", "name_ru": "Nishiwaki", "tz": "", "district": "Hyōgo"}, {"id": 680, "name": "Tokai", "name_ru": "Tōkai", "tz": "", "district": "Ibaraki"}, {"id": 681, "name": "Misawa", "name_ru": "Misawa", "tz": "", "district": "Aomori"}, {"id": 682, "name": "Ibara", "name_ru": "Ibara", "tz": "", "district": "Okayama"}, {"id": 683, "name": "Katsuragi", "name_ru": "Katsuragi", "tz": "", "district": "Nara"}, {"id": 684, "name": "Maibara", "name_ru": "Maibara", "tz": "", "district": "Shiga"}, {"id": 685, "name": "Tamamura", "name_ru": "Tamamura", "tz": "", "district": "Gunma"}, {"id": 686, "name": "Seika", "name_ru": "Seika", "tz": "", "district": "Kyōto"}, {"id": 687, "name": "Kannan", "name_ru": "Kannan", "tz": "", "district": "Shizuoka"}, {"id": 688, "name": "Tsubata", "name_ru": "Tsubata", "tz": "", "district": "Ishikawa"}, {"id": 689, "name": "Fuchucho", "name_ru": "Fuchūchō", "tz": "", "district": "Hiroshima"}, {"id": 690, "name": "Soma", "name_ru": "Sōma", "tz": "", "district": "Fukushima"}, {"id": 691, "name": "Mizunami", "name_ru": "Mizunami", "tz": "", "district": "Gifu"}, {"id": 692, "name": "Komatsushimacho", "name_ru": "Komatsushimachō", "tz": "", "district": "Tokushima"}, {"id": 693, "name": "Kanada", "name_ru": "Kanada", "tz": "", "district": "Fukuoka"}, {"id": 694, "name": "Yasugicho", "name_ru": "Yasugichō", "tz": "", "district": "Shimane"}, {"id": 695, "name": "Uto", "name_ru": "Uto", "tz": "", "district": "Kumamoto"}, {"id": 696, "name": "Morohongo", "name_ru": "Morohongō", "tz": "", "district": "Saitama"}, {"id": 697, "name": "Rifu", "name_ru": "Rifu", "tz": "", "district": "Miyagi"}, {"id": 698, "name": "Miyajima", "name_ru": "Miyajima", "tz": "", "district": "Kumamoto"}, {"id": 699, "name": "Setouchi", "name_ru": "Setouchi", "tz": "", "district": "Okayama"}, {"id": 700, "name": "Atami", "name_ru": "Atami", "tz": "", "district": "Shizuoka"}, {"id": 701, "name": "Usuki", "name_ru": "Usuki", "tz": "", "district": "Ōita"}, {"id": 702, "name": "Isumi", "name_ru": "Isumi", "tz": "", "district": "Chiba"}, {"id": 703, "name": "Minami-Boso", "name_ru": "Minami-Bōsō", "tz": "", "district": "Chiba"}, {"id": 704, "name": "Kahoku", "name_ru": "Kahoku", "tz": "", "district": "Ishikawa"}, {"id": 705, "name": "Kamata", "name_ru": "Kamata", "tz": "", "district": "Fukuoka"}, {"id": 706, "name": "Unnan", "name_ru": "Unnan", "tz": "", "district": "Shimane"}, {"id": 707, "name": "Ozu", "name_ru": "Ōzu", "tz": "", "district": "Kumamoto"}, {"id": 708, "name": "Tamura", "name_ru": "Tamura", "tz": "", "district": "Fukushima"}, {"id": 709, "name": "Iyo", "name_ru": "Iyo", "tz": "", "district": "Ehime"}, {"id": 710, "name": "Seiyo", "name_ru": "Seiyo", "tz": "", "district": "Ehime"}, {"id": 711, "name": "Sosa", "name_ru": "Sōsa", "tz": "", "district": "Chiba"}, {"id": 712, "name": "Shingu", "name_ru": "Shingū", "tz": "", "district": "Fukuoka"}, {"id": 713, "name": "Awa", "name_ru": "Awa", "tz": "", "district": "Tokushima"}, {"id": 714, "name": "Abashiri", "name_ru": "Abashiri", "tz": "", "district": "Hokkaidō"}, {"id": 715, "name": "Ofunato", "name_ru": "Ofunato", "tz": "", "district": "Iwate"}, {"id": 716, "name": "Goto", "name_ru": "Gotō", "tz": "", "district": "Nagasaki"}, {"id": 717, "name": "Inabe", "name_ru": "Inabe", "tz": "", "district": "Mie"}, {"id": 718, "name": "Shinjo", "name_ru": "Shinjō", "tz": "", "district": "Yamagata"}, {"id": 719, "name": "Toon", "name_ru": "Tōon", "tz": "", "district": "Ehime"}, {"id": 720, "name": "Shiso", "name_ru": "Shisō", "tz": "", "district": "Hyōgo"}, {"id": 721, "name": "Uonuma", "name_ru": "Uonuma", "tz": "", "district": "Niigata"}, {"id": 722, "name": "Mizuho", "name_ru": "Mizuho", "tz": "", "district": "Saitama"}, {"id": 723, "name": "Ojiya", "name_ru": "Ojiya", "tz": "", "district": "Niigata"}, {"id": 724, "name": "Sakaiminato", "name_ru": "Sakaiminato", "tz": "", "district": "Shimane"}, {"id": 725, "name": "Osawa", "name_ru": "Ōsawa", "tz": "", "district": "Fukuoka"}, {"id": 726, "name": "Taishi", "name_ru": "Taishi", "tz": "", "district": "Hyōgo"}, {"id": 727, "name": "Date", "name_ru": "Date", "tz": "", "district": "Hokkaidō"}, {"id": 728, "name": "Shobara", "name_ru": "Shōbara", "tz": "", "district": "Hiroshima"}, {"id": 729, "name": "Hayama", "name_ru": "Hayama", "tz": "", "district": "Kanagawa"}, {"id": 730, "name": "Watari", "name_ru": "Watari", "tz": "", "district": "Miyagi"}, {"id": 731, "name": "Minamikyushu", "name_ru": "Minamikyūshū", "tz": "", "district": "Kagoshima"}, {"id": 732, "name": "Asakuchi", "name_ru": "Asakuchi", "tz": "", "district": "Okayama"}, {"id": 733, "name": "Shimotoba", "name_ru": "Shimotoba", "tz": "", "district": "Kyōto"}, {"id": 734, "name": "Kamaishi", "name_ru": "Kamaishi", "tz": "", "district": "Iwate"}, {"id": 735, "name": "Bungoono", "name_ru": "Bungoōno", "tz": "", "district": "Ōita"}, {"id": 736, "name": "Mashiki", "name_ru": "Mashiki", "tz": "", "district": "Kumamoto"}, {"id": 737, "name": "Wakabadai", "name_ru": "Wakabadai", "tz": "", "district": "Hokkaidō"}, {"id": 738, "name": "Yamanashi", "name_ru": "Yamanashi", "tz": "", "district": "Yamanashi"}, {"id": 739, "name": "So", "name_ru": "Sō", "tz": "", "district": "Kagoshima"}, {"id": 740, "name": "Oiso", "name_ru": "Ōiso", "tz": "", "district": "Kanagawa"}, {"id": 741, "name": "Kuji", "name_ru": "Kuji", "tz": "", "district": "Iwate"}, {"id": 742, "name": "Yufu", "name_ru": "Yufu", "tz": "", "district": "Ōita"}, {"id": 743, "name": "Kaizu", "name_ru": "Kaizu", "tz": "", "district": "Gifu"}, {"id": 744, "name": "Motosu", "name_ru": "Motosu", "tz": "", "district": "Gifu"}, {"id": 745, "name": "Shiroishi", "name_ru": "Shiroishi", "tz": "", "district": "Miyagi"}, {"id": 746, "name": "Minamisatsuma", "name_ru": "Minamisatsuma", "tz": "", "district": "Kagoshima"}, {"id": 747, "name": "Shimanto", "name_ru": "Shimanto", "tz": "", "district": "Kōchi"}, {"id": 748, "name": "Yorii", "name_ru": "Yorii", "tz": "", "district": "Saitama"}, {"id": 749, "name": "Tawaramoto", "name_ru": "Tawaramoto", "tz": "", "district": "Nara"}, {"id": 750, "name": "Zentsujicho", "name_ru": "Zentsujichó", "tz": "", "district": "Kagawa"}, {"id": 751, "name": "Konan", "name_ru": "Kōnan", "tz": "", "district": "Kōchi"}, {"id": 752, "name": "Namerikawa", "name_ru": "Namerikawa", "tz": "", "district": "Toyama"}, {"id": 753, "name": "Shimizucho", "name_ru": "Shimizuchō", "tz": "", "district": "Shizuoka"}, {"id": 754, "name": "Nagato", "name_ru": "Nagato", "tz": "", "district": "Yamaguchi"}, {"id": 755, "name": "Bizen", "name_ru": "Bizen", "tz": "", "district": "Okayama"}, {"id": 756, "name": "Odacho-oda", "name_ru": "Ōdachō-ōda", "tz": "", "district": "Shimane"}, {"id": 757, "name": "Shima", "name_ru": "Shima", "tz": "", "district": "Iwate"}, {"id": 758, "name": "Yaese", "name_ru": "Yaese", "tz": "", "district": "Okinawa"}, {"id": 759, "name": "Chuo", "name_ru": "Chūō", "tz": "", "district": "Yamanashi"}, {"id": 760, "name": "Namegata", "name_ru": "Namegata", "tz": "", "district": "Ibaraki"}, {"id": 761, "name": "Komagane", "name_ru": "Komagane", "tz": "", "district": "Nagano"}, {"id": 762, "name": "Sasaguri", "name_ru": "Sasaguri", "tz": "", "district": "Fukuoka"}, {"id": 763, "name": "Katagami", "name_ru": "Katagami", "tz": "", "district": "Akita"}, {"id": 764, "name": "Kuroishi", "name_ru": "Kuroishi", "tz": "", "district": "Aomori"}, {"id": 765, "name": "Maebara", "name_ru": "Maebara", "tz": "", "district": "Chiba"}, {"id": 766, "name": "Ayabe", "name_ru": "Ayabe", "tz": "", "district": "Kyōto"}, {"id": 767, "name": "Yawatahama-shi", "name_ru": "Yawatahama-shi", "tz": "", "district": "Ehime"}, {"id": 768, "name": "Ibaraki", "name_ru": "Ibaraki", "tz": "", "district": "Ibaraki"}, {"id": 769, "name": "Okagaki", "name_ru": "Okagaki", "tz": "", "district": "Fukuoka"}, {"id": 770, "name": "Hitoyoshi", "name_ru": "Hitoyoshi", "tz": "", "district": "Kumamoto"}, {"id": 771, "name": "Kaminokawa", "name_ru": "Kaminokawa", "tz": "", "district": "Tochigi"}, {"id": 772, "name": "Yaita", "name_ru": "Yaita", "tz": "", "district": "Tochigi"}, {"id": 773, "name": "Nantan", "name_ru": "Nantan", "tz": "", "district": "Kyōto"}, {"id": 774, "name": "Omaezaki", "name_ru": "Omaezaki", "tz": "", "district": "Shizuoka"}, {"id": 775, "name": "Kamisato", "name_ru": "Kamisato", "tz": "", "district": "Saitama"}, {"id": 776, "name": "Inami", "name_ru": "Inami", "tz": "", "district": "Hyōgo"}, {"id": 777, "name": "Kanzakimachi-kanzaki", "name_ru": "Kanzakimachi-kanzaki", "tz": "", "district": "Saga"}, {"id": 778, "name": "Yanai", "name_ru": "Yanai", "tz": "", "district": "Yamaguchi"}, {"id": 779, "name": "Yunoshima", "name_ru": "Yunoshima", "tz": "", "district": "Gifu"}, {"id": 780, "name": "Motomiya", "name_ru": "Motomiya", "tz": "", "district": "Fukushima"}, {"id": 781, "name": "Nanyo", "name_ru": "Nanyō", "tz": "", "district": "Yamagata"}, {"id": 782, "name": "Ono", "name_ru": "Ono", "tz": "", "district": "Fukui"}, {"id": 783, "name": "Hirakawacho", "name_ru": "Hirakawachō", "tz": "", "district": "Aomori"}, {"id": 784, "name": "Togitsu", "name_ru": "Togitsu", "tz": "", "district": "Nagasaki"}, {"id": 785, "name": "Tsuru", "name_ru": "Tsuru", "tz": "", "district": "Yamanashi"}, {"id": 786, "name": "Myoko", "name_ru": "Myōkō", "tz": "", "district": "Niigata"}, {"id": 787, "name": "Tsuruno", "name_ru": "Tsuruno", "tz": "", "district": "Aomori"}, {"id": 788, "name": "Matsubushi", "name_ru": "Matsubushi", "tz": "", "district": "Saitama"}, {"id": 789, "name": "Sue", "name_ru": "Sue", "tz": "", "district": "Fukuoka"}, {"id": 790, "name": "Yoshida", "name_ru": "Yoshida", "tz": "", "district": "Shizuoka"}, {"id": 791, "name": "Chikuzen", "name_ru": "Chikuzen", "tz": "", "district": "Fukuoka"}, {"id": 792, "name": "Inagawa", "name_ru": "Inagawa", "tz": "", "district": "Hyōgo"}, {"id": 793, "name": "Kitaakita", "name_ru": "Kitaakita", "tz": "", "district": "Akita"}, {"id": 794, "name": "Takanezawa", "name_ru": "Takanezawa", "tz": "", "district": "Tochigi"}, {"id": 795, "name": "Tomi", "name_ru": "Tōmi", "tz": "", "district": "Nagano"}, {"id": 796, "name": "Shibushi", "name_ru": "Shibushi", "tz": "", "district": "Kagoshima"}, {"id": 797, "name": "Agui", "name_ru": "Agui", "tz": "", "district": "Aichi"}, {"id": 798, "name": "Kaminoyama", "name_ru": "Kaminoyama", "tz": "", "district": "Yamagata"}, {"id": 799, "name": "Ikaruga", "name_ru": "Ikaruga", "tz": "", "district": "Nara"}, {"id": 800, "name": "Koshu", "name_ru": "Kōshū", "tz": "", "district": "Yamanashi"}, {"id": 801, "name": "Nirasaki", "name_ru": "Nirasaki", "tz": "", "district": "Yamanashi"}, {"id": 802, "name": "Hanawa", "name_ru": "Hanawa", "tz": "", "district": "Akita"}, {"id": 803, "name": "Hirado", "name_ru": "Hirado", "tz": "", "district": "Nagasaki"}, {"id": 804, "name": "Takahashi", "name_ru": "Takahashi", "tz": "", "district": "Okayama"}, {"id": 805, "name": "Ogawa", "name_ru": "Ogawa", "tz": "", "district": "Saitama"}, {"id": 806, "name": "Oyabe", "name_ru": "Oyabe", "tz": "", "district": "Toyama"}, {"id": 807, "name": "Saito", "name_ru": "Saito", "tz": "", "district": "Miyazaki"}, {"id": 808, "name": "Aioi", "name_ru": "Aioi", "tz": "", "district": "Hyōgo"}, {"id": 809, "name": "Asago", "name_ru": "Asago", "tz": "", "district": "Hyōgo"}, {"id": 810, "name": "Izu", "name_ru": "Izu", "tz": "", "district": "Shizuoka"}, {"id": 811, "name": "Tsushima", "name_ru": "Tsushima", "tz": "", "district": "Nagasaki"}, {"id": 812, "name": "Higashikagawa", "name_ru": "Higashikagawa", "tz": "", "district": "Kagawa"}, {"id": 813, "name": "Taiwa", "name_ru": "Taiwa", "tz": "", "district": "Miyagi"}, {"id": 814, "name": "Hiji", "name_ru": "Hiji", "tz": "", "district": "Ōita"}, {"id": 815, "name": "Obama", "name_ru": "Obama", "tz": "", "district": "Fukui"}, {"id": 816, "name": "Honcho", "name_ru": "Honchō", "tz": "", "district": "Hokkaidō"}, {"id": 817, "name": "Mima", "name_ru": "Mima", "tz": "", "district": "Tokushima"}, {"id": 818, "name": "Tainai", "name_ru": "Tainai", "tz": "", "district": "Niigata"}, {"id": 819, "name": "Yahaba", "name_ru": "Yahaba", "tz": "", "district": "Iwate"}, {"id": 820, "name": "Kakuda", "name_ru": "Kakuda", "tz": "", "district": "Miyagi"}, {"id": 821, "name": "Hikawa", "name_ru": "Hikawa", "tz": "", "district": "Shimane"}, {"id": 822, "name": "Kashima", "name_ru": "Kashima", "tz": "", "district": "Saga"}, {"id": 823, "name": "Ouda-yamaguchi", "name_ru": "Ōuda-yamaguchi", "tz": "", "district": "Nara"}, {"id": 824, "name": "Uchinada", "name_ru": "Uchinada", "tz": "", "district": "Ishikawa"}, {"id": 825, "name": "Kitsuki", "name_ru": "Kitsuki", "tz": "", "district": "Ōita"}, {"id": 826, "name": "Itako", "name_ru": "Itako", "tz": "", "district": "Ibaraki"}, {"id": 827, "name": "Ukiha", "name_ru": "Ukiha", "tz": "", "district": "Fukuoka"}, {"id": 828, "name": "Gojo", "name_ru": "Gojō", "tz": "", "district": "Nara"}, {"id": 829, "name": "Niimi", "name_ru": "Niimi", "tz": "", "district": "Okayama"}, {"id": 830, "name": "Takahagi", "name_ru": "Takahagi", "tz": "", "district": "Ibaraki"}, {"id": 831, "name": "Awara", "name_ru": "Awara", "tz": "", "district": "Fukui"}, {"id": 832, "name": "Ichikikushikino", "name_ru": "Ichikikushikino", "tz": "", "district": "Kagoshima"}, {"id": 833, "name": "Akitakata", "name_ru": "Akitakata", "tz": "", "district": "Hiroshima"}, {"id": 834, "name": "Miki", "name_ru": "Miki", "tz": "", "district": "Kagawa"}, {"id": 835, "name": "Nayoro", "name_ru": "Nayoro", "tz": "", "district": "Hokkaidō"}, {"id": 836, "name": "Tarui", "name_ru": "Tarui", "tz": "", "district": "Gifu"}, {"id": 837, "name": "Yoro", "name_ru": "Yōrō", "tz": "", "district": "Gifu"}, {"id": 838, "name": "Miyanaga", "name_ru": "Miyanaga", "tz": "", "district": "Fukuoka"}, {"id": 839, "name": "Otake", "name_ru": "Ōtake", "tz": "", "district": "Hiroshima"}, {"id": 840, "name": "Toin", "name_ru": "Tōin", "tz": "", "district": "Mie"}, {"id": 841, "name": "Shingu", "name_ru": "Shingū", "tz": "", "district": "Mie"}, {"id": 842, "name": "Makubetsu", "name_ru": "Makubetsu", "tz": "", "district": "Hokkaidō"}, {"id": 843, "name": "Ora", "name_ru": "Ōra", "tz": "", "district": "Gunma"}, {"id": 844, "name": "Arida", "name_ru": "Arida", "tz": "", "district": "Wakayama"}, {"id": 845, "name": "Kami", "name_ru": "Kami", "tz": "", "district": "Kōchi"}, {"id": 846, "name": "Saikaicho-kobago", "name_ru": "Saikaichō-kobagō", "tz": "", "district": "Nagasaki"}, {"id": 847, "name": "Oguchi", "name_ru": "Ōguchi", "tz": "", "district": "Aichi"}, {"id": 848, "name": "Nagai", "name_ru": "Nagai", "tz": "", "district": "Yamagata"}, {"id": 849, "name": "Tosa", "name_ru": "Tosa", "tz": "", "district": "Kōchi"}, {"id": 850, "name": "Omachi", "name_ru": "Ōmachi", "tz": "", "district": "Nagano"}, {"id": 851, "name": "Miyaki", "name_ru": "Miyaki", "tz": "", "district": "Saga"}, {"id": 852, "name": "Kunisakimachi-tsurugawa", "name_ru": "Kunisakimachi-tsurugawa", "tz": "", "district": "Ōita"}, {"id": 853, "name": "Ureshinomachi-shimojuku", "name_ru": "Ureshinomachi-shimojuku", "tz": "", "district": "Saga"}, {"id": 854, "name": "Nogi", "name_ru": "Nogi", "tz": "", "district": "Tochigi"}, {"id": 855, "name": "Ishii", "name_ru": "Ishii", "tz": "", "district": "Tokushima"}, {"id": 856, "name": "Mimata", "name_ru": "Mimata", "tz": "", "district": "Miyazaki"}, {"id": 857, "name": "Fujikawaguchiko", "name_ru": "Fujikawaguchiko", "tz": "", "district": "Yamanashi"}, {"id": 858, "name": "Mimasaka", "name_ru": "Mimasaka", "tz": "", "district": "Okayama"}, {"id": 859, "name": "Yamagata", "name_ru": "Yamagata", "tz": "", "district": "Gifu"}, {"id": 860, "name": "Kamo", "name_ru": "Kamo", "tz": "", "district": "Niigata"}, {"id": 861, "name": "Aridagawa", "name_ru": "Aridagawa", "tz": "", "district": "Wakayama"}, {"id": 862, "name": "Tono", "name_ru": "Tōno", "tz": "", "district": "Iwate"}, {"id": 863, "name": "Minowa", "name_ru": "Minowa", "tz": "", "district": "Nagano"}, {"id": 864, "name": "Ninohe", "name_ru": "Ninohe", "tz": "", "district": "Iwate"}, {"id": 865, "name": "Tateyama", "name_ru": "Tateyama", "tz": "", "district": "Toyama"}, {"id": 866, "name": "Iki", "name_ru": "Iki", "tz": "", "district": "Nagasaki"}, {"id": 867, "name": "Nemuro", "name_ru": "Nemuro", "tz": "", "district": "Hokkaidō"}, {"id": 868, "name": "Aso", "name_ru": "Aso", "tz": "", "district": "Kumamoto"}, {"id": 869, "name": "Oga", "name_ru": "Oga", "tz": "", "district": "Akita"}, {"id": 870, "name": "Oirase", "name_ru": "Oirase", "tz": "", "district": "Aomori"}, {"id": 871, "name": "Gose", "name_ru": "Gose", "tz": "", "district": "Nara"}, {"id": 872, "name": "Nasukarasuyama", "name_ru": "Nasukarasuyama", "tz": "", "district": "Tochigi"}, {"id": 873, "name": "Buzen", "name_ru": "Buzen", "tz": "", "district": "Fukuoka"}, {"id": 874, "name": "Sakai", "name_ru": "Sakai", "tz": "", "district": "Ibaraki"}, {"id": 875, "name": "Senboku", "name_ru": "Senboku", "tz": "", "district": "Akita"}, {"id": 876, "name": "Ogawara", "name_ru": "Ōgawara", "tz": "", "district": "Miyagi"}, {"id": 877, "name": "Isa", "name_ru": "Isa", "tz": "", "district": "Kagoshima"}, {"id": 878, "name": "Kamiamakusa", "name_ru": "Kamiamakusa", "tz": "", "district": "Kumamoto"}, {"id": 879, "name": "Misato", "name_ru": "Misato", "tz": "", "district": "Miyagi"}, {"id": 880, "name": "Yugawara", "name_ru": "Yugawara", "tz": "", "district": "Kanagawa"}, {"id": 881, "name": "Wajimazakimachi", "name_ru": "Wajimazakimachi", "tz": "", "district": "Ishikawa"}, {"id": 882, "name": "Ikeda", "name_ru": "Ikeda", "tz": "", "district": "Gifu"}, {"id": 883, "name": "Nyuzen", "name_ru": "Nyūzen", "tz": "", "district": "Toyama"}, {"id": 884, "name": "Takehara", "name_ru": "Takehara", "tz": "", "district": "Hiroshima"}, {"id": 885, "name": "Hachimantai", "name_ru": "Hachimantai", "tz": "", "district": "Iwate"}, {"id": 886, "name": "Tadotsu", "name_ru": "Tadotsu", "tz": "", "district": "Kagawa"}, {"id": 887, "name": "Miyoshi", "name_ru": "Miyoshi", "tz": "", "district": "Tokushima"}, {"id": 888, "name": "Nasu", "name_ru": "Nasu", "tz": "", "district": "Tochigi"}, {"id": 889, "name": "Kumano", "name_ru": "Kumano", "tz": "", "district": "Hiroshima"}, {"id": 890, "name": "Nakagusuku", "name_ru": "Nakagusuku", "tz": "", "district": "Okinawa"}, {"id": 891, "name": "Yoshioka", "name_ru": "Yoshioka", "tz": "", "district": "Gunma"}, {"id": 892, "name": "Minamata", "name_ru": "Minamata", "tz": "", "district": "Kumamoto"}, {"id": 893, "name": "Mine", "name_ru": "Mine", "tz": "", "district": "Yamaguchi"}, {"id": 894, "name": "Gobo", "name_ru": "Gobō", "tz": "", "district": "Wakayama"}, {"id": 895, "name": "Nakashunbetsu", "name_ru": "Nakashunbetsu", "tz": "", "district": "Hokkaidō"}, {"id": 896, "name": "Nikaho", "name_ru": "Nikaho", "tz": "", "district": "Akita"}, {"id": 897, "name": "Meiwa", "name_ru": "Meiwa", "tz": "", "district": "Mie"}, {"id": 898, "name": "Ono", "name_ru": "Ōno", "tz": "", "district": "Gifu"}, {"id": 899, "name": "Ayagawa", "name_ru": "Ayagawa", "tz": "", "district": "Kagawa"}, {"id": 900, "name": "Mihama", "name_ru": "Mihama", "tz": "", "district": "Aichi"}, {"id": 901, "name": "Gotsucho", "name_ru": "Gōtsuchō", "tz": "", "district": "Shimane"}, {"id": 902, "name": "Uenohara", "name_ru": "Uenohara", "tz": "", "district": "Kanagawa"}, {"id": 903, "name": "Furukawa", "name_ru": "Furukawa", "tz": "", "district": "Gifu"}, {"id": 904, "name": "Yokoshibahikari", "name_ru": "Yokoshibahikari", "tz": "", "district": "Chiba"}, {"id": 905, "name": "Otsuki", "name_ru": "Ōtsuki", "tz": "", "district": "Yamanashi"}, {"id": 906, "name": "Takahata", "name_ru": "Takahata", "tz": "", "district": "Yamagata"}, {"id": 907, "name": "Murayama", "name_ru": "Murayama", "tz": "", "district": "Yamagata"}, {"id": 908, "name": "Honmachi", "name_ru": "Honmachi", "tz": "", "district": "Fukui"}, {"id": 909, "name": "Shiroishi", "name_ru": "Shiroishi", "tz": "", "district": "Saga"}, {"id": 910, "name": "Bungotakada", "name_ru": "Bungotakada", "tz": "", "district": "Ōita"}, {"id": 911, "name": "Shinhidaka", "name_ru": "Shinhidaka", "tz": "", "district": "Hokkaidō"}, {"id": 912, "name": "Fukuyoshi", "name_ru": "Fukuyoshi", "tz": "", "district": "Fukuoka"}, {"id": 913, "name": "Yabu", "name_ru": "Yabu", "tz": "", "district": "Hyōgo"}, {"id": 914, "name": "Mashiko", "name_ru": "Mashiko", "tz": "", "district": "Tochigi"}, {"id": 915, "name": "Etajima", "name_ru": "Etajima", "tz": "", "district": "Hiroshima"}, {"id": 916, "name": "Kami", "name_ru": "Kami", "tz": "", "district": "Miyagi"}, {"id": 917, "name": "Aisho", "name_ru": "Aishō", "tz": "", "district": "Shiga"}, {"id": 918, "name": "Matsuura", "name_ru": "Matsuura", "tz": "", "district": "Nagasaki"}, {"id": 919, "name": "Shisui", "name_ru": "Shisui", "tz": "", "district": "Chiba"}, {"id": 920, "name": "Mobetsu", "name_ru": "Mobetsu", "tz": "", "district": "Hokkaidō"}, {"id": 921, "name": "Yachiyo", "name_ru": "Yachiyo", "tz": "", "district": "Ibaraki"}, {"id": 922, "name": "Hino", "name_ru": "Hino", "tz": "", "district": "Shiga"}, {"id": 923, "name": "Furano", "name_ru": "Furano", "tz": "", "district": "Hokkaidō"}, {"id": 924, "name": "Ino", "name_ru": "Ino", "tz": "", "district": "Kōchi"}, {"id": 925, "name": "Shimogamo", "name_ru": "Shimogamo", "tz": "", "district": "Shizuoka"}, {"id": 926, "name": "Nishigo", "name_ru": "Nishigō", "tz": "", "district": "Fukushima"}, {"id": 927, "name": "Ryuyo", "name_ru": "Ryūyō", "tz": "", "district": "Shizuoka"}, {"id": 928, "name": "Bibai", "name_ru": "Bibai", "tz": "", "district": "Hokkaidō"}, {"id": 929, "name": "Susaki", "name_ru": "Susaki", "tz": "", "district": "Kōchi"}, {"id": 930, "name": "Namegawa", "name_ru": "Namegawa", "tz": "", "district": "Saitama"}, {"id": 931, "name": "Sakae", "name_ru": "Sakae", "tz": "", "district": "Chiba"}, {"id": 932, "name": "Tobe", "name_ru": "Tobe", "tz": "", "district": "Ehime"}, {"id": 933, "name": "Takanabe", "name_ru": "Takanabe", "tz": "", "district": "Miyazaki"}, {"id": 934, "name": "Rumoi", "name_ru": "Rumoi", "tz": "", "district": "Hokkaidō"}, {"id": 935, "name": "Hirokawa", "name_ru": "Hirokawa", "tz": "", "district": "Fukuoka"}, {"id": 936, "name": "Hakui", "name_ru": "Hakui", "tz": "", "district": "Ishikawa"}, {"id": 937, "name": "Satsuma", "name_ru": "Satsuma", "tz": "", "district": "Kagoshima"}, {"id": 938, "name": "Fukagawa", "name_ru": "Fukagawa", "tz": "", "district": "Hokkaidō"}, {"id": 939, "name": "Makurazaki", "name_ru": "Makurazaki", "tz": "", "district": "Kagoshima"}, {"id": 940, "name": "Shirahama", "name_ru": "Shirahama", "tz": "", "district": "Wakayama"}, {"id": 941, "name": "Shonai", "name_ru": "Shōnai", "tz": "", "district": "Yamagata"}, {"id": 942, "name": "Yosano", "name_ru": "Yosano", "tz": "", "district": "Kyōto"}, {"id": 943, "name": "Echizen", "name_ru": "Echizen", "tz": "", "district": "Fukui"}, {"id": 944, "name": "Kitatajima", "name_ru": "Kitatajima", "tz": "", "district": "Saitama"}, {"id": 945, "name": "Karuizawa", "name_ru": "Karuizawa", "tz": "", "district": "Gunma"}, {"id": 946, "name": "Taketa", "name_ru": "Taketa", "tz": "", "district": "Ōita"}, {"id": 947, "name": "Fukusaki", "name_ru": "Fukusaki", "tz": "", "district": "Hyōgo"}, {"id": 948, "name": "Ibigawa", "name_ru": "Ibigawa", "tz": "", "district": "Gifu"}, {"id": 949, "name": "Godo", "name_ru": "Gōdo", "tz": "", "district": "Gifu"}, {"id": 950, "name": "Kushiro", "name_ru": "Kushiro", "tz": "", "district": "Hokkaidō"}, {"id": 951, "name": "Onga", "name_ru": "Onga", "tz": "", "district": "Fukuoka"}, {"id": 952, "name": "Mino", "name_ru": "Mino", "tz": "", "district": "Gifu"}, {"id": 953, "name": "Kamiichi", "name_ru": "Kamiichi", "tz": "", "district": "Toyama"}, {"id": 954, "name": "Iiyama", "name_ru": "Iiyama", "tz": "", "district": "Nagano"}, {"id": 955, "name": "Mukaiengaru", "name_ru": "Mukaiengaru", "tz": "", "district": "Hokkaidō"}, {"id": 956, "name": "Taka", "name_ru": "Taka", "tz": "", "district": "Hyōgo"}, {"id": 957, "name": "Ainan", "name_ru": "Ainan", "tz": "", "district": "Ehime"}, {"id": 958, "name": "Mure", "name_ru": "Mure", "tz": "", "district": "Kagawa"}, {"id": 959, "name": "Sukumo", "name_ru": "Sukumo", "tz": "", "district": "Kōchi"}, {"id": 960, "name": "Arita", "name_ru": "Arita", "tz": "", "district": "Saga"}, {"id": 961, "name": "Akune", "name_ru": "Akune", "tz": "", "district": "Kagoshima"}, {"id": 962, "name": "Aizumisato", "name_ru": "Aizumisato", "tz": "", "district": "Fukushima"}, {"id": 963, "name": "Shichigahama", "name_ru": "Shichigahama", "tz": "", "district": "Miyagi"}, {"id": 964, "name": "Eiheiji", "name_ru": "Eiheiji", "tz": "", "district": "Fukui"}, {"id": 965, "name": "Shimomura", "name_ru": "Shimomura", "tz": "", "district": "Nagano"}, {"id": 966, "name": "Motomachi", "name_ru": "Motomachi", "tz": "", "district": "Hokkaidō"}, {"id": 967, "name": "Heguri", "name_ru": "Heguri", "tz": "", "district": "Nara"}, {"id": 968, "name": "Miyatoko", "name_ru": "Miyatoko", "tz": "", "district": "Fukuoka"}, {"id": 969, "name": "Tatsuno", "name_ru": "Tatsuno", "tz": "", "district": "Nagano"}, {"id": 970, "name": "Misato", "name_ru": "Misato", "tz": "", "district": "Akita"}, {"id": 971, "name": "Yoshimi", "name_ru": "Yoshimi", "tz": "", "district": "Saitama"}, {"id": 972, "name": "Kunitomi", "name_ru": "Kunitomi", "tz": "", "district": "Miyazaki"}, {"id": 973, "name": "Ranzan", "name_ru": "Ranzan", "tz": "", "district": "Saitama"}, {"id": 974, "name": "Toyono", "name_ru": "Toyono", "tz": "", "district": "Ōsaka"}, {"id": 975, "name": "Kitanakagusuku", "name_ru": "Kitanakagusuku", "tz": "", "district": "Okinawa"}, {"id": 976, "name": "Taku", "name_ru": "Taku", "tz": "", "district": "Saga"}, {"id": 977, "name": "Yoichi", "name_ru": "Yoichi", "tz": "", "district": "Hokkaidō"}, {"id": 978, "name": "Memuro-minami", "name_ru": "Memuro-minami", "tz": "", "district": "Hokkaidō"}, {"id": 979, "name": "Shika", "name_ru": "Shika", "tz": "", "district": "Ishikawa"}, {"id": 980, "name": "Oyama", "name_ru": "Oyama", "tz": "", "district": "Kanagawa"}, {"id": 981, "name": "Kishi", "name_ru": "Kishi", "tz": "", "district": "Kanagawa"}, {"id": 982, "name": "Oi", "name_ru": "Ōi", "tz": "", "district": "Kanagawa"}, {"id": 983, "name": "Kiyama", "name_ru": "Kiyama", "tz": "", "district": "Fukuoka"}, {"id": 984, "name": "Rikuzen-Takata", "name_ru": "Rikuzen-Takata", "tz": "", "district": "Iwate"}, {"id": 985, "name": "Minamishibetsucho", "name_ru": "Minamishibetsuchō", "tz": "", "district": "Hokkaidō"}, {"id": 986, "name": "Shirosato", "name_ru": "Shirosato", "tz": "", "district": "Ibaraki"}, {"id": 987, "name": "Mitake", "name_ru": "Mitake", "tz": "", "district": "Gifu"}, {"id": 988, "name": "Kahoku", "name_ru": "Kahoku", "tz": "", "district": "Yamagata"}, {"id": 989, "name": "Kitahiroshima", "name_ru": "Kitahiroshima", "tz": "", "district": "Hiroshima"}, {"id": 990, "name": "Hinode", "name_ru": "Hinode", "tz": "", "district": "Tōkyō"}, {"id": 991, "name": "Toba", "name_ru": "Toba", "tz": "", "district": "Mie"}, {"id": 992, "name": "Ebino", "name_ru": "Ebino", "tz": "", "district": "Miyazaki"}, {"id": 993, "name": "Shin-Kamigoto", "name_ru": "Shin-Kamigotō", "tz": "", "district": "Nagasaki"}, {"id": 994, "name": "Miharu", "name_ru": "Miharu", "tz": "", "district": "Fukushima"}, {"id": 995, "name": "Kadogawa", "name_ru": "Kadogawa", "tz": "", "district": "Miyazaki"}, {"id": 996, "name": "Mori", "name_ru": "Mori", "tz": "", "district": "Shizuoka"}, {"id": 997, "name": "Manno", "name_ru": "Mannō", "tz": "", "district": "Kagawa"}, {"id": 998, "name": "Minakami", "name_ru": "Minakami", "tz": "", "district": "Gunma"}, {"id": 999, "name": "Minamichita", "name_ru": "Minamichita", "tz": "", "district": "Aichi"}, {"id": 1000, "name": "Tsuiki", "name_ru": "Tsuiki", "tz": "", "district": "Fukuoka"}, {"id": 1001, "name": "Yabuki", "name_ru": "Yabuki", "tz": "", "district": "Fukushima"}, {"id": 1002, "name": "Kumage", "name_ru": "Kumage", "tz": "", "district": "Yamaguchi"}, {"id": 1003, "name": "Oyodo", "name_ru": "Ōyodo", "tz": "", "district": "Nara"}, {"id": 1004, "name": "Katsuura", "name_ru": "Katsuura", "tz": "", "district": "Chiba"}, {"id": 1005, "name": "Kushima", "name_ru": "Kushima", "tz": "", "district": "Miyazaki"}, {"id": 1006, "name": "Kawagoe", "name_ru": "Kawagoe", "tz": "", "district": "Mie"}, {"id": 1007, "name": "Shintomi", "name_ru": "Shintomi", "tz": "", "district": "Miyazaki"}, {"id": 1008, "name": "Sunagawa", "name_ru": "Sunagawa", "tz": "", "district": "Hokkaidō"}, {"id": 1009, "name": "Yoshinogari", "name_ru": "Yoshinogari", "tz": "", "district": "Saga"}, {"id": 1010, "name": "Miyazu", "name_ru": "Miyazu", "tz": "", "district": "Kyōto"}, {"id": 1011, "name": "Mifune", "name_ru": "Mifune", "tz": "", "district": "Kumamoto"}, {"id": 1012, "name": "Nakanoto", "name_ru": "Nakanoto", "tz": "", "district": "Ishikawa"}, {"id": 1013, "name": "Nanbu", "name_ru": "Nanbu", "tz": "", "district": "Aomori"}, {"id": 1014, "name": "Tohoku", "name_ru": "Tōhoku", "tz": "", "district": "Aomori"}, {"id": 1015, "name": "Shiraoi", "name_ru": "Shiraoi", "tz": "", "district": "Hokkaidō"}, {"id": 1016, "name": "Oarai", "name_ru": "Ōarai", "tz": "", "district": "Ibaraki"}, {"id": 1017, "name": "Kumiyama", "name_ru": "Kumiyama", "tz": "", "district": "Kyōto"}, {"id": 1018, "name": "Kotoura", "name_ru": "Kotoura", "tz": "", "district": "Tottori"}, {"id": 1019, "name": "Yurihama", "name_ru": "Yurihama", "tz": "", "district": "Tottori"}, {"id": 1020, "name": "Owase", "name_ru": "Owase", "tz": "", "district": "Mie"}, {"id": 1021, "name": "Aki", "name_ru": "Aki", "tz": "", "district": "Kōchi"}, {"id": 1022, "name": "Minamiminowa", "name_ru": "Minamiminowa", "tz": "", "district": "Nagano"}, {"id": 1023, "name": "Kanan", "name_ru": "Kanan", "tz": "", "district": "Ōsaka"}, {"id": 1024, "name": "Nagasu", "name_ru": "Nagasu", "tz": "", "district": "Kumamoto"}, {"id": 1025, "name": "Tachiarai", "name_ru": "Tachiarai", "tz": "", "district": "Fukuoka"}, {"id": 1026, "name": "Tsukumiura", "name_ru": "Tsukumiura", "tz": "", "district": "Ōita"}, {"id": 1027, "name": "Gonohe", "name_ru": "Gonohe", "tz": "", "district": "Aomori"}, {"id": 1028, "name": "Kumano", "name_ru": "Kumano", "tz": "", "district": "Mie"}, {"id": 1029, "name": "Miyota", "name_ru": "Miyota", "tz": "", "district": "Nagano"}, {"id": 1030, "name": "Matsushige", "name_ru": "Matsushige", "tz": "", "district": "Tokushima"}, {"id": 1031, "name": "Kasumi", "name_ru": "Kasumi", "tz": "", "district": "Hyōgo"}, {"id": 1032, "name": "Yazu", "name_ru": "Yazu", "tz": "", "district": "Tottori"}, {"id": 1033, "name": "Yakumo", "name_ru": "Yakumo", "tz": "", "district": "Hokkaidō"}, {"id": 1034, "name": "Ashikita", "name_ru": "Ashikita", "tz": "", "district": "Kumamoto"}, {"id": 1035, "name": "Kasagi", "name_ru": "Kasagi", "tz": "", "district": "Wakayama"}, {"id": 1036, "name": "Tobetsu", "name_ru": "Tōbetsu", "tz": "", "district": "Hokkaidō"}, {"id": 1037, "name": "Tone", "name_ru": "Tone", "tz": "", "district": "Ibaraki"}, {"id": 1038, "name": "Shizukuishi", "name_ru": "Shizukuishi", "tz": "", "district": "Iwate"}, {"id": 1039, "name": "Shimanto", "name_ru": "Shimanto", "tz": "", "district": "Kōchi"}, {"id": 1040, "name": "Sayo", "name_ru": "Sayō", "tz": "", "district": "Hyōgo"}, {"id": 1041, "name": "Kawasaki", "name_ru": "Kawasaki", "tz": "", "district": "Fukuoka"}, {"id": 1042, "name": "Daigo", "name_ru": "Daigo", "tz": "", "district": "Ibaraki"}, {"id": 1043, "name": "Tamaki", "name_ru": "Tamaki", "tz": "", "district": "Mie"}, {"id": 1044, "name": "Kanegasaki", "name_ru": "Kanegasaki", "tz": "", "district": "Iwate"}, {"id": 1045, "name": "Daisen", "name_ru": "Daisen", "tz": "", "district": "Tottori"}, {"id": 1046, "name": "Wakuya", "name_ru": "Wakuya", "tz": "", "district": "Miyagi"}, {"id": 1047, "name": "Noto", "name_ru": "Noto", "tz": "", "district": "Ishikawa"}, {"id": 1048, "name": "Kurate", "name_ru": "Kurate", "tz": "", "district": "Fukuoka"}, {"id": 1049, "name": "Kawaminami", "name_ru": "Kawaminami", "tz": "", "district": "Miyazaki"}, {"id": 1050, "name": "Kamitonda", "name_ru": "Kamitonda", "tz": "", "district": "Wakayama"}, {"id": 1051, "name": "Kujukuri", "name_ru": "Kujūkuri", "tz": "", "district": "Chiba"}, {"id": 1052, "name": "Uchiko", "name_ru": "Uchiko", "tz": "", "district": "Ehime"}, {"id": 1053, "name": "Nakanojomachi", "name_ru": "Nakanojōmachi", "tz": "", "district": "Gunma"}, {"id": 1054, "name": "Kutchan", "name_ru": "Kutchan", "tz": "", "district": "Hokkaidō"}, {"id": 1055, "name": "Anpachi", "name_ru": "Anpachi", "tz": "", "district": "Gifu"}, {"id": 1056, "name": "Aizubange", "name_ru": "Aizubange", "tz": "", "district": "Fukushima"}, {"id": 1057, "name": "Haga", "name_ru": "Haga", "tz": "", "district": "Tochigi"}, {"id": 1058, "name": "Mitane", "name_ru": "Mitane", "tz": "", "district": "Akita"}, {"id": 1059, "name": "Nakagawa", "name_ru": "Nakagawa", "tz": "", "district": "Tochigi"}, {"id": 1060, "name": "Sera", "name_ru": "Sera", "tz": "", "district": "Hiroshima"}, {"id": 1061, "name": "Misaki", "name_ru": "Misaki", "tz": "", "district": "Ōsaka"}, {"id": 1062, "name": "Mori", "name_ru": "Mori", "tz": "", "district": "Hokkaidō"}, {"id": 1063, "name": "Fujisaki", "name_ru": "Fujisaki", "tz": "", "district": "Aomori"}, {"id": 1064, "name": "Betsukai", "name_ru": "Betsukai", "tz": "", "district": "Hokkaidō"}, {"id": 1065, "name": "Hirono", "name_ru": "Hirono", "tz": "", "district": "Iwate"}, {"id": 1066, "name": "Tabuse", "name_ru": "Tabuse", "tz": "", "district": "Yamaguchi"}, {"id": 1067, "name": "Obanazawa", "name_ru": "Obanazawa", "tz": "", "district": "Yamagata"}, {"id": 1068, "name": "Kushimoto", "name_ru": "Kushimoto", "tz": "", "district": "Wakayama"}, {"id": 1069, "name": "Nishinoomote", "name_ru": "Nishinoomote", "tz": "", "district": "Kagoshima"}, {"id": 1070, "name": "Ashiya", "name_ru": "Ashiya", "tz": "", "district": "Fukuoka"}, {"id": 1071, "name": "Suo-Oshima", "name_ru": "Suō-Ōshima", "tz": "", "district": "Yamaguchi"}, {"id": 1072, "name": "Shinto", "name_ru": "Shintō", "tz": "", "district": "Gunma"}, {"id": 1073, "name": "Ichikawamisato", "name_ru": "Ichikawamisato", "tz": "", "district": "Yamanashi"}, {"id": 1074, "name": "Oki", "name_ru": "Ōki", "tz": "", "district": "Fukuoka"}, {"id": 1075, "name": "Hasami", "name_ru": "Hasami", "tz": "", "district": "Nagasaki"}, {"id": 1076, "name": "Miho", "name_ru": "Miho", "tz": "", "district": "Ibaraki"}, {"id": 1077, "name": "Asagiri", "name_ru": "Asagiri", "tz": "", "district": "Kumamoto"}, {"id": 1078, "name": "Kihoku", "name_ru": "Kihoku", "tz": "", "district": "Mie"}, {"id": 1079, "name": "Yamada", "name_ru": "Yamada", "tz": "", "district": "Iwate"}, {"id": 1080, "name": "Itakura", "name_ru": "Itakura", "tz": "", "district": "Gunma"}, {"id": 1081, "name": "Furukawamen", "name_ru": "Furukawamen", "tz": "", "district": "Nagasaki"}, {"id": 1082, "name": "Tsukawaki", "name_ru": "Tsukawaki", "tz": "", "district": "Ōita"}, {"id": 1083, "name": "Ishikawa", "name_ru": "Ishikawa", "tz": "", "district": "Fukushima"}, {"id": 1084, "name": "Taki", "name_ru": "Taki", "tz": "", "district": "Mie"}, {"id": 1085, "name": "Kawaii", "name_ru": "Kawaii", "tz": "", "district": "Yamagata"}, {"id": 1086, "name": "Shichinohe", "name_ru": "Shichinohe", "tz": "", "district": "Aomori"}, {"id": 1087, "name": "Hokuei", "name_ru": "Hokuei", "tz": "", "district": "Tottori"}, {"id": 1088, "name": "Hayashima", "name_ru": "Hayashima", "tz": "", "district": "Okayama"}, {"id": 1089, "name": "Sakaki", "name_ru": "Sakaki", "tz": "", "district": "Nagano"}, {"id": 1090, "name": "Minamiaizu", "name_ru": "Minamiaizu", "tz": "", "district": "Fukushima"}, {"id": 1091, "name": "Seiro", "name_ru": "Seirō", "tz": "", "district": "Niigata"}, {"id": 1092, "name": "Kadena", "name_ru": "Kadena", "tz": "", "district": "Okinawa"}, {"id": 1093, "name": "Kakunodatemachi", "name_ru": "Kakunodatemachi", "tz": "", "district": "Akita"}, {"id": 1094, "name": "Kisanuki", "name_ru": "Kisanuki", "tz": "", "district": "Kagoshima"}, {"id": 1095, "name": "Chosei", "name_ru": "Chōsei", "tz": "", "district": "Chiba"}, {"id": 1096, "name": "Fujikawa", "name_ru": "Fujikawa", "tz": "", "district": "Yamanashi"}, {"id": 1097, "name": "Taishi", "name_ru": "Taishi", "tz": "", "district": "Ōsaka"}, {"id": 1098, "name": "Nachikatsuura", "name_ru": "Nachikatsuura", "tz": "", "district": "Wakayama"}, {"id": 1099, "name": "Tako", "name_ru": "Tako", "tz": "", "district": "Chiba"}, {"id": 1100, "name": "Wakasa", "name_ru": "Wakasa", "tz": "", "district": "Fukui"}, {"id": 1101, "name": "Fujimi", "name_ru": "Fujimi", "tz": "", "district": "Nagano"}, {"id": 1102, "name": "Kamigori", "name_ru": "Kamigōri", "tz": "", "district": "Hyōgo"}, {"id": 1103, "name": "Higashimiyoshi", "name_ru": "Higashimiyoshi", "tz": "", "district": "Tokushima"}, {"id": 1104, "name": "Hatoyama", "name_ru": "Hatoyama", "tz": "", "district": "Saitama"}, {"id": 1105, "name": "Yamanobe", "name_ru": "Yamanobe", "tz": "", "district": "Yamagata"}, {"id": 1106, "name": "Shodoshima", "name_ru": "Shōdoshima", "tz": "", "district": "Kagawa"}, {"id": 1107, "name": "Chiran", "name_ru": "Chiran", "tz": "", "district": "Kagoshima"}, {"id": 1108, "name": "Tarumizu", "name_ru": "Tarumizu", "tz": "", "district": "Kagoshima"}, {"id": 1109, "name": "Kawatana", "name_ru": "Kawatana", "tz": "", "district": "Nagasaki"}, {"id": 1110, "name": "Okinoshima", "name_ru": "Okinoshima", "tz": "", "district": "Shimane"}, {"id": 1111, "name": "Ugo", "name_ru": "Ugo", "tz": "", "district": "Akita"}, {"id": 1112, "name": "Keisen", "name_ru": "Keisen", "tz": "", "district": "Fukuoka"}, {"id": 1113, "name": "Wake", "name_ru": "Wake", "tz": "", "district": "Okayama"}, {"id": 1114, "name": "Itano", "name_ru": "Itano", "tz": "", "district": "Tokushima"}, {"id": 1115, "name": "Inawashiro", "name_ru": "Inawashiro", "tz": "", "district": "Fukushima"}, {"id": 1116, "name": "Saka", "name_ru": "Saka", "tz": "", "district": "Hiroshima"}, {"id": 1117, "name": "Matsushima", "name_ru": "Matsushima", "tz": "", "district": "Miyagi"}, {"id": 1118, "name": "Tonosho", "name_ru": "Tōnoshō", "tz": "", "district": "Chiba"}, {"id": 1119, "name": "Yakage", "name_ru": "Yakage", "tz": "", "district": "Okayama"}, {"id": 1120, "name": "Kamikawa", "name_ru": "Kamikawa", "tz": "", "district": "Saitama"}, {"id": 1121, "name": "Tanagura", "name_ru": "Tanagura", "tz": "", "district": "Fukushima"}, {"id": 1122, "name": "Hashikami", "name_ru": "Hashikami", "tz": "", "district": "Aomori"}, {"id": 1123, "name": "Motobu", "name_ru": "Motobu", "tz": "", "district": "Okinawa"}, {"id": 1124, "name": "Shin'onsen", "name_ru": "Shin'onsen", "tz": "", "district": "Hyōgo"}, {"id": 1125, "name": "Yamato", "name_ru": "Yamato", "tz": "", "district": "Kumamoto"}, {"id": 1126, "name": "Tonosho", "name_ru": "Tonoshō", "tz": "", "district": "Kagawa"}, {"id": 1127, "name": "Itayanagi", "name_ru": "Itayanagi", "tz": "", "district": "Aomori"}, {"id": 1128, "name": "Yuza", "name_ru": "Yuza", "tz": "", "district": "Yamagata"}, {"id": 1129, "name": "Misaki", "name_ru": "Misaki", "tz": "", "district": "Okayama"}, {"id": 1130, "name": "Takamori", "name_ru": "Takamori", "tz": "", "district": "Nagano"}, {"id": 1131, "name": "Asahi", "name_ru": "Asahi", "tz": "", "district": "Mie"}, {"id": 1132, "name": "Suzu", "name_ru": "Suzu", "tz": "", "district": "Ishikawa"}, {"id": 1133, "name": "Ashibetsu", "name_ru": "Ashibetsu", "tz": "", "district": "Hokkaidō"}, {"id": 1134, "name": "Kanra", "name_ru": "Kanra", "tz": "", "district": "Gunma"}, {"id": 1135, "name": "Kyotamba", "name_ru": "Kyōtamba", "tz": "", "district": "Kyōto"}, {"id": 1136, "name": "Shirataka", "name_ru": "Shirataka", "tz": "", "district": "Yamagata"}, {"id": 1137, "name": "Kasaishi", "name_ru": "Kasaishi", "tz": "", "district": "Fukushima"}, {"id": 1138, "name": "Kawamata", "name_ru": "Kawamata", "tz": "", "district": "Fukushima"}, {"id": 1139, "name": "Matsukawa", "name_ru": "Matsukawa", "tz": "", "district": "Nagano"}, {"id": 1140, "name": "Nobeji", "name_ru": "Nobeji", "tz": "", "district": "Aomori"}, {"id": 1141, "name": "Tsuruta", "name_ru": "Tsuruta", "tz": "", "district": "Aomori"}, {"id": 1142, "name": "Higashiagatsuma", "name_ru": "Higashiagatsuma", "tz": "", "district": "Gunma"}, {"id": 1143, "name": "Marumori", "name_ru": "Marumori", "tz": "", "district": "Miyagi"}, {"id": 1144, "name": "Sakawa", "name_ru": "Sakawa", "tz": "", "district": "Kōchi"}, {"id": 1145, "name": "Osako", "name_ru": "Ōsako", "tz": "", "district": "Kagoshima"}, {"id": 1146, "name": "Hirao", "name_ru": "Hirao", "tz": "", "district": "Yamaguchi"}, {"id": 1147, "name": "Hodatsushimizu", "name_ru": "Hōdatsushimizu", "tz": "", "district": "Ishikawa"}, {"id": 1148, "name": "Iwanai", "name_ru": "Iwanai", "tz": "", "district": "Hokkaidō"}, {"id": 1149, "name": "Ichinomiya", "name_ru": "Ichinomiya", "tz": "", "district": "Chiba"}, {"id": 1150, "name": "Iwate", "name_ru": "Iwate", "tz": "", "district": "Iwate"}, {"id": 1151, "name": "Ryuo", "name_ru": "Ryūō", "tz": "", "district": "Shiga"}, {"id": 1152, "name": "Urakawa", "name_ru": "Urakawa", "tz": "", "district": "Hokkaidō"}, {"id": 1153, "name": "Tosashimizu", "name_ru": "Tosashimizu", "tz": "", "district": "Kōchi"}, {"id": 1154, "name": "Yamamoto", "name_ru": "Yamamoto", "tz": "", "district": "Miyagi"}, {"id": 1155, "name": "Kagamino", "name_ru": "Kagamino", "tz": "", "district": "Okayama"}, {"id": 1156, "name": "Satosho", "name_ru": "Satoshō", "tz": "", "district": "Okayama"}, {"id": 1157, "name": "Yakushima", "name_ru": "Yakushima", "tz": "", "district": "Kagoshima"}, {"id": 1158, "name": "Kamiita", "name_ru": "Kamiita", "tz": "", "district": "Tokushima"}, {"id": 1159, "name": "Motegi", "name_ru": "Motegi", "tz": "", "district": "Tochigi"}, {"id": 1160, "name": "Mitai", "name_ru": "Mitai", "tz": "", "district": "Miyazaki"}, {"id": 1161, "name": "Koori", "name_ru": "Koori", "tz": "", "district": "Fukushima"}, {"id": 1162, "name": "Minabe", "name_ru": "Minabe", "tz": "", "district": "Wakayama"}, {"id": 1163, "name": "Hidaka", "name_ru": "Hidaka", "tz": "", "district": "Hokkaidō"}, {"id": 1164, "name": "Okuizumo", "name_ru": "Okuizumo", "tz": "", "district": "Shimane"}, {"id": 1165, "name": "Muroto-misakicho", "name_ru": "Muroto-misakicho", "tz": "", "district": "Kōchi"}, {"id": 1166, "name": "Yuasa", "name_ru": "Yuasa", "tz": "", "district": "Wakayama"}, {"id": 1167, "name": "Tagami", "name_ru": "Tagami", "tz": "", "district": "Niigata"}, {"id": 1168, "name": "Kin", "name_ru": "Kin", "tz": "", "district": "Okinawa"}, {"id": 1169, "name": "Higashiizu", "name_ru": "Higashiizu", "tz": "", "district": "Shizuoka"}, {"id": 1170, "name": "Kuriyama", "name_ru": "Kuriyama", "tz": "", "district": "Hokkaidō"}, {"id": 1171, "name": "Zao", "name_ru": "Zaō", "tz": "", "district": "Miyagi"}, {"id": 1172, "name": "Ichikai", "name_ru": "Ichikai", "tz": "", "district": "Tochigi"}, {"id": 1173, "name": "Ichinohe", "name_ru": "Ichinohe", "tz": "", "district": "Iwate"}, {"id": 1174, "name": "Chiyoda", "name_ru": "Chiyoda", "tz": "", "district": "Gunma"}, {"id": 1175, "name": "Honmachi", "name_ru": "Honmachi", "tz": "", "district": "Hokkaidō"}, {"id": 1176, "name": "Meiwa", "name_ru": "Meiwa", "tz": "", "district": "Gunma"}, {"id": 1177, "name": "Ogose", "name_ru": "Ogose", "tz": "", "district": "Saitama"}, {"id": 1178, "name": "Ichikawa", "name_ru": "Ichikawa", "tz": "", "district": "Hyōgo"}, {"id": 1179, "name": "Yamanouchi", "name_ru": "Yamanouchi", "tz": "", "district": "Nagano"}, {"id": 1180, "name": "Nakagawa", "name_ru": "Nakagawa", "tz": "", "district": "Tokushima"}, {"id": 1181, "name": "Hikawadai", "name_ru": "Hikawadai", "tz": "", "district": "Kumamoto"}, {"id": 1182, "name": "Shoo", "name_ru": "Shōō", "tz": "", "district": "Okayama"}, {"id": 1183, "name": "Miyato", "name_ru": "Miyato", "tz": "", "district": "Gunma"}, {"id": 1184, "name": "Onna", "name_ru": "Onna", "tz": "", "district": "Okinawa"}, {"id": 1185, "name": "Obuse", "name_ru": "Obuse", "tz": "", "district": "Nagano"}, {"id": 1186, "name": "Hakone", "name_ru": "Hakone", "tz": "", "district": "Kanagawa"}, {"id": 1187, "name": "Minamiise", "name_ru": "Minamiise", "tz": "", "district": "Mie"}, {"id": 1188, "name": "Matsuda-soryo", "name_ru": "Matsuda-sōryō", "tz": "", "district": "Kanagawa"}, {"id": 1189, "name": "Minamisanriku", "name_ru": "Minamisanriku", "tz": "", "district": "Miyagi"}, {"id": 1190, "name": "Asahi", "name_ru": "Asahi", "tz": "", "district": "Toyama"}, {"id": 1191, "name": "Ogano", "name_ru": "Ogano", "tz": "", "district": "Saitama"}, {"id": 1192, "name": "Otsuchi", "name_ru": "Ōtsuchi", "tz": "", "district": "Iwate"}, {"id": 1193, "name": "Iwai", "name_ru": "Iwai", "tz": "", "district": "Tottori"}, {"id": 1194, "name": "Nakayama", "name_ru": "Nakayama", "tz": "", "district": "Yamagata"}, {"id": 1195, "name": "Tokigawa", "name_ru": "Tokigawa", "tz": "", "district": "Saitama"}, {"id": 1196, "name": "Shirako", "name_ru": "Shirako", "tz": "", "district": "Chiba"}, {"id": 1197, "name": "Murata", "name_ru": "Murata", "tz": "", "district": "Miyagi"}, {"id": 1198, "name": "Kamikawa", "name_ru": "Kamikawa", "tz": "", "district": "Hyōgo"}, {"id": 1199, "name": "Rokunohe", "name_ru": "Rokunohe", "tz": "", "district": "Aomori"}, {"id": 1200, "name": "Naganuma", "name_ru": "Naganuma", "tz": "", "district": "Hokkaidō"}, {"id": 1201, "name": "Hoki", "name_ru": "Hōki", "tz": "", "district": "Tottori"}, {"id": 1202, "name": "Kamifurano", "name_ru": "Kamifurano", "tz": "", "district": "Hokkaidō"}, {"id": 1203, "name": "Kiho", "name_ru": "Kihō", "tz": "", "district": "Mie"}, {"id": 1204, "name": "Kibichuo", "name_ru": "Kibichūō", "tz": "", "district": "Okayama"}, {"id": 1205, "name": "Minobu", "name_ru": "Minobu", "tz": "", "district": "Yamanashi"}, {"id": 1206, "name": "Kiso", "name_ru": "Kiso", "tz": "", "district": "Nagano"}, {"id": 1207, "name": "Nanbu", "name_ru": "Nanbu", "tz": "", "district": "Tottori"}, {"id": 1208, "name": "Minamiaso", "name_ru": "Minamiaso", "tz": "", "district": "Kumamoto"}, {"id": 1209, "name": "Higashikagura", "name_ru": "Higashikagura", "tz": "", "district": "Hokkaidō"}, {"id": 1210, "name": "Tokunoshima", "name_ru": "Tokunoshima", "tz": "", "district": "Okinawa"}, {"id": 1211, "name": "Iizuna", "name_ru": "Iizuna", "tz": "", "district": "Nagano"}, {"id": 1212, "name": "Nishi", "name_ru": "Nishi", "tz": "", "district": "Kumamoto"}, {"id": 1213, "name": "Shioya", "name_ru": "Shioya", "tz": "", "district": "Tochigi"}, {"id": 1214, "name": "Kushijima", "name_ru": "Kushijima", "tz": "", "district": "Kumamoto"}, {"id": 1215, "name": "Takahama", "name_ru": "Takahama", "tz": "", "district": "Fukui"}, {"id": 1216, "name": "Kawara", "name_ru": "Kawara", "tz": "", "district": "Fukuoka"}, {"id": 1217, "name": "Yaotsu", "name_ru": "Yaotsu", "tz": "", "district": "Gifu"}, {"id": 1218, "name": "Rokkasho", "name_ru": "Rokkasho", "tz": "", "district": "Aomori"}, {"id": 1219, "name": "Iwashita", "name_ru": "Iwashita", "tz": "", "district": "Kumamoto"}, {"id": 1220, "name": "Kuroshio", "name_ru": "Kuroshio", "tz": "", "district": "Kōchi"}, {"id": 1221, "name": "Onan", "name_ru": "Ōnan", "tz": "", "district": "Shimane"}, {"id": 1222, "name": "Sakuho", "name_ru": "Sakuho", "tz": "", "district": "Nagano"}, {"id": 1223, "name": "Tsuno", "name_ru": "Tsunō", "tz": "", "district": "Miyazaki"}, {"id": 1224, "name": "Kami-kawabe", "name_ru": "Kami-kawabe", "tz": "", "district": "Gifu"}, {"id": 1225, "name": "Hiranai", "name_ru": "Hiranai", "tz": "", "district": "Aomori"}, {"id": 1226, "name": "Biei", "name_ru": "Biei", "tz": "", "district": "Hokkaidō"}, {"id": 1227, "name": "Nakao", "name_ru": "Nakao", "tz": "", "district": "Kanagawa"}, {"id": 1228, "name": "Akabira", "name_ru": "Akabira", "tz": "", "district": "Hokkaidō"}, {"id": 1229, "name": "Kawanishicho", "name_ru": "Kawanishichō", "tz": "", "district": "Nara"}, {"id": 1230, "name": "Yamakita", "name_ru": "Yamakita", "tz": "", "district": "Kanagawa"}, {"id": 1231, "name": "Ikeda", "name_ru": "Ikeda", "tz": "", "district": "Nagano"}, {"id": 1232, "name": "Nakoushi", "name_ru": "Nakoushi", "tz": "", "district": "Okinawa"}, {"id": 1233, "name": "Minano", "name_ru": "Minano", "tz": "", "district": "Saitama"}, {"id": 1234, "name": "Shimizu", "name_ru": "Shimizu", "tz": "", "district": "Hokkaidō"}, {"id": 1235, "name": "Hirayama", "name_ru": "Hirayama", "tz": "", "district": "Fukuoka"}, {"id": 1236, "name": "Fujisawacho-niinuma", "name_ru": "Fujisawachō-niinuma", "tz": "", "district": "Iwate"}, {"id": 1237, "name": "Nagaoki", "name_ru": "Nagaoki", "tz": "", "district": "Kumamoto"}, {"id": 1238, "name": "Iijima", "name_ru": "Iijima", "tz": "", "district": "Nagano"}, {"id": 1239, "name": "Sekimachi", "name_ru": "Sekimachi", "tz": "", "district": "Kumamoto"}, {"id": 1240, "name": "Taragi", "name_ru": "Taragi", "tz": "", "district": "Kumamoto"}, {"id": 1241, "name": "Soeda", "name_ru": "Soeda", "tz": "", "district": "Fukuoka"}, {"id": 1242, "name": "Otaki", "name_ru": "Ōtaki", "tz": "", "district": "Chiba"}, {"id": 1243, "name": "Miyada", "name_ru": "Miyada", "tz": "", "district": "Nagano"}, {"id": 1244, "name": "Nishiowa", "name_ru": "Nishiōwa", "tz": "", "district": "Saitama"}, {"id": 1245, "name": "Hakubacho", "name_ru": "Hakubachō", "tz": "", "district": "Nagano"}, {"id": 1246, "name": "Takaharu", "name_ru": "Takaharu", "tz": "", "district": "Miyazaki"}, {"id": 1247, "name": "Iwaizumi", "name_ru": "Iwaizumi", "tz": "", "district": "Iwate"}, {"id": 1248, "name": "Owani", "name_ru": "Ōwani", "tz": "", "district": "Aomori"}, {"id": 1249, "name": "Ikata-cho", "name_ru": "Ikata-chō", "tz": "", "district": "Ehime"}, {"id": 1250, "name": "Karumai", "name_ru": "Karumai", "tz": "", "district": "Iwate"}, {"id": 1251, "name": "Hanawa", "name_ru": "Hanawa", "tz": "", "district": "Fukushima"}, {"id": 1252, "name": "Mikasa", "name_ru": "Mikasa", "tz": "", "district": "Hokkaidō"}, {"id": 1253, "name": "Tara", "name_ru": "Tara", "tz": "", "district": "Saga"}, {"id": 1254, "name": "Yahiko", "name_ru": "Yahiko", "tz": "", "district": "Niigata"}, {"id": 1255, "name": "Yuzawa", "name_ru": "Yuzawa", "tz": "", "district": "Niigata"}, {"id": 1256, "name": "Ide", "name_ru": "Ide", "tz": "", "district": "Kyōto"}, {"id": 1257, "name": "Manazuru", "name_ru": "Manazuru", "tz": "", "district": "Kanagawa"}, {"id": 1258, "name": "Inakadate", "name_ru": "Inakadate", "tz": "", "district": "Aomori"}, {"id": 1259, "name": "Abira", "name_ru": "Abira", "tz": "", "district": "Hokkaidō"}, {"id": 1260, "name": "Kotake", "name_ru": "Kotake", "tz": "", "district": "Fukuoka"}, {"id": 1261, "name": "Setana", "name_ru": "Setana", "tz": "", "district": "Hokkaidō"}, {"id": 1262, "name": "Nakata", "name_ru": "Nakata", "tz": "", "district": "Kagoshima"}, {"id": 1263, "name": "Inami", "name_ru": "Inami", "tz": "", "district": "Wakayama"}, {"id": 1264, "name": "Shiranuka", "name_ru": "Shiranuka", "tz": "", "district": "Hokkaidō"}, {"id": 1265, "name": "Chonan", "name_ru": "Chōnan", "tz": "", "district": "Chiba"}, {"id": 1266, "name": "Yubari", "name_ru": "Yūbari", "tz": "", "district": "Hokkaidō"}, {"id": 1267, "name": "Shibecha", "name_ru": "Shibecha", "tz": "", "district": "Hokkaidō"}, {"id": 1268, "name": "Esashi", "name_ru": "Esashi", "tz": "", "district": "Hokkaidō"}, {"id": 1269, "name": "Taga", "name_ru": "Taga", "tz": "", "district": "Shiga"}, {"id": 1270, "name": "Hiraizumi", "name_ru": "Hiraizumi", "tz": "", "district": "Iwate"}, {"id": 1271, "name": "Naka", "name_ru": "Naka", "tz": "", "district": "Tokushima"}, {"id": 1272, "name": "Fukaura", "name_ru": "Fukaura", "tz": "", "district": "Aomori"}, {"id": 1273, "name": "Onishi", "name_ru": "Onishi", "tz": "", "district": "Saitama"}, {"id": 1274, "name": "Nambu", "name_ru": "Nambu", "tz": "", "district": "Yamanashi"}, {"id": 1275, "name": "Shibayama", "name_ru": "Shibayama", "tz": "", "district": "Chiba"}, {"id": 1276, "name": "Shinmachi", "name_ru": "Shinmachi", "tz": "", "district": "Chiba"}, {"id": 1277, "name": "Ogunimachi", "name_ru": "Ogunimachi", "tz": "", "district": "Yamagata"}, {"id": 1278, "name": "Teshikaga", "name_ru": "Teshikaga", "tz": "", "district": "Hokkaidō"}, {"id": 1279, "name": "Aya", "name_ru": "Aya", "tz": "", "district": "Miyazaki"}, {"id": 1280, "name": "Nagatoro", "name_ru": "Nagatoro", "tz": "", "district": "Saitama"}, {"id": 1281, "name": "Sekigahara", "name_ru": "Sekigahara", "tz": "", "district": "Gifu"}, {"id": 1282, "name": "Nagaya", "name_ru": "Nagaya", "tz": "", "district": "Chiba"}, {"id": 1283, "name": "Fukuyama", "name_ru": "Fukuyama", "tz": "", "district": "Hokkaidō"}, {"id": 1284, "name": "Kamihonbetsu", "name_ru": "Kamihonbetsu", "tz": "", "district": "Hokkaidō"}, {"id": 1285, "name": "Kochi", "name_ru": "Kōchi", "tz": "", "district": "Shizuoka"}, {"id": 1286, "name": "Omachi", "name_ru": "Ōmachi", "tz": "", "district": "Saga"}, {"id": 1287, "name": "Ashoro", "name_ru": "Ashoro", "tz": "", "district": "Hokkaidō"}, {"id": 1288, "name": "Shikama", "name_ru": "Shikama", "tz": "", "district": "Miyagi"}, {"id": 1289, "name": "Nishiharadai", "name_ru": "Nishiharadai", "tz": "", "district": "Kumamoto"}, {"id": 1290, "name": "Hiroo", "name_ru": "Hiroo", "tz": "", "district": "Hokkaidō"}, {"id": 1291, "name": "Waki", "name_ru": "Waki", "tz": "", "district": "Hiroshima"}, {"id": 1292, "name": "Oishida", "name_ru": "Ōishida", "tz": "", "district": "Yamagata"}, {"id": 1293, "name": "Higashikyoshin", "name_ru": "Higashikyōshin", "tz": "", "district": "Kagoshima"}, {"id": 1294, "name": "Toma", "name_ru": "Tōma", "tz": "", "district": "Hokkaidō"}, {"id": 1295, "name": "Wadomari", "name_ru": "Wadomari", "tz": "", "district": "Okinawa"}, {"id": 1296, "name": "Shimonita", "name_ru": "Shimonita", "tz": "", "district": "Gunma"}, {"id": 1297, "name": "Chizu", "name_ru": "Chizu", "tz": "", "district": "Tottori"}, {"id": 1298, "name": "Izumizaki", "name_ru": "Izumizaki", "tz": "", "district": "Fukushima"}, {"id": 1299, "name": "Kusatsu", "name_ru": "Kusatsu", "tz": "", "district": "Gunma"}, {"id": 1300, "name": "Asakawa", "name_ru": "Asakawa", "tz": "", "district": "Fukushima"}, {"id": 1301, "name": "Yoshinoyama", "name_ru": "Yoshinoyama", "tz": "", "district": "Nara"}, {"id": 1302, "name": "Ginoza", "name_ru": "Ginoza", "tz": "", "district": "Okinawa"}, {"id": 1303, "name": "Isen", "name_ru": "Isen", "tz": "", "district": "Okinawa"}, {"id": 1304, "name": "Shihoro", "name_ru": "Shihoro", "tz": "", "district": "Hokkaidō"}, {"id": 1305, "name": "Matsuzaki", "name_ru": "Matsuzaki", "tz": "", "district": "Shizuoka"}, {"id": 1306, "name": "Kozaki", "name_ru": "Kōzaki", "tz": "", "district": "Ibaraki"}, {"id": 1307, "name": "Shintoku", "name_ru": "Shintoku", "tz": "", "district": "Hokkaidō"}, {"id": 1308, "name": "Ohira", "name_ru": "Ōhira", "tz": "", "district": "Miyagi"}, {"id": 1309, "name": "Tatsugo", "name_ru": "Tatsugō", "tz": "", "district": "Okinawa"}, {"id": 1310, "name": "China", "name_ru": "China", "tz": "", "district": "Okinawa"}, {"id": 1311, "name": "Takamori", "name_ru": "Takamori", "tz": "", "district": "Kumamoto"}, {"id": 1312, "name": "Onagawa", "name_ru": "Onagawa", "tz": "", "district": "Miyagi"}, {"id": 1313, "name": "Hamanaka-sakuraminami", "name_ru": "Hamanaka-sakuraminami", "tz": "", "district": "Hokkaidō"}, {"id": 1314, "name": "Amagi", "name_ru": "Amagi", "tz": "", "district": "Okinawa"}, {"id": 1315, "name": "Hachirougata", "name_ru": "Hachirougata", "tz": "", "district": "Akita"}, {"id": 1316, "name": "Kuzumaki", "name_ru": "Kuzumaki", "tz": "", "district": "Iwate"}, {"id": 1317, "name": "Asuka", "name_ru": "Asuka", "tz": "", "district": "Nara"}, {"id": 1318, "name": "Taiki", "name_ru": "Taiki", "tz": "", "district": "Hokkaidō"}, {"id": 1319, "name": "Takae", "name_ru": "Takae", "tz": "", "district": "Hokkaidō"}, {"id": 1320, "name": "Naie", "name_ru": "Naie", "tz": "", "district": "Hokkaidō"}, {"id": 1321, "name": "Yamanaka", "name_ru": "Yamanaka", "tz": "", "district": "Yamanashi"}, {"id": 1322, "name": "Ochi", "name_ru": "Ochi", "tz": "", "district": "Kōchi"}, {"id": 1323, "name": "Shibetsu", "name_ru": "Shibetsu", "tz": "", "district": "Hokkaidō"}, {"id": 1324, "name": "Oshamambe", "name_ru": "Oshamambe", "tz": "", "district": "Hokkaidō"}, {"id": 1325, "name": "Kaneyama", "name_ru": "Kaneyama", "tz": "", "district": "Yamagata"}, {"id": 1326, "name": "Naganohara", "name_ru": "Naganohara", "tz": "", "district": "Gunma"}, {"id": 1327, "name": "Imagane", "name_ru": "Imagane", "tz": "", "district": "Hokkaidō"}]