[{"id": 1, "name": "Nairobi", "name_ru": "Nairobi", "tz": "", "district": "Nairobi City"}, {"id": 2, "name": "Meru", "name_ru": "Meru", "tz": "", "district": "Meru"}, {"id": 3, "name": "Mombasa", "name_ru": "Mombasa", "tz": "", "district": "Mombasa"}, {"id": 4, "name": "Kisumu", "name_ru": "Kisumu", "tz": "", "district": "Kisumu"}, {"id": 5, "name": "Nakuru", "name_ru": "Nakuru", "tz": "", "district": "Nakuru"}, {"id": 6, "name": "Eldoret", "name_ru": "Eldoret", "tz": "", "district": "Uasin Gishu"}, {"id": 7, "name": "Machakos", "name_ru": "Machakos", "tz": "", "district": "Machakos"}, {"id": 8, "name": "Thika", "name_ru": "Thika", "tz": "", "district": "Kiambu"}, {"id": 9, "name": "Nyeri", "name_ru": "Nyeri", "tz": "", "district": "Nyeri"}, {"id": 10, "name": "Mumias", "name_ru": "Mumias", "tz": "", "district": "Kakamega"}, {"id": 11, "name": "Malindi", "name_ru": "Malindi", "tz": "", "district": "Kilifi"}, {"id": 12, "name": "Kakamega", "name_ru": "Kakamega", "tz": "", "district": "Kakamega"}, {"id": 13, "name": "Garissa", "name_ru": "Garissa", "tz": "", "district": "Garissa"}, {"id": 14, "name": "Kitale", "name_ru": "Kitale", "tz": "", "district": "Trans Nzoia"}, {"id": 15, "name": "Bungoma", "name_ru": "Bungoma", "tz": "", "district": "Bungoma"}, {"id": 16, "name": "Wajir", "name_ru": "Wajir", "tz": "", "district": "Wajir"}, {"id": 17, "name": "Isiolo", "name_ru": "Isiolo", "tz": "", "district": "Isiolo"}, {"id": 18, "name": "Embu", "name_ru": "Embu", "tz": "", "district": "Embu"}, {"id": 19, "name": "Kisii", "name_ru": "Kisii", "tz": "", "district": "Kisii"}, {"id": 20, "name": "Busia", "name_ru": "Busia", "tz": "", "district": "Busia"}, {"id": 21, "name": "Homa Bay", "name_ru": "Homa Bay", "tz": "", "district": "Homa Bay"}, {"id": 22, "name": "Kericho", "name_ru": "Kericho", "tz": "", "district": "Kericho"}, {"id": 23, "name": "Mandera", "name_ru": "Mandera", "tz": "", "district": "Mandera"}, {"id": 24, "name": "Kitui", "name_ru": "Kitui", "tz": "", "district": "Kitui"}, {"id": 25, "name": "Moyale", "name_ru": "Moyale", "tz": "", "district": "Marsabit"}, {"id": 26, "name": "Lamu", "name_ru": "Lamu", "tz": "", "district": "Lamu"}, {"id": 27, "name": "Maralal", "name_ru": "Maralal", "tz": "", "district": "Samburu"}, {"id": 28, "name": "Eldama Ravine", "name_ru": "Eldama Ravine", "tz": "", "district": "Baringo"}, {"id": 29, "name": "Kapsabet", "name_ru": "Kapsabet", "tz": "", "district": "Nandi"}, {"id": 30, "name": "Marsabit", "name_ru": "Marsabit", "tz": "", "district": "Marsabit"}, {"id": 31, "name": "Lodwar", "name_ru": "Lodwar", "tz": "", "district": "Turkana"}, {"id": 32, "name": "Namanga", "name_ru": "Namanga", "tz": "", "district": ""}, {"id": 33, "name": "Hola", "name_ru": "Hola", "tz": "", "district": "Tana River"}, {"id": 34, "name": "Kiambu", "name_ru": "Kiambu", "tz": "", "district": "Kiambu"}, {"id": 35, "name": "Kabarnet", "name_ru": "Kabarnet", "tz": "", "district": "Baringo"}, {"id": 36, "name": "Migori", "name_ru": "Migori", "tz": "", "district": "Migori"}, {"id": 37, "name": "Iten", "name_ru": "Iten", "tz": "", "district": "Elgeyo/Marakwet"}, {"id": 38, "name": "Kerugoya", "name_ru": "Kerugoya", "tz": "", "district": "Kirinyaga"}, {"id": 39, "name": "Nyamira", "name_ru": "Nyamira", "tz": "", "district": "Nyamira"}, {"id": 40, "name": "Sotik Post", "name_ru": "Sotik Post", "tz": "", "district": "Bomet"}, {"id": 41, "name": "Murang'a", "name_ru": "Murang’a", "tz": "", "district": "Murang’a"}, {"id": 42, "name": "Siaya", "name_ru": "Siaya", "tz": "", "district": "Siaya"}, {"id": 43, "name": "Kapenguria", "name_ru": "Kapenguria", "tz": "", "district": "West Pokot"}, {"id": 44, "name": "Mwatate", "name_ru": "Mwatate", "tz": "", "district": "Taita/Taveta"}, {"id": 45, "name": "Wote", "name_ru": "Wote", "tz": "", "district": "Makueni"}, {"id": 46, "name": "Kajiado", "name_ru": "Kajiado", "tz": "", "district": "Kajiado"}, {"id": 47, "name": "Narok", "name_ru": "Narok", "tz": "", "district": "Narok"}, {"id": 48, "name": "Ol Kalou", "name_ru": "Ol Kalou", "tz": "", "district": "Nyandarua"}, {"id": 49, "name": "Kwale", "name_ru": "Kwale", "tz": "", "district": "Kwale"}, {"id": 50, "name": "Rumuruti", "name_ru": "Rumuruti", "tz": "", "district": "Laikipia"}, {"id": 51, "name": "Kendu Bay", "name_ru": "Kendu Bay", "tz": "", "district": "Homa Bay"}, {"id": 52, "name": "Athi River", "name_ru": "Athi River", "tz": "", "district": "Machakos"}, {"id": 53, "name": "Kilifi", "name_ru": "Kilifi", "tz": "", "district": "Kilifi"}, {"id": 54, "name": "Sotik", "name_ru": "Sotik", "tz": "", "district": "Bomet"}, {"id": 55, "name": "Voi", "name_ru": "Voi", "tz": "", "district": "Taita/Taveta"}, {"id": 56, "name": "Nanyuki", "name_ru": "Nanyuki", "tz": "", "district": "Laikipia"}, {"id": 57, "name": "Naivasha", "name_ru": "Naivasha", "tz": "", "district": "Nakuru"}, {"id": 58, "name": "Mwingi", "name_ru": "Mwingi", "tz": "", "district": "Kitui"}, {"id": 59, "name": "Dadaab", "name_ru": "Dadaab", "tz": "", "district": "Garissa"}, {"id": 60, "name": "Karungu", "name_ru": "Karungu", "tz": "", "district": "Migori"}, {"id": 61, "name": "Witu", "name_ru": "Witu", "tz": "", "district": "Lamu"}, {"id": 62, "name": "Konza", "name_ru": "Konza", "tz": "", "district": "Machakos"}, {"id": 63, "name": "Tsavo", "name_ru": "Tsavo", "tz": "", "district": "Taita/Taveta"}]