[{"id": 1, "name": "Bishkek", "name_ru": "Bishkek", "tz": "", "district": "Bishkek"}, {"id": 2, "name": "Osh", "name_ru": "Osh", "tz": "", "district": "Osh"}, {"id": 3, "name": "Jalal-Abad", "name_ru": "Jalal-Abad", "tz": "", "district": "Jalal-Abad"}, {"id": 4, "name": "Karakol", "name_ru": "Karakol", "tz": "", "district": "Ysyk-Köl"}, {"id": 5, "name": "Talas", "name_ru": "Talas", "tz": "", "district": "Talas"}, {"id": 6, "name": "Naryn", "name_ru": "Naryn", "tz": "", "district": "Naryn"}, {"id": 7, "name": "Batken", "name_ru": "Batken", "tz": "", "district": "Batken"}, {"id": 8, "name": "Kara-Balta", "name_ru": "Kara-Balta", "tz": "", "district": "Chüy"}, {"id": 9, "name": "Tokmok", "name_ru": "Tokmok", "tz": "", "district": "Chüy"}, {"id": 10, "name": "Ozgon", "name_ru": "Özgön", "tz": "", "district": "Osh"}, {"id": 11, "name": "Balykchy", "name_ru": "Balykchy", "tz": "", "district": "Ysyk-Köl"}, {"id": 12, "name": "Kyzyl-Kyya", "name_ru": "Kyzyl-Kyya", "tz": "", "district": "Batken"}, {"id": 13, "name": "Toktogul", "name_ru": "Toktogul", "tz": "", "district": "Jalal-Abad"}, {"id": 14, "name": "Kant", "name_ru": "Kant", "tz": "", "district": "Chüy"}, {"id": 15, "name": "Kara-Suu", "name_ru": "Kara-Suu", "tz": "", "district": "Osh"}, {"id": 16, "name": "Belovodskoe", "name_ru": "Belovodskoe", "tz": "", "district": "Chüy"}, {"id": 17, "name": "Jangy-Nookat", "name_ru": "Jangy-Nookat", "tz": "", "district": "Osh"}, {"id": 18, "name": "Lebedinovka", "name_ru": "Lebedinovka", "tz": "", "district": "Chüy"}, {"id": 19, "name": "Mayluu-Suu", "name_ru": "Mayluu-Suu", "tz": "", "district": "Jalal-Abad"}, {"id": 20, "name": "Tash-Komur", "name_ru": "Tash-Kömür", "tz": "", "district": "Jalal-Abad"}, {"id": 21, "name": "Kara-Kol", "name_ru": "Kara-Köl", "tz": "", "district": "Jalal-Abad"}, {"id": 22, "name": "Novopavlovka", "name_ru": "Novopavlovka", "tz": "", "district": "Chüy"}, {"id": 23, "name": "Isfana", "name_ru": "Isfana", "tz": "", "district": "Batken"}, {"id": 24, "name": "At-Bashy", "name_ru": "At-Bashy", "tz": "", "district": "Naryn"}, {"id": 25, "name": "Kochkor-Ata", "name_ru": "Kochkor-Ata", "tz": "", "district": "Jalal-Abad"}, {"id": 26, "name": "Kok-Janggak", "name_ru": "Kök-Janggak", "tz": "", "district": "Jalal-Abad"}, {"id": 27, "name": "Kerben", "name_ru": "Kerben", "tz": "", "district": "Jalal-Abad"}, {"id": 28, "name": "Suluktu", "name_ru": "Sülüktü", "tz": "", "district": "Batken"}, {"id": 29, "name": "Alamedin", "name_ru": "Alamedin", "tz": "", "district": "Chüy"}, {"id": 30, "name": "Cholpon-Ata", "name_ru": "Cholpon-Ata", "tz": "", "district": "Ysyk-Köl"}, {"id": 31, "name": "Aydarken", "name_ru": "Aydarken", "tz": "", "district": "Batken"}, {"id": 32, "name": "Shopokov", "name_ru": "Shopokov", "tz": "", "district": "Chüy"}, {"id": 33, "name": "Bosteri", "name_ru": "Bosteri", "tz": "", "district": "Ysyk-Köl"}, {"id": 34, "name": "Chaek", "name_ru": "Chaek", "tz": "", "district": "Naryn"}, {"id": 35, "name": "Klyuchevka", "name_ru": "Klyuchevka", "tz": "", "district": "Talas"}, {"id": 36, "name": "Tash-Dobo", "name_ru": "Tash-Döbö", "tz": "", "district": "Chüy"}, {"id": 37, "name": "Grigor'evka", "name_ru": "Grigor’evka", "tz": "", "district": "Ysyk-Köl"}, {"id": 38, "name": "Darkan", "name_ru": "Darkan", "tz": "", "district": "Ysyk-Köl"}]