[{"id": 1, "name": "Pyongyang", "name_ru": "Pyongyang", "tz": "", "district": "P’yŏngyang"}, {"id": 2, "name": "Nampo", "name_ru": "Nampo", "tz": "", "district": "P’yŏngnam"}, {"id": 3, "name": "Hamhung", "name_ru": "Hamhŭng", "tz": "", "district": "Hamnam"}, {"id": 4, "name": "Ch'ongjin", "name_ru": "Ch’ŏngjin", "tz": "", "district": "Hambuk"}, {"id": 5, "name": "Sunch'on", "name_ru": "Sunch’ŏn", "tz": "", "district": "P’yŏngnam"}, {"id": 6, "name": "Wonsan", "name_ru": "Wŏnsan", "tz": "", "district": "Kangwŏn"}, {"id": 7, "name": "Sinuiju", "name_ru": "Sinŭiju", "tz": "", "district": "P’yŏngbuk"}, {"id": 8, "name": "Tanch'on", "name_ru": "Tanch’ŏn", "tz": "", "district": "Hamnam"}, {"id": 9, "name": "Kaesong", "name_ru": "Kaesŏng", "tz": "", "district": "Hwangnam"}, {"id": 10, "name": "Kaech'on", "name_ru": "Kaech’ŏn", "tz": "", "district": "P’yŏngnam"}, {"id": 11, "name": "Sariwon", "name_ru": "Sariwŏn", "tz": "", "district": "Hwangbuk"}, {"id": 12, "name": "Kanggye", "name_ru": "Kanggye", "tz": "", "district": "Chagang"}, {"id": 13, "name": "Haeju", "name_ru": "Haeju", "tz": "", "district": "Hwangnam"}, {"id": 14, "name": "Anju", "name_ru": "Anju", "tz": "", "district": "P’yŏngnam"}, {"id": 15, "name": "P'yong-dong", "name_ru": "P’yŏng-dong", "tz": "", "district": "P’yŏngyang"}, {"id": 16, "name": "Rajin", "name_ru": "Rajin", "tz": "", "district": "Nasŏn"}, {"id": 17, "name": "Kusong", "name_ru": "Kusŏng", "tz": "", "district": "P’yŏngbuk"}, {"id": 18, "name": "Hyesan", "name_ru": "Hyesan", "tz": "", "district": "Yanggang"}, {"id": 19, "name": "Chongju", "name_ru": "Chŏngju", "tz": "", "district": "P’yŏngbuk"}, {"id": 20, "name": "Chaedok", "name_ru": "Chaedŏk", "tz": "", "district": "Hambuk"}, {"id": 21, "name": "Huich'on", "name_ru": "Hŭich’ŏn", "tz": "", "district": "Chagang"}, {"id": 22, "name": "Hoeryong", "name_ru": "Hoeryŏng", "tz": "", "district": "Hambuk"}, {"id": 23, "name": "Sinpo", "name_ru": "Sinpo", "tz": "", "district": "Hamnam"}, {"id": 24, "name": "Songnim", "name_ru": "Songnim", "tz": "", "district": "Hwangbuk"}, {"id": 25, "name": "Munch'on", "name_ru": "Munch’ŏn", "tz": "", "district": "Kangwŏn"}, {"id": 26, "name": "Manpo", "name_ru": "Manpo", "tz": "", "district": "Chagang"}, {"id": 27, "name": "Ogujin", "name_ru": "Ŏgujin", "tz": "", "district": "P’yŏngyang"}, {"id": 28, "name": "Samga-ri", "name_ru": "Samga-ri", "tz": "", "district": "P’yŏngyang"}, {"id": 29, "name": "Namsan", "name_ru": "Namsan", "tz": "", "district": "Hwangnam"}, {"id": 30, "name": "Namsan", "name_ru": "Namsan", "tz": "", "district": "Hambuk"}, {"id": 31, "name": "Ongjang", "name_ru": "Ongjang", "tz": "", "district": "Hwangnam"}, {"id": 32, "name": "P'yongsan", "name_ru": "P’yŏngsan", "tz": "", "district": "Hwangbuk"}, {"id": 33, "name": "Changyon", "name_ru": "Changyŏn", "tz": "", "district": "Hwangnam"}, {"id": 34, "name": "Sil-li", "name_ru": "Sil-li", "tz": "", "district": "P’yŏngnam"}, {"id": 35, "name": "Ch'osan-up", "name_ru": "Ch’osan-ŭp", "tz": "", "district": "Chagang"}, {"id": 36, "name": "P'ungsan", "name_ru": "P’ungsan", "tz": "", "district": "Yanggang"}, {"id": 37, "name": "Taedong", "name_ru": "Taedong", "tz": "", "district": "P’yŏngbuk"}]