[{"id": 1, "name": "Seoul", "name_ru": "Seoul", "tz": "", "district": "Seoul"}, {"id": 2, "name": "Busan", "name_ru": "Busan", "tz": "", "district": "Busan"}, {"id": 3, "name": "Incheon", "name_ru": "Incheon", "tz": "", "district": "Incheon"}, {"id": 4, "name": "Daegu", "name_ru": "Daegu", "tz": "", "district": "Daegu"}, {"id": 5, "name": "Gwangju", "name_ru": "Gwangju", "tz": "", "district": "Gwangju"}, {"id": 6, "name": "Daejeon", "name_ru": "Daejeon", "tz": "", "district": "Daejeon"}, {"id": 7, "name": "Suwon", "name_ru": "Suwon", "tz": "", "district": "Gyeonggi"}, {"id": 8, "name": "Ulsan", "name_ru": "Ulsan", "tz": "", "district": "Ulsan"}, {"id": 9, "name": "Goyang", "name_ru": "Goyang", "tz": "", "district": "Gyeonggi"}, {"id": 10, "name": "Changwon", "name_ru": "Changwon", "tz": "", "district": "Gyeongnam"}, {"id": 11, "name": "Songnam", "name_ru": "Sŏngnam", "tz": "", "district": "Gyeonggi"}, {"id": 12, "name": "Bucheon", "name_ru": "Bucheon", "tz": "", "district": "Gyeonggi"}, {"id": 13, "name": "Cheongju", "name_ru": "Cheongju", "tz": "", "district": "Chungbuk"}, {"id": 14, "name": "Yanggok", "name_ru": "Yanggok", "tz": "", "district": "Gyeonggi"}, {"id": 15, "name": "Ansan", "name_ru": "Ansan", "tz": "", "district": "Gyeonggi"}, {"id": 16, "name": "Hwasu-dong", "name_ru": "Hwasu-dong", "tz": "", "district": "Gyeonggi"}, {"id": 17, "name": "Ch'onan", "name_ru": "Ch’ŏnan", "tz": "", "district": "Chungnam"}, {"id": 18, "name": "Jeonju", "name_ru": "Jeonju", "tz": "", "district": "Jeonbuk"}, {"id": 19, "name": "Anyang", "name_ru": "Anyang", "tz": "", "district": "Gyeonggi"}, {"id": 20, "name": "Pohang", "name_ru": "Pohang", "tz": "", "district": "Gyeongbuk"}, {"id": 21, "name": "Pyeongtaek", "name_ru": "Pyeongtaek", "tz": "", "district": "Gyeonggi"}, {"id": 22, "name": "Jeju", "name_ru": "Jeju", "tz": "", "district": "Jeju"}, {"id": 23, "name": "Masan", "name_ru": "Masan", "tz": "", "district": "Gyeongnam"}, {"id": 24, "name": "Sihung", "name_ru": "Sihŭng", "tz": "", "district": "Gyeonggi"}, {"id": 25, "name": "Uijeongbu", "name_ru": "Uijeongbu", "tz": "", "district": "Gyeonggi"}, {"id": 26, "name": "Paju", "name_ru": "Paju", "tz": "", "district": "Gyeonggi"}, {"id": 27, "name": "Gimpo", "name_ru": "Gimpo", "tz": "", "district": "Gyeonggi"}, {"id": 28, "name": "Yeosu", "name_ru": "Yeosu", "tz": "", "district": "Jeonnam"}, {"id": 29, "name": "Chinju", "name_ru": "Chinju", "tz": "", "district": "Gyeongnam"}, {"id": 30, "name": "Wonju", "name_ru": "Wŏnju", "tz": "", "district": "Gangwon"}, {"id": 31, "name": "Gwangmyeongni", "name_ru": "Gwangmyeongni", "tz": "", "district": "Gyeonggi"}, {"id": 32, "name": "Asan", "name_ru": "Asan", "tz": "", "district": "Chungnam"}, {"id": 33, "name": "Iksan", "name_ru": "Iksan", "tz": "", "district": "Jeonbuk"}, {"id": 34, "name": "Yangsan", "name_ru": "Yangsan", "tz": "", "district": "Gyeongnam"}, {"id": 35, "name": "Kunp'o", "name_ru": "Kunp’o", "tz": "", "district": "Gyeonggi"}, {"id": 36, "name": "Chuncheon", "name_ru": "Chuncheon", "tz": "", "district": "Gangwon"}, {"id": 37, "name": "Gyeongsan", "name_ru": "Gyeongsan", "tz": "", "district": "Gyeongbuk"}, {"id": 38, "name": "Kunsan", "name_ru": "Kunsan", "tz": "", "district": "Jeonbuk"}, {"id": 39, "name": "Yeosu", "name_ru": "Yeosu", "tz": "", "district": "Jeonnam"}, {"id": 40, "name": "Suncheon", "name_ru": "Suncheon", "tz": "", "district": "Jeonnam"}, {"id": 41, "name": "Kyongju", "name_ru": "Kyŏngju", "tz": "", "district": "Gyeongbuk"}, {"id": 42, "name": "Mokpo", "name_ru": "Mokpo", "tz": "", "district": "Jeonnam"}, {"id": 43, "name": "Osan", "name_ru": "Osan", "tz": "", "district": "Gyeonggi"}, {"id": 44, "name": "Gangneung", "name_ru": "Gangneung", "tz": "", "district": "Gangwon"}, {"id": 45, "name": "Chungju", "name_ru": "Chungju", "tz": "", "district": "Chungbuk"}, {"id": 46, "name": "Ich'on", "name_ru": "Ich’ŏn", "tz": "", "district": "Gyeonggi"}, {"id": 47, "name": "Anseong", "name_ru": "Anseong", "tz": "", "district": "Gyeonggi"}, {"id": 48, "name": "Guri", "name_ru": "Guri", "tz": "", "district": "Gyeonggi"}, {"id": 49, "name": "Sosan", "name_ru": "Sŏsan", "tz": "", "district": "Chungnam"}, {"id": 50, "name": "Pocheon", "name_ru": "Pocheon", "tz": "", "district": "Gyeonggi"}, {"id": 51, "name": "Andong", "name_ru": "Andong", "tz": "", "district": "Gyeongbuk"}, {"id": 52, "name": "Uiwang", "name_ru": "Ŭiwang", "tz": "", "district": "Gyeonggi"}, {"id": 53, "name": "Hanam", "name_ru": "Hanam", "tz": "", "district": "Gyeonggi"}, {"id": 54, "name": "Seogwipo", "name_ru": "Seogwipo", "tz": "", "district": "Jeju"}, {"id": 55, "name": "Gwangyang", "name_ru": "Gwangyang", "tz": "", "district": "Jeonnam"}, {"id": 56, "name": "Ch'ungmu", "name_ru": "Ch’ungmu", "tz": "", "district": "Gyeongnam"}, {"id": 57, "name": "Chech'on", "name_ru": "Chech’ŏn", "tz": "", "district": "Chungbuk"}, {"id": 58, "name": "Noksan", "name_ru": "Noksan", "tz": "", "district": "Chungnam"}, {"id": 59, "name": "Sa-ch'on", "name_ru": "Sa-ch’on", "tz": "", "district": "Gyeongnam"}, {"id": 60, "name": "Jeonghae", "name_ru": "Jeonghae", "tz": "", "district": "Jeonbuk"}, {"id": 61, "name": "Yoju", "name_ru": "Yŏju", "tz": "", "district": "Gyeonggi"}, {"id": 62, "name": "Yongju", "name_ru": "Yŏngju", "tz": "", "district": "Gyeongbuk"}, {"id": 63, "name": "Miryang", "name_ru": "Miryang", "tz": "", "district": "Gyeongnam"}, {"id": 64, "name": "Sangju", "name_ru": "Sangju", "tz": "", "district": "Gyeongbuk"}, {"id": 65, "name": "Boryeong", "name_ru": "Boryeong", "tz": "", "district": "Chungnam"}, {"id": 66, "name": "Sejong", "name_ru": "Sejong", "tz": "", "district": "Sejong"}, {"id": 67, "name": "Hongseong", "name_ru": "Hongseong", "tz": "", "district": "Chungnam"}, {"id": 68, "name": "Muan", "name_ru": "Muan", "tz": "", "district": "Jeonnam"}, {"id": 69, "name": "Dongducheon", "name_ru": "Dongducheon", "tz": "", "district": "Gyeonggi"}, {"id": 70, "name": "Naju", "name_ru": "Naju", "tz": "", "district": "Jeonnam"}, {"id": 71, "name": "Sokcho", "name_ru": "Sokcho", "tz": "", "district": "Gangwon"}, {"id": 72, "name": "Mun'gyong", "name_ru": "Mun’gyŏng", "tz": "", "district": "Gyeongbuk"}, {"id": 73, "name": "Samch'ok", "name_ru": "Samch’ŏk", "tz": "", "district": "Gangwon"}, {"id": 74, "name": "Gwacheon", "name_ru": "Gwacheon", "tz": "", "district": "Gyeonggi"}, {"id": 75, "name": "Taebaek", "name_ru": "Taebaek", "tz": "", "district": "Gangwon"}, {"id": 76, "name": "Ulchin", "name_ru": "Ulchin", "tz": "", "district": "Gyeongbuk"}, {"id": 77, "name": "Eumseong", "name_ru": "Eumseong", "tz": "", "district": "Chungbuk"}]