[{"id": 1, "name": "Almaty", "name_ru": "Almaty", "tz": "Asia/Almaty", "district": "Almaty"}, {"id": 2, "name": "Nur-Sultan", "name_ru": "Nur-Sultan", "tz": "Asia/Almaty", "district": "Astana"}, {"id": 3, "name": "Shymkent", "name_ru": "Shymkent", "tz": "Asia/Almaty", "district": "Ongtüstik Qazaqstan"}, {"id": 4, "name": "Qaraghandy", "name_ru": "Qaraghandy", "tz": "Asia/Almaty", "district": "Qaraghandy"}, {"id": 5, "name": "Aqtobe", "name_ru": "Aqtöbe", "tz": "Asia/Aqtobe", "district": "Aqtöbe"}, {"id": 6, "name": "Taraz", "name_ru": "Taraz", "tz": "Asia/Almaty", "district": "Zhambyl"}, {"id": 7, "name": "Pavlodar", "name_ru": "Pavlodar", "tz": "Asia/Almaty", "district": "Pavlodar"}, {"id": 8, "name": "Semey", "name_ru": "Semey", "tz": "Asia/Almaty", "district": "Shyghys Qazaqstan"}, {"id": 9, "name": "Oskemen", "name_ru": "Öskemen", "tz": "Asia/Almaty", "district": "Shyghys Qazaqstan"}, {"id": 10, "name": "Atyrau", "name_ru": "Atyraū", "tz": "Asia/Atyrau", "district": "Atyraū"}, {"id": 11, "name": "Oral", "name_ru": "Oral", "tz": "Asia/Oral", "district": "Batys Qazaqstan"}, {"id": 12, "name": "Qostanay", "name_ru": "Qostanay", "tz": "Asia/Qostanay", "district": "Qostanay"}, {"id": 13, "name": "Petropavl", "name_ru": "Petropavl", "tz": "Asia/Almaty", "district": "Soltüstik Qazaqstan"}, {"id": 14, "name": "Qyzylorda", "name_ru": "Qyzylorda", "tz": "Asia/Qyzylorda", "district": "Qyzylorda"}, {"id": 15, "name": "Temirtau", "name_ru": "Temirtaū", "tz": "Asia/Almaty", "district": "Qaraghandy"}, {"id": 16, "name": "Aqtau", "name_ru": "Aqtaū", "tz": "Asia/Aqtau", "district": "Mangghystaū"}, {"id": 17, "name": "Turkistan", "name_ru": "Türkistan", "tz": "Asia/Almaty", "district": "Ongtüstik Qazaqstan"}, {"id": 18, "name": "Ekibastuz", "name_ru": "Ekibastuz", "tz": "Asia/Almaty", "district": "Pavlodar"}, {"id": 19, "name": "Mangghystau", "name_ru": "Mangghystaū", "tz": "Asia/Aqtau", "district": "Mangghystaū"}, {"id": 20, "name": "Kokshetau", "name_ru": "Kökshetaū", "tz": "Asia/Almaty", "district": "Aqmola"}, {"id": 21, "name": "Taldyqorghan", "name_ru": "Taldyqorghan", "tz": "Asia/Almaty", "district": "Almaty"}, {"id": 22, "name": "Rudnyy", "name_ru": "Rudnyy", "tz": "Asia/Qostanay", "district": "Qostanay"}, {"id": 23, "name": "Koktobe", "name_ru": "Koktobe", "tz": "Asia/Almaty", "district": "Almaty"}, {"id": 24, "name": "Zhezqazghan", "name_ru": "Zhezqazghan", "tz": "Asia/Almaty", "district": "Qaraghandy"}, {"id": 25, "name": "Kentau", "name_ru": "Kentaū", "tz": "Asia/Almaty", "district": "Ongtüstik Qazaqstan"}, {"id": 26, "name": "Balqash", "name_ru": "Balqash", "tz": "Asia/Almaty", "district": "Qaraghandy"}, {"id": 27, "name": "Sarqan", "name_ru": "Sarqan", "tz": "Asia/Almaty", "district": "Almaty"}, {"id": 28, "name": "Aqsu", "name_ru": "Aqsū", "tz": "Asia/Almaty", "district": "Pavlodar"}, {"id": 29, "name": "Satbayev", "name_ru": "Sätbayev", "tz": "Asia/Almaty", "district": "Qaraghandy"}, {"id": 30, "name": "Kapchagay", "name_ru": "Kapchagay", "tz": "Asia/Almaty", "district": "Almaty"}, {"id": 31, "name": "Qaskeleng", "name_ru": "Qaskeleng", "tz": "Asia/Almaty", "district": "Almaty"}, {"id": 32, "name": "Ridder", "name_ru": "Ridder", "tz": "Asia/Almaty", "district": "Shyghys Qazaqstan"}, {"id": 33, "name": "Zyryanovsk", "name_ru": "Zyryanovsk", "tz": "Asia/Almaty", "district": "Shyghys Qazaqstan"}, {"id": 34, "name": "Talghar", "name_ru": "Talghar", "tz": "Asia/Almaty", "district": "Almaty"}, {"id": 35, "name": "Shchuchinsk", "name_ru": "Shchūchīnsk", "tz": "Asia/Almaty", "district": "Aqmola"}, {"id": 36, "name": "Zharkent", "name_ru": "Zharkent", "tz": "Asia/Almaty", "district": "Almaty"}, {"id": 37, "name": "Shu", "name_ru": "Shū", "tz": "Asia/Almaty", "district": "Zhambyl"}, {"id": 38, "name": "Qapshaghay", "name_ru": "Qapshaghay", "tz": "Asia/Almaty", "district": "Almaty"}, {"id": 39, "name": "Soran", "name_ru": "Soran", "tz": "Asia/Almaty", "district": "Qaraghandy"}, {"id": 40, "name": "Ayagoz", "name_ru": "Ayagöz", "tz": "Asia/Almaty", "district": "Shyghys Qazaqstan"}, {"id": 41, "name": "Arys", "name_ru": "Arys", "tz": "Asia/Almaty", "district": "Ongtüstik Qazaqstan"}, {"id": 42, "name": "Baikonur", "name_ru": "Baikonur", "tz": "Asia/Qyzylorda", "district": "Qyzylorda"}, {"id": 43, "name": "Shakhtinsk", "name_ru": "Shakhtīnsk", "tz": "Asia/Almaty", "district": "Qaraghandy"}, {"id": 44, "name": "Qulsary", "name_ru": "Qulsary", "tz": "Asia/Atyrau", "district": "Atyraū"}, {"id": 45, "name": "Esik", "name_ru": "Esik", "tz": "Asia/Almaty", "district": "Almaty"}, {"id": 46, "name": "Zhetisay", "name_ru": "Zhetisay", "tz": "Asia/Almaty", "district": "Ongtüstik Qazaqstan"}, {"id": 47, "name": "Aksay", "name_ru": "Aksay", "tz": "Asia/Oral", "district": "Batys Qazaqstan"}, {"id": 48, "name": "Zhitiqara", "name_ru": "Zhitiqara", "tz": "Asia/Qostanay", "district": "Qostanay"}, {"id": 49, "name": "Staryy Beyneu", "name_ru": "Staryy Beyneu", "tz": "Asia/Aqtau", "district": "Mangghystaū"}, {"id": 50, "name": "Balyqshy", "name_ru": "Balyqshy", "tz": "Asia/Atyrau", "district": "Atyraū"}, {"id": 51, "name": "Tekeli", "name_ru": "Tekeli", "tz": "Asia/Almaty", "district": "Almaty"}, {"id": 52, "name": "Aral", "name_ru": "Aral", "tz": "Asia/Qyzylorda", "district": "Qyzylorda"}, {"id": 53, "name": "Shiyeli", "name_ru": "Shiyeli", "tz": "Asia/Qyzylorda", "district": "Qyzylorda"}, {"id": 54, "name": "Atbasar", "name_ru": "Atbasar", "tz": "Asia/Almaty", "district": "Aqmola"}, {"id": 55, "name": "Qaratau", "name_ru": "Qarataū", "tz": "Asia/Almaty", "district": "Zhambyl"}, {"id": 56, "name": "Alga", "name_ru": "Alga", "tz": "Asia/Aqtobe", "district": "Aqtöbe"}, {"id": 57, "name": "Oktyabrsk", "name_ru": "Oktyabrsk", "tz": "Asia/Aqtobe", "district": "Aqtöbe"}, {"id": 58, "name": "Arqalyq", "name_ru": "Arqalyq", "tz": "Asia/Qostanay", "district": "Qostanay"}, {"id": 59, "name": "Shalqar", "name_ru": "Shalqar", "tz": "Asia/Aqtobe", "district": "Aqtöbe"}, {"id": 60, "name": "Abay", "name_ru": "Abay", "tz": "Asia/Almaty", "district": "Qaraghandy"}, {"id": 61, "name": "Ereymentau", "name_ru": "Ereymentaū", "tz": "Asia/Almaty", "district": "Aqmola"}, {"id": 62, "name": "Khromtau", "name_ru": "Khromtaū", "tz": "Asia/Aqtobe", "district": "Aqtöbe"}, {"id": 63, "name": "Lengir", "name_ru": "Lengir", "tz": "Asia/Almaty", "district": "Ongtüstik Qazaqstan"}, {"id": 64, "name": "Makinsk", "name_ru": "Makīnsk", "tz": "Asia/Almaty", "district": "Aqmola"}, {"id": 65, "name": "Oytal", "name_ru": "Oytal", "tz": "Asia/Almaty", "district": "Zhambyl"}, {"id": 66, "name": "Qarazhal", "name_ru": "Qarazhal", "tz": "Asia/Almaty", "district": "Qaraghandy"}, {"id": 67, "name": "Boralday", "name_ru": "Boralday", "tz": "Asia/Almaty", "district": "Almaty"}, {"id": 68, "name": "Ushtobe", "name_ru": "Üshtöbe", "tz": "Asia/Almaty", "district": "Almaty"}, {"id": 69, "name": "Zhosaly", "name_ru": "Zhosaly", "tz": "Asia/Qyzylorda", "district": "Qyzylorda"}, {"id": 70, "name": "Atasu", "name_ru": "Atasū", "tz": "Asia/Almaty", "district": "Qaraghandy"}, {"id": 71, "name": "Tole Bi", "name_ru": "Töle Bī", "tz": "Asia/Almaty", "district": "Zhambyl"}, {"id": 72, "name": "Shemonaikha", "name_ru": "Shemonaīkha", "tz": "Asia/Almaty", "district": "Shyghys Qazaqstan"}, {"id": 73, "name": "Emba", "name_ru": "Emba", "tz": "Asia/Aqtobe", "district": "Aqtöbe"}, {"id": 74, "name": "Zaysan", "name_ru": "Zaysan", "tz": "Asia/Almaty", "district": "Shyghys Qazaqstan"}, {"id": 75, "name": "Derzhavinsk", "name_ru": "Derzhavīnsk", "tz": "Asia/Almaty", "district": "Aqmola"}, {"id": 76, "name": "Bayserke", "name_ru": "Bayserke", "tz": "Asia/Almaty", "district": "Almaty"}, {"id": 77, "name": "Uryzhar", "name_ru": "Uryzhar", "tz": "Asia/Almaty", "district": "Shyghys Qazaqstan"}, {"id": 78, "name": "Maqat", "name_ru": "Maqat", "tz": "Asia/Atyrau", "district": "Atyraū"}, {"id": 79, "name": "Qazyqurt", "name_ru": "Qazyqurt", "tz": "Asia/Almaty", "district": "Ongtüstik Qazaqstan"}, {"id": 80, "name": "Shamalgan", "name_ru": "Shamalgan", "tz": "Asia/Almaty", "district": "Almaty"}, {"id": 81, "name": "Eski Ikan", "name_ru": "Eski Īkan", "tz": "Asia/Almaty", "district": "Ongtüstik Qazaqstan"}, {"id": 82, "name": "Masangshy", "name_ru": "Masangshy", "tz": "Asia/Almaty", "district": "Zhambyl"}, {"id": 83, "name": "Qulan", "name_ru": "Qulan", "tz": "Asia/Almaty", "district": "Zhambyl"}, {"id": 84, "name": "Tuzdybastau", "name_ru": "Tuzdybastaū", "tz": "Asia/Almaty", "district": "Almaty"}, {"id": 85, "name": "Taiynsha", "name_ru": "Taiynsha", "tz": "Asia/Almaty", "district": "Soltüstik Qazaqstan"}, {"id": 86, "name": "Novoishimskiy", "name_ru": "Novoīshīmskīy", "tz": "Asia/Almaty", "district": "Soltüstik Qazaqstan"}, {"id": 87, "name": "Esil", "name_ru": "Esil", "tz": "Asia/Almaty", "district": "Aqmola"}, {"id": 88, "name": "Otar", "name_ru": "Otar", "tz": "Asia/Almaty", "district": "Zhambyl"}, {"id": 89, "name": "Lugovoy", "name_ru": "Lūgovoy", "tz": "Asia/Almaty", "district": "Zhambyl"}, {"id": 90, "name": "Makhambet", "name_ru": "Makhambet", "tz": "Asia/Atyrau", "district": "Aqtöbe"}, {"id": 91, "name": "Bulaevo", "name_ru": "Būlaevo", "tz": "Asia/Almaty", "district": "Soltüstik Qazaqstan"}, {"id": 92, "name": "Zhanibek", "name_ru": "Zhänibek", "tz": "Asia/Oral", "district": "Batys Qazaqstan"}, {"id": 93, "name": "Ertis", "name_ru": "Ertis", "tz": "Asia/Almaty", "district": "Pavlodar"}, {"id": 94, "name": "Sergeevka", "name_ru": "Sergeevka", "tz": "Asia/Almaty", "district": "Soltüstik Qazaqstan"}, {"id": 95, "name": "Mezhdurechenskoye", "name_ru": "Mezhdūrechenskoye", "tz": "Asia/Almaty", "district": "Almaty"}, {"id": 96, "name": "Kishkenekol", "name_ru": "Kishkeneköl", "tz": "Asia/Almaty", "district": "Soltüstik Qazaqstan"}, {"id": 97, "name": "Saghyz", "name_ru": "Saghyz", "tz": "Asia/Atyrau", "district": "Atyraū"}, {"id": 98, "name": "Astrakhan", "name_ru": "Astrakhan", "tz": "Asia/Almaty", "district": "Aqmola"}, {"id": 99, "name": "Chapaev", "name_ru": "Chapaev", "tz": "Asia/Oral", "district": "Batys Qazaqstan"}, {"id": 100, "name": "Qaraoy", "name_ru": "Qaraoy", "tz": "Asia/Almaty", "district": "Almaty"}, {"id": 101, "name": "Qarabalyq", "name_ru": "Qarabalyq", "tz": "Asia/Qostanay", "district": "Qostanay"}, {"id": 102, "name": "Aqadyr", "name_ru": "Aqadyr", "tz": "Asia/Almaty", "district": "Qaraghandy"}, {"id": 103, "name": "Saumalkol", "name_ru": "Saūmalköl", "tz": "Asia/Almaty", "district": "Soltüstik Qazaqstan"}, {"id": 104, "name": "Sholaqqorghan", "name_ru": "Sholaqqorghan", "tz": "Asia/Almaty", "district": "Ongtüstik Qazaqstan"}, {"id": 105, "name": "Shar", "name_ru": "Shar", "tz": "Asia/Almaty", "district": "Shyghys Qazaqstan"}, {"id": 106, "name": "Qashyr", "name_ru": "Qashyr", "tz": "Asia/Almaty", "district": "Pavlodar"}, {"id": 107, "name": "Zhangaozen", "name_ru": "Zhangaözen", "tz": "Asia/Aqtau", "district": "Mangghystaū"}, {"id": 108, "name": "Aqsu", "name_ru": "Aqsū", "tz": "Asia/Almaty", "district": "Aqmola"}, {"id": 109, "name": "Qarqaraly", "name_ru": "Qarqaraly", "tz": "Asia/Almaty", "district": "Qaraghandy"}, {"id": 110, "name": "Qusmuryn", "name_ru": "Qusmuryn", "tz": "Asia/Qostanay", "district": "Qostanay"}, {"id": 111, "name": "Bayghanin", "name_ru": "Bayghanīn", "tz": "Asia/Aqtobe", "district": "Aqtöbe"}, {"id": 112, "name": "Osakarovka", "name_ru": "Osakarovka", "tz": "Asia/Almaty", "district": "Qaraghandy"}, {"id": 113, "name": "Bestobe", "name_ru": "Bestöbe", "tz": "Asia/Almaty", "district": "Aqmola"}, {"id": 114, "name": "Tobyl", "name_ru": "Tobyl", "tz": "Asia/Qostanay", "district": "Qostanay"}, {"id": 115, "name": "Zholymbet", "name_ru": "Zholymbet", "tz": "Asia/Almaty", "district": "Aqmola"}, {"id": 116, "name": "Qazaly", "name_ru": "Qazaly", "tz": "Asia/Qyzylorda", "district": "Qyzylorda"}, {"id": 117, "name": "Podstepnoe", "name_ru": "Podstepnoe", "tz": "Asia/Oral", "district": "Batys Qazaqstan"}, {"id": 118, "name": "Smirnovo", "name_ru": "Smīrnovo", "tz": "Asia/Almaty", "district": "Soltüstik Qazaqstan"}, {"id": 119, "name": "Yavlenka", "name_ru": "Yavlenka", "tz": "Asia/Almaty", "district": "Soltüstik Qazaqstan"}, {"id": 120, "name": "Pavlodarskoe", "name_ru": "Pavlodarskoe", "tz": "Asia/Almaty", "district": "Pavlodar"}, {"id": 121, "name": "Presnovka", "name_ru": "Presnovka", "tz": "Asia/Almaty", "district": "Soltüstik Qazaqstan"}, {"id": 122, "name": "Torghay", "name_ru": "Torghay", "tz": "Asia/Qostanay", "district": "Qostanay"}, {"id": 123, "name": "Fort-Shevchenko", "name_ru": "Fort-Shevchenko", "tz": "Asia/Aqtau", "district": "Mangghystaū"}, {"id": 124, "name": "Saryshaghan", "name_ru": "Saryshaghan", "tz": "Asia/Almaty", "district": "Qaraghandy"}, {"id": 125, "name": "Shongzhy", "name_ru": "Shongzhy", "tz": "Asia/Almaty", "district": "Almaty"}, {"id": 126, "name": "Serebryansk", "name_ru": "Serebryansk", "tz": "Asia/Almaty", "district": "Shyghys Qazaqstan"}, {"id": 127, "name": "Zhaltyr", "name_ru": "Zhaltyr", "tz": "Asia/Almaty", "district": "Aqmola"}, {"id": 128, "name": "Sharbaqty", "name_ru": "Sharbaqty", "tz": "Asia/Almaty", "district": "Pavlodar"}, {"id": 129, "name": "Burubaytal", "name_ru": "Burubaytal", "tz": "Asia/Almaty", "district": "Zhambyl"}]