[{"id": 1, "name": "Vientiane", "name_ru": "Vientiane", "tz": "", "district": "Viangchan"}, {"id": 2, "name": "Pakxe", "name_ru": "Pakxé", "tz": "", "district": "Champasak"}, {"id": 3, "name": "Savannakhet", "name_ru": "Savannakhet", "tz": "", "district": "Savannakhét"}, {"id": 4, "name": "Thakhek", "name_ru": "Thakhèk", "tz": "", "district": "Khammouan"}, {"id": 5, "name": "Louangphabang", "name_ru": "Louangphabang", "tz": "", "district": "Louangphabang"}, {"id": 6, "name": "Xam Nua", "name_ru": "Xam Nua", "tz": "", "district": "Houaphan"}, {"id": 7, "name": "Phonsavan", "name_ru": "Phônsavan", "tz": "", "district": "Xiangkhouang"}, {"id": 8, "name": "Attapu", "name_ru": "Attapu", "tz": "", "district": "Attapu"}, {"id": 9, "name": "Ban Houayxay", "name_ru": "Ban Houayxay", "tz": "", "district": "Bokèo"}, {"id": 10, "name": "Xaignabouli", "name_ru": "Xaignabouli", "tz": "", "district": "Xaignabouli"}, {"id": 11, "name": "Phongsali", "name_ru": "Phôngsali", "tz": "", "district": "Phôngsali"}, {"id": 12, "name": "Salavan", "name_ru": "Salavan", "tz": "", "district": "Salavan"}, {"id": 13, "name": "Louang Namtha", "name_ru": "Louang Namtha", "tz": "", "district": "Louangnamtha"}, {"id": 14, "name": "Xai", "name_ru": "Xai", "tz": "", "district": "Oudômxai"}, {"id": 15, "name": "Xekong", "name_ru": "Xékong", "tz": "", "district": "Xékong"}, {"id": 16, "name": "Pakxan", "name_ru": "Pakxan", "tz": "", "district": "Bolikhamxai"}, {"id": 17, "name": "Anouvong", "name_ru": "Anouvông", "tz": "", "district": "Xaisômboun"}, {"id": 18, "name": "Phon-Hong", "name_ru": "Phôn-Hông", "tz": "", "district": "Viangchan"}, {"id": 19, "name": "Champasak", "name_ru": "Champasak", "tz": "", "district": "Champasak"}]