[{"id": 1, "name": "Beirut", "name_ru": "Beirut", "tz": "", "district": "Beyrouth"}, {"id": 2, "name": "Tripoli", "name_ru": "Tripoli", "tz": "", "district": "Liban-Nord"}, {"id": 3, "name": "Sidon", "name_ru": "Sidon", "tz": "", "district": "Liban-Sud"}, {"id": 4, "name": "Tyre", "name_ru": "Tyre", "tz": "", "district": "Liban-Sud"}, {"id": 5, "name": "Zahle", "name_ru": "Zahlé", "tz": "", "district": "Béqaa"}, {"id": 6, "name": "Jounie", "name_ru": "Joünié", "tz": "", "district": "Mont-Liban"}, {"id": 7, "name": "Nabatiye", "name_ru": "Nabatîyé", "tz": "", "district": "Nabatîyé"}, {"id": 8, "name": "Baalbek", "name_ru": "Baalbek", "tz": "", "district": "Baalbek-Hermel"}, {"id": 9, "name": "Baabda", "name_ru": "Baabda", "tz": "", "district": "Mont-Liban"}, {"id": 10, "name": "Halba", "name_ru": "Halba", "tz": "", "district": "Aakkâr"}, {"id": 11, "name": "El Qaa", "name_ru": "El Qâa", "tz": "", "district": "Baalbek-Hermel"}, {"id": 12, "name": "Amioun", "name_ru": "Amioûn", "tz": "", "district": "Liban-Nord"}]