[{"id": 1, "name": "Colombo", "name_ru": "Colombo", "tz": "", "district": "Western"}, {"id": 2, "name": "Sri Jayewardenepura Kotte", "name_ru": "Sri Jayewardenepura Kotte", "tz": "", "district": "Western"}, {"id": 3, "name": "Moratuwa", "name_ru": "Moratuwa", "tz": "", "district": "Western"}, {"id": 4, "name": "Kandy", "name_ru": "Kandy", "tz": "", "district": "Central"}, {"id": 5, "name": "Negombo", "name_ru": "Negombo", "tz": "", "district": "Western"}, {"id": 6, "name": "Batticaloa", "name_ru": "Batticaloa", "tz": "", "district": "Eastern"}, {"id": 7, "name": "Trincomalee", "name_ru": "Trincomalee", "tz": "", "district": "Eastern"}, {"id": 8, "name": "Kilinochchi", "name_ru": "Kilinochchi", "tz": "", "district": "Northern"}, {"id": 9, "name": "Galle", "name_ru": "Galle", "tz": "", "district": "Southern"}, {"id": 10, "name": "Jaffna", "name_ru": "Jaffna", "tz": "", "district": "Northern"}, {"id": 11, "name": "Matara", "name_ru": "Matara", "tz": "", "district": "Southern"}, {"id": 12, "name": "Anuradhapura", "name_ru": "Anuradhapura", "tz": "", "district": "North Central"}, {"id": 13, "name": "Ratnapura", "name_ru": "Ratnapura", "tz": "", "district": "Sabaragamuwa"}, {"id": 14, "name": "Puttalam", "name_ru": "Puttalam", "tz": "", "district": "North Western"}, {"id": 15, "name": "Badulla", "name_ru": "Badulla", "tz": "", "district": "Uva"}, {"id": 16, "name": "Matale", "name_ru": "Matale", "tz": "", "district": "Central"}, {"id": 17, "name": "Mannar", "name_ru": "Mannar", "tz": "", "district": "Northern"}, {"id": 18, "name": "Nuwara Eliya", "name_ru": "Nuwara Eliya", "tz": "", "district": "Central"}, {"id": 19, "name": "Kegalle", "name_ru": "Kegalle", "tz": "", "district": "Sabaragamuwa"}, {"id": 20, "name": "Hambantota", "name_ru": "Hambantota", "tz": "", "district": "Southern"}, {"id": 21, "name": "Kurunegala", "name_ru": "Kurunegala", "tz": "", "district": "North Western"}, {"id": 22, "name": "Mullaittivu", "name_ru": "Mullaittivu", "tz": "", "district": "Northern"}]