[{"id": 1, "name": "Monrovia", "name_ru": "Monrovia", "tz": "", "district": "Montserrado"}, {"id": 2, "name": "Gbarnga", "name_ru": "Gbarnga", "tz": "", "district": "Bong"}, {"id": 3, "name": "Kakata", "name_ru": "Kakata", "tz": "", "district": "Margibi"}, {"id": 4, "name": "Harper", "name_ru": "Harper", "tz": "", "district": "Maryland"}, {"id": 5, "name": "Voinjama", "name_ru": "Voinjama", "tz": "", "district": "Lofa"}, {"id": 6, "name": "Zwedru", "name_ru": "Zwedru", "tz": "", "district": "Grand Gedeh"}, {"id": 7, "name": "Robertsport", "name_ru": "Robertsport", "tz": "", "district": "Grand Cape Mount"}, {"id": 8, "name": "Sanniquellie", "name_ru": "Sanniquellie", "tz": "", "district": "Nimba"}, {"id": 9, "name": "Greenville", "name_ru": "Greenville", "tz": "", "district": "Sinoe"}, {"id": 10, "name": "Bensonville", "name_ru": "Bensonville", "tz": "", "district": "Montserrado"}, {"id": 11, "name": "Barclayville", "name_ru": "Barclayville", "tz": "", "district": "Grand Kru"}, {"id": 12, "name": "Cestos City", "name_ru": "Cestos City", "tz": "", "district": "River Cess"}, {"id": 13, "name": "Buchanan", "name_ru": "Buchanan", "tz": "", "district": "Grand Bassa"}, {"id": 14, "name": "Tubmanburg", "name_ru": "Tubmanburg", "tz": "", "district": "Bomi"}, {"id": 15, "name": "Fish Town", "name_ru": "Fish Town", "tz": "", "district": "River Gee"}, {"id": 16, "name": "Bopolu", "name_ru": "Bopolu", "tz": "", "district": "Gbarpolu"}, {"id": 17, "name": "Upper Buchanan", "name_ru": "Upper Buchanan", "tz": "", "district": "Grand Bassa"}]