[{"id": 1, "name": "Maseru", "name_ru": "Maseru", "tz": "", "district": "Maseru"}, {"id": 2, "name": "Teyateyaneng", "name_ru": "Teyateyaneng", "tz": "", "district": "Berea"}, {"id": 3, "name": "Mafeteng", "name_ru": "Mafeteng", "tz": "", "district": "Mafeteng"}, {"id": 4, "name": "Leribe", "name_ru": "Leribe", "tz": "", "district": "Leribe"}, {"id": 5, "name": "Mohale's Hoek", "name_ru": "Mohale’s Hoek", "tz": "", "district": "Mohale’s Hoek"}, {"id": 6, "name": "Quthing", "name_ru": "Quthing", "tz": "", "district": "Quthing"}, {"id": 7, "name": "Butha-Buthe", "name_ru": "Butha-Buthe", "tz": "", "district": "Butha-Buthe"}, {"id": 8, "name": "Mokhotlong", "name_ru": "Mokhotlong", "tz": "", "district": "Mokhotlong"}, {"id": 9, "name": "Thaba-Tseka", "name_ru": "Thaba-Tseka", "tz": "", "district": "Thaba-Tseka"}, {"id": 10, "name": "Qacha's Nek", "name_ru": "Qacha’s Nek", "tz": "", "district": "Qacha’s Nek"}, {"id": 11, "name": "Maputsoe", "name_ru": "Maputsoe", "tz": "", "district": "Leribe"}]