[{"id": 1, "name": "Vilnius", "name_ru": "Vilnius", "tz": "", "district": "Vilniaus Miestas"}, {"id": 2, "name": "Kaunas", "name_ru": "Kaunas", "tz": "", "district": "Kauno Miestas"}, {"id": 3, "name": "Klaipeda", "name_ru": "Klaipėda", "tz": "", "district": "Klaipėdos Miestas"}, {"id": 4, "name": "Siauliai", "name_ru": "Šiauliai", "tz": "", "district": "Šiaulių Miestas"}, {"id": 5, "name": "Panevezys", "name_ru": "Panevėžys", "tz": "", "district": "Panevėžio Miestas"}, {"id": 6, "name": "Alytus", "name_ru": "Alytus", "tz": "", "district": "Alytaus Miestas"}, {"id": 7, "name": "Marijampole", "name_ru": "Marijampolė", "tz": "", "district": "Marijampolė"}, {"id": 8, "name": "Mazeikiai", "name_ru": "Mažeikiai", "tz": "", "district": "Mažeikiai"}, {"id": 9, "name": "Utena", "name_ru": "Utena", "tz": "", "district": "Utena"}, {"id": 10, "name": "Jonava", "name_ru": "Jonava", "tz": "", "district": "Jonava"}, {"id": 11, "name": "Kedainiai", "name_ru": "Kėdainiai", "tz": "", "district": "Kėdainiai"}, {"id": 12, "name": "Telsiai", "name_ru": "Telšiai", "tz": "", "district": "Telšiai"}, {"id": 13, "name": "Taurage", "name_ru": "Tauragė", "tz": "", "district": "Tauragė"}, {"id": 14, "name": "Ukmerge", "name_ru": "Ukmergė", "tz": "", "district": "Ukmergė"}, {"id": 15, "name": "Visaginas", "name_ru": "Visaginas", "tz": "", "district": "Visaginas"}, {"id": 16, "name": "Plunge", "name_ru": "Plungė", "tz": "", "district": "Plungė"}, {"id": 17, "name": "Kretinga", "name_ru": "Kretinga", "tz": "", "district": "Kretinga"}, {"id": 18, "name": "Silute", "name_ru": "Šilutė", "tz": "", "district": "Šilutė"}, {"id": 19, "name": "Palanga", "name_ru": "Palanga", "tz": "", "district": "Palangos Miestas"}, {"id": 20, "name": "Radviliskis", "name_ru": "Radviliškis", "tz": "", "district": "Radviliškis"}, {"id": 21, "name": "Rokiskis", "name_ru": "Rokiškis", "tz": "", "district": "Rokiškis"}, {"id": 22, "name": "Druskininkai", "name_ru": "Druskininkai", "tz": "", "district": "Druskininkai"}, {"id": 23, "name": "Elektrenai", "name_ru": "Elektrėnai", "tz": "", "district": "Elektrénai"}, {"id": 24, "name": "Birzai", "name_ru": "Biržai", "tz": "", "district": "Biržai"}, {"id": 25, "name": "Jurbarkas", "name_ru": "Jurbarkas", "tz": "", "district": "Jurbarkas"}, {"id": 26, "name": "Vilkaviskis", "name_ru": "Vilkaviškis", "tz": "", "district": "Vilkaviškis"}, {"id": 27, "name": "Joniskis", "name_ru": "Joniškis", "tz": "", "district": "Joniškis"}, {"id": 28, "name": "Anyksciai", "name_ru": "Anykščiai", "tz": "", "district": "Anykščiai"}, {"id": 29, "name": "Varena", "name_ru": "Varėna", "tz": "", "district": "Varėna"}, {"id": 30, "name": "Prienai", "name_ru": "Prienai", "tz": "", "district": "Prienai"}, {"id": 31, "name": "Kelme", "name_ru": "Kelmė", "tz": "", "district": "Kelmė"}, {"id": 32, "name": "Naujoji Akmene", "name_ru": "Naujoji Akmenė", "tz": "", "district": "Akmenė"}, {"id": 33, "name": "Salcininkai", "name_ru": "Šalčininkai", "tz": "", "district": "Šalčininkai"}, {"id": 34, "name": "Pasvalys", "name_ru": "Pasvalys", "tz": "", "district": "Pasvalys"}, {"id": 35, "name": "Zarasai", "name_ru": "Zarasai", "tz": "", "district": "Zarasai"}, {"id": 36, "name": "Kupiskis", "name_ru": "Kupiškis", "tz": "", "district": "Kupiškis"}, {"id": 37, "name": "Kazlu Ruda", "name_ru": "Kazlų Rūda", "tz": "", "district": "Kazlų Rūdos"}, {"id": 38, "name": "Moletai", "name_ru": "Molėtai", "tz": "", "district": "Molėtai"}, {"id": 39, "name": "Skuodas", "name_ru": "Skuodas", "tz": "", "district": "Skuodas"}, {"id": 40, "name": "Sakiai", "name_ru": "Šakiai", "tz": "", "district": "Šakiai"}, {"id": 41, "name": "Silale", "name_ru": "Šilalė", "tz": "", "district": "Šilalė"}, {"id": 42, "name": "Trakai", "name_ru": "Trakai", "tz": "", "district": "Trakai"}, {"id": 43, "name": "Pakruojis", "name_ru": "Pakruojis", "tz": "", "district": "Pakruojis"}, {"id": 44, "name": "Svencionys", "name_ru": "Švenčionys", "tz": "", "district": "Švenčionys"}, {"id": 45, "name": "Kalvarija", "name_ru": "Kalvarija", "tz": "", "district": "Kalvarijos"}, {"id": 46, "name": "Lazdijai", "name_ru": "Lazdijai", "tz": "", "district": "Lazdijai"}, {"id": 47, "name": "Rietavas", "name_ru": "Rietavas", "tz": "", "district": "Rietavo"}, {"id": 48, "name": "Nida", "name_ru": "Nida", "tz": "", "district": "Neringa"}, {"id": 49, "name": "Birstonas", "name_ru": "Birštonas", "tz": "", "district": "Birštono"}, {"id": 50, "name": "Sirvintos", "name_ru": "Širvintos", "tz": "", "district": "Širvintos"}, {"id": 51, "name": "Pagegiai", "name_ru": "Pagėgiai", "tz": "", "district": "Pagégiai"}, {"id": 52, "name": "Kaisiadorys", "name_ru": "Kaišiadorys", "tz": "", "district": "Kaišiadorys"}, {"id": 53, "name": "Raseiniai", "name_ru": "Raseiniai", "tz": "", "district": "Raseiniai"}, {"id": 54, "name": "Ignalina", "name_ru": "Ignalina", "tz": "", "district": "Ignalina"}, {"id": 55, "name": "Gargzdai", "name_ru": "Gargždai", "tz": "", "district": "Klaipėda"}, {"id": 56, "name": "Kursenai", "name_ru": "Kuršėnai", "tz": "", "district": "Šiauliai"}, {"id": 57, "name": "Grigiskes", "name_ru": "Grigiškės", "tz": "", "district": "Vilniaus Miestas"}, {"id": 58, "name": "Likiskiai", "name_ru": "Likiškiai", "tz": "", "district": "Alytus"}, {"id": 59, "name": "Lentvaris", "name_ru": "Lentvaris", "tz": "", "district": "Trakai"}, {"id": 60, "name": "Garliava", "name_ru": "Garliava", "tz": "", "district": "Kaunas"}, {"id": 61, "name": "Pabrade", "name_ru": "Pabradė", "tz": "", "district": "Švenčionys"}, {"id": 62, "name": "Domeikava", "name_ru": "Domeikava", "tz": "", "district": "Kaunas"}]