[{"id": 1, "name": "Luxembourg", "name_ru": "Luxembourg", "tz": "", "district": "Luxembourg"}, {"id": 2, "name": "Esch-sur-Alzette", "name_ru": "Esch-sur-Alzette", "tz": "", "district": "Esch-sur-Alzette"}, {"id": 3, "name": "Diekirch", "name_ru": "Diekirch", "tz": "", "district": "Diekirch"}, {"id": 4, "name": "Echternach", "name_ru": "Echternach", "tz": "", "district": "Echternach"}, {"id": 5, "name": "Wiltz", "name_ru": "Wiltz", "tz": "", "district": "Wiltz"}, {"id": 6, "name": "Grevenmacher", "name_ru": "Grevenmacher", "tz": "", "district": "Grevenmacher"}, {"id": 7, "name": "Remich", "name_ru": "Remich", "tz": "", "district": "Remich"}, {"id": 8, "name": "Vianden", "name_ru": "Vianden", "tz": "", "district": "Vianden"}, {"id": 9, "name": "Capellen", "name_ru": "Capellen", "tz": "", "district": "Capellen"}, {"id": 10, "name": "Clervaux", "name_ru": "Clervaux", "tz": "", "district": "Clervaux"}, {"id": 11, "name": "Mersch", "name_ru": "Mersch", "tz": "", "district": "Mersch"}, {"id": 12, "name": "Redange-sur-Attert", "name_ru": "Redange-sur-Attert", "tz": "", "district": "Redange"}, {"id": 13, "name": "Dudelange", "name_ru": "Dudelange", "tz": "", "district": "Esch-sur-Alzette"}, {"id": 14, "name": "Differdange", "name_ru": "Differdange", "tz": "", "district": "Esch-sur-Alzette"}, {"id": 15, "name": "Rodange", "name_ru": "Rodange", "tz": "", "district": "Esch-sur-Alzette"}, {"id": 16, "name": "Niedercorn", "name_ru": "Niedercorn", "tz": "", "district": "Esch-sur-Alzette"}, {"id": 17, "name": "Belvaux", "name_ru": "Belvaux", "tz": "", "district": "Esch-sur-Alzette"}, {"id": 18, "name": "Soleuvre", "name_ru": "Soleuvre", "tz": "", "district": "Esch-sur-Alzette"}, {"id": 19, "name": "Rumelange", "name_ru": "Rumelange", "tz": "", "district": "Esch-sur-Alzette"}, {"id": 20, "name": "Kayl", "name_ru": "Kayl", "tz": "", "district": "Esch-sur-Alzette"}, {"id": 21, "name": "Steinfort", "name_ru": "Steinfort", "tz": "", "district": "Capellen"}, {"id": 22, "name": "Bascharage", "name_ru": "Bascharage", "tz": "", "district": "Capellen"}, {"id": 23, "name": "Mondorf-les-Bains", "name_ru": "Mondorf-les-Bains", "tz": "", "district": "Remich"}]