[{"id": 1, "name": "Riga", "name_ru": "Riga", "tz": "", "district": "Rīga"}, {"id": 2, "name": "Daugavpils", "name_ru": "Daugavpils", "tz": "", "district": "Daugavpils"}, {"id": 3, "name": "Liepaja", "name_ru": "Liepāja", "tz": "", "district": "Liepāja"}, {"id": 4, "name": "Jelgava", "name_ru": "Jelgava", "tz": "", "district": "Jelgavas Novads"}, {"id": 5, "name": "Jurmala", "name_ru": "Jūrmala", "tz": "", "district": "Jūrmala"}, {"id": 6, "name": "Ventspils", "name_ru": "Ventspils", "tz": "", "district": "Ventspils"}, {"id": 7, "name": "Rezekne", "name_ru": "Rēzekne", "tz": "", "district": "Rēzeknes Novads"}, {"id": 8, "name": "Valmiera", "name_ru": "Valmiera", "tz": "", "district": "Valmiera"}, {"id": 9, "name": "Ogre", "name_ru": "Ogre", "tz": "", "district": "Ogres Novads"}, {"id": 10, "name": "Jekabpils", "name_ru": "Jēkabpils", "tz": "", "district": "Jēkabpils Novads"}, {"id": 11, "name": "Salaspils", "name_ru": "Salaspils", "tz": "", "district": "Salaspils Novads"}, {"id": 12, "name": "Marupe", "name_ru": "Mārupe", "tz": "", "district": "Mārupes Novads"}, {"id": 13, "name": "Tukums", "name_ru": "Tukums", "tz": "", "district": "Tukuma Novads"}, {"id": 14, "name": "Cesis", "name_ru": "Cēsis", "tz": "", "district": "Cēsu Novads"}, {"id": 15, "name": "Sigulda", "name_ru": "Sigulda", "tz": "", "district": "Siguldas Novads"}, {"id": 16, "name": "Olaine", "name_ru": "Olaine", "tz": "", "district": "Olaines Novads"}, {"id": 17, "name": "Kuldiga", "name_ru": "Kuldīga", "tz": "", "district": "Kuldīgas Novads"}, {"id": 18, "name": "Bauska", "name_ru": "Bauska", "tz": "", "district": "Bauskas Novads"}, {"id": 19, "name": "Saldus", "name_ru": "Saldus", "tz": "", "district": "Saldus Novads"}, {"id": 20, "name": "Talsi", "name_ru": "Talsi", "tz": "", "district": "Talsu Novads"}, {"id": 21, "name": "Dobele", "name_ru": "Dobele", "tz": "", "district": "Dobeles Novads"}, {"id": 22, "name": "Ludza", "name_ru": "Ludza", "tz": "", "district": "Ludzas Novads"}, {"id": 23, "name": "Kraslava", "name_ru": "Krāslava", "tz": "", "district": "Krāslavas Novads"}, {"id": 24, "name": "Adazi", "name_ru": "Ādaži", "tz": "", "district": "Ādažu Novads"}, {"id": 25, "name": "Aizkraukle", "name_ru": "Aizkraukle", "tz": "", "district": "Aizkraukles Novads"}, {"id": 26, "name": "Livani", "name_ru": "Līvāni", "tz": "", "district": "Līvānu Novads"}, {"id": 27, "name": "Gulbene", "name_ru": "Gulbene", "tz": "", "district": "Gulbenes Novads"}, {"id": 28, "name": "Limbazi", "name_ru": "Limbaži", "tz": "", "district": "Limbažu Novads"}, {"id": 29, "name": "Madona", "name_ru": "Madona", "tz": "", "district": "Madonas Novads"}, {"id": 30, "name": "Aluksne", "name_ru": "Alūksne", "tz": "", "district": "Alūksnes Novads"}, {"id": 31, "name": "Preili", "name_ru": "Preiļi", "tz": "", "district": "Preiļu Novads"}, {"id": 32, "name": "Balvi", "name_ru": "Balvi", "tz": "", "district": "Balvu Novads"}, {"id": 33, "name": "Kekava", "name_ru": "Ķekava", "tz": "", "district": "Ķekavas Novads"}, {"id": 34, "name": "Smiltene", "name_ru": "Smiltene", "tz": "", "district": "Smiltenes Novads"}, {"id": 35, "name": "Valka", "name_ru": "Valka", "tz": "", "district": "Valkas Novads"}, {"id": 36, "name": "Ulbroka", "name_ru": "Ulbroka", "tz": "", "district": "Ropažu Novads"}, {"id": 37, "name": "Saulkrasti", "name_ru": "Saulkrasti", "tz": "", "district": "Saulkrastu Novads"}, {"id": 38, "name": "Varaklani", "name_ru": "Varakļāni", "tz": "", "district": "Varakļānu Novads"}, {"id": 39, "name": "Ropazi", "name_ru": "Ropaži", "tz": "", "district": "Ropažu Novads"}, {"id": 40, "name": "Ikskile", "name_ru": "Ikšķile", "tz": "", "district": "Ogres Novads"}, {"id": 41, "name": "Balozi", "name_ru": "Baloži", "tz": "", "district": "Ķekavas Novads"}, {"id": 42, "name": "Lielvarde", "name_ru": "Lielvārde", "tz": "", "district": "Ogres Novads"}, {"id": 43, "name": "Iecava", "name_ru": "Iecava", "tz": "", "district": "Bauskas Novads"}]