[{"id": 1, "name": "Tripoli", "name_ru": "Tripoli", "tz": "", "district": "Ţarābulus"}, {"id": 2, "name": "Benghazi", "name_ru": "Benghazi", "tz": "", "district": "Banghāzī"}, {"id": 3, "name": "Misratah", "name_ru": "Mişrātah", "tz": "", "district": "Mişrātah"}, {"id": 4, "name": "Al Bayda'", "name_ru": "Al Bayḑā’", "tz": "", "district": "Al Jabal al Akhḑar"}, {"id": 5, "name": "Al Khums", "name_ru": "Al Khums", "tz": "", "district": "Al Marqab"}, {"id": 6, "name": "Az Zawiyah", "name_ru": "Az Zāwīyah", "tz": "", "district": "Az Zāwiyah"}, {"id": 7, "name": "Gharyan", "name_ru": "Gharyān", "tz": "", "district": "Al Jabal al Gharbī"}, {"id": 8, "name": "Al Marj", "name_ru": "Al Marj", "tz": "", "district": "Al Marj"}, {"id": 9, "name": "Ajdabiya", "name_ru": "Ajdābiyā", "tz": "", "district": "Al Wāḩāt"}, {"id": 10, "name": "Tobruk", "name_ru": "Tobruk", "tz": "", "district": "Al Buţnān"}, {"id": 11, "name": "Darnah", "name_ru": "Darnah", "tz": "", "district": "Darnah"}, {"id": 12, "name": "Sabha", "name_ru": "Sabhā", "tz": "", "district": "Sabhā"}, {"id": 13, "name": "Sabratah", "name_ru": "Şabrātah", "tz": "", "district": "An Nuqāţ al Khams"}, {"id": 14, "name": "Zuwarah", "name_ru": "Zuwārah", "tz": "", "district": "An Nuqāţ al Khams"}, {"id": 15, "name": "Surt", "name_ru": "Surt", "tz": "", "district": "Surt"}, {"id": 16, "name": "Nalut", "name_ru": "Nālūt", "tz": "", "district": "Nālūt"}, {"id": 17, "name": "Murzuq", "name_ru": "Murzuq", "tz": "", "district": "Murzuq"}, {"id": 18, "name": "Al Jawf", "name_ru": "Al Jawf", "tz": "", "district": "Al Kufrah"}, {"id": 19, "name": "Ghat", "name_ru": "Ghāt", "tz": "", "district": "Ghāt"}, {"id": 20, "name": "Hun", "name_ru": "Hūn", "tz": "", "district": "Al Jufrah"}, {"id": 21, "name": "Al `Aziziyah", "name_ru": "Al ‘Azīzīyah", "tz": "", "district": "Al Jafārah"}, {"id": 22, "name": "Awbari", "name_ru": "Awbārī", "tz": "", "district": "Wādī al Ḩayāt"}, {"id": 23, "name": "Idri", "name_ru": "Idrī", "tz": "", "district": "Wādī ash Shāţi’"}, {"id": 24, "name": "Yafran", "name_ru": "Yafran", "tz": "", "district": "Al Jabal al Gharbī"}, {"id": 25, "name": "Bani Walid", "name_ru": "Banī Walīd", "tz": "", "district": "Mişrātah"}, {"id": 26, "name": "Tajura'", "name_ru": "Tājūrā’", "tz": "", "district": "Ţarābulus"}, {"id": 27, "name": "Birak", "name_ru": "Birāk", "tz": "", "district": "Wādī ash Shāţi’"}, {"id": 28, "name": "Shahhat", "name_ru": "Shaḩḩāt", "tz": "", "district": "Al Jabal al Akhḑar"}, {"id": 29, "name": "Mizdah", "name_ru": "Mizdah", "tz": "", "district": "Al Jabal al Gharbī"}, {"id": 30, "name": "Ghadamis", "name_ru": "Ghadāmis", "tz": "", "district": "Nālūt"}, {"id": 31, "name": "Awjilah", "name_ru": "Awjilah", "tz": "", "district": "Al Wāḩāt"}, {"id": 32, "name": "Qaminis", "name_ru": "Qamīnis", "tz": "", "district": "Banghāzī"}, {"id": 33, "name": "Tajarhi", "name_ru": "Tajarhī", "tz": "", "district": "Murzuq"}, {"id": 34, "name": "Al `Uqaylah", "name_ru": "Al ‘Uqaylah", "tz": "", "district": "Al Wāḩāt"}, {"id": 35, "name": "Maradah", "name_ru": "Marādah", "tz": "", "district": "Al Wāḩāt"}, {"id": 36, "name": "Al Jaghbub", "name_ru": "Al Jaghbūb", "tz": "", "district": "Al Buţnān"}, {"id": 37, "name": "Daraj", "name_ru": "Daraj", "tz": "", "district": "Nālūt"}, {"id": 38, "name": "Tmassah", "name_ru": "Tmassah", "tz": "", "district": "Murzuq"}, {"id": 39, "name": "Umm al `Abid", "name_ru": "Umm al ‘Abīd", "tz": "", "district": "Wādī ash Shāţi’"}, {"id": 40, "name": "As Sidrah", "name_ru": "As Sidrah", "tz": "", "district": "Surt"}, {"id": 41, "name": "Zillah", "name_ru": "Zillah", "tz": "", "district": "Al Jufrah"}]