[{"id": 1, "name": "Casablanca", "name_ru": "Casablanca", "tz": "", "district": "Casablanca-Settat"}, {"id": 2, "name": "El Kelaa des Srarhna", "name_ru": "El Kelaa des Srarhna", "tz": "", "district": "Marrakech-Safi"}, {"id": 3, "name": "Fes", "name_ru": "Fès", "tz": "", "district": "Fès-Meknès"}, {"id": 4, "name": "Rabat", "name_ru": "Rabat", "tz": "", "district": "Rabat-Salé-Kénitra"}, {"id": 5, "name": "Tifariti", "name_ru": "Tifariti", "tz": "", "district": "Laâyoune-Sakia El Hamra"}, {"id": 6, "name": "Tangier", "name_ru": "Tangier", "tz": "", "district": "Tanger-Tétouan-Al Hoceïma"}, {"id": 7, "name": "Marrakech", "name_ru": "Marrakech", "tz": "", "district": "Marrakech-Safi"}, {"id": 8, "name": "Sale", "name_ru": "Sale", "tz": "", "district": "Rabat-Salé-Kénitra"}, {"id": 9, "name": "Meknes", "name_ru": "Meknès", "tz": "", "district": "Fès-Meknès"}, {"id": 10, "name": "Oujda-Angad", "name_ru": "Oujda-Angad", "tz": "", "district": "Oriental"}, {"id": 11, "name": "Kenitra", "name_ru": "Kenitra", "tz": "", "district": "Rabat-Salé-Kénitra"}, {"id": 12, "name": "Agadir", "name_ru": "Agadir", "tz": "", "district": "Souss-Massa"}, {"id": 13, "name": "Tetouan", "name_ru": "Tétouan", "tz": "", "district": "Tanger-Tétouan-Al Hoceïma"}, {"id": 14, "name": "Taourirt", "name_ru": "Taourirt", "tz": "", "district": "Oriental"}, {"id": 15, "name": "Temara", "name_ru": "Temara", "tz": "", "district": "Rabat-Salé-Kénitra"}, {"id": 16, "name": "Safi", "name_ru": "Safi", "tz": "", "district": "Marrakech-Safi"}, {"id": 17, "name": "Mohammedia", "name_ru": "Mohammedia", "tz": "", "district": "Casablanca-Settat"}, {"id": 18, "name": "El Jadid", "name_ru": "El Jadid", "tz": "", "district": "Casablanca-Settat"}, {"id": 19, "name": "Kouribga", "name_ru": "Kouribga", "tz": "", "district": "Béni Mellal-Khénifra"}, {"id": 20, "name": "Beni Mellal", "name_ru": "Béni Mellal", "tz": "", "district": "Béni Mellal-Khénifra"}, {"id": 21, "name": "Laayoune", "name_ru": "Laâyoune", "tz": "", "district": "Laâyoune-Sakia El Hamra"}, {"id": 22, "name": "Ait Melloul", "name_ru": "Ait Melloul", "tz": "", "district": "Souss-Massa"}, {"id": 23, "name": "Nador", "name_ru": "Nador", "tz": "", "district": "Oriental"}, {"id": 24, "name": "Taza", "name_ru": "Taza", "tz": "", "district": "Fès-Meknès"}, {"id": 25, "name": "Barrechid", "name_ru": "Barrechid", "tz": "", "district": "Casablanca-Settat"}, {"id": 26, "name": "Settat", "name_ru": "Settat", "tz": "", "district": "Casablanca-Settat"}, {"id": 27, "name": "Inezgane", "name_ru": "Inezgane", "tz": "", "district": "Souss-Massa"}, {"id": 28, "name": "Al Khmissat", "name_ru": "Al Khmissat", "tz": "", "district": "Rabat-Salé-Kénitra"}, {"id": 29, "name": "Ksar El Kebir", "name_ru": "Ksar El Kebir", "tz": "", "district": "Tanger-Tétouan-Al Hoceïma"}, {"id": 30, "name": "Mediouna", "name_ru": "Mediouna", "tz": "", "district": "Casablanca-Settat"}, {"id": 31, "name": "Larache", "name_ru": "Larache", "tz": "", "district": "Tanger-Tétouan-Al Hoceïma"}, {"id": 32, "name": "Khenifra", "name_ru": "Khénifra", "tz": "", "district": "Béni Mellal-Khénifra"}, {"id": 33, "name": "Guelmim", "name_ru": "Guelmim", "tz": "", "district": "Guelmim-Oued Noun"}, {"id": 34, "name": "Berkane", "name_ru": "Berkane", "tz": "", "district": "Oriental"}, {"id": 35, "name": "Al Fqih Ben Calah", "name_ru": "Al Fqih Ben Çalah", "tz": "", "district": "Béni Mellal-Khénifra"}, {"id": 36, "name": "Bouskoura", "name_ru": "Bouskoura", "tz": "", "district": "Casablanca-Settat"}, {"id": 37, "name": "Oued Zem", "name_ru": "Oued Zem", "tz": "", "district": "Béni Mellal-Khénifra"}, {"id": 38, "name": "Sidi Slimane", "name_ru": "Sidi Slimane", "tz": "", "district": "Rabat-Salé-Kénitra"}, {"id": 39, "name": "Guercif", "name_ru": "Guercif", "tz": "", "district": "Oriental"}, {"id": 40, "name": "Errachidia", "name_ru": "Errachidia", "tz": "", "district": "Drâa-Tafilalet"}, {"id": 41, "name": "Ben Guerir", "name_ru": "Ben Guerir", "tz": "", "district": "Marrakech-Safi"}, {"id": 42, "name": "Oulad Teima", "name_ru": "Oulad Teïma", "tz": "", "district": "Souss-Massa"}, {"id": 43, "name": "Fnidq", "name_ru": "Fnidq", "tz": "", "district": "Tanger-Tétouan-Al Hoceïma"}, {"id": 44, "name": "Sidi Qacem", "name_ru": "Sidi Qacem", "tz": "", "district": "Rabat-Salé-Kénitra"}, {"id": 45, "name": "Moulay Abdallah", "name_ru": "Moulay Abdallah", "tz": "", "district": "Casablanca-Settat"}, {"id": 46, "name": "Warzat", "name_ru": "Warzat", "tz": "", "district": "Drâa-Tafilalet"}, {"id": 47, "name": "Youssoufia", "name_ru": "Youssoufia", "tz": "", "district": "Marrakech-Safi"}, {"id": 48, "name": "Ain Harrouda", "name_ru": "Aïn Harrouda", "tz": "", "district": "Casablanca-Settat"}, {"id": 49, "name": "Martil", "name_ru": "Martil", "tz": "", "district": "Tanger-Tétouan-Al Hoceïma"}, {"id": 50, "name": "Ouezzane", "name_ru": "Ouezzane", "tz": "", "district": "Tanger-Tétouan-Al Hoceïma"}, {"id": 51, "name": "Sidi Bennour", "name_ru": "Sidi Bennour", "tz": "", "district": "Casablanca-Settat"}, {"id": 52, "name": "Sidi Yahya Zaer", "name_ru": "Sidi Yahya Zaer", "tz": "", "district": "Rabat-Salé-Kénitra"}, {"id": 53, "name": "Midalt", "name_ru": "Midalt", "tz": "", "district": "Drâa-Tafilalet"}, {"id": 54, "name": "Azrou", "name_ru": "Azrou", "tz": "", "district": "Fès-Meknès"}, {"id": 55, "name": "Al Hoceima", "name_ru": "Al Hoceïma", "tz": "", "district": "Tanger-Tétouan-Al Hoceïma"}, {"id": 56, "name": "Boujad", "name_ru": "Boujad", "tz": "", "district": "Béni Mellal-Khénifra"}, {"id": 57, "name": "Ain El Aouda", "name_ru": "Ain El Aouda", "tz": "", "district": "Rabat-Salé-Kénitra"}, {"id": 58, "name": "Qasbat Tadla", "name_ru": "Qasbat Tadla", "tz": "", "district": "Béni Mellal-Khénifra"}, {"id": 59, "name": "Beni Yakhlef", "name_ru": "Beni Yakhlef", "tz": "", "district": "Casablanca-Settat"}, {"id": 60, "name": "Azemmour", "name_ru": "Azemmour", "tz": "", "district": "Casablanca-Settat"}, {"id": 61, "name": "Mrirt", "name_ru": "Mrirt", "tz": "", "district": "Béni Mellal-Khénifra"}, {"id": 62, "name": "Jerada", "name_ru": "Jerada", "tz": "", "district": "Oriental"}, {"id": 63, "name": "El Aioun", "name_ru": "El Aïoun", "tz": "", "district": "Oriental"}, {"id": 64, "name": "Temsia", "name_ru": "Temsia", "tz": "", "district": "Souss-Massa"}, {"id": 65, "name": "Aziylal", "name_ru": "Aziylal", "tz": "", "district": "Béni Mellal-Khénifra"}, {"id": 66, "name": "Ait Ourir", "name_ru": "Ait Ourir", "tz": "", "district": "Marrakech-Safi"}, {"id": 67, "name": "Zagora", "name_ru": "Zagora", "tz": "", "district": "Drâa-Tafilalet"}, {"id": 68, "name": "Biougra", "name_ru": "Biougra", "tz": "", "district": "Souss-Massa"}, {"id": 69, "name": "Sidi Yahia El Gharb", "name_ru": "Sidi Yahia El Gharb", "tz": "", "district": "Rabat-Salé-Kénitra"}, {"id": 70, "name": "El Hajeb", "name_ru": "El Hajeb", "tz": "", "district": "Fès-Meknès"}, {"id": 71, "name": "Zaio", "name_ru": "Zaïo", "tz": "", "district": "Oriental"}, {"id": 72, "name": "Zeghanghane", "name_ru": "Zeghanghane", "tz": "", "district": "Oriental"}, {"id": 73, "name": "Tit Mellil", "name_ru": "Tit Mellil", "tz": "", "district": "Casablanca-Settat"}, {"id": 74, "name": "Mechraa Bel Ksiri", "name_ru": "Mechraa Bel Ksiri", "tz": "", "district": "Rabat-Salé-Kénitra"}, {"id": 75, "name": "Sidi Smai'il", "name_ru": "Sidi Smai’il", "tz": "", "district": "Casablanca-Settat"}, {"id": 76, "name": "Arfoud", "name_ru": "Arfoud", "tz": "", "district": "Drâa-Tafilalet"}, {"id": 77, "name": "Demnat", "name_ru": "Demnat", "tz": "", "district": "Béni Mellal-Khénifra"}, {"id": 78, "name": "Bou Arfa", "name_ru": "Bou Arfa", "tz": "", "district": "Oriental"}, {"id": 79, "name": "Mehdya", "name_ru": "Mehdya", "tz": "", "district": "Rabat-Salé-Kénitra"}, {"id": 80, "name": "Ain Taoujdat", "name_ru": "Aïn Taoujdat", "tz": "", "district": "Fès-Meknès"}, {"id": 81, "name": "Tahla", "name_ru": "Tahla", "tz": "", "district": "Fès-Meknès"}, {"id": 82, "name": "Missour", "name_ru": "Missour", "tz": "", "district": "Fès-Meknès"}, {"id": 83, "name": "Zawyat ech Cheikh", "name_ru": "Zawyat ech Cheïkh", "tz": "", "district": "Béni Mellal-Khénifra"}, {"id": 84, "name": "Oulad Tayeb", "name_ru": "Oulad Tayeb", "tz": "", "district": "Fès-Meknès"}, {"id": 85, "name": "Sidi Lmokhtar", "name_ru": "Sidi Lmokhtar", "tz": "", "district": "Marrakech-Safi"}, {"id": 86, "name": "Douar Toulal", "name_ru": "Douar Toulal", "tz": "", "district": "Fès-Meknès"}, {"id": 87, "name": "Oulad Fraj", "name_ru": "Oulad Fraj", "tz": "", "district": "Casablanca-Settat"}, {"id": 88, "name": "Ahfir", "name_ru": "Ahfir", "tz": "", "district": "Oriental"}, {"id": 89, "name": "Bou Djeniba", "name_ru": "Bou Djeniba", "tz": "", "district": "Béni Mellal-Khénifra"}, {"id": 90, "name": "Goulmima", "name_ru": "Goulmima", "tz": "", "district": "Drâa-Tafilalet"}, {"id": 91, "name": "Sidi Zouine", "name_ru": "Sidi Zouine", "tz": "", "district": "Marrakech-Safi"}, {"id": 92, "name": "Ait Yaazem", "name_ru": "Ait Yaazem", "tz": "", "district": "Fès-Meknès"}, {"id": 93, "name": "Oulad Hamdane", "name_ru": "Oulad Hamdane", "tz": "", "district": "Béni Mellal-Khénifra"}, {"id": 94, "name": "Laaouama", "name_ru": "Laaouama", "tz": "", "district": "Tanger-Tétouan-Al Hoceïma"}, {"id": 95, "name": "Targuist", "name_ru": "Targuist", "tz": "", "district": "Tanger-Tétouan-Al Hoceïma"}, {"id": 96, "name": "Bou Fekrane", "name_ru": "Bou Fekrane", "tz": "", "district": "Fès-Meknès"}, {"id": 97, "name": "El Menzel", "name_ru": "El Menzel", "tz": "", "district": "Fès-Meknès"}, {"id": 98, "name": "Oulad Ayyad", "name_ru": "Oulad Ayyad", "tz": "", "district": "Béni Mellal-Khénifra"}, {"id": 99, "name": "Ar Rommani", "name_ru": "Ar Rommani", "tz": "", "district": "Rabat-Salé-Kénitra"}, {"id": 100, "name": "Boudenib", "name_ru": "Boudenib", "tz": "", "district": "Drâa-Tafilalet"}, {"id": 101, "name": "Ain Lehjer", "name_ru": "Ain Lehjer", "tz": "", "district": "Oriental"}, {"id": 102, "name": "Oulad Ben Sebbah", "name_ru": "Oulad Ben Sebbah", "tz": "", "district": "Casablanca-Settat"}, {"id": 103, "name": "Beni Bou Yafroun", "name_ru": "Beni Bou Yafroun", "tz": "", "district": "Oriental"}, {"id": 104, "name": "Ad Dakhla", "name_ru": "Ad Dakhla", "tz": "", "district": ""}, {"id": 105, "name": "Wislane", "name_ru": "Wislane", "tz": "", "district": "Souss-Massa"}, {"id": 106, "name": "Tiflet", "name_ru": "Tiflet", "tz": "", "district": "Rabat-Salé-Kénitra"}, {"id": 107, "name": "Lqoliaa", "name_ru": "Lqoliaa", "tz": "", "district": "Souss-Massa"}, {"id": 108, "name": "Sefrou", "name_ru": "Sefrou", "tz": "", "district": "Fès-Meknès"}, {"id": 109, "name": "Taroudannt", "name_ru": "Taroudannt", "tz": "", "district": "Souss-Massa"}, {"id": 110, "name": "Essaouira", "name_ru": "Essaouira", "tz": "", "district": "Marrakech-Safi"}, {"id": 111, "name": "Ait Ali", "name_ru": "Ait Ali", "tz": "", "district": "Souss-Massa"}, {"id": 112, "name": "Tiznit", "name_ru": "Tiznit", "tz": "", "district": "Souss-Massa"}, {"id": 113, "name": "Tan-Tan", "name_ru": "Tan-Tan", "tz": "", "district": "Guelmim-Oued Noun"}, {"id": 114, "name": "Sa'ada", "name_ru": "Sa’ada", "tz": "", "district": "Marrakech-Safi"}, {"id": 115, "name": "Skhirate", "name_ru": "Skhirate", "tz": "", "district": "Rabat-Salé-Kénitra"}, {"id": 116, "name": "Benslimane", "name_ru": "Benslimane", "tz": "", "district": "Casablanca-Settat"}, {"id": 117, "name": "Beni Enzar", "name_ru": "Beni Enzar", "tz": "", "district": "Oriental"}, {"id": 118, "name": "M'diq", "name_ru": "M’diq", "tz": "", "district": "Tanger-Tétouan-Al Hoceïma"}, {"id": 119, "name": "Ad Darwa", "name_ru": "Ad Darwa", "tz": "", "district": "Casablanca-Settat"}, {"id": 120, "name": "Al Aaroui", "name_ru": "Al Aaroui", "tz": "", "district": "Oriental"}, {"id": 121, "name": "Semara", "name_ru": "Semara", "tz": "", "district": "Laâyoune-Sakia El Hamra"}, {"id": 122, "name": "Chefchaouene", "name_ru": "Chefchaouene", "tz": "", "district": "Tanger-Tétouan-Al Hoceïma"}, {"id": 123, "name": "Sidi Mohamed Lahmar", "name_ru": "Sidi Mohamed Lahmar", "tz": "", "district": "Rabat-Salé-Kénitra"}, {"id": 124, "name": "Tineghir", "name_ru": "Tineghir", "tz": "", "district": "Drâa-Tafilalet"}, {"id": 125, "name": "Zoumi", "name_ru": "Zoumi", "tz": "", "district": "Tanger-Tétouan-Al Hoceïma"}, {"id": 126, "name": "Douar Laouamra", "name_ru": "Douar Laouamra", "tz": "", "district": "Marrakech-Safi"}, {"id": 127, "name": "Sidi Bibi", "name_ru": "Sidi Bibi", "tz": "", "district": "Souss-Massa"}, {"id": 128, "name": "Taounate", "name_ru": "Taounate", "tz": "", "district": "Fès-Meknès"}, {"id": 129, "name": "Bouznika", "name_ru": "Bouznika", "tz": "", "district": "Casablanca-Settat"}, {"id": 130, "name": "Aguelmous", "name_ru": "Aguelmous", "tz": "", "district": "Béni Mellal-Khénifra"}, {"id": 131, "name": "Aourir", "name_ru": "Aourir", "tz": "", "district": "Souss-Massa"}, {"id": 132, "name": "Imzouren", "name_ru": "Imzouren", "tz": "", "district": "Tanger-Tétouan-Al Hoceïma"}, {"id": 133, "name": "Mnasra", "name_ru": "Mnasra", "tz": "", "district": "Tanger-Tétouan-Al Hoceïma"}, {"id": 134, "name": "Oulad Zemam", "name_ru": "Oulad Zemam", "tz": "", "district": "Béni Mellal-Khénifra"}, {"id": 135, "name": "Ben Ahmed", "name_ru": "Ben Ahmed", "tz": "", "district": "Casablanca-Settat"}, {"id": 136, "name": "Arbaoua", "name_ru": "Arbaoua", "tz": "", "district": "Rabat-Salé-Kénitra"}, {"id": 137, "name": "Douar Oulad Hssine", "name_ru": "Douar Oulad Hssine", "tz": "", "district": "Casablanca-Settat"}, {"id": 138, "name": "Dar Ould Zidouh", "name_ru": "Dar Ould Zidouh", "tz": "", "district": "Béni Mellal-Khénifra"}, {"id": 139, "name": "Bahharet Oulad Ayyad", "name_ru": "Bahharet Oulad Ayyad", "tz": "", "district": "Rabat-Salé-Kénitra"}, {"id": 140, "name": "Asilah", "name_ru": "Asilah", "tz": "", "district": "Tanger-Tétouan-Al Hoceïma"}, {"id": 141, "name": "Mograne", "name_ru": "Mograne", "tz": "", "district": "Rabat-Salé-Kénitra"}, {"id": 142, "name": "Lalla Mimouna", "name_ru": "Lalla Mimouna", "tz": "", "district": "Rabat-Salé-Kénitra"}, {"id": 143, "name": "Souk et Tnine Jorf el Mellah", "name_ru": "Souk et Tnine Jorf el Mellah", "tz": "", "district": "Rabat-Salé-Kénitra"}, {"id": 144, "name": "Tameslouht", "name_ru": "Tameslouht", "tz": "", "district": "Marrakech-Safi"}, {"id": 145, "name": "Chichaoua", "name_ru": "Chichaoua", "tz": "", "district": "Marrakech-Safi"}, {"id": 146, "name": "Fritissa", "name_ru": "Fritissa", "tz": "", "district": "Fès-Meknès"}, {"id": 147, "name": "Oulad Yaich", "name_ru": "Oulad Yaïch", "tz": "", "district": "Béni Mellal-Khénifra"}, {"id": 148, "name": "Taza", "name_ru": "Taza", "tz": "", "district": "Tanger-Tétouan-Al Hoceïma"}, {"id": 149, "name": "Douar Oulad Aj-jabri", "name_ru": "Douar Oulad Aj-jabri", "tz": "", "district": "Béni Mellal-Khénifra"}, {"id": 150, "name": "Oulad Hammou", "name_ru": "Oulad Hammou", "tz": "", "district": "Casablanca-Settat"}, {"id": 151, "name": "Bellaa", "name_ru": "Bellaa", "tz": "", "district": "Souss-Massa"}, {"id": 152, "name": "Dar Bel Hamri", "name_ru": "Dar Bel Hamri", "tz": "", "district": "Rabat-Salé-Kénitra"}, {"id": 153, "name": "Moulay Bousselham", "name_ru": "Moulay Bousselham", "tz": "", "district": "Rabat-Salé-Kénitra"}, {"id": 154, "name": "Ksebia", "name_ru": "Ksebia", "tz": "", "district": "Rabat-Salé-Kénitra"}, {"id": 155, "name": "Sabaa Aiyoun", "name_ru": "Sabaa Aiyoun", "tz": "", "district": "Fès-Meknès"}, {"id": 156, "name": "Tamorot", "name_ru": "Tamorot", "tz": "", "district": "Tanger-Tétouan-Al Hoceïma"}, {"id": 157, "name": "Bouknadel", "name_ru": "Bouknadel", "tz": "", "district": "Rabat-Salé-Kénitra"}, {"id": 158, "name": "Ait Faska", "name_ru": "Aït Faska", "tz": "", "district": "Marrakech-Safi"}, {"id": 159, "name": "Bourdoud", "name_ru": "Bourdoud", "tz": "", "district": "Fès-Meknès"}, {"id": 160, "name": "Boureit", "name_ru": "Boureït", "tz": "", "district": "Tanger-Tétouan-Al Hoceïma"}, {"id": 161, "name": "Oulad Barhil", "name_ru": "Oulad Barhil", "tz": "", "district": "Souss-Massa"}, {"id": 162, "name": "Oulad Said", "name_ru": "Oulad Said", "tz": "", "district": "Casablanca-Settat"}, {"id": 163, "name": "Lamzoudia", "name_ru": "Lamzoudia", "tz": "", "district": "Marrakech-Safi"}, {"id": 164, "name": "Ain Aicha", "name_ru": "Ain Aicha", "tz": "", "district": "Fès-Meknès"}, {"id": 165, "name": "El Ghiate", "name_ru": "El Ghiate", "tz": "", "district": "Marrakech-Safi"}, {"id": 166, "name": "Safsaf", "name_ru": "Safsaf", "tz": "", "district": "Rabat-Salé-Kénitra"}, {"id": 167, "name": "Echemmaia Est", "name_ru": "Echemmaia Est", "tz": "", "district": "Marrakech-Safi"}, {"id": 168, "name": "Ouaoula", "name_ru": "Ouaoula", "tz": "", "district": "Béni Mellal-Khénifra"}, {"id": 169, "name": "Douar Olad. Salem", "name_ru": "Douar Olad. Salem", "tz": "", "district": "Casablanca-Settat"}, {"id": 170, "name": "Douar 'Ayn Dfali", "name_ru": "Douar ’Ayn Dfali", "tz": "", "district": "Fès-Meknès"}, {"id": 171, "name": "Skoura", "name_ru": "Skoura", "tz": "", "district": "Drâa-Tafilalet"}, {"id": 172, "name": "Setti Fatma", "name_ru": "Setti Fatma", "tz": "", "district": "Marrakech-Safi"}, {"id": 173, "name": "Gueznaia", "name_ru": "Gueznaia", "tz": "", "district": "Tanger-Tétouan-Al Hoceïma"}, {"id": 174, "name": "Zawyat an Nwacer", "name_ru": "Zawyat an Nwaçer", "tz": "", "district": "Casablanca-Settat"}, {"id": 175, "name": "Khenichet-sur Ouerrha", "name_ru": "Khenichet-sur Ouerrha", "tz": "", "district": "Rabat-Salé-Kénitra"}, {"id": 176, "name": "Douar Ouled Ayad", "name_ru": "Douar Ouled Ayad", "tz": "", "district": "Casablanca-Settat"}, {"id": 177, "name": "Oulad Hassoune", "name_ru": "Oulad Hassoune", "tz": "", "district": "Marrakech-Safi"}, {"id": 178, "name": "Ayt Mohamed", "name_ru": "Ayt Mohamed", "tz": "", "district": "Béni Mellal-Khénifra"}, {"id": 179, "name": "Bni Frassen", "name_ru": "Bni Frassen", "tz": "", "district": "Fès-Meknès"}, {"id": 180, "name": "Tighedouine", "name_ru": "Tighedouine", "tz": "", "district": "Marrakech-Safi"}, {"id": 181, "name": "Sidi Ifni", "name_ru": "Sidi Ifni", "tz": "", "district": "Guelmim-Oued Noun"}, {"id": 182, "name": "Alnif", "name_ru": "Alnif", "tz": "", "district": "Drâa-Tafilalet"}, {"id": 183, "name": "Souk Tlet El Gharb", "name_ru": "Souk Tlet El Gharb", "tz": "", "district": "Rabat-Salé-Kénitra"}, {"id": 184, "name": "Afourar", "name_ru": "Afourar", "tz": "", "district": "Béni Mellal-Khénifra"}, {"id": 185, "name": "Selouane", "name_ru": "Selouane", "tz": "", "district": "Oriental"}, {"id": 186, "name": "Imi-n-Tanout", "name_ru": "Imi-n-Tanout", "tz": "", "district": "Marrakech-Safi"}, {"id": 187, "name": "El Ksiba", "name_ru": "El Ksiba", "tz": "", "district": "Béni Mellal-Khénifra"}, {"id": 188, "name": "Tidili Masfiywat", "name_ru": "Tidili Masfiywat", "tz": "", "district": "Marrakech-Safi"}, {"id": 189, "name": "Amizmiz", "name_ru": "Amizmiz", "tz": "", "district": "Marrakech-Safi"}, {"id": 190, "name": "Tamgrout", "name_ru": "Tamgrout", "tz": "", "district": "Drâa-Tafilalet"}, {"id": 191, "name": "Sidi Rahal", "name_ru": "Sidi Rahal", "tz": "", "district": "Casablanca-Settat"}, {"id": 192, "name": "Asni", "name_ru": "Asni", "tz": "", "district": "Marrakech-Safi"}, {"id": 193, "name": "Oulad Embarek", "name_ru": "Oulad Embarek", "tz": "", "district": "Béni Mellal-Khénifra"}, {"id": 194, "name": "Al Brouj", "name_ru": "Al Brouj", "tz": "", "district": "Casablanca-Settat"}, {"id": 195, "name": "Imi n'Oulaoun", "name_ru": "Imi n’Oulaoun", "tz": "", "district": "Drâa-Tafilalet"}, {"id": 196, "name": "Saka", "name_ru": "Saka", "tz": "", "district": "Oriental"}, {"id": 197, "name": "Bni Rzine", "name_ru": "Bni Rzine", "tz": "", "district": "Tanger-Tétouan-Al Hoceïma"}, {"id": 198, "name": "Sidi Chiker", "name_ru": "Sidi Chiker", "tz": "", "district": "Marrakech-Safi"}, {"id": 199, "name": "Douar Lamrabih", "name_ru": "Douar Lamrabih", "tz": "", "district": "Rabat-Salé-Kénitra"}, {"id": 200, "name": "Sidi Jaber", "name_ru": "Sidi Jaber", "tz": "", "district": "Béni Mellal-Khénifra"}, {"id": 201, "name": "Station des Essais M.V.A.", "name_ru": "Station des Essais M.V.A.", "tz": "", "district": "Oriental"}, {"id": 202, "name": "Ain Cheggag", "name_ru": "Aïn Cheggag", "tz": "", "district": "Fès-Meknès"}, {"id": 203, "name": "Jdour", "name_ru": "Jdour", "tz": "", "district": "Marrakech-Safi"}, {"id": 204, "name": "Imouzzer Kandar", "name_ru": "Imouzzer Kandar", "tz": "", "district": "Fès-Meknès"}, {"id": 205, "name": "'Ali Ben Sliman", "name_ru": "’Ali Ben Sliman", "tz": "", "district": "Marrakech-Safi"}, {"id": 206, "name": "El Mansouria", "name_ru": "El Mansouria", "tz": "", "district": "Casablanca-Settat"}, {"id": 207, "name": "Tarhzirt", "name_ru": "Tarhzirt", "tz": "", "district": "Béni Mellal-Khénifra"}, {"id": 208, "name": "Had Zraqtane", "name_ru": "Had Zraqtane", "tz": "", "district": "Marrakech-Safi"}, {"id": 209, "name": "Ait Tamlil", "name_ru": "Aït Tamlil", "tz": "", "district": "Béni Mellal-Khénifra"}, {"id": 210, "name": "Zaouia Ait Ishak", "name_ru": "Zaouïa Aït Ishak", "tz": "", "district": "Béni Mellal-Khénifra"}, {"id": 211, "name": "Jnane Bouih", "name_ru": "Jnane Bouih", "tz": "", "district": "Marrakech-Safi"}, {"id": 212, "name": "Oulad Salmane", "name_ru": "Oulad Salmane", "tz": "", "district": "Rabat-Salé-Kénitra"}, {"id": 213, "name": "Ait Bousarane", "name_ru": "Ait Bousarane", "tz": "", "district": "Béni Mellal-Khénifra"}, {"id": 214, "name": "Sebt Gzoula", "name_ru": "Sebt Gzoula", "tz": "", "district": "Marrakech-Safi"}, {"id": 215, "name": "Sidi Redouane", "name_ru": "Sidi Redouane", "tz": "", "district": "Tanger-Tétouan-Al Hoceïma"}, {"id": 216, "name": "Karia Ba Mohamed", "name_ru": "Karia Ba Mohamed", "tz": "", "district": "Fès-Meknès"}, {"id": 217, "name": "Ait Ben Daoudi", "name_ru": "Ait Ben Daoudi", "tz": "", "district": "Marrakech-Safi"}, {"id": 218, "name": "Beni Zouli", "name_ru": "Beni Zouli", "tz": "", "district": "Drâa-Tafilalet"}, {"id": 219, "name": "Oulmes", "name_ru": "Oulmes", "tz": "", "district": "Rabat-Salé-Kénitra"}, {"id": 220, "name": "Jbabra", "name_ru": "Jbabra", "tz": "", "district": "Fès-Meknès"}, {"id": 221, "name": "Sidi Allal Tazi", "name_ru": "Sidi Allal Tazi", "tz": "", "district": "Rabat-Salé-Kénitra"}, {"id": 222, "name": "Tamri", "name_ru": "Tamri", "tz": "", "district": "Souss-Massa"}, {"id": 223, "name": "Tata", "name_ru": "Tata", "tz": "", "district": "Souss-Massa"}, {"id": 224, "name": "Chouafaa", "name_ru": "Chouafaa", "tz": "", "district": "Rabat-Salé-Kénitra"}, {"id": 225, "name": "Foum el Anser", "name_ru": "Foum el Anser", "tz": "", "district": "Béni Mellal-Khénifra"}, {"id": 226, "name": "Lamrasla", "name_ru": "Lamrasla", "tz": "", "district": "Marrakech-Safi"}, {"id": 227, "name": "Ait Bouchta", "name_ru": "Aït Bouchta", "tz": "", "district": "Tanger-Tétouan-Al Hoceïma"}, {"id": 228, "name": "Ribat Al Khayr", "name_ru": "Ribat Al Khayr", "tz": "", "district": "Fès-Meknès"}, {"id": 229, "name": "Bouarouss", "name_ru": "Bouarouss", "tz": "", "district": "Fès-Meknès"}, {"id": 230, "name": "Ikniwn", "name_ru": "Ikniwn", "tz": "", "district": "Drâa-Tafilalet"}, {"id": 231, "name": "Ghouazi", "name_ru": "Ghouazi", "tz": "", "district": "Fès-Meknès"}, {"id": 232, "name": "Outat Oulad Al Haj", "name_ru": "Outat Oulad Al Haj", "tz": "", "district": "Fès-Meknès"}, {"id": 233, "name": "Al Qbab", "name_ru": "Al Qbab", "tz": "", "district": "Béni Mellal-Khénifra"}, {"id": 234, "name": "Douar Oulad Mbarek", "name_ru": "Douar Oulad Mbarek", "tz": "", "district": "Fès-Meknès"}, {"id": 235, "name": "Qal'at Mgouna", "name_ru": "Qal’at Mgouna", "tz": "", "district": "Drâa-Tafilalet"}, {"id": 236, "name": "Laatatra", "name_ru": "Laatatra", "tz": "", "district": "Casablanca-Settat"}, {"id": 237, "name": "Ait Majdane", "name_ru": "Aït Majdane", "tz": "", "district": "Béni Mellal-Khénifra"}, {"id": 238, "name": "Agourai", "name_ru": "Agourai", "tz": "", "district": "Fès-Meknès"}, {"id": 239, "name": "Awlouz", "name_ru": "Awlouz", "tz": "", "district": "Souss-Massa"}, {"id": 240, "name": "Sahel", "name_ru": "Sahel", "tz": "", "district": "Tanger-Tétouan-Al Hoceïma"}, {"id": 241, "name": "Ketama", "name_ru": "Ketama", "tz": "", "district": "Tanger-Tétouan-Al Hoceïma"}, {"id": 242, "name": "Dar Chaifat", "name_ru": "Dar Chaifat", "tz": "", "district": "Casablanca-Settat"}, {"id": 243, "name": "Galaz", "name_ru": "Galaz", "tz": "", "district": "Fès-Meknès"}, {"id": 244, "name": "Milla'ab", "name_ru": "Milla’ab", "tz": "", "district": "Drâa-Tafilalet"}, {"id": 245, "name": "Talsint", "name_ru": "Talsint", "tz": "", "district": "Oriental"}, {"id": 246, "name": "Tamallalt", "name_ru": "Tamallalt", "tz": "", "district": "Marrakech-Safi"}, {"id": 247, "name": "Sidi Yakoub", "name_ru": "Sidi Yakoub", "tz": "", "district": "Béni Mellal-Khénifra"}, {"id": 248, "name": "Tagounite", "name_ru": "Tagounite", "tz": "", "district": "Drâa-Tafilalet"}, {"id": 249, "name": "Knemis Dades", "name_ru": "Knemis Dades", "tz": "", "district": "Drâa-Tafilalet"}, {"id": 250, "name": "Oulad Amrane", "name_ru": "Oulad Amrane", "tz": "", "district": "Marrakech-Safi"}, {"id": 251, "name": "Ratba", "name_ru": "Ratba", "tz": "", "district": "Fès-Meknès"}, {"id": 252, "name": "Ouaouzgane", "name_ru": "Ouaouzgane", "tz": "", "district": "Tanger-Tétouan-Al Hoceïma"}, {"id": 253, "name": "Sidi Lamine", "name_ru": "Sidi Lamine", "tz": "", "district": "Béni Mellal-Khénifra"}, {"id": 254, "name": "Douar Tabouda", "name_ru": "Douar Tabouda", "tz": "", "district": "Fès-Meknès"}, {"id": 255, "name": "Sidi Ettiji", "name_ru": "Sidi Ettiji", "tz": "", "district": "Marrakech-Safi"}, {"id": 256, "name": "Zirara", "name_ru": "Zirara", "tz": "", "district": "Casablanca-Settat"}, {"id": 257, "name": "Tirhassaline", "name_ru": "Tirhassaline", "tz": "", "district": "Béni Mellal-Khénifra"}, {"id": 258, "name": "Douar Azla", "name_ru": "Douar Azla", "tz": "", "district": "Tanger-Tétouan-Al Hoceïma"}, {"id": 259, "name": "Timezgana", "name_ru": "Timezgana", "tz": "", "district": "Fès-Meknès"}, {"id": 260, "name": "'Ayn Bni Mathar", "name_ru": "’Ayn Bni Mathar", "tz": "", "district": "Oriental"}, {"id": 261, "name": "Zegzel", "name_ru": "Zegzel", "tz": "", "district": "Oriental"}, {"id": 262, "name": "Bouchabel", "name_ru": "Bouchabel", "tz": "", "district": "Fès-Meknès"}, {"id": 263, "name": "Masmouda", "name_ru": "Masmouda", "tz": "", "district": "Tanger-Tétouan-Al Hoceïma"}, {"id": 264, "name": "Skhour Rehamna", "name_ru": "Skhour Rehamna", "tz": "", "district": "Marrakech-Safi"}, {"id": 265, "name": "Bni Tajjit", "name_ru": "Bni Tajjit", "tz": "", "district": "Oriental"}, {"id": 266, "name": "Bni Quolla", "name_ru": "Bni Quolla", "tz": "", "district": "Tanger-Tétouan-Al Hoceïma"}, {"id": 267, "name": "Khat Azakane", "name_ru": "Khat Azakane", "tz": "", "district": "Marrakech-Safi"}, {"id": 268, "name": "L'Oulja", "name_ru": "L’Oulja", "tz": "", "district": "Fès-Meknès"}, {"id": 269, "name": "Haddada", "name_ru": "Haddada", "tz": "", "district": "Rabat-Salé-Kénitra"}, {"id": 270, "name": "Ain Mediouna", "name_ru": "Aïn Mediouna", "tz": "", "district": "Fès-Meknès"}, {"id": 271, "name": "Ezzhiliga", "name_ru": "Ezzhiliga", "tz": "", "district": "Rabat-Salé-Kénitra"}, {"id": 272, "name": "Tamazouzt", "name_ru": "Tamazouzt", "tz": "", "district": "Marrakech-Safi"}, {"id": 273, "name": "Sidi Allal el Bahraoui", "name_ru": "Sidi Allal el Bahraoui", "tz": "", "district": "Rabat-Salé-Kénitra"}, {"id": 274, "name": "Ait Yazza", "name_ru": "Ait Yazza", "tz": "", "district": "Souss-Massa"}, {"id": 275, "name": "Ras el Oued", "name_ru": "Ras el Oued", "tz": "", "district": "Fès-Meknès"}, {"id": 276, "name": "Ac-cahrij", "name_ru": "Aç-çahrij", "tz": "", "district": "Marrakech-Safi"}, {"id": 277, "name": "Wawizaght", "name_ru": "Wawizaght", "tz": "", "district": "Béni Mellal-Khénifra"}, {"id": 278, "name": "Ifrane", "name_ru": "Ifrane", "tz": "", "district": "Fès-Meknès"}, {"id": 279, "name": "Madagh", "name_ru": "Madagh", "tz": "", "district": "Oriental"}, {"id": 280, "name": "Anazzou", "name_ru": "Anazzou", "tz": "", "district": "Souss-Massa"}, {"id": 281, "name": "Moul El Bergui", "name_ru": "Moul El Bergui", "tz": "", "district": "Marrakech-Safi"}, {"id": 282, "name": "Tendrara", "name_ru": "Tendrara", "tz": "", "district": "Oriental"}, {"id": 283, "name": "Oulad Bou Rahmoun", "name_ru": "Oulad Bou Rahmoun", "tz": "", "district": "Béni Mellal-Khénifra"}, {"id": 284, "name": "Driouch", "name_ru": "Driouch", "tz": "", "district": "Oriental"}, {"id": 285, "name": "Tazert", "name_ru": "Tazert", "tz": "", "district": "Marrakech-Safi"}, {"id": 286, "name": "Ain Jemaa", "name_ru": "Aïn Jemaa", "tz": "", "district": "Fès-Meknès"}, {"id": 287, "name": "Sabbah", "name_ru": "Sabbah", "tz": "", "district": "Rabat-Salé-Kénitra"}, {"id": 288, "name": "Ben Taieb", "name_ru": "Ben Taieb", "tz": "", "district": "Oriental"}, {"id": 289, "name": "Tazzarine", "name_ru": "Tazzarine", "tz": "", "district": "Drâa-Tafilalet"}, {"id": 290, "name": "Midar", "name_ru": "Midar", "tz": "", "district": "Oriental"}, {"id": 291, "name": "Oued Jdida", "name_ru": "Oued Jdida", "tz": "", "district": "Fès-Meknès"}, {"id": 292, "name": "Esbiaat", "name_ru": "Esbiaat", "tz": "", "district": "Marrakech-Safi"}, {"id": 293, "name": "Douar Souk L`qolla", "name_ru": "Douar Souk L‘qolla", "tz": "", "district": "Tanger-Tétouan-Al Hoceïma"}, {"id": 294, "name": "Aghbal", "name_ru": "Aghbal", "tz": "", "district": "Oriental"}, {"id": 295, "name": "Tabant", "name_ru": "Tabant", "tz": "", "district": "Béni Mellal-Khénifra"}, {"id": 296, "name": "Bni Darkoul", "name_ru": "Bni Darkoul", "tz": "", "district": "Tanger-Tétouan-Al Hoceïma"}, {"id": 297, "name": "Gourrama", "name_ru": "Gourrama", "tz": "", "district": "Drâa-Tafilalet"}, {"id": 298, "name": "Bhalil", "name_ru": "Bhalil", "tz": "", "district": "Fès-Meknès"}, {"id": 299, "name": "Nzalat Laadam", "name_ru": "Nzalat Laadam", "tz": "", "district": "Marrakech-Safi"}, {"id": 300, "name": "Ighrem n'Ougdal", "name_ru": "Ighrem n’Ougdal", "tz": "", "district": "Drâa-Tafilalet"}, {"id": 301, "name": "Oulad Driss", "name_ru": "Oulad Driss", "tz": "", "district": "Marrakech-Safi"}, {"id": 302, "name": "Zemamra", "name_ru": "Zemamra", "tz": "", "district": "Casablanca-Settat"}, {"id": 303, "name": "Ayt 'Attou ou L'Arbi", "name_ru": "Ayt ’Attou ou L’Arbi", "tz": "", "district": "Marrakech-Safi"}, {"id": 304, "name": "Boula'wane", "name_ru": "Boula’wane", "tz": "", "district": "Casablanca-Settat"}, {"id": 305, "name": "Bezou", "name_ru": "Bezou", "tz": "", "district": "Béni Mellal-Khénifra"}, {"id": 306, "name": "Sidi Azzouz", "name_ru": "Sidi Azzouz", "tz": "", "district": "Marrakech-Safi"}, {"id": 307, "name": "Ourtzagh", "name_ru": "Ourtzagh", "tz": "", "district": "Fès-Meknès"}, {"id": 308, "name": "Zemrane", "name_ru": "Zemrane", "tz": "", "district": "Marrakech-Safi"}, {"id": 309, "name": "Tagalft", "name_ru": "Tagalft", "tz": "", "district": "Béni Mellal-Khénifra"}, {"id": 310, "name": "Temsamane", "name_ru": "Temsamane", "tz": "", "district": "Oriental"}, {"id": 311, "name": "Tounfit", "name_ru": "Tounfit", "tz": "", "district": "Drâa-Tafilalet"}, {"id": 312, "name": "Ihaddadene", "name_ru": "Ihaddadene", "tz": "", "district": "Marrakech-Safi"}, {"id": 313, "name": "Zaouiat Moulay Bouchta El Khammar", "name_ru": "Zaouiat Moulay Bouchta El Khammar", "tz": "", "district": "Fès-Meknès"}, {"id": 314, "name": "Tafrant", "name_ru": "Tafrant", "tz": "", "district": "Fès-Meknès"}, {"id": 315, "name": "Douar Hammadi", "name_ru": "Douar Hammadi", "tz": "", "district": "Marrakech-Safi"}, {"id": 316, "name": "Bou Izakarn", "name_ru": "Bou Izakarn", "tz": "", "district": "Guelmim-Oued Noun"}, {"id": 317, "name": "Zayda", "name_ru": "Zayda", "tz": "", "district": "Drâa-Tafilalet"}, {"id": 318, "name": "Sidi Abdelkarim", "name_ru": "Sidi Abdelkarim", "tz": "", "district": "Casablanca-Settat"}, {"id": 319, "name": "Talwat", "name_ru": "Talwat", "tz": "", "district": "Drâa-Tafilalet"}, {"id": 320, "name": "Oulad Chikh", "name_ru": "Oulad Chikh", "tz": "", "district": "Casablanca-Settat"}, {"id": 321, "name": "Khmis Sidi al 'Aydi", "name_ru": "Khmis Sidi al ’Aydi", "tz": "", "district": "Casablanca-Settat"}, {"id": 322, "name": "Douar Lehgagcha", "name_ru": "Douar Lehgagcha", "tz": "", "district": "Casablanca-Settat"}, {"id": 323, "name": "Tamsaout", "name_ru": "Tamsaout", "tz": "", "district": "Souss-Massa"}, {"id": 324, "name": "Aghbala", "name_ru": "Aghbala", "tz": "", "district": "Béni Mellal-Khénifra"}, {"id": 325, "name": "Sidi Yahia", "name_ru": "Sidi Yahia", "tz": "", "district": "Souss-Massa"}, {"id": 326, "name": "Mqam at Tolba", "name_ru": "Mqam at Tolba", "tz": "", "district": "Rabat-Salé-Kénitra"}, {"id": 327, "name": "Kissane Ltouqi", "name_ru": "Kissane Ltouqi", "tz": "", "district": "Fès-Meknès"}, {"id": 328, "name": "Tahannawt", "name_ru": "Tahannawt", "tz": "", "district": "Marrakech-Safi"}, {"id": 329, "name": "Reggada", "name_ru": "Reggada", "tz": "", "district": "Souss-Massa"}, {"id": 330, "name": "El Kansera", "name_ru": "El Kansera", "tz": "", "district": "Rabat-Salé-Kénitra"}, {"id": 331, "name": "Asjen", "name_ru": "Asjen", "tz": "", "district": "Tanger-Tétouan-Al Hoceïma"}, {"id": 332, "name": "Ksar Sghir", "name_ru": "Ksar Sghir", "tz": "", "district": "Tanger-Tétouan-Al Hoceïma"}, {"id": 333, "name": "Sebt Bni Garfett", "name_ru": "Sebt Bni Garfett", "tz": "", "district": "Tanger-Tétouan-Al Hoceïma"}, {"id": 334, "name": "Oulad Rahmoun", "name_ru": "Oulad Rahmoun", "tz": "", "district": "Béni Mellal-Khénifra"}, {"id": 335, "name": "Bni Khloug", "name_ru": "Bni Khloug", "tz": "", "district": "Casablanca-Settat"}, {"id": 336, "name": "Bou Adel", "name_ru": "Bou Adel", "tz": "", "district": "Fès-Meknès"}, {"id": 337, "name": "Guisser", "name_ru": "Guisser", "tz": "", "district": "Casablanca-Settat"}, {"id": 338, "name": "Tizgane", "name_ru": "Tizgane", "tz": "", "district": "Tanger-Tétouan-Al Hoceïma"}, {"id": 339, "name": "Kasba Tanora", "name_ru": "Kasba Tanora", "tz": "", "district": "Béni Mellal-Khénifra"}, {"id": 340, "name": "Souakene", "name_ru": "Souakene", "tz": "", "district": "Tanger-Tétouan-Al Hoceïma"}, {"id": 341, "name": "Teroual", "name_ru": "Teroual", "tz": "", "district": "Tanger-Tétouan-Al Hoceïma"}, {"id": 342, "name": "Oulad Ouchchih", "name_ru": "Oulad Ouchchih", "tz": "", "district": "Tanger-Tétouan-Al Hoceïma"}, {"id": 343, "name": "Laamarna", "name_ru": "Laamarna", "tz": "", "district": "Marrakech-Safi"}, {"id": 344, "name": "Zag", "name_ru": "Zag", "tz": "", "district": "Guelmim-Oued Noun"}, {"id": 345, "name": "Ounagha", "name_ru": "Ounagha", "tz": "", "district": "Marrakech-Safi"}, {"id": 346, "name": "Ait Youssef Ou Ali", "name_ru": "Aït Youssef Ou Ali", "tz": "", "district": "Drâa-Tafilalet"}, {"id": 347, "name": "Zawiat Moulay Brahim", "name_ru": "Zawiat Moulay Brahim", "tz": "", "district": "Marrakech-Safi"}, {"id": 348, "name": "Bni Drar", "name_ru": "Bni Drar", "tz": "", "district": "Oriental"}, {"id": 349, "name": "Jaidte Lbatma", "name_ru": "Jaidte Lbatma", "tz": "", "district": "Marrakech-Safi"}, {"id": 350, "name": "Boumalne", "name_ru": "Boumalne", "tz": "", "district": "Drâa-Tafilalet"}, {"id": 351, "name": "Oulad Aissa", "name_ru": "Oulad Aïssa", "tz": "", "district": "Souss-Massa"}, {"id": 352, "name": "Oulad Fares", "name_ru": "Oulad Fares", "tz": "", "district": "Tanger-Tétouan-Al Hoceïma"}, {"id": 353, "name": "Oulad Amrane el Mekki", "name_ru": "Oulad Amrane el Mekki", "tz": "", "district": "Tanger-Tétouan-Al Hoceïma"}, {"id": 354, "name": "Gharbia", "name_ru": "Gharbia", "tz": "", "district": "Tanger-Tétouan-Al Hoceïma"}, {"id": 355, "name": "Nkheila", "name_ru": "Nkheila", "tz": "", "district": "Casablanca-Settat"}, {"id": 356, "name": "Tissa", "name_ru": "Tissa", "tz": "", "district": "Fès-Meknès"}, {"id": 357, "name": "Ain Kansara", "name_ru": "Ain Kansara", "tz": "", "district": "Fès-Meknès"}, {"id": 358, "name": "Malloussa", "name_ru": "Malloussa", "tz": "", "district": "Tanger-Tétouan-Al Hoceïma"}, {"id": 359, "name": "Aj Jourf", "name_ru": "Aj Jourf", "tz": "", "district": "Drâa-Tafilalet"}, {"id": 360, "name": "Steha", "name_ru": "Steha", "tz": "", "district": "Tanger-Tétouan-Al Hoceïma"}, {"id": 361, "name": "Mayate", "name_ru": "Mayate", "tz": "", "district": "Marrakech-Safi"}, {"id": 362, "name": "Oulad Daoud", "name_ru": "Oulad Daoud", "tz": "", "district": "Fès-Meknès"}, {"id": 363, "name": "Souq Jamaa Fdalate", "name_ru": "Souq Jamaa Fdalate", "tz": "", "district": "Casablanca-Settat"}, {"id": 364, "name": "Al Fayd", "name_ru": "Al Fayd", "tz": "", "district": "Souss-Massa"}, {"id": 365, "name": "Ain Beida", "name_ru": "Ain Beida", "tz": "", "district": "Marrakech-Safi"}, {"id": 366, "name": "El Arba Des Bir Lenni", "name_ru": "El Arba Des Bir Lenni", "tz": "", "district": "Fès-Meknès"}, {"id": 367, "name": "Matmata", "name_ru": "Matmata", "tz": "", "district": "Fès-Meknès"}, {"id": 368, "name": "Ait I'yach", "name_ru": "Aït I’yach", "tz": "", "district": "Drâa-Tafilalet"}, {"id": 369, "name": "Tizi Nisly", "name_ru": "Tizi Nisly", "tz": "", "district": "Béni Mellal-Khénifra"}, {"id": 370, "name": "Sidi Amer El Hadi", "name_ru": "Sidi Amer El Hadi", "tz": "", "district": "Rabat-Salé-Kénitra"}, {"id": 371, "name": "Moulay Driss Zerhoun", "name_ru": "Moulay Driss Zerhoun", "tz": "", "district": "Fès-Meknès"}, {"id": 372, "name": "Tifni", "name_ru": "Tifni", "tz": "", "district": "Béni Mellal-Khénifra"}, {"id": 373, "name": "Al M'aziz", "name_ru": "Al M’aziz", "tz": "", "district": "Rabat-Salé-Kénitra"}, {"id": 374, "name": "Tamezmout", "name_ru": "Tamezmout", "tz": "", "district": "Drâa-Tafilalet"}, {"id": 375, "name": "Oulad Friha", "name_ru": "Oulad Friha", "tz": "", "district": "Casablanca-Settat"}, {"id": 376, "name": "Sidi Moussa Ben Ali", "name_ru": "Sidi Moussa Ben Ali", "tz": "", "district": "Casablanca-Settat"}, {"id": 377, "name": "Jamaat Shaim", "name_ru": "Jamaat Shaim", "tz": "", "district": "Marrakech-Safi"}, {"id": 378, "name": "Sidi Kasem", "name_ru": "Sidi Kasem", "tz": "", "district": "Tanger-Tétouan-Al Hoceïma"}, {"id": 379, "name": "Derdara", "name_ru": "Derdara", "tz": "", "district": "Tanger-Tétouan-Al Hoceïma"}, {"id": 380, "name": "Dzouz", "name_ru": "Dzouz", "tz": "", "district": "Marrakech-Safi"}, {"id": 381, "name": "Timahdit", "name_ru": "Timahdit", "tz": "", "district": "Fès-Meknès"}, {"id": 382, "name": "Tawnza", "name_ru": "Tawnza", "tz": "", "district": "Béni Mellal-Khénifra"}, {"id": 383, "name": "Bouabout", "name_ru": "Bouabout", "tz": "", "district": "Marrakech-Safi"}, {"id": 384, "name": "Douar Trougout", "name_ru": "Douar Trougout", "tz": "", "district": "Oriental"}, {"id": 385, "name": "El Khemis des Beni Chegdal", "name_ru": "El Khemis des Beni Chegdal", "tz": "", "district": "Béni Mellal-Khénifra"}, {"id": 386, "name": "Lahfayr", "name_ru": "Lahfayr", "tz": "", "district": "Souss-Massa"}, {"id": 387, "name": "Ain Legdah", "name_ru": "Ain Legdah", "tz": "", "district": "Fès-Meknès"}, {"id": 388, "name": "Ahlaf", "name_ru": "Ahlaf", "tz": "", "district": "Casablanca-Settat"}, {"id": 389, "name": "Amdel", "name_ru": "Amdel", "tz": "", "district": "Marrakech-Safi"}, {"id": 390, "name": "Douar Oulad Naoual", "name_ru": "Douar Oulad Naoual", "tz": "", "district": "Rabat-Salé-Kénitra"}, {"id": 391, "name": "Laqraqra", "name_ru": "Laqraqra", "tz": "", "district": "Marrakech-Safi"}, {"id": 392, "name": "Douar Sgarta", "name_ru": "Douar Sgarta", "tz": "", "district": "Marrakech-Safi"}, {"id": 393, "name": "Lamsabih", "name_ru": "Lamsabih", "tz": "", "district": "Marrakech-Safi"}, {"id": 394, "name": "Tilmi", "name_ru": "Tilmi", "tz": "", "district": "Drâa-Tafilalet"}, {"id": 395, "name": "El Ghourdane", "name_ru": "El Ghourdane", "tz": "", "district": "Marrakech-Safi"}, {"id": 396, "name": "Ouaklim Oukider", "name_ru": "Ouaklim Oukider", "tz": "", "district": "Drâa-Tafilalet"}, {"id": 397, "name": "Sidi Abdellah Ben Taazizt", "name_ru": "Sidi Abdellah Ben Taazizt", "tz": "", "district": "Fès-Meknès"}, {"id": 398, "name": "Touama", "name_ru": "Touama", "tz": "", "district": "Marrakech-Safi"}, {"id": 399, "name": "Iazizatene", "name_ru": "Iazizatene", "tz": "", "district": "Oriental"}, {"id": 400, "name": "Zaouiet Says", "name_ru": "Zaouiet Says", "tz": "", "district": "Casablanca-Settat"}, {"id": 401, "name": "Douar Jwalla", "name_ru": "Douar Jwalla", "tz": "", "district": "Marrakech-Safi"}, {"id": 402, "name": "Boujediane", "name_ru": "Boujediane", "tz": "", "district": "Tanger-Tétouan-Al Hoceïma"}, {"id": 403, "name": "Iygli", "name_ru": "Iygli", "tz": "", "district": "Souss-Massa"}, {"id": 404, "name": "Takad Sahel", "name_ru": "Takad Sahel", "tz": "", "district": "Souss-Massa"}, {"id": 405, "name": "Kariat Ben Aouda", "name_ru": "Kariat Ben Aouda", "tz": "", "district": "Rabat-Salé-Kénitra"}, {"id": 406, "name": "Oued Amlil", "name_ru": "Oued Amlil", "tz": "", "district": "Fès-Meknès"}, {"id": 407, "name": "Itzer", "name_ru": "Itzer", "tz": "", "district": "Drâa-Tafilalet"}, {"id": 408, "name": "Jafra", "name_ru": "Jafra", "tz": "", "district": "Marrakech-Safi"}, {"id": 409, "name": "Figuig", "name_ru": "Figuig", "tz": "", "district": "Oriental"}, {"id": 410, "name": "Imi Mokorn", "name_ru": "Imi Mokorn", "tz": "", "district": "Souss-Massa"}, {"id": 411, "name": "Foum Jam'a", "name_ru": "Foum Jam’a", "tz": "", "district": "Béni Mellal-Khénifra"}, {"id": 412, "name": "Douar Bouchfaa", "name_ru": "Douar Bouchfaa", "tz": "", "district": "Fès-Meknès"}, {"id": 413, "name": "Tanant", "name_ru": "Tanant", "tz": "", "district": "Béni Mellal-Khénifra"}, {"id": 414, "name": "Taouloukoult", "name_ru": "Taouloukoult", "tz": "", "district": "Marrakech-Safi"}, {"id": 415, "name": "Arbaa Sahel", "name_ru": "Arbaa Sahel", "tz": "", "district": "Souss-Massa"}, {"id": 416, "name": "Tamanar", "name_ru": "Tamanar", "tz": "", "district": "Marrakech-Safi"}, {"id": 417, "name": "Abadou", "name_ru": "Abadou", "tz": "", "district": "Marrakech-Safi"}, {"id": 418, "name": "Sidi Bousber", "name_ru": "Sidi Bousber", "tz": "", "district": "Tanger-Tétouan-Al Hoceïma"}, {"id": 419, "name": "Agdz", "name_ru": "Agdz", "tz": "", "district": "Drâa-Tafilalet"}, {"id": 420, "name": "Had Laaounate", "name_ru": "Had Laaounate", "tz": "", "district": "Casablanca-Settat"}, {"id": 421, "name": "Amtar", "name_ru": "Amtar", "tz": "", "district": "Tanger-Tétouan-Al Hoceïma"}, {"id": 422, "name": "Hetane", "name_ru": "Hetane", "tz": "", "district": "Béni Mellal-Khénifra"}, {"id": 423, "name": "Zawyat Ahancal", "name_ru": "Zawyat Ahançal", "tz": "", "district": "Béni Mellal-Khénifra"}, {"id": 424, "name": "Ain Zora", "name_ru": "Aïn Zora", "tz": "", "district": "Oriental"}, {"id": 425, "name": "Souq Sebt Says", "name_ru": "Souq Sebt Says", "tz": "", "district": "Casablanca-Settat"}, {"id": 426, "name": "Toundout", "name_ru": "Toundout", "tz": "", "district": "Drâa-Tafilalet"}, {"id": 427, "name": "Mokrisset", "name_ru": "Mokrisset", "tz": "", "district": "Tanger-Tétouan-Al Hoceïma"}, {"id": 428, "name": "Tourza", "name_ru": "Tourza", "tz": "", "district": "Guelmim-Oued Noun"}, {"id": 429, "name": "Ait Hani", "name_ru": "Aït Hani", "tz": "", "district": "Drâa-Tafilalet"}, {"id": 430, "name": "Tnine Sidi Lyamani", "name_ru": "Tnine Sidi Lyamani", "tz": "", "district": "Tanger-Tétouan-Al Hoceïma"}, {"id": 431, "name": "Tiztoutine", "name_ru": "Tiztoutine", "tz": "", "district": "Oriental"}, {"id": 432, "name": "Tilougguit", "name_ru": "Tilougguit", "tz": "", "district": "Béni Mellal-Khénifra"}, {"id": 433, "name": "Sidi Abdallah", "name_ru": "Sidi Abdallah", "tz": "", "district": "Marrakech-Safi"}, {"id": 434, "name": "Dar El Kebdani", "name_ru": "Dar El Kebdani", "tz": "", "district": "Oriental"}, {"id": 435, "name": "Douar Echbanat", "name_ru": "Douar Echbanat", "tz": "", "district": "Fès-Meknès"}, {"id": 436, "name": "Brikcha", "name_ru": "Brikcha", "tz": "", "district": "Tanger-Tétouan-Al Hoceïma"}, {"id": 437, "name": "Oulad Slim", "name_ru": "Oulad Slim", "tz": "", "district": "Casablanca-Settat"}, {"id": 438, "name": "Sidi Rahhal", "name_ru": "Sidi Rahhal", "tz": "", "district": "Marrakech-Safi"}, {"id": 439, "name": "Awfouss", "name_ru": "Awfouss", "tz": "", "district": "Drâa-Tafilalet"}, {"id": 440, "name": "Tiddas", "name_ru": "Tiddas", "tz": "", "district": "Rabat-Salé-Kénitra"}, {"id": 441, "name": "Beni Oulid", "name_ru": "Beni Oulid", "tz": "", "district": "Fès-Meknès"}, {"id": 442, "name": "Jaqma", "name_ru": "Jaqma", "tz": "", "district": "Casablanca-Settat"}, {"id": 443, "name": "Bounaamane", "name_ru": "Bounaamane", "tz": "", "district": "Souss-Massa"}, {"id": 444, "name": "Ksar Lmajaz", "name_ru": "Ksar Lmajaz", "tz": "", "district": "Tanger-Tétouan-Al Hoceïma"}, {"id": 445, "name": "Aghbalou n'Kerdous", "name_ru": "Aghbalou n’Kerdous", "tz": "", "district": "Drâa-Tafilalet"}, {"id": 446, "name": "Sgamna", "name_ru": "Sgamna", "tz": "", "district": "Casablanca-Settat"}, {"id": 447, "name": "Kenafif", "name_ru": "Kenafif", "tz": "", "district": "Souss-Massa"}, {"id": 448, "name": "La'tamna", "name_ru": "La’tamna", "tz": "", "district": "Marrakech-Safi"}, {"id": 449, "name": "Jemaat Oulad Mhamed", "name_ru": "Jemaat Oulad Mhamed", "tz": "", "district": "Casablanca-Settat"}, {"id": 450, "name": "Tissaf", "name_ru": "Tissaf", "tz": "", "district": "Fès-Meknès"}, {"id": 451, "name": "Za'roura", "name_ru": "Za’roura", "tz": "", "district": "Tanger-Tétouan-Al Hoceïma"}, {"id": 452, "name": "Ech Chaibat", "name_ru": "Ech Chaïbat", "tz": "", "district": "Marrakech-Safi"}, {"id": 453, "name": "Zaggota", "name_ru": "Zaggota", "tz": "", "district": "Rabat-Salé-Kénitra"}, {"id": 454, "name": "Taghbalt", "name_ru": "Taghbalt", "tz": "", "district": "Drâa-Tafilalet"}, {"id": 455, "name": "'Ain Leuh", "name_ru": "’Aïn Leuh", "tz": "", "district": "Fès-Meknès"}, {"id": 456, "name": "Tarhjicht", "name_ru": "Tarhjicht", "tz": "", "district": "Guelmim-Oued Noun"}, {"id": 457, "name": "Oued Laou", "name_ru": "Oued Laou", "tz": "", "district": "Tanger-Tétouan-Al Hoceïma"}, {"id": 458, "name": "Boudinar", "name_ru": "Boudinar", "tz": "", "district": "Oriental"}, {"id": 459, "name": "Kourimat", "name_ru": "Kourimat", "tz": "", "district": "Marrakech-Safi"}, {"id": 460, "name": "Outa Bouabane", "name_ru": "Outa Bouabane", "tz": "", "district": "Fès-Meknès"}, {"id": 461, "name": "Tafersit", "name_ru": "Tafersit", "tz": "", "district": "Oriental"}, {"id": 462, "name": "Saidia", "name_ru": "Saidia", "tz": "", "district": "Oriental"}, {"id": 463, "name": "Tadla", "name_ru": "Tadla", "tz": "", "district": "Marrakech-Safi"}, {"id": 464, "name": "Aklim", "name_ru": "Aklim", "tz": "", "district": "Oriental"}, {"id": 465, "name": "Aghbalou Aqourar", "name_ru": "Aghbalou Aqourar", "tz": "", "district": "Fès-Meknès"}, {"id": 466, "name": "Sidi Ahmed El Khadir", "name_ru": "Sidi Ahmed El Khadir", "tz": "", "district": "Casablanca-Settat"}, {"id": 467, "name": "Douar Lehouifrat", "name_ru": "Douar Lehouifrat", "tz": "", "district": "Marrakech-Safi"}, {"id": 468, "name": "Bni Boufrah", "name_ru": "Bni Boufrah", "tz": "", "district": "Tanger-Tétouan-Al Hoceïma"}, {"id": 469, "name": "Douar Messassa", "name_ru": "Douar Messassa", "tz": "", "district": "Fès-Meknès"}, {"id": 470, "name": "Oulad Imloul", "name_ru": "Oulad Imloul", "tz": "", "district": "Marrakech-Safi"}, {"id": 471, "name": "Sidi Bou Othmane", "name_ru": "Sidi Bou Othmane", "tz": "", "district": "Marrakech-Safi"}, {"id": 472, "name": "Tatoufet", "name_ru": "Tatoufet", "tz": "", "district": "Tanger-Tétouan-Al Hoceïma"}, {"id": 473, "name": "Bni Gmil", "name_ru": "Bni Gmil", "tz": "", "district": "Tanger-Tétouan-Al Hoceïma"}, {"id": 474, "name": "Zawyat Sidi Ben Hamdoun", "name_ru": "Zawyat Sidi Ben Hamdoun", "tz": "", "district": "Casablanca-Settat"}, {"id": 475, "name": "El Amim", "name_ru": "El Amim", "tz": "", "district": "Marrakech-Safi"}, {"id": 476, "name": "Mhajar", "name_ru": "Mhâjâr", "tz": "", "district": "Oriental"}, {"id": 477, "name": "Sidi El Hattab", "name_ru": "Sidi El Hattab", "tz": "", "district": "Marrakech-Safi"}, {"id": 478, "name": "Tissint", "name_ru": "Tissint", "tz": "", "district": "Souss-Massa"}, {"id": 479, "name": "Gammasa", "name_ru": "Gammasa", "tz": "", "district": "Marrakech-Safi"}, {"id": 480, "name": "Laghzawna", "name_ru": "Laghzawna", "tz": "", "district": "Casablanca-Settat"}, {"id": 481, "name": "Ameskroud", "name_ru": "Ameskroud", "tz": "", "district": "Souss-Massa"}, {"id": 482, "name": "Douar Ezzerarda", "name_ru": "Douar Ezzerarda", "tz": "", "district": "Rabat-Salé-Kénitra"}, {"id": 483, "name": "Tanakoub", "name_ru": "Tanakoub", "tz": "", "district": "Tanger-Tétouan-Al Hoceïma"}, {"id": 484, "name": "Oulad Cherif", "name_ru": "Oulad Cherif", "tz": "", "district": "Marrakech-Safi"}, {"id": 485, "name": "Sidi Lahsene", "name_ru": "Sidi Lahsene", "tz": "", "district": "Oriental"}, {"id": 486, "name": "Douar Snada", "name_ru": "Douar Snada", "tz": "", "district": "Tanger-Tétouan-Al Hoceïma"}, {"id": 487, "name": "Chtiba", "name_ru": "Chtiba", "tz": "", "district": "Marrakech-Safi"}, {"id": 488, "name": "Sidi Ouassay", "name_ru": "Sidi Ouassay", "tz": "", "district": "Souss-Massa"}, {"id": 489, "name": "Bir Tam Tam", "name_ru": "Bir Tam Tam", "tz": "", "district": "Fès-Meknès"}, {"id": 490, "name": "Smimou", "name_ru": "Smimou", "tz": "", "district": "Marrakech-Safi"}, {"id": 491, "name": "Mwaline al Oued", "name_ru": "Mwaline al Oued", "tz": "", "district": "Casablanca-Settat"}, {"id": 492, "name": "Gtarna", "name_ru": "Gtarna", "tz": "", "district": "Casablanca-Settat"}, {"id": 493, "name": "Iguidiy", "name_ru": "Iguidiy", "tz": "", "district": "Souss-Massa"}, {"id": 494, "name": "Bni Sidel", "name_ru": "Bni Sidel", "tz": "", "district": "Oriental"}, {"id": 495, "name": "Had Dra", "name_ru": "Had Dra", "tz": "", "district": "Marrakech-Safi"}, {"id": 496, "name": "Foum Zguid", "name_ru": "Foum Zguid", "tz": "", "district": "Souss-Massa"}, {"id": 497, "name": "Zawyat Sidi al Mekki", "name_ru": "Zawyat Sidi al Mekki", "tz": "", "district": "Casablanca-Settat"}, {"id": 498, "name": "Iskourane", "name_ru": "Iskourane", "tz": "", "district": "Marrakech-Safi"}, {"id": 499, "name": "Msemrir", "name_ru": "Msemrir", "tz": "", "district": "Drâa-Tafilalet"}, {"id": 500, "name": "Ait Ikkou", "name_ru": "Ait Ikkou", "tz": "", "district": "Fès-Meknès"}, {"id": 501, "name": "Imilchil", "name_ru": "Imilchil", "tz": "", "district": "Drâa-Tafilalet"}, {"id": 502, "name": "Ait Ouaoumana", "name_ru": "Aït Ouaoumana", "tz": "", "district": "Béni Mellal-Khénifra"}, {"id": 503, "name": "Bouhlou", "name_ru": "Bouhlou", "tz": "", "district": "Fès-Meknès"}, {"id": 504, "name": "Agadir Melloul", "name_ru": "Agadir Melloul", "tz": "", "district": "Souss-Massa"}, {"id": 505, "name": "Iaboutene", "name_ru": "Iaboutene", "tz": "", "district": "Tanger-Tétouan-Al Hoceïma"}, {"id": 506, "name": "Amarzgane", "name_ru": "Amarzgane", "tz": "", "district": "Drâa-Tafilalet"}, {"id": 507, "name": "El Marmouta", "name_ru": "El Marmouta", "tz": "", "district": "Marrakech-Safi"}, {"id": 508, "name": "Oualidia", "name_ru": "Oualidia", "tz": "", "district": "Casablanca-Settat"}, {"id": 509, "name": "Sidi Dahbi", "name_ru": "Sidi Dahbi", "tz": "", "district": "Casablanca-Settat"}, {"id": 510, "name": "Sidi el Mokhfi", "name_ru": "Sidi el Mokhfi", "tz": "", "district": "Fès-Meknès"}, {"id": 511, "name": "Hassi Berkane", "name_ru": "Hassi Berkane", "tz": "", "district": "Oriental"}, {"id": 512, "name": "Tiqqi", "name_ru": "Tiqqi", "tz": "", "district": "Souss-Massa"}, {"id": 513, "name": "Tleta Taghramt", "name_ru": "Tleta Taghramt", "tz": "", "district": "Tanger-Tétouan-Al Hoceïma"}, {"id": 514, "name": "Ben Qarrich", "name_ru": "Ben Qarrich", "tz": "", "district": "Tanger-Tétouan-Al Hoceïma"}, {"id": 515, "name": "Mirleft", "name_ru": "Mirleft", "tz": "", "district": "Guelmim-Oued Noun"}, {"id": 516, "name": "Lakhzazra", "name_ru": "Lakhzazra", "tz": "", "district": "Casablanca-Settat"}, {"id": 517, "name": "Lambarkiyine", "name_ru": "Lambarkiyine", "tz": "", "district": "Casablanca-Settat"}, {"id": 518, "name": "Oulad Khallouf", "name_ru": "Oulad Khallouf", "tz": "", "district": "Oriental"}, {"id": 519, "name": "Iksane", "name_ru": "Iksane", "tz": "", "district": "Oriental"}, {"id": 520, "name": "Talambote", "name_ru": "Talambote", "tz": "", "district": "Tanger-Tétouan-Al Hoceïma"}, {"id": 521, "name": "Laanoussar", "name_ru": "Laanoussar", "tz": "", "district": "Fès-Meknès"}, {"id": 522, "name": "Tizoual", "name_ru": "Tizoual", "tz": "", "district": "Souss-Massa"}, {"id": 523, "name": "Ait Ali Mimoune", "name_ru": "Ait Ali Mimoune", "tz": "", "district": "Rabat-Salé-Kénitra"}, {"id": 524, "name": "Moulay Bou 'azza", "name_ru": "Moulay Bou ’azza", "tz": "", "district": "Béni Mellal-Khénifra"}, {"id": 525, "name": "Boured", "name_ru": "Boured", "tz": "", "district": "Fès-Meknès"}, {"id": 526, "name": "Kerrouchen", "name_ru": "Kerrouchen", "tz": "", "district": "Béni Mellal-Khénifra"}, {"id": 527, "name": "Ghassat", "name_ru": "Ghassat", "tz": "", "district": "Drâa-Tafilalet"}, {"id": 528, "name": "Nzalat Bni Amar", "name_ru": "Nzalat Bni Amar", "tz": "", "district": "Fès-Meknès"}, {"id": 529, "name": "Douar Mezaoura", "name_ru": "Douar Mezaoura", "tz": "", "district": "Fès-Meknès"}, {"id": 530, "name": "Imoulas", "name_ru": "Imoulas", "tz": "", "district": "Souss-Massa"}, {"id": 531, "name": "Mrizig", "name_ru": "Mrizig", "tz": "", "district": "Casablanca-Settat"}, {"id": 532, "name": "Ait Tagalla", "name_ru": "Aït Tagalla", "tz": "", "district": "Béni Mellal-Khénifra"}, {"id": 533, "name": "Tarfaya", "name_ru": "Tarfaya", "tz": "", "district": "Laâyoune-Sakia El Hamra"}, {"id": 534, "name": "Souk Khmis Bni Arouss", "name_ru": "Souk Khmis Bni Arouss", "tz": "", "district": "Tanger-Tétouan-Al Hoceïma"}, {"id": 535, "name": "Oulad Chbana", "name_ru": "Oulad Chbana", "tz": "", "district": "Casablanca-Settat"}, {"id": 536, "name": "Meghraoua", "name_ru": "Meghraoua", "tz": "", "district": "Fès-Meknès"}, {"id": 537, "name": "Melqa el Ouidane", "name_ru": "Melqa el Ouidane", "tz": "", "district": "Oriental"}, {"id": 538, "name": "Fifi", "name_ru": "Fifi", "tz": "", "district": "Tanger-Tétouan-Al Hoceïma"}, {"id": 539, "name": "Kef el Rhar", "name_ru": "Kef el Rhar", "tz": "", "district": "Fès-Meknès"}, {"id": 540, "name": "Imi n-Tlit", "name_ru": "Imi n-Tlit", "tz": "", "district": "Marrakech-Safi"}, {"id": 541, "name": "Sidi 'Ali Bou Aqba", "name_ru": "Sidi ’Ali Bou Aqba", "tz": "", "district": "Fès-Meknès"}, {"id": 542, "name": "El Meghassine", "name_ru": "El Meghassine", "tz": "", "district": "Fès-Meknès"}, {"id": 543, "name": "Mezguitem", "name_ru": "Mezguitem", "tz": "", "district": "Oriental"}, {"id": 544, "name": "Tafraoutane", "name_ru": "Tafraoutane", "tz": "", "district": "Souss-Massa"}, {"id": 545, "name": "Arazane", "name_ru": "Arazane", "tz": "", "district": "Souss-Massa"}, {"id": 546, "name": "Ida Ou Azza", "name_ru": "Ida Ou Azza", "tz": "", "district": "Marrakech-Safi"}, {"id": 547, "name": "Moulay Abdelkader", "name_ru": "Moulay Abdelkader", "tz": "", "district": "Fès-Meknès"}, {"id": 548, "name": "Had Kourt", "name_ru": "Had Kourt", "tz": "", "district": "Rabat-Salé-Kénitra"}, {"id": 549, "name": "Talat-n-Ya'qoub", "name_ru": "Talat-n-Ya’qoub", "tz": "", "district": "Marrakech-Safi"}, {"id": 550, "name": "Lalla Takerkoust", "name_ru": "Lalla Takerkoust", "tz": "", "district": "Marrakech-Safi"}, {"id": 551, "name": "Sidi Ahmed Ben Aissa", "name_ru": "Sidi Ahmed Ben Aissa", "tz": "", "district": "Rabat-Salé-Kénitra"}, {"id": 552, "name": "Timezgadiouine", "name_ru": "Timezgadiouine", "tz": "", "district": "Marrakech-Safi"}, {"id": 553, "name": "Jouamaa", "name_ru": "Jouamaa", "tz": "", "district": "Tanger-Tétouan-Al Hoceïma"}, {"id": 554, "name": "Ouirgane", "name_ru": "Ouirgane", "tz": "", "district": "Marrakech-Safi"}, {"id": 555, "name": "Al Orjane", "name_ru": "Al Orjane", "tz": "", "district": "Fès-Meknès"}, {"id": 556, "name": "Zinat", "name_ru": "Zinat", "tz": "", "district": "Tanger-Tétouan-Al Hoceïma"}, {"id": 557, "name": "Anzi", "name_ru": "Anzi", "tz": "", "district": "Souss-Massa"}, {"id": 558, "name": "Oulad Hassoune", "name_ru": "Oulad Hassoune", "tz": "", "district": "Marrakech-Safi"}, {"id": 559, "name": "Ait Hadi", "name_ru": "Aït Hadi", "tz": "", "district": "Marrakech-Safi"}, {"id": 560, "name": "Mhamid el Rhozlane", "name_ru": "Mhamid el Rhozlane", "tz": "", "district": "Drâa-Tafilalet"}, {"id": 561, "name": "Beni Oual Sehira", "name_ru": "Beni Oual Sehira", "tz": "", "district": "Rabat-Salé-Kénitra"}, {"id": 562, "name": "Ras Kebdana", "name_ru": "Ras Kebdana", "tz": "", "district": "Oriental"}, {"id": 563, "name": "Ait Hammou", "name_ru": "Ait Hammou", "tz": "", "district": "Marrakech-Safi"}, {"id": 564, "name": "Adassil", "name_ru": "Adassil", "tz": "", "district": "Marrakech-Safi"}, {"id": 565, "name": "Tafetachte", "name_ru": "Tafetachte", "tz": "", "district": "Marrakech-Safi"}, {"id": 566, "name": "Douar Brarba", "name_ru": "Douar Brarba", "tz": "", "district": "Fès-Meknès"}, {"id": 567, "name": "Taznakht", "name_ru": "Taznakht", "tz": "", "district": "Drâa-Tafilalet"}, {"id": 568, "name": "Tazoult", "name_ru": "Tazoult", "tz": "", "district": "Souss-Massa"}, {"id": 569, "name": "Askawn", "name_ru": "Askawn", "tz": "", "district": "Souss-Massa"}, {"id": 570, "name": "Douar Oulad Boussaken", "name_ru": "Douar Oulad Boussaken", "tz": "", "district": "Casablanca-Settat"}, {"id": 571, "name": "Lahouarta", "name_ru": "Lahouarta", "tz": "", "district": "Casablanca-Settat"}, {"id": 572, "name": "Douar Tassift", "name_ru": "Douar Tassift", "tz": "", "district": "Tanger-Tétouan-Al Hoceïma"}, {"id": 573, "name": "Sidi al Ghandour", "name_ru": "Sidi al Ghandour", "tz": "", "district": "Rabat-Salé-Kénitra"}, {"id": 574, "name": "Oued El Makhazine", "name_ru": "Oued El Makhazine", "tz": "", "district": "Rabat-Salé-Kénitra"}, {"id": 575, "name": "Sidi 'Allal al Mcader", "name_ru": "Sidi ’Allal al Mçader", "tz": "", "district": "Rabat-Salé-Kénitra"}, {"id": 576, "name": "Oulad Cherki", "name_ru": "Oulad Cherki", "tz": "", "district": "Marrakech-Safi"}, {"id": 577, "name": "Boulemane", "name_ru": "Boulemane", "tz": "", "district": "Fès-Meknès"}, {"id": 578, "name": "Bou Iferda", "name_ru": "Bou Iferda", "tz": "", "district": "Béni Mellal-Khénifra"}, {"id": 579, "name": "Arbaa Ayacha", "name_ru": "Arbaa Ayacha", "tz": "", "district": "Tanger-Tétouan-Al Hoceïma"}, {"id": 580, "name": "Douar Drissiine", "name_ru": "Douar Drissiine", "tz": "", "district": "Marrakech-Safi"}, {"id": 581, "name": "Ouardana", "name_ru": "Ouardana", "tz": "", "district": "Oriental"}, {"id": 582, "name": "Nkob", "name_ru": "Nkob", "tz": "", "district": "Drâa-Tafilalet"}, {"id": 583, "name": "Assoul", "name_ru": "Assoul", "tz": "", "district": "Drâa-Tafilalet"}, {"id": 584, "name": "Rouadi", "name_ru": "Rouadi", "tz": "", "district": "Tanger-Tétouan-Al Hoceïma"}, {"id": 585, "name": "Douar Oulad Amer", "name_ru": "Douar Oulad Amer", "tz": "", "district": "Marrakech-Safi"}, {"id": 586, "name": "Timlilt", "name_ru": "Timlilt", "tz": "", "district": "Marrakech-Safi"}, {"id": 587, "name": "Oued Naanaa", "name_ru": "Oued Naanaa", "tz": "", "district": "Casablanca-Settat"}, {"id": 588, "name": "Assebbab", "name_ru": "Assebbab", "tz": "", "district": "Oriental"}, {"id": 589, "name": "Sidi Yahia Sawad", "name_ru": "Sidi Yahia Sawad", "tz": "", "district": "Béni Mellal-Khénifra"}, {"id": 590, "name": "Ichemrarn", "name_ru": "Ichemrarn", "tz": "", "district": "Marrakech-Safi"}, {"id": 591, "name": "Mzefroune", "name_ru": "Mzefroune", "tz": "", "district": "Tanger-Tétouan-Al Hoceïma"}, {"id": 592, "name": "Zaouiat Sidi Hammou Ben Hmida", "name_ru": "Zaouiat Sidi Hammou Ben Hmida", "tz": "", "district": "Marrakech-Safi"}, {"id": 593, "name": "Taliwine", "name_ru": "Taliwine", "tz": "", "district": "Souss-Massa"}, {"id": 594, "name": "Oulad Sbih", "name_ru": "Oulad Sbih", "tz": "", "district": "Casablanca-Settat"}, {"id": 595, "name": "Assais", "name_ru": "Assais", "tz": "", "district": "Souss-Massa"}, {"id": 596, "name": "Azgour", "name_ru": "Azgour", "tz": "", "district": "Marrakech-Safi"}, {"id": 597, "name": "Tizi Ouzli", "name_ru": "Tizi Ouzli", "tz": "", "district": "Fès-Meknès"}, {"id": 598, "name": "El Maader El Kabir", "name_ru": "El Maader El Kabir", "tz": "", "district": "Souss-Massa"}, {"id": 599, "name": "Ait Said", "name_ru": "Ait Said", "tz": "", "district": "Marrakech-Safi"}, {"id": 600, "name": "Akka", "name_ru": "Akka", "tz": "", "district": "Souss-Massa"}, {"id": 601, "name": "Assays", "name_ru": "Assays", "tz": "", "district": "Souss-Massa"}, {"id": 602, "name": "Ghafsai", "name_ru": "Ghafsaï", "tz": "", "district": "Fès-Meknès"}, {"id": 603, "name": "Mejji", "name_ru": "Mejji", "tz": "", "district": "Marrakech-Safi"}, {"id": 604, "name": "Znada", "name_ru": "Znada", "tz": "", "district": "Marrakech-Safi"}, {"id": 605, "name": "Douar el Caid el Gueddari", "name_ru": "Douar el Caïd el Gueddari", "tz": "", "district": "Rabat-Salé-Kénitra"}, {"id": 606, "name": "Zerkat", "name_ru": "Zerkat", "tz": "", "district": "Tanger-Tétouan-Al Hoceïma"}, {"id": 607, "name": "Timoulilt", "name_ru": "Timoulilt", "tz": "", "district": "Béni Mellal-Khénifra"}, {"id": 608, "name": "Khmis Sidi Yahia", "name_ru": "Khmis Sidi Yahia", "tz": "", "district": "Rabat-Salé-Kénitra"}, {"id": 609, "name": "Ijoukak", "name_ru": "Ijoukak", "tz": "", "district": "Marrakech-Safi"}, {"id": 610, "name": "Douar Oulad Mkoudou", "name_ru": "Douar Oulad Mkoudou", "tz": "", "district": "Fès-Meknès"}, {"id": 611, "name": "Et Tnine des Beni Ammart", "name_ru": "Et Tnine des Beni Ammart", "tz": "", "district": "Tanger-Tétouan-Al Hoceïma"}, {"id": 612, "name": "Tafingoult", "name_ru": "Tafingoult", "tz": "", "district": "Souss-Massa"}, {"id": 613, "name": "Douar El Gouzal", "name_ru": "Douar El Gouzal", "tz": "", "district": "Fès-Meknès"}, {"id": 614, "name": "Ras Ijerri", "name_ru": "Ras Ijerri", "tz": "", "district": "Fès-Meknès"}, {"id": 615, "name": "Douar Tassila Imassouane", "name_ru": "Douar Tassila Imassouane", "tz": "", "district": "Marrakech-Safi"}, {"id": 616, "name": "Mestigmer", "name_ru": "Mestigmer", "tz": "", "district": "Oriental"}, {"id": 617, "name": "Ida Ou Gailal", "name_ru": "Ida Ou Gaïlal", "tz": "", "district": "Souss-Massa"}, {"id": 618, "name": "Ras Tabouda", "name_ru": "Ras Tabouda", "tz": "", "district": "Fès-Meknès"}, {"id": 619, "name": "Saidat", "name_ru": "Saïdat", "tz": "", "district": "Marrakech-Safi"}, {"id": 620, "name": "Tancherfi", "name_ru": "Tancherfi", "tz": "", "district": "Oriental"}, {"id": 621, "name": "Tafraout", "name_ru": "Tafraout", "tz": "", "district": "Souss-Massa"}, {"id": 622, "name": "Tiyghmi", "name_ru": "Tiyghmi", "tz": "", "district": "Souss-Massa"}, {"id": 623, "name": "Beni Sidal Louta", "name_ru": "Beni Sidal Louta", "tz": "", "district": "Oriental"}, {"id": 624, "name": "Douar Oulad Jaber", "name_ru": "Douar Oulad Jaber", "tz": "", "district": "Marrakech-Safi"}, {"id": 625, "name": "Souq at Tlata des Loulad", "name_ru": "Souq at Tlata des Loulad", "tz": "", "district": "Casablanca-Settat"}, {"id": 626, "name": "Tazouta", "name_ru": "Tazouta", "tz": "", "district": "Fès-Meknès"}, {"id": 627, "name": "Amrharas", "name_ru": "Amrharas", "tz": "", "district": "Marrakech-Safi"}, {"id": 628, "name": "Bir Anzarane", "name_ru": "Bir Anzarane", "tz": "", "district": ""}, {"id": 629, "name": "Ida Ou Moumene", "name_ru": "Ida Ou Moumene", "tz": "", "district": "Souss-Massa"}, {"id": 630, "name": "Kechoulah", "name_ru": "Kechoulah", "tz": "", "district": "Marrakech-Safi"}, {"id": 631, "name": "Sidi Mbark", "name_ru": "Sidi Mbark", "tz": "", "district": "Guelmim-Oued Noun"}, {"id": 632, "name": "Moulay Bouzarqtoune", "name_ru": "Moulay Bouzarqtoune", "tz": "", "district": "Marrakech-Safi"}, {"id": 633, "name": "Tazemmourt", "name_ru": "Tazemmourt", "tz": "", "district": "Souss-Massa"}, {"id": 634, "name": "Oulad Amghar", "name_ru": "Oulad Amghar", "tz": "", "district": "Oriental"}, {"id": 635, "name": "Bni Abdellah", "name_ru": "Bni Abdellah", "tz": "", "district": "Tanger-Tétouan-Al Hoceïma"}, {"id": 636, "name": "Douar Tazrout", "name_ru": "Douar Tazrout", "tz": "", "district": "Tanger-Tétouan-Al Hoceïma"}, {"id": 637, "name": "Douar Oulad Bou Krae El Fouqani", "name_ru": "Douar Oulad Bou Krae El Fouqani", "tz": "", "district": "Marrakech-Safi"}, {"id": 638, "name": "Tinzart", "name_ru": "Tinzart", "tz": "", "district": "Souss-Massa"}, {"id": 639, "name": "El Arba Bouzemmour", "name_ru": "El Arba Bouzemmour", "tz": "", "district": "Marrakech-Safi"}, {"id": 640, "name": "Ait Ouakrim", "name_ru": "Aït Ouakrim", "tz": "", "district": "Souss-Massa"}, {"id": 641, "name": "Amersid", "name_ru": "Amersid", "tz": "", "district": "Drâa-Tafilalet"}, {"id": 642, "name": "Ighil", "name_ru": "Ighil", "tz": "", "district": "Marrakech-Safi"}, {"id": 643, "name": "Sidi Harazem", "name_ru": "Sidi Harazem", "tz": "", "district": "Fès-Meknès"}, {"id": 644, "name": "Bni Hadifa", "name_ru": "Bni Hadifa", "tz": "", "district": "Tanger-Tétouan-Al Hoceïma"}, {"id": 645, "name": "Ait el Farsi", "name_ru": "Aït el Farsi", "tz": "", "district": "Drâa-Tafilalet"}, {"id": 646, "name": "Oulad Zarrad", "name_ru": "Oulad Zarrad", "tz": "", "district": "Marrakech-Safi"}, {"id": 647, "name": "El Aargub", "name_ru": "El Aargub", "tz": "", "district": ""}, {"id": 648, "name": "Tichla", "name_ru": "Tichla", "tz": "", "district": ""}, {"id": 649, "name": "Dhar Souk", "name_ru": "Dhar Souk", "tz": "", "district": "Fès-Meknès"}, {"id": 650, "name": "Ait Ban", "name_ru": "Ait Ban", "tz": "", "district": "Souss-Massa"}, {"id": 651, "name": "Tafadna", "name_ru": "Tafadna", "tz": "", "district": "Marrakech-Safi"}, {"id": 652, "name": "Mechra-Hommadi", "name_ru": "Mechra-Hommadi", "tz": "", "district": "Oriental"}, {"id": 653, "name": "Jemaat Moul Blad", "name_ru": "Jemaat Moul Blad", "tz": "", "district": "Rabat-Salé-Kénitra"}, {"id": 654, "name": "Ajdir", "name_ru": "Ajdir", "tz": "", "district": "Tanger-Tétouan-Al Hoceïma"}, {"id": 655, "name": "Guenfouda", "name_ru": "Guenfouda", "tz": "", "district": "Oriental"}, {"id": 656, "name": "Imigdal", "name_ru": "Imigdal", "tz": "", "district": "Marrakech-Safi"}, {"id": 657, "name": "Bine Al Widane", "name_ru": "Bine Al Widane", "tz": "", "district": "Béni Mellal-Khénifra"}, {"id": 658, "name": "Imouzzer des Ida ou Tanane", "name_ru": "Imouzzer des Ida ou Tanane", "tz": "", "district": "Souss-Massa"}, {"id": 659, "name": "Taghazout", "name_ru": "Taghazout", "tz": "", "district": "Souss-Massa"}, {"id": 660, "name": "Taliouine", "name_ru": "Taliouîne", "tz": "", "district": "Oriental"}, {"id": 661, "name": "Tizagzawine", "name_ru": "Tizagzawine", "tz": "", "district": "Drâa-Tafilalet"}, {"id": 662, "name": "Timzguida Ouftas", "name_ru": "Timzguida Ouftas", "tz": "", "district": "Marrakech-Safi"}, {"id": 663, "name": "Izmorene", "name_ru": "Izmorene", "tz": "", "district": "Tanger-Tétouan-Al Hoceïma"}, {"id": 664, "name": "Tiouli", "name_ru": "Tiouli", "tz": "", "district": "Oriental"}, {"id": 665, "name": "Akarma", "name_ru": "Akarma", "tz": "", "district": "Marrakech-Safi"}, {"id": 666, "name": "Douar Oulad Amer Leqliaa", "name_ru": "Douar Oulad Amer Leqliaa", "tz": "", "district": "Marrakech-Safi"}, {"id": 667, "name": "Aghbar", "name_ru": "Aghbar", "tz": "", "district": "Drâa-Tafilalet"}, {"id": 668, "name": "Bigoudine", "name_ru": "Bigoudine", "tz": "", "district": "Souss-Massa"}, {"id": 669, "name": "Oulad Messaoud", "name_ru": "Oulad Messaoud", "tz": "", "district": "Marrakech-Safi"}, {"id": 670, "name": "Fezouane", "name_ru": "Fezouane", "tz": "", "district": "Oriental"}, {"id": 671, "name": "Bab Boudir", "name_ru": "Bab Boudir", "tz": "", "district": "Fès-Meknès"}, {"id": 672, "name": "Recani", "name_ru": "Reçani", "tz": "", "district": "Drâa-Tafilalet"}, {"id": 673, "name": "Moulay Driss Aghbal", "name_ru": "Moulay Driss Aghbal", "tz": "", "district": "Rabat-Salé-Kénitra"}, {"id": 674, "name": "Azrar", "name_ru": "Azrar", "tz": "", "district": "Souss-Massa"}, {"id": 675, "name": "Uad Damran", "name_ru": "Uad Damran", "tz": "", "district": "Laâyoune-Sakia El Hamra"}, {"id": 676, "name": "Oulad 'Azzouz", "name_ru": "Oulad ’Azzouz", "tz": "", "district": "Béni Mellal-Khénifra"}, {"id": 677, "name": "Bou Zemou", "name_ru": "Bou Zemou", "tz": "", "district": "Drâa-Tafilalet"}, {"id": 678, "name": "Douar Oulad Bouziane", "name_ru": "Douar Oulad Bouziane", "tz": "", "district": "Fès-Meknès"}, {"id": 679, "name": "Douar El Mellaliyine", "name_ru": "Douar El Mellaliyine", "tz": "", "district": "Tanger-Tétouan-Al Hoceïma"}, {"id": 680, "name": "Alougoum", "name_ru": "Alougoum", "tz": "", "district": "Souss-Massa"}, {"id": 681, "name": "Matarka", "name_ru": "Matarka", "tz": "", "district": "Oriental"}, {"id": 682, "name": "Ain Bida", "name_ru": "Ain Bida", "tz": "", "district": "Fès-Meknès"}, {"id": 683, "name": "Mzizal", "name_ru": "Mzizal", "tz": "", "district": "Drâa-Tafilalet"}, {"id": 684, "name": "Bghaghza", "name_ru": "Bghaghza", "tz": "", "district": "Tanger-Tétouan-Al Hoceïma"}, {"id": 685, "name": "Sidi Bettach", "name_ru": "Sidi Bettach", "tz": "", "district": "Casablanca-Settat"}, {"id": 686, "name": "Outerbat", "name_ru": "Outerbat", "tz": "", "district": "Drâa-Tafilalet"}, {"id": 687, "name": "Taouz", "name_ru": "Taouz", "tz": "", "district": "Drâa-Tafilalet"}, {"id": 688, "name": "Beni Khaled", "name_ru": "Beni Khaled", "tz": "", "district": "Oriental"}, {"id": 689, "name": "Saddina", "name_ru": "Saddina", "tz": "", "district": "Tanger-Tétouan-Al Hoceïma"}, {"id": 690, "name": "Adis", "name_ru": "Adis", "tz": "", "district": "Souss-Massa"}, {"id": 691, "name": "Akka Irene", "name_ru": "Akka Irene", "tz": "", "district": "Souss-Massa"}, {"id": 692, "name": "Tadighoust", "name_ru": "Tadighoust", "tz": "", "district": "Drâa-Tafilalet"}, {"id": 693, "name": "Oum Azza", "name_ru": "Oum Azza", "tz": "", "district": "Rabat-Salé-Kénitra"}, {"id": 694, "name": "Oulad Aissa", "name_ru": "Oulad Aïssa", "tz": "", "district": "Béni Mellal-Khénifra"}, {"id": 695, "name": "Zawyat Sidi Hamza", "name_ru": "Zawyat Sidi Hamza", "tz": "", "district": "Drâa-Tafilalet"}, {"id": 696, "name": "Ait Athmane", "name_ru": "Aït Athmane", "tz": "", "district": "Drâa-Tafilalet"}, {"id": 697, "name": "Timoulay Izder", "name_ru": "Timoulay Izder", "tz": "", "district": "Guelmim-Oued Noun"}, {"id": 698, "name": "Tafetchna", "name_ru": "Tafetchna", "tz": "", "district": "Drâa-Tafilalet"}, {"id": 699, "name": "Ez Zinat", "name_ru": "Ez Zinat", "tz": "", "district": "Tanger-Tétouan-Al Hoceïma"}, {"id": 700, "name": "Souk el Had-des Beni-Batao", "name_ru": "Souk el Had-des Beni-Batao", "tz": "", "district": "Béni Mellal-Khénifra"}, {"id": 701, "name": "Lemsid", "name_ru": "Lemsid", "tz": "", "district": "Laâyoune-Sakia El Hamra"}]