[{"id": 1, "name": "Chisinau", "name_ru": "Chisinau", "tz": "", "district": "Chişinău"}, {"id": 2, "name": "Tiraspol", "name_ru": "Tiraspol", "tz": "", "district": "Stînga Nistrului"}, {"id": 3, "name": "Balti", "name_ru": "Bălţi", "tz": "", "district": "Bălţi"}, {"id": 4, "name": "Bender", "name_ru": "Bender", "tz": "", "district": "Bender"}, {"id": 5, "name": "Ungheni", "name_ru": "Ungheni", "tz": "", "district": "Ungheni"}, {"id": 6, "name": "Cahul", "name_ru": "Cahul", "tz": "", "district": "Cahul"}, {"id": 7, "name": "Soroca", "name_ru": "Soroca", "tz": "", "district": "Soroca"}, {"id": 8, "name": "Orhei", "name_ru": "Orhei", "tz": "", "district": "Orhei"}, {"id": 9, "name": "Comrat", "name_ru": "Comrat", "tz": "", "district": "Găgăuzia"}, {"id": 10, "name": "Straseni", "name_ru": "Straşeni", "tz": "", "district": "Străşeni"}, {"id": 11, "name": "Causeni", "name_ru": "Căuşeni", "tz": "", "district": "Căuşeni"}, {"id": 12, "name": "Edinet", "name_ru": "Edineţ", "tz": "", "district": "Edineţ"}, {"id": 13, "name": "Drochia", "name_ru": "Drochia", "tz": "", "district": "Drochia"}, {"id": 14, "name": "Ialoveni", "name_ru": "Ialoveni", "tz": "", "district": "Ialoveni"}, {"id": 15, "name": "Hincesti", "name_ru": "Hînceşti", "tz": "", "district": "Hînceşti"}, {"id": 16, "name": "Singerei", "name_ru": "Sîngerei", "tz": "", "district": "Sîngerei"}, {"id": 17, "name": "Taraclia", "name_ru": "Taraclia", "tz": "", "district": "Taraclia"}, {"id": 18, "name": "Falesti", "name_ru": "Făleşti", "tz": "", "district": "Făleşti"}, {"id": 19, "name": "Floresti", "name_ru": "Floreşti", "tz": "", "district": "Floreşti"}, {"id": 20, "name": "Cimislia", "name_ru": "Cimişlia", "tz": "", "district": "Cimişlia"}, {"id": 21, "name": "Rezina", "name_ru": "Rezina", "tz": "", "district": "Rezina"}, {"id": 22, "name": "Anenii Noi", "name_ru": "Anenii Noi", "tz": "", "district": "Anenii Noi"}, {"id": 23, "name": "Calarasi", "name_ru": "Călăraşi", "tz": "", "district": "Călăraşi"}, {"id": 24, "name": "Nisporeni", "name_ru": "Nisporeni", "tz": "", "district": "Nisporeni"}, {"id": 25, "name": "Riscani", "name_ru": "Rîşcani", "tz": "", "district": "Rîşcani"}, {"id": 26, "name": "Glodeni", "name_ru": "Glodeni", "tz": "", "district": "Glodeni"}, {"id": 27, "name": "Basarabeasca", "name_ru": "Basarabeasca", "tz": "", "district": "Basarabeasca"}, {"id": 28, "name": "Leova", "name_ru": "Leova", "tz": "", "district": "Leova"}, {"id": 29, "name": "Briceni", "name_ru": "Briceni", "tz": "", "district": "Briceni"}, {"id": 30, "name": "Ocnita", "name_ru": "Ocniţa", "tz": "", "district": "Ocniţa"}, {"id": 31, "name": "Telenesti", "name_ru": "Teleneşti", "tz": "", "district": "Teleneşti"}, {"id": 32, "name": "Donduseni", "name_ru": "Donduşeni", "tz": "", "district": "Donduşeni"}, {"id": 33, "name": "Criuleni", "name_ru": "Criuleni", "tz": "", "district": "Criuleni"}, {"id": 34, "name": "Cantemir", "name_ru": "Cantemir", "tz": "", "district": "Cantemir"}, {"id": 35, "name": "Cocieri", "name_ru": "Cocieri", "tz": "", "district": "Dubăsari"}, {"id": 36, "name": "Soldanesti", "name_ru": "Şoldăneşti", "tz": "", "district": "Şoldăneşti"}, {"id": 37, "name": "Stefan Voda", "name_ru": "Ştefan Vodă", "tz": "", "district": "Ştefan-Vodă"}, {"id": 38, "name": "Ribnita", "name_ru": "Rîbniţa", "tz": "", "district": "Stînga Nistrului"}, {"id": 39, "name": "Dubasari", "name_ru": "Dubăsari", "tz": "", "district": "Stînga Nistrului"}, {"id": 40, "name": "Durlesti", "name_ru": "Durleşti", "tz": "", "district": "Chişinău"}, {"id": 41, "name": "Codru", "name_ru": "Codru", "tz": "", "district": "Chişinău"}, {"id": 42, "name": "Ceadir-Lunga", "name_ru": "Ceadîr-Lunga", "tz": "", "district": "Găgăuzia"}, {"id": 43, "name": "Vulcanesti", "name_ru": "Vulcăneşti", "tz": "", "district": "Găgăuzia"}, {"id": 44, "name": "Cricova", "name_ru": "Cricova", "tz": "", "district": "Chişinău"}, {"id": 45, "name": "Congaz", "name_ru": "Congaz", "tz": "", "district": "Găgăuzia"}, {"id": 46, "name": "Costesti", "name_ru": "Costeşti", "tz": "", "district": "Ialoveni"}, {"id": 47, "name": "Dnestrovsc", "name_ru": "Dnestrovsc", "tz": "", "district": "Stînga Nistrului"}, {"id": 48, "name": "Singera", "name_ru": "Sîngera", "tz": "", "district": "Chişinău"}, {"id": 49, "name": "Borogani", "name_ru": "Borogani", "tz": "", "district": "Cantemir"}, {"id": 50, "name": "Grigoriopol", "name_ru": "Grigoriopol", "tz": "", "district": "Stînga Nistrului"}, {"id": 51, "name": "Copceac", "name_ru": "Copceac", "tz": "", "district": "Găgăuzia"}, {"id": 52, "name": "Chitcani", "name_ru": "Chiţcani", "tz": "", "district": "Stînga Nistrului"}, {"id": 53, "name": "Camenca", "name_ru": "Camenca", "tz": "", "district": "Stînga Nistrului"}, {"id": 54, "name": "Peresecina", "name_ru": "Peresecina", "tz": "", "district": "Orhei"}, {"id": 55, "name": "Baurci", "name_ru": "Baurci", "tz": "", "district": "Găgăuzia"}, {"id": 56, "name": "Pelinia", "name_ru": "Pelinia", "tz": "", "district": "Rîşcani"}, {"id": 57, "name": "Cupcini", "name_ru": "Cupcini", "tz": "", "district": "Edineţ"}, {"id": 58, "name": "Cojusna", "name_ru": "Cojuşna", "tz": "", "district": "Străşeni"}, {"id": 59, "name": "Cazaclia", "name_ru": "Cazaclia", "tz": "", "district": "Găgăuzia"}, {"id": 60, "name": "Corjeuti", "name_ru": "Corjeuţi", "tz": "", "district": "Briceni"}, {"id": 61, "name": "Talmaza", "name_ru": "Talmaza", "tz": "", "district": "Ştefan-Vodă"}, {"id": 62, "name": "Chirsova", "name_ru": "Chirsova", "tz": "", "district": "Găgăuzia"}, {"id": 63, "name": "Ghidighici", "name_ru": "Ghidighici", "tz": "", "district": "Chişinău"}, {"id": 64, "name": "Otaci", "name_ru": "Otaci", "tz": "", "district": "Ocniţa"}, {"id": 65, "name": "Varnita", "name_ru": "Varniţa", "tz": "", "district": "Bender"}, {"id": 66, "name": "Dubasarii Vechi", "name_ru": "Dubăsarii Vechi", "tz": "", "district": "Criuleni"}, {"id": 67, "name": "Sireti", "name_ru": "Sireţi", "tz": "", "district": "Străşeni"}, {"id": 68, "name": "Mereni", "name_ru": "Mereni", "tz": "", "district": "Anenii Noi"}, {"id": 69, "name": "Slobozia Mare", "name_ru": "Slobozia Mare", "tz": "", "district": "Cahul"}, {"id": 70, "name": "Vadul lui Voda", "name_ru": "Vadul lui Vodă", "tz": "", "district": "Chişinău"}, {"id": 71, "name": "Puhoi", "name_ru": "Puhoi", "tz": "", "district": "Ialoveni"}, {"id": 72, "name": "Lipcani", "name_ru": "Lipcani", "tz": "", "district": "Briceni"}, {"id": 73, "name": "Corlateni", "name_ru": "Corlăteni", "tz": "", "district": "Rîşcani"}, {"id": 74, "name": "Tvardita", "name_ru": "Tvardiţa", "tz": "", "district": "Taraclia"}, {"id": 75, "name": "Colibasi", "name_ru": "Colibaşi", "tz": "", "district": "Cahul"}, {"id": 76, "name": "Hirbovat", "name_ru": "Hîrbovăţ", "tz": "", "district": "Anenii Noi"}, {"id": 77, "name": "Radoaia", "name_ru": "Rădoaia", "tz": "", "district": "Sîngerei"}, {"id": 78, "name": "Crihana Veche", "name_ru": "Crihana Veche", "tz": "", "district": "Cahul"}, {"id": 79, "name": "Bulboaca", "name_ru": "Bulboaca", "tz": "", "district": "Anenii Noi"}, {"id": 80, "name": "Sipoteni", "name_ru": "Sipoteni", "tz": "", "district": "Călăraşi"}, {"id": 81, "name": "Lozova", "name_ru": "Lozova", "tz": "", "district": "Străşeni"}]