[{"id": 1, "name": "Podgorica", "name_ru": "Podgorica", "tz": "", "district": "Podgorica"}, {"id": 2, "name": "Ulcinj", "name_ru": "Ulcinj", "tz": "", "district": "Ulcinj"}, {"id": 3, "name": "Budva", "name_ru": "Budva", "tz": "", "district": "Budva"}, {"id": 4, "name": "Pljevlja", "name_ru": "Pljevlja", "tz": "", "district": "Pljevlja"}, {"id": 5, "name": "Herceg Novi", "name_ru": "Herceg Novi", "tz": "", "district": "Herceg Novi"}, {"id": 6, "name": "Bijelo Polje", "name_ru": "Bijelo Polje", "tz": "", "district": "Bijelo Polje"}, {"id": 7, "name": "Cetinje", "name_ru": "Cetinje", "tz": "", "district": "Cetinje"}, {"id": 8, "name": "Plav", "name_ru": "Plav", "tz": "", "district": "Plav"}, {"id": 9, "name": "Bar", "name_ru": "Bar", "tz": "", "district": "Bar"}, {"id": 10, "name": "Berane", "name_ru": "Berane", "tz": "", "district": "Berane"}, {"id": 11, "name": "Mojkovac", "name_ru": "Mojkovac", "tz": "", "district": "Mojkovac"}, {"id": 12, "name": "Rozaje", "name_ru": "Rožaje", "tz": "", "district": "Rožaje"}, {"id": 13, "name": "Zabljak", "name_ru": "Žabljak", "tz": "", "district": "Žabljak"}, {"id": 14, "name": "Andrijevica", "name_ru": "Andrijevica", "tz": "", "district": "Andrijevica"}, {"id": 15, "name": "Tivat", "name_ru": "Tivat", "tz": "", "district": "Tivat"}, {"id": 16, "name": "Tuzi", "name_ru": "Tuzi", "tz": "", "district": "Podgorica"}, {"id": 17, "name": "Kotor", "name_ru": "Kotor", "tz": "", "district": "Kotor"}, {"id": 18, "name": "Petnjica", "name_ru": "Petnjica", "tz": "", "district": "Petnjica"}, {"id": 19, "name": "Danilovgrad", "name_ru": "Danilovgrad", "tz": "", "district": "Danilovgrad"}, {"id": 20, "name": "Niksic", "name_ru": "Nikšić", "tz": "", "district": "Nikšić"}, {"id": 21, "name": "Gusinje", "name_ru": "Gusinje", "tz": "", "district": "Gusinje"}, {"id": 22, "name": "Kolasin", "name_ru": "Kolašin", "tz": "", "district": "Kolašin"}, {"id": 23, "name": "Savnik", "name_ru": "Šavnik", "tz": "", "district": "Šavnik"}, {"id": 24, "name": "Pluzine", "name_ru": "Plužine", "tz": "", "district": "Plužine"}]