[{"id": 1, "name": "Antananarivo", "name_ru": "Antananarivo", "tz": "", "district": "Antananarivo"}, {"id": 2, "name": "Antsirabe", "name_ru": "Antsirabe", "tz": "", "district": "Antananarivo"}, {"id": 3, "name": "Toamasina", "name_ru": "Toamasina", "tz": "", "district": "Toamasina"}, {"id": 4, "name": "Fianarantsoa", "name_ru": "Fianarantsoa", "tz": "", "district": "Fianarantsoa"}, {"id": 5, "name": "Mahajanga", "name_ru": "Mahajanga", "tz": "", "district": "Mahajanga"}, {"id": 6, "name": "Toliara", "name_ru": "Toliara", "tz": "", "district": "Toliara"}, {"id": 7, "name": "Antsiranana", "name_ru": "Antsiranana", "tz": "", "district": "Antsiranana"}, {"id": 8, "name": "Farafangana", "name_ru": "Farafangana", "tz": "", "district": "Fianarantsoa"}, {"id": 9, "name": "Tolanaro", "name_ru": "Tôlan̈aro", "tz": "", "district": "Toliara"}, {"id": 10, "name": "Antalaha", "name_ru": "Antalaha", "tz": "", "district": "Antsiranana"}, {"id": 11, "name": "Sambava", "name_ru": "Sambava", "tz": "", "district": "Antsiranana"}, {"id": 12, "name": "Ambatondrazaka", "name_ru": "Ambatondrazaka", "tz": "", "district": "Toamasina"}, {"id": 13, "name": "Maroantsetra", "name_ru": "Maroantsetra", "tz": "", "district": "Toamasina"}, {"id": 14, "name": "Morondava", "name_ru": "Morondava", "tz": "", "district": "Toliara"}, {"id": 15, "name": "Marovoay", "name_ru": "Marovoay", "tz": "", "district": "Mahajanga"}, {"id": 16, "name": "Ambanja", "name_ru": "Ambanja", "tz": "", "district": "Antsiranana"}, {"id": 17, "name": "Mananjary", "name_ru": "Mananjary", "tz": "", "district": "Fianarantsoa"}, {"id": 18, "name": "Andoany", "name_ru": "Andoany", "tz": "", "district": "Antsiranana"}, {"id": 19, "name": "Antsohihy", "name_ru": "Antsohihy", "tz": "", "district": "Mahajanga"}, {"id": 20, "name": "Miandrivazo", "name_ru": "Miandrivazo", "tz": "", "district": "Toliara"}, {"id": 21, "name": "Ihosy", "name_ru": "Ihosy", "tz": "", "district": "Fianarantsoa"}, {"id": 22, "name": "Morombe", "name_ru": "Morombe", "tz": "", "district": "Toliara"}, {"id": 23, "name": "Iharana", "name_ru": "Iharan̈a", "tz": "", "district": "Antsiranana"}, {"id": 24, "name": "Maintirano", "name_ru": "Maintirano", "tz": "", "district": "Mahajanga"}, {"id": 25, "name": "Mandritsara", "name_ru": "Mandritsara", "tz": "", "district": "Mahajanga"}, {"id": 26, "name": "Bekily", "name_ru": "Bekily", "tz": "", "district": "Toliara"}, {"id": 27, "name": "Manja", "name_ru": "Manja", "tz": "", "district": "Toliara"}, {"id": 28, "name": "Besalampy", "name_ru": "Besalampy", "tz": "", "district": "Mahajanga"}, {"id": 29, "name": "Androka", "name_ru": "Androka", "tz": "", "district": "Toliara"}]