[{"id": 1, "name": "Skopje", "name_ru": "Skopje", "tz": "", "district": "Skopje"}, {"id": 2, "name": "Tetovo", "name_ru": "Tetovo", "tz": "", "district": "Tetovo"}, {"id": 3, "name": "Bitola", "name_ru": "Bitola", "tz": "", "district": "Bitola"}, {"id": 4, "name": "Kumanovo", "name_ru": "Kumanovo", "tz": "", "district": "Kumanovo"}, {"id": 5, "name": "Prilep", "name_ru": "Prilep", "tz": "", "district": "Prilep"}, {"id": 6, "name": "Ohrid", "name_ru": "Ohrid", "tz": "", "district": "Ohrid"}, {"id": 7, "name": "Veles", "name_ru": "Veles", "tz": "", "district": "Veles"}, {"id": 8, "name": "Stip", "name_ru": "Štip", "tz": "", "district": "Štip"}, {"id": 9, "name": "Gostivar", "name_ru": "Gostivar", "tz": "", "district": "Gostivar"}, {"id": 10, "name": "Kocani", "name_ru": "Kočani", "tz": "", "district": "Kočani"}, {"id": 11, "name": "Struga", "name_ru": "Struga", "tz": "", "district": "Struga"}, {"id": 12, "name": "Debar", "name_ru": "Debar", "tz": "", "district": "Debar"}, {"id": 13, "name": "Strumica", "name_ru": "Strumica", "tz": "", "district": "Strumica"}, {"id": 14, "name": "Vinica", "name_ru": "Vinica", "tz": "", "district": "Vinica"}, {"id": 15, "name": "Probistip", "name_ru": "Probištip", "tz": "", "district": "Probištip"}, {"id": 16, "name": "Aracinovo", "name_ru": "Aračinovo", "tz": "", "district": "Aračinovo"}, {"id": 17, "name": "Kicevo", "name_ru": "Kičevo", "tz": "", "district": "Kičevo"}, {"id": 18, "name": "Kavadarci", "name_ru": "Kavadarci", "tz": "", "district": "Kavadarci"}, {"id": 19, "name": "Vrapciste", "name_ru": "Vrapčište", "tz": "", "district": "Vrapčište"}, {"id": 20, "name": "Gevgelija", "name_ru": "Gevgelija", "tz": "", "district": "Gevgelija"}, {"id": 21, "name": "Radovis", "name_ru": "Radoviš", "tz": "", "district": "Radoviš"}, {"id": 22, "name": "Berovo", "name_ru": "Berovo", "tz": "", "district": "Berovo"}, {"id": 23, "name": "Krusevo", "name_ru": "Kruševo", "tz": "", "district": "Kruševo"}, {"id": 24, "name": "Sveti Nikole", "name_ru": "Sveti Nikole", "tz": "", "district": "Sveti Nikole"}, {"id": 25, "name": "Demir Kapija", "name_ru": "Demir Kapija", "tz": "", "district": "Demir Kapija"}, {"id": 26, "name": "Delcevo", "name_ru": "Delčevo", "tz": "", "district": "Delčevo"}, {"id": 27, "name": "Bogdanci", "name_ru": "Bogdanci", "tz": "", "district": "Bogdanci"}, {"id": 28, "name": "Negotino", "name_ru": "Negotino", "tz": "", "district": "Negotino"}, {"id": 29, "name": "Vevcani", "name_ru": "Vevčani", "tz": "", "district": "Vevčani"}, {"id": 30, "name": "Gradsko", "name_ru": "Gradsko", "tz": "", "district": "Gradsko"}, {"id": 31, "name": "Valandovo", "name_ru": "Valandovo", "tz": "", "district": "Valandovo"}, {"id": 32, "name": "Kriva Palanka", "name_ru": "Kriva Palanka", "tz": "", "district": "Kriva Palanka"}, {"id": 33, "name": "Kratovo", "name_ru": "Kratovo", "tz": "", "district": "Kratovo"}, {"id": 34, "name": "Krivogastani", "name_ru": "Krivogaštani", "tz": "", "district": "Krivogaštani"}, {"id": 35, "name": "Zrnovci", "name_ru": "Zrnovci", "tz": "", "district": "Zrnovci"}, {"id": 36, "name": "Sopiste", "name_ru": "Sopište", "tz": "", "district": "Sopište"}, {"id": 37, "name": "Pehcevo", "name_ru": "Pehčevo", "tz": "", "district": "Pehčevo"}, {"id": 38, "name": "Plasnica", "name_ru": "Plasnica", "tz": "", "district": "Plasnica"}, {"id": 39, "name": "Tearce", "name_ru": "Tearce", "tz": "", "district": "Tearce"}, {"id": 40, "name": "Mogila", "name_ru": "Mogila", "tz": "", "district": "Mogila"}, {"id": 41, "name": "Novo Selo", "name_ru": "Novo Selo", "tz": "", "district": "Novo Selo"}, {"id": 42, "name": "Novaci", "name_ru": "Novaci", "tz": "", "district": "Novaci"}, {"id": 43, "name": "Rosoman", "name_ru": "Rosoman", "tz": "", "district": "Rosoman"}, {"id": 44, "name": "Bosilovo", "name_ru": "Bosilovo", "tz": "", "district": "Bosilovo"}, {"id": 45, "name": "Konce", "name_ru": "Konče", "tz": "", "district": "Konče"}, {"id": 46, "name": "Rostusa", "name_ru": "Rostuša", "tz": "", "district": "Mavrovo i Rostuša"}, {"id": 47, "name": "Oblesevo", "name_ru": "Obleševo", "tz": "", "district": "Češinovo-Obleševo"}, {"id": 48, "name": "Rankovce", "name_ru": "Rankovce", "tz": "", "district": "Rankovce"}, {"id": 49, "name": "Petrovec", "name_ru": "Petrovec", "tz": "", "district": "Petrovec"}, {"id": 50, "name": "Karbinci", "name_ru": "Karbinci", "tz": "", "district": "Karbinci"}, {"id": 51, "name": "Vasilevo", "name_ru": "Vasilevo", "tz": "", "district": "Vasilevo"}, {"id": 52, "name": "Makedonski Brod", "name_ru": "Makedonski Brod", "tz": "", "district": "Makedonski Brod"}, {"id": 53, "name": "Staro Nagoricane", "name_ru": "Staro Nagoričane", "tz": "", "district": "Staro Nagoričane"}, {"id": 54, "name": "Demir Hisar", "name_ru": "Demir Hisar", "tz": "", "district": "Demir Hisar"}, {"id": 55, "name": "Lozovo", "name_ru": "Lozovo", "tz": "", "district": "Lozovo"}, {"id": 56, "name": "Centar Zupa", "name_ru": "Centar Župa", "tz": "", "district": "Centar Župa"}, {"id": 57, "name": "Jegunovce", "name_ru": "Jegunovce", "tz": "", "district": "Jegunovce"}, {"id": 58, "name": "Brvenica", "name_ru": "Brvenica", "tz": "", "district": "Brvenica"}, {"id": 59, "name": "Belcista", "name_ru": "Belčišta", "tz": "", "district": "Debarca"}, {"id": 60, "name": "Dolneni", "name_ru": "Dolneni", "tz": "", "district": "Dolneni"}, {"id": 61, "name": "Cucer-Sandevo", "name_ru": "Čučer-Sandevo", "tz": "", "district": "Čučer-Sandevo"}, {"id": 62, "name": "Zelenikovo", "name_ru": "Zelenikovo", "tz": "", "district": "Zelenikovo"}, {"id": 63, "name": "Zelino", "name_ru": "Želino", "tz": "", "district": "Želino"}, {"id": 64, "name": "Bogovinje", "name_ru": "Bogovinje", "tz": "", "district": "Bogovinje"}, {"id": 65, "name": "Studenicani", "name_ru": "Studeničani", "tz": "", "district": "Studeničani"}, {"id": 66, "name": "Ilinden", "name_ru": "Ilinden", "tz": "", "district": "Ilinden"}, {"id": 67, "name": "Star Dojran", "name_ru": "Star Dojran", "tz": "", "district": "Dojran"}, {"id": 68, "name": "Lipkovo", "name_ru": "Lipkovo", "tz": "", "district": "Lipkovo"}, {"id": 69, "name": "Makedonska Kamenica", "name_ru": "Makedonska Kamenica", "tz": "", "district": "Makedonska Kamenica"}, {"id": 70, "name": "Resen", "name_ru": "Resen", "tz": "", "district": "Resen"}, {"id": 71, "name": "Dracevo", "name_ru": "Dračevo", "tz": "", "district": "Skopje"}]