[{"id": 1, "name": "Bamako", "name_ru": "Bamako", "tz": "", "district": "Bamako"}, {"id": 2, "name": "Sikasso", "name_ru": "Sikasso", "tz": "", "district": "Sikasso"}, {"id": 3, "name": "Segou", "name_ru": "Ségou", "tz": "", "district": "Ségou"}, {"id": 4, "name": "Mopti", "name_ru": "Mopti", "tz": "", "district": "Mopti"}, {"id": 5, "name": "Koutiala", "name_ru": "Koutiala", "tz": "", "district": "Sikasso"}, {"id": 6, "name": "Kayes", "name_ru": "Kayes", "tz": "", "district": "Kayes"}, {"id": 7, "name": "Kati", "name_ru": "Kati", "tz": "", "district": "Koulikoro"}, {"id": 8, "name": "Gao", "name_ru": "Gao", "tz": "", "district": "Gao"}, {"id": 9, "name": "Kita", "name_ru": "Kita", "tz": "", "district": "Kayes"}, {"id": 10, "name": "Timbuktu", "name_ru": "Timbuktu", "tz": "", "district": "Tombouctou"}, {"id": 11, "name": "Koulikoro", "name_ru": "Koulikoro", "tz": "", "district": "Koulikoro"}, {"id": 12, "name": "Kidal", "name_ru": "Kidal", "tz": "", "district": "Kidal"}, {"id": 13, "name": "Markala", "name_ru": "Markala", "tz": "", "district": "Ségou"}, {"id": 14, "name": "San", "name_ru": "San", "tz": "", "district": "Ségou"}, {"id": 15, "name": "Bougouni", "name_ru": "Bougouni", "tz": "", "district": "Sikasso"}, {"id": 16, "name": "Djenne", "name_ru": "Djenné", "tz": "", "district": "Mopti"}, {"id": 17, "name": "Ansongo", "name_ru": "Ansongo", "tz": "", "district": "Gao"}, {"id": 18, "name": "Banamba", "name_ru": "Banamba", "tz": "", "district": "Koulikoro"}, {"id": 19, "name": "Bourem Guindou", "name_ru": "Bourèm Guindou", "tz": "", "district": "Gao"}, {"id": 20, "name": "Bafoulabe", "name_ru": "Bafoulabé", "tz": "", "district": "Kayes"}, {"id": 21, "name": "Menaka", "name_ru": "Ménaka", "tz": "", "district": "Gao"}, {"id": 22, "name": "Nara", "name_ru": "Nara", "tz": "", "district": "Koulikoro"}, {"id": 23, "name": "Kangaba", "name_ru": "Kangaba", "tz": "", "district": "Koulikoro"}, {"id": 24, "name": "Lere", "name_ru": "Léré", "tz": "", "district": "Tombouctou"}, {"id": 25, "name": "Nioro", "name_ru": "Nioro", "tz": "", "district": "Kayes"}, {"id": 26, "name": "Goundam", "name_ru": "Goundam", "tz": "", "district": "Tombouctou"}, {"id": 27, "name": "Aguelhok", "name_ru": "Aguelhok", "tz": "", "district": "Kidal"}, {"id": 28, "name": "Sokolo", "name_ru": "Sokolo", "tz": "", "district": "Ségou"}, {"id": 29, "name": "Tessalit", "name_ru": "Tessalit", "tz": "", "district": "Kidal"}, {"id": 30, "name": "Yelimane", "name_ru": "Yélimané", "tz": "", "district": "Kayes"}, {"id": 31, "name": "Araouane", "name_ru": "Araouane", "tz": "", "district": "Tombouctou"}, {"id": 32, "name": "Taoudenni", "name_ru": "Taoudenni", "tz": "", "district": "Tombouctou"}, {"id": 33, "name": "Satadougou", "name_ru": "Satadougou", "tz": "", "district": "Kayes"}]