[{"id": 1, "name": "Rangoon", "name_ru": "Rangoon", "tz": "", "district": "Yangon"}, {"id": 2, "name": "Mandalay", "name_ru": "Mandalay", "tz": "", "district": "Mandalay"}, {"id": 3, "name": "Nay Pyi Taw", "name_ru": "Nay Pyi Taw", "tz": "", "district": "Nay Pyi Taw"}, {"id": 4, "name": "Hpa-An", "name_ru": "Hpa-An", "tz": "", "district": "Kayin State"}, {"id": 5, "name": "Bago", "name_ru": "Bago", "tz": "", "district": "Bago"}, {"id": 6, "name": "Myeik", "name_ru": "Myeik", "tz": "", "district": "Taninthayi"}, {"id": 7, "name": "Myitkyina", "name_ru": "Myitkyina", "tz": "", "district": "Kachin State"}, {"id": 8, "name": "Pathein", "name_ru": "Pathein", "tz": "", "district": "Ayeyawady"}, {"id": 9, "name": "Monywa", "name_ru": "Monywa", "tz": "", "district": "Sagaing"}, {"id": 10, "name": "Sittwe", "name_ru": "Sittwe", "tz": "", "district": "Rakhine State"}, {"id": 11, "name": "Hinthada", "name_ru": "Hinthada", "tz": "", "district": "Ayeyawady"}, {"id": 12, "name": "Letpandan", "name_ru": "Letpandan", "tz": "", "district": "Bago"}, {"id": 13, "name": "Myingyan", "name_ru": "Myingyan", "tz": "", "district": "Mandalay"}, {"id": 14, "name": "Taunggyi", "name_ru": "Taunggyi", "tz": "", "district": "Shan State"}, {"id": 15, "name": "Mudon", "name_ru": "Mudon", "tz": "", "district": "Mon State"}, {"id": 16, "name": "Dawei", "name_ru": "Dawei", "tz": "", "district": "Taninthayi"}, {"id": 17, "name": "Pyay", "name_ru": "Pyay", "tz": "", "district": "Bago"}, {"id": 18, "name": "Pakokku", "name_ru": "Pakokku", "tz": "", "district": "Magway"}, {"id": 19, "name": "Magway", "name_ru": "Magway", "tz": "", "district": "Magway"}, {"id": 20, "name": "Yenangyaung", "name_ru": "Yenangyaung", "tz": "", "district": "Magway"}, {"id": 21, "name": "Taungoo", "name_ru": "Taungoo", "tz": "", "district": "Bago"}, {"id": 22, "name": "Sagaing", "name_ru": "Sagaing", "tz": "", "district": "Sagaing"}, {"id": 23, "name": "Hakha", "name_ru": "Hakha", "tz": "", "district": "Chin State"}, {"id": 24, "name": "Loikaw", "name_ru": "Loikaw", "tz": "", "district": "Kayah State"}, {"id": 25, "name": "Mawlamyine", "name_ru": "Mawlamyine", "tz": "", "district": "Mon State"}, {"id": 26, "name": "Chauk", "name_ru": "Chauk", "tz": "", "district": "Magway"}, {"id": 27, "name": "Shwebo", "name_ru": "Shwebo", "tz": "", "district": "Sagaing"}, {"id": 28, "name": "Pyapon", "name_ru": "Pyapon", "tz": "", "district": "Ayeyawady"}, {"id": 29, "name": "Kengtung", "name_ru": "Kengtung", "tz": "", "district": "Shan State"}, {"id": 30, "name": "Allanmyo", "name_ru": "Allanmyo", "tz": "", "district": "Magway"}, {"id": 31, "name": "Thongwa", "name_ru": "Thongwa", "tz": "", "district": "Yangon"}, {"id": 32, "name": "Ye", "name_ru": "Ye", "tz": "", "district": "Mon State"}, {"id": 33, "name": "Wakema", "name_ru": "Wakema", "tz": "", "district": "Ayeyawady"}, {"id": 34, "name": "Namtu", "name_ru": "Namtu", "tz": "", "district": "Shan State"}, {"id": 35, "name": "Pyu", "name_ru": "Pyu", "tz": "", "district": "Bago"}, {"id": 36, "name": "Nyaungdon", "name_ru": "Nyaungdon", "tz": "", "district": "Ayeyawady"}, {"id": 37, "name": "Amarapura", "name_ru": "Amarapura", "tz": "", "district": "Mandalay"}, {"id": 38, "name": "Haka", "name_ru": "Haka", "tz": "", "district": "Sagaing"}, {"id": 39, "name": "Kale", "name_ru": "Kale", "tz": "", "district": "Kayin State"}, {"id": 40, "name": "Kyaukpyu", "name_ru": "Kyaukpyu", "tz": "", "district": "Rakhine State"}, {"id": 41, "name": "Labutta", "name_ru": "Labutta", "tz": "", "district": "Ayeyawady"}]