[{"id": 1, "name": "Ulaanbaatar", "name_ru": "Ulaanbaatar", "tz": "Asia/Ulaanbaatar", "district": "Ulaanbaatar"}, {"id": 2, "name": "Moron", "name_ru": "Mörön", "tz": "Asia/Ulaanbaatar", "district": "Hövsgöl"}, {"id": 3, "name": "Erdenet", "name_ru": "Erdenet", "tz": "Asia/Ulaanbaatar", "district": "Orhon"}, {"id": 4, "name": "Darhan", "name_ru": "Darhan", "tz": "Asia/Ulaanbaatar", "district": "Darhan-Uul"}, {"id": 5, "name": "Choybalsan", "name_ru": "Choybalsan", "tz": "Asia/Ulaanbaatar", "district": "Dornod"}, {"id": 6, "name": "Olgiy", "name_ru": "Ölgiy", "tz": "Asia/Hovd", "district": "Bayan-Ölgiy"}, {"id": 7, "name": "Bayanhongor", "name_ru": "Bayanhongor", "tz": "Asia/Ulaanbaatar", "district": "Bayanhongor"}, {"id": 8, "name": "Ulaangom", "name_ru": "Ulaangom", "tz": "Asia/Hovd", "district": "Uvs"}, {"id": 9, "name": "Hovd", "name_ru": "Hovd", "tz": "Asia/Hovd", "district": "Hovd"}, {"id": 10, "name": "Suhbaatar", "name_ru": "Sühbaatar", "tz": "Asia/Ulaanbaatar", "district": "Selenge"}, {"id": 11, "name": "Uliastay", "name_ru": "Uliastay", "tz": "Asia/Ulaanbaatar", "district": "Dzavhan"}, {"id": 12, "name": "Arvayheer", "name_ru": "Arvayheer", "tz": "Asia/Ulaanbaatar", "district": "Övörhangay"}, {"id": 13, "name": "Saynshand", "name_ru": "Saynshand", "tz": "Asia/Ulaanbaatar", "district": "Dornogovĭ"}, {"id": 14, "name": "Tsetserleg", "name_ru": "Tsetserleg", "tz": "Asia/Ulaanbaatar", "district": "Arhangay"}, {"id": 15, "name": "Altay", "name_ru": "Altay", "tz": "Asia/Ulaanbaatar", "district": "Govĭ-Altay"}, {"id": 16, "name": "Dzuunmod", "name_ru": "Dzuunmod", "tz": "Asia/Ulaanbaatar", "district": "Töv"}, {"id": 17, "name": "Ondorhaan", "name_ru": "Öndörhaan", "tz": "Asia/Ulaanbaatar", "district": "Hentiy"}, {"id": 18, "name": "Baruun-Urt", "name_ru": "Baruun-Urt", "tz": "Asia/Ulaanbaatar", "district": "Sühbaatar"}, {"id": 19, "name": "Bulgan", "name_ru": "Bulgan", "tz": "Asia/Ulaanbaatar", "district": "Bulgan"}, {"id": 20, "name": "Mandalgovi", "name_ru": "Mandalgovĭ", "tz": "Asia/Ulaanbaatar", "district": "Dundgovĭ"}, {"id": 21, "name": "Dalandzadgad", "name_ru": "Dalandzadgad", "tz": "Asia/Ulaanbaatar", "district": "Ömnögovĭ"}, {"id": 22, "name": "Choyr", "name_ru": "Choyr", "tz": "Asia/Ulaanbaatar", "district": "Govĭsümber"}, {"id": 23, "name": "Darhan", "name_ru": "Darhan", "tz": "Asia/Ulaanbaatar", "district": "Selenge"}, {"id": 24, "name": "Dalanzadgad", "name_ru": "Dalanzadgad", "tz": "Asia/Ulaanbaatar", "district": "Ömnögovĭ"}, {"id": 25, "name": "Dzuunharaa", "name_ru": "Dzüünharaa", "tz": "Asia/Ulaanbaatar", "district": "Selenge"}, {"id": 26, "name": "Ulaan-Uul", "name_ru": "Ulaan-Uul", "tz": "Asia/Ulaanbaatar", "district": "Dornogovĭ"}, {"id": 27, "name": "Hodrogo", "name_ru": "Hödrögö", "tz": "Asia/Ulaanbaatar", "district": "Dzavhan"}]