[{"id": 1, "name": "Nouakchott", "name_ru": "Nouakchott", "tz": "", "district": ""}, {"id": 2, "name": "Nema", "name_ru": "Néma", "tz": "", "district": "Hodh ech Chargui"}, {"id": 3, "name": "Nouadhibou", "name_ru": "Nouadhibou", "tz": "", "district": "Dakhlet Nouadhibou"}, {"id": 4, "name": "Kiffa", "name_ru": "Kiffa", "tz": "", "district": "Assaba"}, {"id": 5, "name": "Zouerate", "name_ru": "Zouerate", "tz": "", "district": "Tiris Zemmour"}, {"id": 6, "name": "Rosso", "name_ru": "Rosso", "tz": "", "district": "Trarza"}, {"id": 7, "name": "Atar", "name_ru": "Atar", "tz": "", "district": "Adrar"}, {"id": 8, "name": "Tidjikja", "name_ru": "Tidjikja", "tz": "", "district": "Tagant"}, {"id": 9, "name": "Arafat", "name_ru": "Arafat", "tz": "", "district": "Nouakchott Sud"}, {"id": 10, "name": "Aleg", "name_ru": "Aleg", "tz": "", "district": "Brakna"}, {"id": 11, "name": "Tevragh Zeina", "name_ru": "Tevragh Zeina", "tz": "", "district": "Nouakchott Ouest"}, {"id": 12, "name": "Dar Naim", "name_ru": "Dar Naim", "tz": "", "district": "Nouakchott Nord"}, {"id": 13, "name": "Aioun", "name_ru": "Aioun", "tz": "", "district": "Hodh el Gharbi"}, {"id": 14, "name": "Selibaby", "name_ru": "Sélibaby", "tz": "", "district": "Guidimaka"}, {"id": 15, "name": "Akjoujt", "name_ru": "Akjoujt", "tz": "", "district": "Inchiri"}, {"id": 16, "name": "Kaedi", "name_ru": "Kaédi", "tz": "", "district": "Gorgol"}, {"id": 17, "name": "Boutilimit", "name_ru": "Boutilimit", "tz": "", "district": "Trarza"}, {"id": 18, "name": "Bogue", "name_ru": "Bogué", "tz": "", "district": "Brakna"}, {"id": 19, "name": "Timbedgha", "name_ru": "Timbedgha", "tz": "", "district": "Hodh ech Chargui"}, {"id": 20, "name": "Chegga", "name_ru": "Chegga", "tz": "", "district": "Tiris Zemmour"}, {"id": 21, "name": "Fderik", "name_ru": "Fdérik", "tz": "", "district": "Tiris Zemmour"}, {"id": 22, "name": "Bir Mogrein", "name_ru": "Bîr Mogreïn", "tz": "", "district": "Tiris Zemmour"}]