[{"id": 1, "name": "Valletta", "name_ru": "Valletta", "tz": "", "district": "Valletta"}, {"id": 2, "name": "Birkirkara", "name_ru": "Birkirkara", "tz": "", "district": "Birkirkara"}, {"id": 3, "name": "Sliema", "name_ru": "Sliema", "tz": "", "district": "Sliema"}, {"id": 4, "name": "Mosta", "name_ru": "Mosta", "tz": "", "district": "Mosta"}, {"id": 5, "name": "Saint Paul's Bay", "name_ru": "Saint Paul’s Bay", "tz": "", "district": "San Pawl il-Baħar"}, {"id": 6, "name": "Fgura", "name_ru": "Fgura", "tz": "", "district": "Fgura"}, {"id": 7, "name": "Qormi", "name_ru": "Qormi", "tz": "", "district": "Qormi"}, {"id": 8, "name": "Zabbar", "name_ru": "Żabbar", "tz": "", "district": "Żabbar"}, {"id": 9, "name": "San Gwann", "name_ru": "San Ġwann", "tz": "", "district": "San Ġwann"}, {"id": 10, "name": "Tarxien", "name_ru": "Tarxien", "tz": "", "district": "Tarxien"}, {"id": 11, "name": "Naxxar", "name_ru": "Naxxar", "tz": "", "district": "Naxxar"}, {"id": 12, "name": "Marsaskala", "name_ru": "Marsaskala", "tz": "", "district": "Marsaskala"}, {"id": 13, "name": "Imsida", "name_ru": "Imsida", "tz": "", "district": "Imsida"}, {"id": 14, "name": "Gzira", "name_ru": "Gżira", "tz": "", "district": "Gżira"}, {"id": 15, "name": "Swieqi", "name_ru": "Swieqi", "tz": "", "district": "Swieqi"}, {"id": 16, "name": "Zebbug", "name_ru": "Żebbuġ", "tz": "", "district": "Żebbuġ"}, {"id": 17, "name": "Zejtun", "name_ru": "Żejtun", "tz": "", "district": "Żejtun"}, {"id": 18, "name": "Santa Venera", "name_ru": "Santa Venera", "tz": "", "district": "Santa Venera"}, {"id": 19, "name": "San Giljan", "name_ru": "San Ġiljan", "tz": "", "district": "San Ġiljan"}, {"id": 20, "name": "Attard", "name_ru": "Attard", "tz": "", "district": "Attard"}, {"id": 21, "name": "Rabat", "name_ru": "Rabat", "tz": "", "district": "Rabat"}, {"id": 22, "name": "Zurrieq", "name_ru": "Żurrieq", "tz": "", "district": "Żurrieq"}, {"id": 23, "name": "Paola", "name_ru": "Paola", "tz": "", "district": "Paola"}, {"id": 24, "name": "Birzebbuga", "name_ru": "Birżebbuġa", "tz": "", "district": "Birżebbuġa"}, {"id": 25, "name": "Mellieha", "name_ru": "Mellieħa", "tz": "", "district": "Mellieħa"}, {"id": 26, "name": "Hamrun", "name_ru": "Ħamrun", "tz": "", "district": "Ħamrun"}, {"id": 27, "name": "Pieta", "name_ru": "Pietà", "tz": "", "district": "Pietà"}, {"id": 28, "name": "Victoria", "name_ru": "Victoria", "tz": "", "district": "Rabat (Ghawdex)"}, {"id": 29, "name": "Senglea", "name_ru": "Senglea", "tz": "", "district": "Isla"}, {"id": 30, "name": "Siggiewi", "name_ru": "Siġġiewi", "tz": "", "district": "Siġġiewi"}, {"id": 31, "name": "Cospicua", "name_ru": "Cospicua", "tz": "", "district": "Bormla"}, {"id": 32, "name": "Balzan", "name_ru": "Balzan", "tz": "", "district": "Balzan"}, {"id": 33, "name": "Ta' Xbiex", "name_ru": "Ta’ Xbiex", "tz": "", "district": "Ta’ Xbiex"}, {"id": 34, "name": "Luqa", "name_ru": "Luqa", "tz": "", "district": "Luqa"}, {"id": 35, "name": "Vittoriosa", "name_ru": "Vittoriosa", "tz": "", "district": "Birgu"}, {"id": 36, "name": "Marsa", "name_ru": "Marsa", "tz": "", "district": "Marsa"}, {"id": 37, "name": "Ghaxaq", "name_ru": "Għaxaq", "tz": "", "district": "Għaxaq"}, {"id": 38, "name": "Lija", "name_ru": "Lija", "tz": "", "district": "Lija"}, {"id": 39, "name": "Xaghra", "name_ru": "Xagħra", "tz": "", "district": "Xagħra"}, {"id": 40, "name": "Pembroke", "name_ru": "Pembroke", "tz": "", "district": "Pembroke"}, {"id": 41, "name": "Nadur", "name_ru": "Nadur", "tz": "", "district": "Nadur"}, {"id": 42, "name": "Iklin", "name_ru": "Iklin", "tz": "", "district": "Iklin"}, {"id": 43, "name": "Floriana", "name_ru": "Floriana", "tz": "", "district": "Floriana"}, {"id": 44, "name": "Kalkara", "name_ru": "Kalkara", "tz": "", "district": "Kalkara"}, {"id": 45, "name": "Imqabba", "name_ru": "Imqabba", "tz": "", "district": "Imqabba"}, {"id": 46, "name": "Gudja", "name_ru": "Gudja", "tz": "", "district": "Gudja"}, {"id": 47, "name": "Marsaxlokk", "name_ru": "Marsaxlokk", "tz": "", "district": "Marsaxlokk"}, {"id": 48, "name": "Dingli", "name_ru": "Dingli", "tz": "", "district": "Dingli"}, {"id": 49, "name": "Kirkop", "name_ru": "Kirkop", "tz": "", "district": "Kirkop"}, {"id": 50, "name": "Gharghur", "name_ru": "Għargħur", "tz": "", "district": "Għargħur"}, {"id": 51, "name": "Xewkija", "name_ru": "Xewkija", "tz": "", "district": "Xewkija"}, {"id": 52, "name": "Imgarr", "name_ru": "Imġarr", "tz": "", "district": "Imġarr"}, {"id": 53, "name": "Imtarfa", "name_ru": "Imtarfa", "tz": "", "district": "Imtarfa"}, {"id": 54, "name": "Xghajra", "name_ru": "Xgħajra", "tz": "", "district": "Xgħajra"}, {"id": 55, "name": "Qrendi", "name_ru": "Qrendi", "tz": "", "district": "Qrendi"}, {"id": 56, "name": "Ghajnsielem", "name_ru": "Għajnsielem", "tz": "", "district": "Għajnsielem"}, {"id": 57, "name": "Safi", "name_ru": "Safi", "tz": "", "district": "Safi"}, {"id": 58, "name": "Fontana", "name_ru": "Fontana", "tz": "", "district": "Fontana"}, {"id": 59, "name": "Sannat", "name_ru": "Sannat", "tz": "", "district": "Sannat"}, {"id": 60, "name": "Qala", "name_ru": "Qala", "tz": "", "district": "Qala"}, {"id": 61, "name": "Kercem", "name_ru": "Kerċem", "tz": "", "district": "Kerċem"}, {"id": 62, "name": "Munxar", "name_ru": "Munxar", "tz": "", "district": "Munxar"}, {"id": 63, "name": "Gharb", "name_ru": "Għarb", "tz": "", "district": "Għarb"}, {"id": 64, "name": "San Lawrenz", "name_ru": "San Lawrenz", "tz": "", "district": "San Lawrenz"}, {"id": 65, "name": "Imdina", "name_ru": "Imdina", "tz": "", "district": "Imdina"}, {"id": 66, "name": "Ghasri", "name_ru": "Għasri", "tz": "", "district": "Għasri"}, {"id": 67, "name": "Santa Lucija", "name_ru": "Santa Luċija", "tz": "", "district": "Santa Luċija"}, {"id": 68, "name": "Zebbug", "name_ru": "Żebbuġ", "tz": "", "district": "Żebbuġ (Ghawdex)"}]