[{"id": 1, "name": "Male", "name_ru": "Male", "tz": "", "district": "Maale"}, {"id": 2, "name": "Un'goofaaru", "name_ru": "Unâ€™goofaaru", "tz": "", "district": "Maalhosmadulu Uthuruburi"}, {"id": 3, "name": "Naifaru", "name_ru": "Naifaru", "tz": "", "district": "Faadhippolhu"}, {"id": 4, "name": "Mahibadhoo", "name_ru": "Mahibadhoo", "tz": "", "district": "Ari Atholhu Dhekunuburi"}, {"id": 5, "name": "Eydhafushi", "name_ru": "Eydhafushi", "tz": "", "district": "Maalhosmadulu Dhekunuburi"}, {"id": 6, "name": "Funadhoo", "name_ru": "Funadhoo", "tz": "", "district": "Miladhunmadulu Uthuruburi"}, {"id": 7, "name": "Kudahuvadhoo", "name_ru": "Kudahuvadhoo", "tz": "", "district": "Nilandhe Atholhu Dhekunuburi"}, {"id": 8, "name": "Kulhudhuffushi", "name_ru": "Kulhudhuffushi", "tz": "", "district": "Thiladhunmathee Dhekunuburi"}, {"id": 9, "name": "Thinadhoo", "name_ru": "Thinadhoo", "tz": "", "district": "Huvadhu Atholhu Dhekunuburi"}, {"id": 10, "name": "Thulusdhoo", "name_ru": "Thulusdhoo", "tz": "", "district": "Maale Atholhu"}, {"id": 11, "name": "Rasdhoo", "name_ru": "Rasdhoo", "tz": "", "district": "Ari Atholhu Uthuruburi"}, {"id": 12, "name": "Dhihdhoo", "name_ru": "Dhihdhoo", "tz": "", "district": "Thiladhunmathee Uthuruburi"}, {"id": 13, "name": "Veymandoo", "name_ru": "Veymandoo", "tz": "", "district": "Kolhumadulu"}, {"id": 14, "name": "Viligili", "name_ru": "Viligili", "tz": "", "district": "Huvadhu Atholhu Uthuruburi"}, {"id": 15, "name": "Hithadhoo", "name_ru": "Hithadhoo", "tz": "", "district": "Addu Atholhu"}, {"id": 16, "name": "Felidhoo", "name_ru": "Felidhoo", "tz": "", "district": "Felidhu Atholhu"}, {"id": 17, "name": "Foammulah", "name_ru": "Foammulah", "tz": "", "district": "Fuvammulah"}, {"id": 18, "name": "Nilandhoo", "name_ru": "Nilandhoo", "tz": "", "district": "Nilandhe Atholhu Uthuruburi"}, {"id": 19, "name": "Muli", "name_ru": "Muli", "tz": "", "district": "Felidhu Atholhu"}, {"id": 20, "name": "Fonadhoo", "name_ru": "Fonadhoo", "tz": "", "district": "Hadhdhunmathi"}, {"id": 21, "name": "Manadhoo", "name_ru": "Manadhoo", "tz": "", "district": "Miladhunmadulu Dhekunuburi"}]