[{"id": 1, "name": "Blantyre", "name_ru": "Blantyre", "tz": "", "district": "Blantyre"}, {"id": 2, "name": "Lilongwe", "name_ru": "Lilongwe", "tz": "", "district": "Lilongwe"}, {"id": 3, "name": "Mzuzu", "name_ru": "Mzuzu", "tz": "", "district": "Mzimba"}, {"id": 4, "name": "Zomba", "name_ru": "Zomba", "tz": "", "district": "Zomba"}, {"id": 5, "name": "Salima", "name_ru": "Salima", "tz": "", "district": "Salima"}, {"id": 6, "name": "Nkhotakota", "name_ru": "Nkhotakota", "tz": "", "district": "Nkhotakota"}, {"id": 7, "name": "Mangochi", "name_ru": "Mangochi", "tz": "", "district": "Mangochi"}, {"id": 8, "name": "Karonga", "name_ru": "Karonga", "tz": "", "district": "Karonga"}, {"id": 9, "name": "Nkhata Bay", "name_ru": "Nkhata Bay", "tz": "", "district": "Nkhata Bay"}, {"id": 10, "name": "Mzimba", "name_ru": "Mzimba", "tz": "", "district": "Mzimba"}, {"id": 11, "name": "Mulanje", "name_ru": "Mulanje", "tz": "", "district": "Mulanje"}, {"id": 12, "name": "Nsanje", "name_ru": "Nsanje", "tz": "", "district": "Nsanje"}, {"id": 13, "name": "Mchinji", "name_ru": "Mchinji", "tz": "", "district": "Mchinji"}, {"id": 14, "name": "Chitipa", "name_ru": "Chitipa", "tz": "", "district": "Chitipa"}, {"id": 15, "name": "Dedza", "name_ru": "Dedza", "tz": "", "district": "Dedza"}, {"id": 16, "name": "Mwanza", "name_ru": "Mwanza", "tz": "", "district": "Mwanza"}, {"id": 17, "name": "Ntcheu", "name_ru": "Ntcheu", "tz": "", "district": "Ntcheu"}, {"id": 18, "name": "Thyolo", "name_ru": "Thyolo", "tz": "", "district": "Thyolo"}, {"id": 19, "name": "Balaka", "name_ru": "Balaka", "tz": "", "district": "Balaka"}, {"id": 20, "name": "Rumphi", "name_ru": "Rumphi", "tz": "", "district": "Rumphi"}, {"id": 21, "name": "Phalombe", "name_ru": "Phalombe", "tz": "", "district": "Phalombe"}, {"id": 22, "name": "Chiradzulu", "name_ru": "Chiradzulu", "tz": "", "district": "Chiradzulu"}, {"id": 23, "name": "Machinga", "name_ru": "Machinga", "tz": "", "district": "Machinga"}, {"id": 24, "name": "Neno", "name_ru": "Neno", "tz": "", "district": "Neno"}, {"id": 25, "name": "Kasungu", "name_ru": "Kasungu", "tz": "", "district": "Kasungu"}, {"id": 26, "name": "Chikwawa", "name_ru": "Chikwawa", "tz": "", "district": "Chikwawa"}, {"id": 27, "name": "Dowa", "name_ru": "Dowa", "tz": "", "district": "Dowa"}, {"id": 28, "name": "Ntchisi", "name_ru": "Ntchisi", "tz": "", "district": "Ntchisi"}, {"id": 29, "name": "Chiromo", "name_ru": "Chiromo", "tz": "", "district": "Nsanje"}]