[{"id": 1, "name": "Mexico City", "name_ru": "Mexico City", "tz": "America/Mexico_City", "district": "Ciudad de México"}, {"id": 2, "name": "Guadalajara", "name_ru": "Guadalajara", "tz": "America/Mexico_City", "district": "Jalisco"}, {"id": 3, "name": "Tijuana", "name_ru": "Tijuana", "tz": "America/Tijuana", "district": "Baja California"}, {"id": 4, "name": "Ecatepec", "name_ru": "Ecatepec", "tz": "America/Mexico_City", "district": "México"}, {"id": 5, "name": "Leon de los Aldama", "name_ru": "León de los Aldama", "tz": "America/Mexico_City", "district": "Guanajuato"}, {"id": 6, "name": "Puebla", "name_ru": "Puebla", "tz": "America/Mexico_City", "district": "Puebla"}, {"id": 7, "name": "Zapopan", "name_ru": "Zapopan", "tz": "America/Mexico_City", "district": "Jalisco"}, {"id": 8, "name": "Juarez", "name_ru": "Juárez", "tz": "America/Ciudad_Juarez", "district": "Chihuahua"}, {"id": 9, "name": "Monterrey", "name_ru": "Monterrey", "tz": "America/Monterrey", "district": "Nuevo León"}, {"id": 10, "name": "Ciudad Nezahualcoyotl", "name_ru": "Ciudad Nezahualcóyotl", "tz": "America/Mexico_City", "district": "México"}, {"id": 11, "name": "Nezahualcoyotl", "name_ru": "Nezahualcóyotl", "tz": "America/Mexico_City", "district": "México"}, {"id": 12, "name": "Mexicali", "name_ru": "Mexicali", "tz": "America/Tijuana", "district": "Baja California"}, {"id": 13, "name": "Villahermosa", "name_ru": "Villahermosa", "tz": "America/Mexico_City", "district": "Tabasco"}, {"id": 14, "name": "Morelia", "name_ru": "Morelia", "tz": "America/Mexico_City", "district": "Michoacán de Ocampo"}, {"id": 15, "name": "Aguascalientes", "name_ru": "Aguascalientes", "tz": "America/Mexico_City", "district": "Aguascalientes"}, {"id": 16, "name": "Naucalpan de Juarez", "name_ru": "Naucalpan de Juárez", "tz": "America/Mexico_City", "district": "México"}, {"id": 17, "name": "Merida", "name_ru": "Mérida", "tz": "America/Merida", "district": "Yucatán"}, {"id": 18, "name": "Cancun", "name_ru": "Cancún", "tz": "America/Cancun", "district": "Quintana Roo"}, {"id": 19, "name": "Chihuahua", "name_ru": "Chihuahua", "tz": "America/Chihuahua", "district": "Chihuahua"}, {"id": 20, "name": "Saltillo", "name_ru": "Saltillo", "tz": "America/Monterrey", "district": "Coahuila de Zaragoza"}, {"id": 21, "name": "Hermosillo", "name_ru": "Hermosillo", "tz": "America/Hermosillo", "district": "Sonora"}, {"id": 22, "name": "Culiacan", "name_ru": "Culiacán", "tz": "America/Mazatlan", "district": "Sinaloa"}, {"id": 23, "name": "Queretaro", "name_ru": "Querétaro", "tz": "America/Mexico_City", "district": "Querétaro"}, {"id": 24, "name": "San Luis Potosi", "name_ru": "San Luis Potosí", "tz": "America/Mexico_City", "district": "San Luis Potosí"}, {"id": 25, "name": "Tlajomulco de Zuniga", "name_ru": "Tlajomulco de Zúñiga", "tz": "America/Mexico_City", "district": "Jalisco"}, {"id": 26, "name": "Torreon", "name_ru": "Torreón", "tz": "America/Monterrey", "district": "Coahuila de Zaragoza"}, {"id": 27, "name": "Guadalupe", "name_ru": "Guadalupe", "tz": "America/Monterrey", "district": "Nuevo León"}, {"id": 28, "name": "Acapulco de Juarez", "name_ru": "Acapulco de Juárez", "tz": "America/Mexico_City", "district": "Guerrero"}, {"id": 29, "name": "Tlaquepaque", "name_ru": "Tlaquepaque", "tz": "America/Mexico_City", "district": "Jalisco"}, {"id": 30, "name": "Mazatlan", "name_ru": "Mazatlán", "tz": "America/Mazatlan", "district": "Sinaloa"}, {"id": 31, "name": "Tlalnepantla", "name_ru": "Tlalnepantla", "tz": "America/Mexico_City", "district": "México"}, {"id": 32, "name": "Durango", "name_ru": "Durango", "tz": "America/Monterrey", "district": "Durango"}, {"id": 33, "name": "Chimalhuacan", "name_ru": "Chimalhuacán", "tz": "America/Mexico_City", "district": "México"}, {"id": 34, "name": "Tuxtla", "name_ru": "Tuxtla", "tz": "America/Mexico_City", "district": "Chiapas"}, {"id": 35, "name": "Irapuato", "name_ru": "Irapuato", "tz": "America/Mexico_City", "district": "Guanajuato"}, {"id": 36, "name": "Reynosa", "name_ru": "Reynosa", "tz": "America/Matamoros", "district": "Tamaulipas"}, {"id": 37, "name": "Tonala", "name_ru": "Tonalá", "tz": "America/Mexico_City", "district": "Jalisco"}, {"id": 38, "name": "Ensenada", "name_ru": "Ensenada", "tz": "America/Tijuana", "district": "Baja California"}, {"id": 39, "name": "Heroica Matamoros", "name_ru": "Heroica Matamoros", "tz": "America/Matamoros", "district": "Tamaulipas"}, {"id": 40, "name": "Tultitlan de Mariano Escobedo", "name_ru": "Tultitlán de Mariano Escobedo", "tz": "America/Mexico_City", "district": "México"}, {"id": 41, "name": "Ciudad Apodaca", "name_ru": "Ciudad Apodaca", "tz": "America/Monterrey", "district": "Nuevo León"}, {"id": 42, "name": "Ixtapaluca", "name_ru": "Ixtapaluca", "tz": "America/Mexico_City", "district": "México"}, {"id": 43, "name": "Ciudad Lopez Mateos", "name_ru": "Ciudad López Mateos", "tz": "America/Mexico_City", "district": "México"}, {"id": 44, "name": "Celaya", "name_ru": "Celaya", "tz": "America/Mexico_City", "district": "Guanajuato"}, {"id": 45, "name": "Los Mochis", "name_ru": "Los Mochis", "tz": "America/Mazatlan", "district": "Sinaloa"}, {"id": 46, "name": "San Nicolas de los Garza", "name_ru": "San Nicolás de los Garza", "tz": "America/Monterrey", "district": "Nuevo León"}, {"id": 47, "name": "Veracruz", "name_ru": "Veracruz", "tz": "America/Mexico_City", "district": "Veracruz"}, {"id": 48, "name": "Xalapa", "name_ru": "Xalapa", "tz": "America/Mexico_City", "district": "Veracruz"}, {"id": 49, "name": "Nuevo Laredo", "name_ru": "Nuevo Laredo", "tz": "America/Matamoros", "district": "Tamaulipas"}, {"id": 50, "name": "Tecamac", "name_ru": "Tecámac", "tz": "America/Mexico_City", "district": "México"}, {"id": 51, "name": "Orizaba", "name_ru": "Orizaba", "tz": "America/Mexico_City", "district": "Veracruz"}, {"id": 52, "name": "Minatitlan", "name_ru": "Minatitlán", "tz": "America/Mexico_City", "district": "Veracruz"}, {"id": 53, "name": "Tapachula", "name_ru": "Tapachula", "tz": "America/Mexico_City", "district": "Chiapas"}, {"id": 54, "name": "Uruapan", "name_ru": "Uruapan", "tz": "America/Mexico_City", "district": "Michoacán de Ocampo"}, {"id": 55, "name": "Gomez Palacio", "name_ru": "Gómez Palacio", "tz": "America/Monterrey", "district": "Durango"}, {"id": 56, "name": "Cuernavaca", "name_ru": "Cuernavaca", "tz": "America/Mexico_City", "district": "Morelos"}, {"id": 57, "name": "Salamanca", "name_ru": "Salamanca", "tz": "America/Mexico_City", "district": "Guanajuato"}, {"id": 58, "name": "Ciudad Obregon", "name_ru": "Ciudad Obregón", "tz": "America/Hermosillo", "district": "Sonora"}, {"id": 59, "name": "Soledad de Graciano Sanchez", "name_ru": "Soledad de Graciano Sánchez", "tz": "America/Mexico_City", "district": "San Luis Potosí"}, {"id": 60, "name": "Tepic", "name_ru": "Tepic", "tz": "America/Mazatlan", "district": "Nayarit"}, {"id": 61, "name": "Guasave", "name_ru": "Guasave", "tz": "America/Mazatlan", "district": "Sinaloa"}, {"id": 62, "name": "Tehuacan", "name_ru": "Tehuacán", "tz": "America/Mexico_City", "district": "Puebla"}, {"id": 63, "name": "Coatzacoalcos", "name_ru": "Coatzacoalcos", "tz": "America/Mexico_City", "district": "Veracruz"}, {"id": 64, "name": "Playa del Carmen", "name_ru": "Playa del Carmen", "tz": "America/Cancun", "district": "Quintana Roo"}, {"id": 65, "name": "Chalco", "name_ru": "Chalco", "tz": "America/Mexico_City", "district": "México"}, {"id": 66, "name": "Ciudad Victoria", "name_ru": "Ciudad Victoria", "tz": "America/Monterrey", "district": "Tamaulipas"}, {"id": 67, "name": "Ciudad Santa Catarina", "name_ru": "Ciudad Santa Catarina", "tz": "America/Monterrey", "district": "Nuevo León"}, {"id": 68, "name": "Oaxaca", "name_ru": "Oaxaca", "tz": "America/Mexico_City", "district": "Oaxaca"}, {"id": 69, "name": "San Juan del Rio", "name_ru": "San Juan del Río", "tz": "America/Mexico_City", "district": "Querétaro"}, {"id": 70, "name": "Ciudad General Escobedo", "name_ru": "Ciudad General Escobedo", "tz": "America/Monterrey", "district": "Nuevo León"}, {"id": 71, "name": "Tampico", "name_ru": "Tampico", "tz": "America/Monterrey", "district": "Tamaulipas"}, {"id": 72, "name": "Pachuca", "name_ru": "Pachuca", "tz": "America/Mexico_City", "district": "Hidalgo"}, {"id": 73, "name": "Heroica Nogales", "name_ru": "Heroica Nogales", "tz": "America/Hermosillo", "district": "Sonora"}, {"id": 74, "name": "Nogales", "name_ru": "Nogales", "tz": "America/Hermosillo", "district": "Sonora"}, {"id": 75, "name": "Ciudad Benito Juarez", "name_ru": "Ciudad Benito Juárez", "tz": "America/Monterrey", "district": "Nuevo León"}, {"id": 76, "name": "La Paz", "name_ru": "La Paz", "tz": "America/Mazatlan", "district": "Baja California Sur"}, {"id": 77, "name": "Monclova", "name_ru": "Monclova", "tz": "America/Monterrey", "district": "Coahuila de Zaragoza"}, {"id": 78, "name": "Guadalupe", "name_ru": "Guadalupe", "tz": "America/Mexico_City", "district": "Zacatecas"}, {"id": 79, "name": "Toluca", "name_ru": "Toluca", "tz": "America/Mexico_City", "district": "México"}, {"id": 80, "name": "Fresnillo", "name_ru": "Fresnillo", "tz": "America/Mexico_City", "district": "Zacatecas"}, {"id": 81, "name": "Huixquilucan", "name_ru": "Huixquilucan", "tz": "America/Mexico_City", "district": "México"}, {"id": 82, "name": "Campeche", "name_ru": "Campeche", "tz": "America/Merida", "district": "Campeche"}, {"id": 83, "name": "Cordoba", "name_ru": "Córdoba", "tz": "America/Mexico_City", "district": "Veracruz"}, {"id": 84, "name": "Zamora", "name_ru": "Zamora", "tz": "America/Mexico_City", "district": "Michoacán de Ocampo"}, {"id": 85, "name": "Puerto Vallarta", "name_ru": "Puerto Vallarta", "tz": "America/Mexico_City", "district": "Jalisco"}, {"id": 86, "name": "Poza Rica de Hidalgo", "name_ru": "Poza Rica de Hidalgo", "tz": "America/Mexico_City", "district": "Veracruz"}, {"id": 87, "name": "Ciudad Madero", "name_ru": "Ciudad Madero", "tz": "America/Monterrey", "district": "Tamaulipas"}, {"id": 88, "name": "Cuautla", "name_ru": "Cuautla", "tz": "America/Mexico_City", "district": "Morelos"}, {"id": 89, "name": "Chilpancingo", "name_ru": "Chilpancingo", "tz": "America/Mexico_City", "district": "Guerrero"}, {"id": 90, "name": "Guanajuato", "name_ru": "Guanajuato", "tz": "America/Mexico_City", "district": "Guanajuato"}, {"id": 91, "name": "San Luis Rio Colorado", "name_ru": "San Luis Río Colorado", "tz": "America/Hermosillo", "district": "Sonora"}, {"id": 92, "name": "Teziutlan", "name_ru": "Teziutlan", "tz": "America/Mexico_City", "district": "Puebla"}, {"id": 93, "name": "Chicoloapan", "name_ru": "Chicoloapan", "tz": "America/Mexico_City", "district": "México"}, {"id": 94, "name": "Santa Maria Texmelucan", "name_ru": "Santa María Texmelucan", "tz": "America/Mexico_City", "district": "Puebla"}, {"id": 95, "name": "Ciudad Valles", "name_ru": "Ciudad Valles", "tz": "America/Mexico_City", "district": "San Luis Potosí"}, {"id": 96, "name": "Ciudad del Carmen", "name_ru": "Ciudad del Carmen", "tz": "America/Merida", "district": "Campeche"}, {"id": 97, "name": "Comitan", "name_ru": "Comitán", "tz": "America/Mexico_City", "district": "Chiapas"}, {"id": 98, "name": "Lagos de Moreno", "name_ru": "Lagos de Moreno", "tz": "America/Mexico_City", "district": "Jalisco"}, {"id": 99, "name": "Chetumal", "name_ru": "Chetumal", "tz": "America/Cancun", "district": "Quintana Roo"}, {"id": 100, "name": "San Andres Tuxtla", "name_ru": "San Andrés Tuxtla", "tz": "America/Mexico_City", "district": "Veracruz"}, {"id": 101, "name": "Piedras Negras", "name_ru": "Piedras Negras", "tz": "America/Matamoros", "district": "Coahuila de Zaragoza"}, {"id": 102, "name": "Cuauhtemoc", "name_ru": "Cuauhtémoc", "tz": "America/Chihuahua", "district": "Chihuahua"}, {"id": 103, "name": "Jiutepec", "name_ru": "Jiutepec", "tz": "America/Mexico_City", "district": "Morelos"}, {"id": 104, "name": "Ciudad Acuna", "name_ru": "Ciudad Acuña", "tz": "America/Matamoros", "district": "Coahuila de Zaragoza"}, {"id": 105, "name": "San Martin Texmelucan de Labastida", "name_ru": "San Martin Texmelucan de Labastida", "tz": "America/Mexico_City", "district": "Puebla"}, {"id": 106, "name": "Tuxtepec", "name_ru": "Tuxtepec", "tz": "America/Mexico_City", "district": "Oaxaca"}, {"id": 107, "name": "Tulancingo", "name_ru": "Tulancingo", "tz": "America/Mexico_City", "district": "Hidalgo"}, {"id": 108, "name": "Papantla de Olarte", "name_ru": "Papantla de Olarte", "tz": "America/Mexico_City", "district": "Veracruz"}, {"id": 109, "name": "San Cristobal", "name_ru": "San Cristóbal", "tz": "America/Mexico_City", "district": "Chiapas"}, {"id": 110, "name": "Guaymas", "name_ru": "Guaymas", "tz": "America/Hermosillo", "district": "Sonora"}, {"id": 111, "name": "Colima", "name_ru": "Colima", "tz": "America/Mexico_City", "district": "Colima"}, {"id": 112, "name": "Kanasin", "name_ru": "Kanasín", "tz": "America/Merida", "district": "Yucatán"}, {"id": 113, "name": "Ixtlahuaca", "name_ru": "Ixtlahuaca", "tz": "America/Mexico_City", "district": "México"}, {"id": 114, "name": "Delicias", "name_ru": "Delicias", "tz": "America/Chihuahua", "district": "Chihuahua"}, {"id": 115, "name": "Valle de Santiago", "name_ru": "Valle de Santiago", "tz": "America/Mexico_City", "district": "Guanajuato"}, {"id": 116, "name": "Penjamo", "name_ru": "Pénjamo", "tz": "America/Mexico_City", "district": "Guanajuato"}, {"id": 117, "name": "Garcia", "name_ru": "García", "tz": "America/Monterrey", "district": "Nuevo León"}, {"id": 118, "name": "Cuautitlan Izcalli", "name_ru": "Cuautitlán Izcalli", "tz": "America/Mexico_City", "district": "México"}, {"id": 119, "name": "Tepatitlan de Morelos", "name_ru": "Tepatitlán de Morelos", "tz": "America/Mexico_City", "district": "Jalisco"}, {"id": 120, "name": "Iguala de la Independencia", "name_ru": "Iguala de la Independencia", "tz": "America/Mexico_City", "district": "Guerrero"}, {"id": 121, "name": "San Jose del Cabo", "name_ru": "San José del Cabo", "tz": "America/Mazatlan", "district": "Baja California Sur"}, {"id": 122, "name": "Tultepec", "name_ru": "Tultepec", "tz": "America/Mexico_City", "district": "México"}, {"id": 123, "name": "Apatzingan de la Constitucion", "name_ru": "Apatzingan de la Constitucion", "tz": "America/Mexico_City", "district": "Michoacán de Ocampo"}, {"id": 124, "name": "Cholula de Rivadabia", "name_ru": "Cholula de Rivadabia", "tz": "America/Mexico_City", "district": "Puebla"}, {"id": 125, "name": "Huejutla de Reyes", "name_ru": "Huejutla de Reyes", "tz": "America/Mexico_City", "district": "Hidalgo"}, {"id": 126, "name": "Miramar", "name_ru": "Miramar", "tz": "America/Monterrey", "district": "Tamaulipas"}, {"id": 127, "name": "Matamoros", "name_ru": "Matamoros", "tz": "America/Monterrey", "district": "Coahuila de Zaragoza"}, {"id": 128, "name": "Villa de Alvarez", "name_ru": "Villa de Álvarez", "tz": "America/Mexico_City", "district": "Colima"}, {"id": 129, "name": "San Pedro Garza Garcia", "name_ru": "San Pedro Garza García", "tz": "America/Monterrey", "district": "Nuevo León"}, {"id": 130, "name": "Zacatecas", "name_ru": "Zacatecas", "tz": "America/Mexico_City", "district": "Zacatecas"}, {"id": 131, "name": "Las Margaritas", "name_ru": "Las Margaritas", "tz": "America/Mexico_City", "district": "Chiapas"}, {"id": 132, "name": "Ciudad Hidalgo", "name_ru": "Ciudad Hidalgo", "tz": "America/Mexico_City", "district": "Michoacán de Ocampo"}, {"id": 133, "name": "Chilapa de Alvarez", "name_ru": "Chilapa de Álvarez", "tz": "America/Mexico_City", "district": "Guerrero"}, {"id": 134, "name": "Navojoa", "name_ru": "Navojoa", "tz": "America/Hermosillo", "district": "Sonora"}, {"id": 135, "name": "Tizayuca", "name_ru": "Tizayuca", "tz": "America/Mexico_City", "district": "Morelos"}, {"id": 136, "name": "Cuautitlan", "name_ru": "Cuautitlán", "tz": "America/Mexico_City", "district": "México"}, {"id": 137, "name": "Martinez de la Torre", "name_ru": "Martínez de la Torre", "tz": "America/Mexico_City", "district": "Veracruz"}, {"id": 138, "name": "Heroica Guaymas", "name_ru": "Heroica Guaymas", "tz": "America/Hermosillo", "district": "Sonora"}, {"id": 139, "name": "San Antonio Enchisi", "name_ru": "San Antonio Enchisi", "tz": "America/Mexico_City", "district": "México"}, {"id": 140, "name": "Las Delicias", "name_ru": "Las Delicias", "tz": "America/Chihuahua", "district": "Chihuahua"}, {"id": 141, "name": "Parral", "name_ru": "Parral", "tz": "America/Chihuahua", "district": "Chihuahua"}, {"id": 142, "name": "Manzanillo", "name_ru": "Manzanillo", "tz": "America/Mexico_City", "district": "Colima"}, {"id": 143, "name": "Tuxpam de Rodriguez Cano", "name_ru": "Túxpam de Rodríguez Cano", "tz": "America/Mexico_City", "district": "Veracruz"}, {"id": 144, "name": "Temoaya", "name_ru": "Temoaya", "tz": "America/Mexico_City", "district": "Morelos"}, {"id": 145, "name": "Ciudad Rio Bravo", "name_ru": "Ciudad Río Bravo", "tz": "America/Matamoros", "district": "Tamaulipas"}, {"id": 146, "name": "Playas de Rosarito", "name_ru": "Playas de Rosarito", "tz": "America/Tijuana", "district": "Baja California"}, {"id": 147, "name": "Texcoco", "name_ru": "Texcoco", "tz": "America/Mexico_City", "district": "México"}, {"id": 148, "name": "Ciudad Guzman", "name_ru": "Ciudad Guzmán", "tz": "America/Mexico_City", "district": "Jalisco"}, {"id": 149, "name": "Tantoyuca", "name_ru": "Tantoyuca", "tz": "America/Mexico_City", "district": "Veracruz"}, {"id": 150, "name": "Coatepec", "name_ru": "Coatepec", "tz": "America/Mexico_City", "district": "Veracruz"}, {"id": 151, "name": "San Luis de la Paz", "name_ru": "San Luis de la Paz", "tz": "America/Mexico_City", "district": "Guanajuato"}, {"id": 152, "name": "Tecoman", "name_ru": "Tecomán", "tz": "America/Mexico_City", "district": "Colima"}, {"id": 153, "name": "Ciudad Lazaro Cardenas", "name_ru": "Ciudad Lázaro Cárdenas", "tz": "America/Mexico_City", "district": "Michoacán de Ocampo"}, {"id": 154, "name": "Acayucan", "name_ru": "Acayucan", "tz": "America/Mexico_City", "district": "Veracruz"}, {"id": 155, "name": "Xicotepec de Juarez", "name_ru": "Xicotepec de Juárez", "tz": "America/Mexico_City", "district": "Puebla"}, {"id": 156, "name": "Tala", "name_ru": "Tala", "tz": "America/Mexico_City", "district": "Jalisco"}, {"id": 157, "name": "Apizaco", "name_ru": "Apizaco", "tz": "America/Mexico_City", "district": "Tlaxcala"}, {"id": 158, "name": "Salina Cruz", "name_ru": "Salina Cruz", "tz": "America/Mexico_City", "district": "Oaxaca"}, {"id": 159, "name": "Tacambaro de Codallos", "name_ru": "Tacámbaro de Codallos", "tz": "America/Mexico_City", "district": "Michoacán de Ocampo"}, {"id": 160, "name": "Ciudad Lerdo", "name_ru": "Ciudad Lerdo", "tz": "America/Monterrey", "district": "Durango"}, {"id": 161, "name": "Cozumel", "name_ru": "Cozumel", "tz": "America/Cancun", "district": "Quintana Roo"}, {"id": 162, "name": "Tecate", "name_ru": "Tecate", "tz": "America/Tijuana", "district": "Baja California"}, {"id": 163, "name": "Silao", "name_ru": "Silao", "tz": "America/Mexico_City", "district": "Guanajuato"}, {"id": 164, "name": "Juchitan de Zaragoza", "name_ru": "Juchitán de Zaragoza", "tz": "America/Mexico_City", "district": "Oaxaca"}, {"id": 165, "name": "Los Reyes de Salgado", "name_ru": "Los Reyes de Salgado", "tz": "America/Mexico_City", "district": "Michoacán de Ocampo"}, {"id": 166, "name": "Tejupilco", "name_ru": "Tejupilco", "tz": "America/Mexico_City", "district": "México"}, {"id": 167, "name": "Frontera", "name_ru": "Frontera", "tz": "America/Monterrey", "district": "Coahuila de Zaragoza"}, {"id": 168, "name": "Perote", "name_ru": "Perote", "tz": "America/Mexico_City", "district": "Veracruz"}, {"id": 169, "name": "San Miguel de Allende", "name_ru": "San Miguel de Allende", "tz": "America/Mexico_City", "district": "Guanajuato"}, {"id": 170, "name": "Tamazunchale", "name_ru": "Tamazunchale", "tz": "America/Mexico_City", "district": "San Luis Potosí"}, {"id": 171, "name": "Dolores Hidalgo Cuna de la Independencia Nacional", "name_ru": "Dolores Hidalgo Cuna de la Independencia Nacional", "tz": "America/Mexico_City", "district": "Guanajuato"}, {"id": 172, "name": "Ixtaczoquitlan", "name_ru": "Ixtaczoquitlán", "tz": "America/Mexico_City", "district": "Veracruz"}, {"id": 173, "name": "Rioverde", "name_ru": "Rioverde", "tz": "America/Mexico_City", "district": "San Luis Potosí"}, {"id": 174, "name": "Matehuala", "name_ru": "Matehuala", "tz": "America/Mexico_City", "district": "San Luis Potosí"}, {"id": 175, "name": "Cabo San Lucas", "name_ru": "Cabo San Lucas", "tz": "America/Mazatlan", "district": "Baja California Sur"}, {"id": 176, "name": "Misantla", "name_ru": "Misantla", "tz": "America/Mexico_City", "district": "Veracruz"}, {"id": 177, "name": "Ramos Arizpe", "name_ru": "Ramos Arizpe", "tz": "America/Monterrey", "district": "Coahuila de Zaragoza"}, {"id": 178, "name": "Valle Hermoso", "name_ru": "Valle Hermoso", "tz": "America/Matamoros", "district": "Tamaulipas"}, {"id": 179, "name": "Huatusco", "name_ru": "Huatusco", "tz": "America/Mexico_City", "district": "Veracruz"}, {"id": 180, "name": "Heroica Caborca", "name_ru": "Heroica Caborca", "tz": "America/Hermosillo", "district": "Sonora"}, {"id": 181, "name": "Cortazar", "name_ru": "Cortazar", "tz": "America/Mexico_City", "district": "Guanajuato"}, {"id": 182, "name": "Altamira", "name_ru": "Altamira", "tz": "America/Monterrey", "district": "Tamaulipas"}, {"id": 183, "name": "Guamuchil", "name_ru": "Guamúchil", "tz": "America/Mazatlan", "district": "Sinaloa"}, {"id": 184, "name": "Acambaro", "name_ru": "Acámbaro", "tz": "America/Mexico_City", "district": "Guanajuato"}, {"id": 185, "name": "Cosamaloapan", "name_ru": "Cosamaloapan", "tz": "America/Mexico_City", "district": "Veracruz"}, {"id": 186, "name": "Sabinas", "name_ru": "Sabinas", "tz": "America/Monterrey", "district": "Coahuila de Zaragoza"}, {"id": 187, "name": "Linares", "name_ru": "Linares", "tz": "America/Monterrey", "district": "Nuevo León"}, {"id": 188, "name": "Tezonapa", "name_ru": "Tezonapa", "tz": "America/Mexico_City", "district": "Veracruz"}, {"id": 189, "name": "Pinotepa", "name_ru": "Pinotepa", "tz": "America/Mexico_City", "district": "Oaxaca"}, {"id": 190, "name": "Zumpango", "name_ru": "Zumpango", "tz": "America/Mexico_City", "district": "México"}, {"id": 191, "name": "Huamantla", "name_ru": "Huamantla", "tz": "America/Mexico_City", "district": "Tlaxcala"}, {"id": 192, "name": "Nuevo Casas Grandes", "name_ru": "Nuevo Casas Grandes", "tz": "America/Chihuahua", "district": "Chihuahua"}, {"id": 193, "name": "Acatzingo", "name_ru": "Acatzingo", "tz": "America/Mexico_City", "district": "Puebla"}, {"id": 194, "name": "Colonia del Sol", "name_ru": "Colonia del Sol", "tz": "America/Mazatlan", "district": "Baja California Sur"}, {"id": 195, "name": "Chiapa de Corzo", "name_ru": "Chiapa de Corzo", "tz": "America/Mexico_City", "district": "Chiapas"}, {"id": 196, "name": "San Pedro", "name_ru": "San Pedro", "tz": "America/Monterrey", "district": "Coahuila de Zaragoza"}, {"id": 197, "name": "Francisco I. Madero", "name_ru": "Francisco I. Madero", "tz": "America/Monterrey", "district": "Coahuila de Zaragoza"}, {"id": 198, "name": "Ocosingo", "name_ru": "Ocosingo", "tz": "America/Mexico_City", "district": "Chiapas"}, {"id": 199, "name": "Buena Vista Tomatlan", "name_ru": "Buena Vista Tomatlán", "tz": "America/Mexico_City", "district": "Michoacán de Ocampo"}, {"id": 200, "name": "Valladolid", "name_ru": "Valladolid", "tz": "America/Merida", "district": "Yucatán"}, {"id": 201, "name": "Jimenez", "name_ru": "Jiménez", "tz": "America/Chihuahua", "district": "Chihuahua"}, {"id": 202, "name": "Loreto", "name_ru": "Loreto", "tz": "America/Mexico_City", "district": "Zacatecas"}, {"id": 203, "name": "Tizimin", "name_ru": "Tizimín", "tz": "America/Merida", "district": "Yucatán"}, {"id": 204, "name": "Tlapa de Comonfort", "name_ru": "Tlapa de Comonfort", "tz": "America/Mexico_City", "district": "Guerrero"}, {"id": 205, "name": "Cuetzalan", "name_ru": "Cuetzalan", "tz": "America/Mexico_City", "district": "Puebla"}, {"id": 206, "name": "Meoqui", "name_ru": "Meoqui", "tz": "America/Chihuahua", "district": "Chihuahua"}, {"id": 207, "name": "Tulum", "name_ru": "Tulum", "tz": "America/Cancun", "district": "Quintana Roo"}, {"id": 208, "name": "Villa de Zaachila", "name_ru": "Villa de Zaachila", "tz": "America/Mexico_City", "district": "Oaxaca"}, {"id": 209, "name": "Ciudad Constitucion", "name_ru": "Ciudad Constitución", "tz": "America/Mazatlan", "district": "Baja California Sur"}, {"id": 210, "name": "Santa Maria Atzompa", "name_ru": "Santa María Atzompa", "tz": "America/Mexico_City", "district": "Oaxaca"}, {"id": 211, "name": "Jaltipan de Morelos", "name_ru": "Jáltipan de Morelos", "tz": "America/Mexico_City", "district": "Veracruz"}, {"id": 212, "name": "Actopan", "name_ru": "Actopan", "tz": "America/Mexico_City", "district": "Veracruz"}, {"id": 213, "name": "Coyotepec", "name_ru": "Coyotepec", "tz": "America/Mexico_City", "district": "Morelos"}, {"id": 214, "name": "Teoloyucan", "name_ru": "Teoloyucan", "tz": "America/Mexico_City", "district": "México"}, {"id": 215, "name": "Salvatierra", "name_ru": "Salvatierra", "tz": "America/Mexico_City", "district": "Guanajuato"}, {"id": 216, "name": "Paracho de Verduzco", "name_ru": "Paracho de Verduzco", "tz": "America/Mexico_City", "district": "Michoacán de Ocampo"}, {"id": 217, "name": "Empalme", "name_ru": "Empalme", "tz": "America/Hermosillo", "district": "Sonora"}, {"id": 218, "name": "Nueva Rosita", "name_ru": "Nueva Rosita", "tz": "America/Monterrey", "district": "Coahuila de Zaragoza"}, {"id": 219, "name": "Playa Vicente", "name_ru": "Playa Vicente", "tz": "America/Mexico_City", "district": "Veracruz"}, {"id": 220, "name": "Uman", "name_ru": "Uman", "tz": "America/Merida", "district": "Yucatán"}, {"id": 221, "name": "Juan Rodriguez Clara", "name_ru": "Juan Rodríguez Clara", "tz": "America/Mexico_City", "district": "Veracruz"}, {"id": 222, "name": "Ciudad Melchor Muzquiz", "name_ru": "Ciudad Melchor Múzquiz", "tz": "America/Monterrey", "district": "Coahuila de Zaragoza"}, {"id": 223, "name": "Tonala", "name_ru": "Tonalá", "tz": "America/Mexico_City", "district": "Chiapas"}, {"id": 224, "name": "Temascal", "name_ru": "Temascal", "tz": "America/Mexico_City", "district": "Oaxaca"}, {"id": 225, "name": "Xico", "name_ru": "Xico", "tz": "America/Mexico_City", "district": "Veracruz"}, {"id": 226, "name": "Zacatelco", "name_ru": "Zacatelco", "tz": "America/Mexico_City", "district": "Tlaxcala"}, {"id": 227, "name": "Sayula de Aleman", "name_ru": "Sayula de Alemán", "tz": "America/Mexico_City", "district": "Veracruz"}, {"id": 228, "name": "Ameca", "name_ru": "Ameca", "tz": "America/Mexico_City", "district": "Jalisco"}, {"id": 229, "name": "Zacatlan", "name_ru": "Zacatlán", "tz": "America/Mexico_City", "district": "Puebla"}, {"id": 230, "name": "Cananea", "name_ru": "Cananea", "tz": "America/Hermosillo", "district": "Sonora"}, {"id": 231, "name": "Mariano Escobedo", "name_ru": "Mariano Escobedo", "tz": "America/Mexico_City", "district": "Veracruz"}, {"id": 232, "name": "Nueva Italia de Ruiz", "name_ru": "Nueva Italia de Ruiz", "tz": "America/Mexico_City", "district": "Michoacán de Ocampo"}, {"id": 233, "name": "Miahuatlan de Porfirio Diaz", "name_ru": "Miahuatlán de Porfirio Díaz", "tz": "America/Mexico_City", "district": "Oaxaca"}, {"id": 234, "name": "Panuco", "name_ru": "Pánuco", "tz": "America/Mexico_City", "district": "Veracruz"}, {"id": 235, "name": "Zinacantan", "name_ru": "Zinacantán", "tz": "America/Mexico_City", "district": "Chiapas"}, {"id": 236, "name": "Tomatlan", "name_ru": "Tomatlán", "tz": "America/Mexico_City", "district": "Jalisco"}, {"id": 237, "name": "Escuinapa", "name_ru": "Escuinapa", "tz": "America/Mazatlan", "district": "Sinaloa"}, {"id": 238, "name": "Tenosique", "name_ru": "Tenosique", "tz": "America/Mexico_City", "district": "Tabasco"}, {"id": 239, "name": "La Huacana", "name_ru": "La Huacana", "tz": "America/Mexico_City", "district": "Michoacán de Ocampo"}, {"id": 240, "name": "Reforma", "name_ru": "Reforma", "tz": "America/Mexico_City", "district": "Chiapas"}, {"id": 241, "name": "Villagran", "name_ru": "Villagrán", "tz": "America/Mexico_City", "district": "Guanajuato"}, {"id": 242, "name": "Soteapan", "name_ru": "Soteapan", "tz": "America/Mexico_City", "district": "Veracruz"}, {"id": 243, "name": "Nanchital de Lazaro Cardenas del Rio", "name_ru": "Nanchital de Lázaro Cárdenas del Río", "tz": "America/Mexico_City", "district": "Veracruz"}, {"id": 244, "name": "Abasolo", "name_ru": "Abasolo", "tz": "America/Mexico_City", "district": "Guanajuato"}, {"id": 245, "name": "Putla Villa de Guerrero", "name_ru": "Putla Villa de Guerrero", "tz": "America/Mexico_City", "district": "Oaxaca"}, {"id": 246, "name": "Ometepec", "name_ru": "Ometepec", "tz": "America/Mexico_City", "district": "Guerrero"}, {"id": 247, "name": "Ticul", "name_ru": "Ticul", "tz": "America/Merida", "district": "Yucatán"}, {"id": 248, "name": "Parras de la Fuente", "name_ru": "Parras de la Fuente", "tz": "America/Monterrey", "district": "Coahuila de Zaragoza"}, {"id": 249, "name": "Paso del Macho", "name_ru": "Paso del Macho", "tz": "America/Mexico_City", "district": "Veracruz"}, {"id": 250, "name": "Paso de Ovejas", "name_ru": "Paso de Ovejas", "tz": "America/Mexico_City", "district": "Veracruz"}, {"id": 251, "name": "Zapotiltic", "name_ru": "Zapotiltic", "tz": "America/Mexico_City", "district": "Jalisco"}, {"id": 252, "name": "Calpulalpan", "name_ru": "Calpulalpan", "tz": "America/Mexico_City", "district": "Hidalgo"}, {"id": 253, "name": "Tancitaro", "name_ru": "Tancítaro", "tz": "America/Mexico_City", "district": "Michoacán de Ocampo"}, {"id": 254, "name": "San Juan Evangelista", "name_ru": "San Juan Evangelista", "tz": "America/Mexico_City", "district": "Veracruz"}, {"id": 255, "name": "Amecameca de Juarez", "name_ru": "Amecameca de Juárez", "tz": "America/Mexico_City", "district": "México"}, {"id": 256, "name": "Pabellon de Arteaga", "name_ru": "Pabellón de Arteaga", "tz": "America/Mexico_City", "district": "Aguascalientes"}, {"id": 257, "name": "Catemaco", "name_ru": "Catemaco", "tz": "America/Mexico_City", "district": "Veracruz"}, {"id": 258, "name": "San Salvador El Seco", "name_ru": "San Salvador El Seco", "tz": "America/Mexico_City", "district": "Puebla"}, {"id": 259, "name": "Magdalena de Kino", "name_ru": "Magdalena de Kino", "tz": "America/Hermosillo", "district": "Sonora"}, {"id": 260, "name": "Ciudad Sabinas Hidalgo", "name_ru": "Ciudad Sabinas Hidalgo", "tz": "America/Monterrey", "district": "Nuevo León"}, {"id": 261, "name": "Escarcega", "name_ru": "Escárcega", "tz": "America/Merida", "district": "Campeche"}, {"id": 262, "name": "Huatabampo", "name_ru": "Huatabampo", "tz": "America/Hermosillo", "district": "Sonora"}, {"id": 263, "name": "Zumpango del Rio", "name_ru": "Zumpango del Río", "tz": "America/Mexico_City", "district": "Guerrero"}, {"id": 264, "name": "Ciudad Sahagun", "name_ru": "Ciudad Sahagun", "tz": "America/Mexico_City", "district": "Hidalgo"}, {"id": 265, "name": "Soledad de Doblado", "name_ru": "Soledad de Doblado", "tz": "America/Mexico_City", "district": "Veracruz"}, {"id": 266, "name": "El Salto", "name_ru": "El Salto", "tz": "America/Monterrey", "district": "Durango"}, {"id": 267, "name": "Actopan", "name_ru": "Actopan", "tz": "America/Mexico_City", "district": "Hidalgo"}, {"id": 268, "name": "Contla", "name_ru": "Contla", "tz": "America/Mexico_City", "district": "Tlaxcala"}, {"id": 269, "name": "Champoton", "name_ru": "Champotón", "tz": "America/Merida", "district": "Campeche"}, {"id": 270, "name": "San Fernando", "name_ru": "San Fernando", "tz": "America/Monterrey", "district": "Tamaulipas"}, {"id": 271, "name": "Castanos", "name_ru": "Castaños", "tz": "America/Monterrey", "district": "Coahuila de Zaragoza"}, {"id": 272, "name": "Tuxpan", "name_ru": "Tuxpan", "tz": "America/Mexico_City", "district": "Michoacán de Ocampo"}, {"id": 273, "name": "Ixhuatlancillo", "name_ru": "Ixhuatlancillo", "tz": "America/Mexico_City", "district": "Veracruz"}, {"id": 274, "name": "Jamay", "name_ru": "Jamay", "tz": "America/Mexico_City", "district": "Jalisco"}, {"id": 275, "name": "Tuxpan", "name_ru": "Tuxpan", "tz": "America/Mazatlan", "district": "Nayarit"}, {"id": 276, "name": "Puerto Escondido", "name_ru": "Puerto Escondido", "tz": "America/Mexico_City", "district": "Oaxaca"}, {"id": 277, "name": "Tecax", "name_ru": "Tecax", "tz": "America/Merida", "district": "Yucatán"}, {"id": 278, "name": "Frontera", "name_ru": "Frontera", "tz": "America/Mexico_City", "district": "Tabasco"}, {"id": 279, "name": "Los Reyes de Juarez", "name_ru": "Los Reyes de Juárez", "tz": "America/Mexico_City", "district": "Puebla"}, {"id": 280, "name": "Nogales", "name_ru": "Nogales", "tz": "America/Mexico_City", "district": "Veracruz"}, {"id": 281, "name": "Miahuatlan", "name_ru": "Miahuatlán", "tz": "America/Mexico_City", "district": "Puebla"}, {"id": 282, "name": "Paracuaro", "name_ru": "Paracuaro", "tz": "America/Mexico_City", "district": "Michoacán de Ocampo"}, {"id": 283, "name": "Rafael Delgado", "name_ru": "Rafael Delgado", "tz": "America/Mexico_City", "district": "Veracruz"}, {"id": 284, "name": "Hunucma", "name_ru": "Hunucmá", "tz": "America/Merida", "district": "Yucatán"}, {"id": 285, "name": "Altepexi", "name_ru": "Altepexi", "tz": "America/Mexico_City", "district": "Puebla"}, {"id": 286, "name": "Tixtla de Guerrero", "name_ru": "Tixtla de Guerrero", "tz": "America/Mexico_City", "district": "Guerrero"}, {"id": 287, "name": "Ocatlan", "name_ru": "Ocatlán", "tz": "America/Mexico_City", "district": "Tlaxcala"}, {"id": 288, "name": "Cheran", "name_ru": "Cherán", "tz": "America/Mexico_City", "district": "Michoacán de Ocampo"}, {"id": 289, "name": "Sombrerete", "name_ru": "Sombrerete", "tz": "America/Mexico_City", "district": "Zacatecas"}, {"id": 290, "name": "Chapala", "name_ru": "Chapala", "tz": "America/Mexico_City", "district": "Jalisco"}, {"id": 291, "name": "Ciudad Altamirano", "name_ru": "Ciudad Altamirano", "tz": "America/Mexico_City", "district": "Guerrero"}, {"id": 292, "name": "Cerro Azul", "name_ru": "Cerro Azul", "tz": "America/Mexico_City", "district": "Veracruz"}, {"id": 293, "name": "San Juan Zitlaltepec", "name_ru": "San Juan Zitlaltepec", "tz": "America/Mexico_City", "district": "Morelos"}, {"id": 294, "name": "San Buenaventura", "name_ru": "San Buenaventura", "tz": "America/Monterrey", "district": "Coahuila de Zaragoza"}, {"id": 295, "name": "Carlos A. Carrillo", "name_ru": "Carlos A. Carrillo", "tz": "America/Mexico_City", "district": "Veracruz"}, {"id": 296, "name": "Texistepec", "name_ru": "Texistepec", "tz": "America/Mexico_City", "district": "Veracruz"}, {"id": 297, "name": "Cazones de Herrera", "name_ru": "Cazones de Herrera", "tz": "America/Mexico_City", "district": "Veracruz"}, {"id": 298, "name": "Heroica Ciudad de Tlaxiaco", "name_ru": "Heroica Ciudad de Tlaxiaco", "tz": "America/Mexico_City", "district": "Oaxaca"}, {"id": 299, "name": "Oxkutzkab", "name_ru": "Oxkutzkab", "tz": "America/Merida", "district": "Yucatán"}, {"id": 300, "name": "Motul", "name_ru": "Motul", "tz": "America/Merida", "district": "Yucatán"}, {"id": 301, "name": "Atoyac de Alvarez", "name_ru": "Atoyac de Álvarez", "tz": "America/Mexico_City", "district": "Guerrero"}, {"id": 302, "name": "Santiago Ixcuintla", "name_ru": "Santiago Ixcuintla", "tz": "America/Mazatlan", "district": "Nayarit"}, {"id": 303, "name": "Chocaman", "name_ru": "Chocamán", "tz": "America/Mexico_City", "district": "Veracruz"}, {"id": 304, "name": "Chiconcuac", "name_ru": "Chiconcuac", "tz": "America/Mexico_City", "district": "México"}, {"id": 305, "name": "Tlacolula de Matamoros", "name_ru": "Tlacolula de Matamoros", "tz": "America/Mexico_City", "district": "Oaxaca"}, {"id": 306, "name": "Ojinaga", "name_ru": "Ojinaga", "tz": "America/Ojinaga", "district": "Chihuahua"}, {"id": 307, "name": "Coquimatlan", "name_ru": "Coquimatlán", "tz": "America/Mexico_City", "district": "Colima"}, {"id": 308, "name": "Degollado", "name_ru": "Degollado", "tz": "America/Mexico_City", "district": "Jalisco"}, {"id": 309, "name": "Valle Nacional", "name_ru": "Valle Nacional", "tz": "America/Mexico_City", "district": "Oaxaca"}, {"id": 310, "name": "Cotija de la Paz", "name_ru": "Cotija de la Paz", "tz": "America/Mexico_City", "district": "México"}, {"id": 311, "name": "Fortin de las Flores", "name_ru": "Fortín de las Flores", "tz": "America/Mexico_City", "district": "Veracruz"}, {"id": 312, "name": "Allende", "name_ru": "Allende", "tz": "America/Matamoros", "district": "Coahuila de Zaragoza"}, {"id": 313, "name": "Mecayapan", "name_ru": "Mecayapan", "tz": "America/Mexico_City", "district": "Veracruz"}, {"id": 314, "name": "Peto", "name_ru": "Peto", "tz": "America/Merida", "district": "Yucatán"}, {"id": 315, "name": "Ciudad Miguel Aleman", "name_ru": "Ciudad Miguel Alemán", "tz": "America/Matamoros", "district": "Tamaulipas"}, {"id": 316, "name": "Hidalgotitlan", "name_ru": "Hidalgotitlán", "tz": "America/Mexico_City", "district": "Veracruz"}, {"id": 317, "name": "Zimatlan de Alvarez", "name_ru": "Zimatlán de Álvarez", "tz": "America/Mexico_City", "district": "Oaxaca"}, {"id": 318, "name": "Tepatlaxco", "name_ru": "Tepatlaxco", "tz": "America/Mexico_City", "district": "Puebla"}, {"id": 319, "name": "Jose Cardel", "name_ru": "José Cardel", "tz": "America/Mexico_City", "district": "Veracruz"}, {"id": 320, "name": "Mapastepec", "name_ru": "Mapastepec", "tz": "America/Mexico_City", "district": "Chiapas"}, {"id": 321, "name": "Aldama", "name_ru": "Aldama", "tz": "America/Chihuahua", "district": "Chihuahua"}, {"id": 322, "name": "Palau", "name_ru": "Palau", "tz": "America/Monterrey", "district": "Coahuila de Zaragoza"}, {"id": 323, "name": "Tatahuicapan", "name_ru": "Tatahuicapan", "tz": "America/Mexico_City", "district": "Veracruz"}, {"id": 324, "name": "Ayutla de los Libres", "name_ru": "Ayutla de los Libres", "tz": "America/Mexico_City", "district": "Guerrero"}, {"id": 325, "name": "Acala", "name_ru": "Acala", "tz": "America/Mexico_City", "district": "Chiapas"}, {"id": 326, "name": "Coalcoman de Vazquez Pallares", "name_ru": "Coalcomán de Vázquez Pallares", "tz": "America/Mexico_City", "district": "Michoacán de Ocampo"}, {"id": 327, "name": "Acatlan de Osorio", "name_ru": "Acatlán de Osorio", "tz": "America/Mexico_City", "district": "Puebla"}, {"id": 328, "name": "Chemax", "name_ru": "Chemax", "tz": "America/Merida", "district": "Yucatán"}, {"id": 329, "name": "Senguio", "name_ru": "Senguio", "tz": "America/Mexico_City", "district": "Michoacán de Ocampo"}, {"id": 330, "name": "Tecpan de Galeana", "name_ru": "Técpan de Galeana", "tz": "America/Mexico_City", "district": "Guerrero"}, {"id": 331, "name": "Pajapan", "name_ru": "Pajapan", "tz": "America/Mexico_City", "district": "Veracruz"}, {"id": 332, "name": "El Rosario", "name_ru": "El Rosario", "tz": "America/Mazatlan", "district": "Sinaloa"}, {"id": 333, "name": "El Dorado", "name_ru": "El Dorado", "tz": "America/Mazatlan", "district": "Sinaloa"}, {"id": 334, "name": "Tecuala", "name_ru": "Tecuala", "tz": "America/Mazatlan", "district": "Nayarit"}, {"id": 335, "name": "Rodolfo Sanchez Taboada", "name_ru": "Rodolfo Sánchez Taboada", "tz": "America/Tijuana", "district": "Baja California"}, {"id": 336, "name": "Ciudad de Huitzuco", "name_ru": "Ciudad de Huitzuco", "tz": "America/Mexico_City", "district": "Guerrero"}, {"id": 337, "name": "Tepoztlan", "name_ru": "Tepoztlán", "tz": "America/Mexico_City", "district": "Morelos"}, {"id": 338, "name": "Tlaxcala", "name_ru": "Tlaxcala", "tz": "America/Mexico_City", "district": "Tlaxcala"}, {"id": 339, "name": "Santiago Tulantepec", "name_ru": "Santiago Tulantepec", "tz": "America/Mexico_City", "district": "Hidalgo"}, {"id": 340, "name": "Ciudad Guadalupe Victoria", "name_ru": "Ciudad Guadalupe Victoria", "tz": "America/Monterrey", "district": "Durango"}, {"id": 341, "name": "Ciudad Hidalgo", "name_ru": "Ciudad Hidalgo", "tz": "America/Mexico_City", "district": "Chiapas"}, {"id": 342, "name": "Cardenas", "name_ru": "Cárdenas", "tz": "America/Mexico_City", "district": "San Luis Potosí"}, {"id": 343, "name": "Izamal", "name_ru": "Izamal", "tz": "America/Merida", "district": "Yucatán"}, {"id": 344, "name": "La Crucecita", "name_ru": "La Crucecita", "tz": "America/Mexico_City", "district": "Oaxaca"}, {"id": 345, "name": "La Cruz", "name_ru": "La Cruz", "tz": "America/Mazatlan", "district": "Sinaloa"}, {"id": 346, "name": "Grajales", "name_ru": "Grajales", "tz": "America/Mexico_City", "district": "Puebla"}, {"id": 347, "name": "Tlaltetela", "name_ru": "Tlaltetela", "tz": "America/Mexico_City", "district": "Veracruz"}, {"id": 348, "name": "Loreto", "name_ru": "Loreto", "tz": "America/Mazatlan", "district": "Baja California Sur"}, {"id": 349, "name": "Oteapan", "name_ru": "Oteapan", "tz": "America/Mexico_City", "district": "Veracruz"}, {"id": 350, "name": "Pureparo de Echaiz", "name_ru": "Puréparo de Echaíz", "tz": "America/Mexico_City", "district": "Michoacán de Ocampo"}, {"id": 351, "name": "Huixcolotla", "name_ru": "Huixcolotla", "tz": "America/Mexico_City", "district": "Puebla"}, {"id": 352, "name": "Vicente Guerrero", "name_ru": "Vicente Guerrero", "tz": "America/Monterrey", "district": "Durango"}, {"id": 353, "name": "Cerritos", "name_ru": "Cerritos", "tz": "America/Mexico_City", "district": "San Luis Potosí"}, {"id": 354, "name": "Juchique de Ferrer", "name_ru": "Juchique de Ferrer", "tz": "America/Mexico_City", "district": "Veracruz"}, {"id": 355, "name": "Santa Catarina Juquila", "name_ru": "Santa Catarina Juquila", "tz": "America/Mexico_City", "district": "Oaxaca"}, {"id": 356, "name": "Santa Rosalia", "name_ru": "Santa Rosalía", "tz": "America/Mazatlan", "district": "Baja California Sur"}, {"id": 357, "name": "Erongaricuaro", "name_ru": "Erongarícuaro", "tz": "America/Mexico_City", "district": "Michoacán de Ocampo"}, {"id": 358, "name": "Madera", "name_ru": "Madera", "tz": "America/Chihuahua", "district": "Chihuahua"}, {"id": 359, "name": "San Pablo Atlazalpan", "name_ru": "San Pablo Atlazalpan", "tz": "America/Mexico_City", "district": "México"}, {"id": 360, "name": "Huitzilan", "name_ru": "Huitzilan", "tz": "America/Mexico_City", "district": "Puebla"}, {"id": 361, "name": "Villa Union", "name_ru": "Villa Unión", "tz": "America/Mazatlan", "district": "Sinaloa"}, {"id": 362, "name": "Valparaiso", "name_ru": "Valparaíso", "tz": "America/Mexico_City", "district": "Zacatecas"}, {"id": 363, "name": "Juan Aldama", "name_ru": "Juan Aldama", "tz": "America/Mexico_City", "district": "Zacatecas"}, {"id": 364, "name": "Balancan", "name_ru": "Balancán", "tz": "America/Mexico_City", "district": "Tabasco"}, {"id": 365, "name": "Ezequiel Montes", "name_ru": "Ezequiel Montes", "tz": "America/Mexico_City", "district": "Querétaro"}, {"id": 366, "name": "Guachochi", "name_ru": "Guachochi", "tz": "America/Chihuahua", "district": "Chihuahua"}, {"id": 367, "name": "Miahuatlan", "name_ru": "Miahuatlán", "tz": "America/Mexico_City", "district": "Puebla"}, {"id": 368, "name": "Guerrero Negro", "name_ru": "Guerrero Negro", "tz": "America/Mazatlan", "district": "Baja California"}, {"id": 369, "name": "San Nicolas de los Ranchos", "name_ru": "San Nicolás de los Ranchos", "tz": "America/Mexico_City", "district": "Puebla"}, {"id": 370, "name": "Calkini", "name_ru": "Calkiní", "tz": "America/Merida", "district": "Campeche"}, {"id": 371, "name": "Vicente Guerrero", "name_ru": "Vicente Guerrero", "tz": "America/Tijuana", "district": "Baja California"}, {"id": 372, "name": "Tempoal de Sanchez", "name_ru": "Tempoal de Sánchez", "tz": "America/Mexico_City", "district": "Veracruz"}, {"id": 373, "name": "Nacozari de Garcia", "name_ru": "Nacozari de García", "tz": "America/Hermosillo", "district": "Sonora"}, {"id": 374, "name": "El Parral", "name_ru": "El Parral", "tz": "America/Mexico_City", "district": "Chiapas"}, {"id": 375, "name": "Mexicaltzingo", "name_ru": "Mexicaltzingo", "tz": "America/Mexico_City", "district": "México"}, {"id": 376, "name": "Santa Cruz Amilpas", "name_ru": "Santa Cruz Amilpas", "tz": "America/Mexico_City", "district": "Oaxaca"}, {"id": 377, "name": "San Miguel Xoxtla", "name_ru": "San Miguel Xoxtla", "tz": "America/Mexico_City", "district": "Puebla"}, {"id": 378, "name": "Anenecuilco", "name_ru": "Anenecuilco", "tz": "America/Mexico_City", "district": "Morelos"}, {"id": 379, "name": "Aldama", "name_ru": "Aldama", "tz": "America/Monterrey", "district": "Tamaulipas"}, {"id": 380, "name": "Ascension", "name_ru": "Ascensión", "tz": "America/Ciudad_Juarez", "district": "Chihuahua"}, {"id": 381, "name": "Angel R. Cabada", "name_ru": "Ángel R. Cabada", "tz": "America/Mexico_City", "district": "Veracruz"}, {"id": 382, "name": "Villa Corzo", "name_ru": "Villa Corzo", "tz": "America/Mexico_City", "district": "Chiapas"}, {"id": 383, "name": "Isla Mujeres", "name_ru": "Isla Mujeres", "tz": "America/Cancun", "district": "Quintana Roo"}, {"id": 384, "name": "Villa Juarez", "name_ru": "Villa Juárez", "tz": "America/Hermosillo", "district": "Sonora"}, {"id": 385, "name": "Jaltenango", "name_ru": "Jaltenango", "tz": "America/Mexico_City", "district": "Chiapas"}, {"id": 386, "name": "Nuevo Ideal", "name_ru": "Nuevo Ideal", "tz": "America/Monterrey", "district": "Durango"}, {"id": 387, "name": "San Patricio", "name_ru": "San Patricio", "tz": "America/Mexico_City", "district": "Jalisco"}, {"id": 388, "name": "San Isidro Buen Suceso", "name_ru": "San Isidro Buen Suceso", "tz": "America/Mexico_City", "district": "Tlaxcala"}, {"id": 389, "name": "Saucillo", "name_ru": "Saucillo", "tz": "America/Chihuahua", "district": "Chihuahua"}, {"id": 390, "name": "Santa Maria Jalapa del Marques", "name_ru": "Santa María Jalapa del Marqués", "tz": "America/Mexico_City", "district": "Oaxaca"}, {"id": 391, "name": "La Magdalena Chichicaspa", "name_ru": "La Magdalena Chichicaspa", "tz": "America/Mexico_City", "district": "México"}, {"id": 392, "name": "Rayon", "name_ru": "Rayón", "tz": "America/Mexico_City", "district": "México"}, {"id": 393, "name": "El Fuerte", "name_ru": "El Fuerte", "tz": "America/Mazatlan", "district": "Sinaloa"}, {"id": 394, "name": "Cadereyta", "name_ru": "Cadereyta", "tz": "America/Mexico_City", "district": "Querétaro"}, {"id": 395, "name": "Santa Maria Huazolotitlan", "name_ru": "Santa María Huazolotitlán", "tz": "America/Mexico_City", "district": "Oaxaca"}, {"id": 396, "name": "Santa Ana", "name_ru": "Santa Ana", "tz": "America/Hermosillo", "district": "Sonora"}, {"id": 397, "name": "Las Veredas", "name_ru": "Las Veredas", "tz": "America/Mazatlan", "district": "Baja California Sur"}, {"id": 398, "name": "Escuintla", "name_ru": "Escuintla", "tz": "America/Mexico_City", "district": "Chiapas"}, {"id": 399, "name": "Dzitbalche", "name_ru": "Dzitbalché", "tz": "America/Merida", "district": "Campeche"}, {"id": 400, "name": "San Pedro Jicayan", "name_ru": "San Pedro Jicayán", "tz": "America/Mexico_City", "district": "Oaxaca"}, {"id": 401, "name": "Altamirano", "name_ru": "Altamirano", "tz": "America/Mexico_City", "district": "Chiapas"}, {"id": 402, "name": "Chiautla de Tapia", "name_ru": "Chiautla de Tapia", "tz": "America/Mexico_City", "district": "Puebla"}, {"id": 403, "name": "Tierra Colorada", "name_ru": "Tierra Colorada", "tz": "America/Mexico_City", "district": "Guerrero"}, {"id": 404, "name": "Villa Union", "name_ru": "Villa Unión", "tz": "America/Monterrey", "district": "Durango"}, {"id": 405, "name": "Sonoita", "name_ru": "Sonoita", "tz": "America/Hermosillo", "district": "Sonora"}, {"id": 406, "name": "Progreso", "name_ru": "Progreso", "tz": "America/Tijuana", "district": "Baja California"}, {"id": 407, "name": "Maxcanu", "name_ru": "Maxcanú", "tz": "America/Merida", "district": "Yucatán"}, {"id": 408, "name": "Coacoatzintla", "name_ru": "Coacoatzintla", "tz": "America/Mexico_City", "district": "Veracruz"}, {"id": 409, "name": "Muna", "name_ru": "Muna", "tz": "America/Merida", "district": "Yucatán"}, {"id": 410, "name": "Cuencame de Ceniceros", "name_ru": "Cuencamé de Ceniceros", "tz": "America/Monterrey", "district": "Durango"}, {"id": 411, "name": "Lerma", "name_ru": "Lerma", "tz": "America/Merida", "district": "Campeche"}, {"id": 412, "name": "Canatlan", "name_ru": "Canatlán", "tz": "America/Monterrey", "district": "Durango"}, {"id": 413, "name": "San Pedro Ixcatlan", "name_ru": "San Pedro Ixcatlán", "tz": "America/Mexico_City", "district": "Oaxaca"}, {"id": 414, "name": "San Jose el Viejo", "name_ru": "San José el Viejo", "tz": "America/Mazatlan", "district": "Baja California Sur"}, {"id": 415, "name": "Etchojoa", "name_ru": "Etchojoa", "tz": "America/Hermosillo", "district": "Sonora"}, {"id": 416, "name": "Gonzalez", "name_ru": "González", "tz": "America/Monterrey", "district": "Tamaulipas"}, {"id": 417, "name": "Villanueva", "name_ru": "Villanueva", "tz": "America/Mexico_City", "district": "Zacatecas"}, {"id": 418, "name": "Akil", "name_ru": "Akil", "tz": "America/Merida", "district": "Yucatán"}, {"id": 419, "name": "San Luis de La Loma", "name_ru": "San Luis de La Loma", "tz": "America/Mexico_City", "district": "Guerrero"}, {"id": 420, "name": "Chichihualco", "name_ru": "Chichihualco", "tz": "America/Mexico_City", "district": "Guerrero"}, {"id": 421, "name": "Tetela del Volcan", "name_ru": "Tetela del Volcán", "tz": "America/Mexico_City", "district": "Morelos"}, {"id": 422, "name": "Platon Sanchez", "name_ru": "Platón Sánchez", "tz": "America/Mexico_City", "district": "Veracruz"}, {"id": 423, "name": "Tixkokob", "name_ru": "Tixkokob", "tz": "America/Merida", "district": "Yucatán"}, {"id": 424, "name": "Acanceh", "name_ru": "Acanceh", "tz": "America/Merida", "district": "Yucatán"}, {"id": 425, "name": "Pajacuaran", "name_ru": "Pajacuarán", "tz": "America/Mexico_City", "district": "Michoacán de Ocampo"}, {"id": 426, "name": "Tacotalpa", "name_ru": "Tacotalpa", "tz": "America/Mexico_City", "district": "Tabasco"}, {"id": 427, "name": "San Ignacio Cohuirimpo", "name_ru": "San Ignacio Cohuirimpo", "tz": "America/Hermosillo", "district": "Sonora"}, {"id": 428, "name": "Cuatro Cienegas de Carranza", "name_ru": "Cuatro Ciénegas de Carranza", "tz": "America/Monterrey", "district": "Coahuila de Zaragoza"}, {"id": 429, "name": "San Juanito", "name_ru": "San Juanito", "tz": "America/Chihuahua", "district": "Chihuahua"}, {"id": 430, "name": "Candelaria", "name_ru": "Candelaria", "tz": "America/Merida", "district": "Campeche"}, {"id": 431, "name": "Tlahualilo de Zaragoza", "name_ru": "Tlahualilo de Zaragoza", "tz": "America/Monterrey", "district": "Durango"}, {"id": 432, "name": "Cuapiaxtla de Madero", "name_ru": "Cuapiaxtla de Madero", "tz": "America/Mexico_City", "district": "Puebla"}, {"id": 433, "name": "Ciudad Tula", "name_ru": "Ciudad Tula", "tz": "America/Monterrey", "district": "Tamaulipas"}, {"id": 434, "name": "San Ignacio Rio Muerto", "name_ru": "San Ignacio Río Muerto", "tz": "America/Hermosillo", "district": "Sonora"}, {"id": 435, "name": "Tlalixtac de Cabrera", "name_ru": "Tlalixtac de Cabrera", "tz": "America/Mexico_City", "district": "Oaxaca"}, {"id": 436, "name": "Teotlaltzingo", "name_ru": "Teotlaltzingo", "tz": "America/Mexico_City", "district": "Puebla"}, {"id": 437, "name": "San Gregorio Atzompa", "name_ru": "San Gregorio Atzompa", "tz": "America/Mexico_City", "district": "Puebla"}, {"id": 438, "name": "Anahuac", "name_ru": "Anáhuac", "tz": "America/Chihuahua", "district": "Chihuahua"}, {"id": 439, "name": "Celestun", "name_ru": "Celestún", "tz": "America/Merida", "district": "Yucatán"}, {"id": 440, "name": "Amatlan de los Reyes", "name_ru": "Amatlán de los Reyes", "tz": "America/Mexico_City", "district": "Veracruz"}, {"id": 441, "name": "Xicotencatl", "name_ru": "Xicoténcatl", "tz": "America/Monterrey", "district": "Tamaulipas"}, {"id": 442, "name": "Rafael Lucio", "name_ru": "Rafael Lucio", "tz": "America/Mexico_City", "district": "Veracruz"}, {"id": 443, "name": "Tekit", "name_ru": "Tekit", "tz": "America/Merida", "district": "Yucatán"}, {"id": 444, "name": "Choix", "name_ru": "Choix", "tz": "America/Mazatlan", "district": "Sinaloa"}, {"id": 445, "name": "Tzucacab", "name_ru": "Tzucacab", "tz": "America/Merida", "district": "Yucatán"}, {"id": 446, "name": "Coahuitlan", "name_ru": "Coahuitlán", "tz": "America/Mexico_City", "district": "Veracruz"}, {"id": 447, "name": "Tlacotalpan", "name_ru": "Tlacotalpan", "tz": "America/Mexico_City", "district": "Veracruz"}, {"id": 448, "name": "Higuera de Zaragoza", "name_ru": "Higuera de Zaragoza", "tz": "America/Mazatlan", "district": "Sinaloa"}, {"id": 449, "name": "Cuauhtemoc", "name_ru": "Cuauhtémoc", "tz": "America/Mexico_City", "district": "Colima"}, {"id": 450, "name": "La Junta", "name_ru": "La Junta", "tz": "America/Chihuahua", "district": "Chihuahua"}, {"id": 451, "name": "Concordia", "name_ru": "Concordia", "tz": "America/Mazatlan", "district": "Sinaloa"}, {"id": 452, "name": "Halacho", "name_ru": "Halachó", "tz": "America/Merida", "district": "Yucatán"}, {"id": 453, "name": "Acacoyagua", "name_ru": "Acacoyagua", "tz": "America/Mexico_City", "district": "Chiapas"}, {"id": 454, "name": "San Diego de la Union", "name_ru": "San Diego de la Unión", "tz": "America/Mexico_City", "district": "Guanajuato"}, {"id": 455, "name": "San Juan Ixcaquixtla", "name_ru": "San Juan Ixcaquixtla", "tz": "America/Mexico_City", "district": "Puebla"}, {"id": 456, "name": "Ciudad Ayala", "name_ru": "Ciudad Ayala", "tz": "America/Mexico_City", "district": "Morelos"}, {"id": 457, "name": "Tepeojuma", "name_ru": "Tepeojuma", "tz": "America/Mexico_City", "district": "Puebla"}, {"id": 458, "name": "Tataltepec de Valdes", "name_ru": "Tataltepec de Valdés", "tz": "America/Mexico_City", "district": "Oaxaca"}, {"id": 459, "name": "Kantunilkin", "name_ru": "Kantunilkín", "tz": "America/Cancun", "district": "Quintana Roo"}, {"id": 460, "name": "Guadalupe Yancuictlalpan", "name_ru": "Guadalupe Yancuictlalpan", "tz": "America/Mexico_City", "district": "Morelos"}, {"id": 461, "name": "Bahia Kino", "name_ru": "Bahía Kino", "tz": "America/Hermosillo", "district": "Sonora"}, {"id": 462, "name": "Ahumada", "name_ru": "Ahumada", "tz": "America/Chihuahua", "district": "Chihuahua"}, {"id": 463, "name": "El Higo", "name_ru": "El Higo", "tz": "America/Mexico_City", "district": "Veracruz"}, {"id": 464, "name": "Lazaro Cardenas", "name_ru": "Lázaro Cárdenas", "tz": "America/Chihuahua", "district": "Chihuahua"}, {"id": 465, "name": "Altar", "name_ru": "Altar", "tz": "America/Hermosillo", "district": "Sonora"}, {"id": 466, "name": "Cocorit", "name_ru": "Cocorit", "tz": "America/Hermosillo", "district": "Sonora"}, {"id": 467, "name": "Ayotoxco de Guerrero", "name_ru": "Ayotoxco de Guerrero", "tz": "America/Mexico_City", "district": "Puebla"}, {"id": 468, "name": "Anton Lizardo", "name_ru": "Antón Lizardo", "tz": "America/Mexico_City", "district": "Veracruz"}, {"id": 469, "name": "Buctzotz", "name_ru": "Buctzotz", "tz": "America/Merida", "district": "Yucatán"}, {"id": 470, "name": "San Francisco del Mar", "name_ru": "San Francisco del Mar", "tz": "America/Mexico_City", "district": "Oaxaca"}, {"id": 471, "name": "Tamazulapam Villa del Progreso", "name_ru": "Tamazulapam Villa del Progreso", "tz": "America/Mexico_City", "district": "Oaxaca"}, {"id": 472, "name": "Huiloapan", "name_ru": "Huiloapan", "tz": "America/Mexico_City", "district": "Veracruz"}, {"id": 473, "name": "Hopelchen", "name_ru": "Hopelchén", "tz": "America/Merida", "district": "Campeche"}, {"id": 474, "name": "Santa Eulalia", "name_ru": "Santa Eulalia", "tz": "America/Chihuahua", "district": "Chihuahua"}, {"id": 475, "name": "Algodones", "name_ru": "Algodones", "tz": "America/Tijuana", "district": "Baja California"}, {"id": 476, "name": "Ojo Caliente", "name_ru": "Ojo Caliente", "tz": "America/Mexico_City", "district": "Aguascalientes"}, {"id": 477, "name": "San Pedro Amuzgos", "name_ru": "San Pedro Amuzgos", "tz": "America/Mexico_City", "district": "Oaxaca"}, {"id": 478, "name": "Tenabo", "name_ru": "Tenabo", "tz": "America/Merida", "district": "Campeche"}, {"id": 479, "name": "Leona Vicario", "name_ru": "Leona Vicario", "tz": "America/Cancun", "district": "Quintana Roo"}, {"id": 480, "name": "Valle de Guadalupe", "name_ru": "Valle de Guadalupe", "tz": "America/Mexico_City", "district": "Jalisco"}, {"id": 481, "name": "San Antonino Castillo Velasco", "name_ru": "San Antonino Castillo Velasco", "tz": "America/Mexico_City", "district": "Oaxaca"}, {"id": 482, "name": "Temozon", "name_ru": "Temozon", "tz": "America/Merida", "district": "Yucatán"}, {"id": 483, "name": "Becal", "name_ru": "Bécal", "tz": "America/Merida", "district": "Campeche"}, {"id": 484, "name": "Xochitlan Todos Santos", "name_ru": "Xochitlan Todos Santos", "tz": "America/Mexico_City", "district": "Puebla"}, {"id": 485, "name": "Puerto San Carlos", "name_ru": "Puerto San Carlos", "tz": "America/Mazatlan", "district": "Baja California Sur"}, {"id": 486, "name": "Piste", "name_ru": "Piste", "tz": "America/Merida", "district": "Yucatán"}, {"id": 487, "name": "Teabo", "name_ru": "Teabo", "tz": "America/Merida", "district": "Yucatán"}, {"id": 488, "name": "Tayoltita", "name_ru": "Tayoltita", "tz": "America/Monterrey", "district": "Durango"}, {"id": 489, "name": "Calderitas", "name_ru": "Calderitas", "tz": "America/Cancun", "district": "Quintana Roo"}, {"id": 490, "name": "Soledad Etla", "name_ru": "Soledad Etla", "tz": "America/Mexico_City", "district": "Oaxaca"}, {"id": 491, "name": "Guadalupe y Calvo", "name_ru": "Guadalupe y Calvo", "tz": "America/Chihuahua", "district": "Chihuahua"}, {"id": 492, "name": "Panindicuaro", "name_ru": "Panindícuaro", "tz": "America/Mexico_City", "district": "Michoacán de Ocampo"}, {"id": 493, "name": "Palo Alto", "name_ru": "Palo Alto", "tz": "America/Mexico_City", "district": "Aguascalientes"}, {"id": 494, "name": "Panaba", "name_ru": "Panabá", "tz": "America/Merida", "district": "Yucatán"}, {"id": 495, "name": "Santa Maria del Oro", "name_ru": "Santa María del Oro", "tz": "America/Monterrey", "district": "Durango"}, {"id": 496, "name": "Esperanza", "name_ru": "Esperanza", "tz": "America/Hermosillo", "district": "Sonora"}, {"id": 497, "name": "Angostura", "name_ru": "Angostura", "tz": "America/Mazatlan", "district": "Sinaloa"}, {"id": 498, "name": "Nombre de Dios", "name_ru": "Nombre de Dios", "tz": "America/Monterrey", "district": "Durango"}, {"id": 499, "name": "Pitiquito", "name_ru": "Pitiquito", "tz": "America/Hermosillo", "district": "Sonora"}, {"id": 500, "name": "X-Can", "name_ru": "X-Cán", "tz": "America/Merida", "district": "Yucatán"}, {"id": 501, "name": "Zapotitlan", "name_ru": "Zapotitlán", "tz": "America/Mexico_City", "district": "Puebla"}, {"id": 502, "name": "Chicxulub Puerto", "name_ru": "Chicxulub Puerto", "tz": "America/Merida", "district": "Yucatán"}, {"id": 503, "name": "Santa Cruz Xoxocotlan", "name_ru": "Santa Cruz Xoxocotlán", "tz": "America/Mexico_City", "district": "Oaxaca"}, {"id": 504, "name": "Ocozocoautla de Espinosa", "name_ru": "Ocozocoautla de Espinosa", "tz": "America/Mexico_City", "district": "Chiapas"}, {"id": 505, "name": "Agua Prieta", "name_ru": "Agua Prieta", "tz": "America/Hermosillo", "district": "Sonora"}, {"id": 506, "name": "San Francisco", "name_ru": "San Francisco", "tz": "America/Hermosillo", "district": "Sonora"}, {"id": 507, "name": "Maravatio de Ocampo", "name_ru": "Maravatío de Ocampo", "tz": "America/Mexico_City", "district": "Michoacán de Ocampo"}, {"id": 508, "name": "Jilotepec", "name_ru": "Jilotepec", "tz": "America/Mexico_City", "district": "México"}, {"id": 509, "name": "Ciudad de Atlixco", "name_ru": "Ciudad de Atlixco", "tz": "America/Mexico_City", "district": "Puebla"}, {"id": 510, "name": "Guasavito", "name_ru": "Guasavito", "tz": "America/Mazatlan", "district": "Sinaloa"}, {"id": 511, "name": "Ciudad Mante", "name_ru": "Ciudad Mante", "tz": "America/Monterrey", "district": "Tamaulipas"}, {"id": 512, "name": "Felipe Carrillo Puerto", "name_ru": "Felipe Carrillo Puerto", "tz": "America/Cancun", "district": "Quintana Roo"}, {"id": 513, "name": "Juventino Rosas", "name_ru": "Juventino Rosas", "tz": "America/Mexico_City", "district": "Guanajuato"}, {"id": 514, "name": "Sahuayo de Morelos", "name_ru": "Sahuayo de Morelos", "tz": "America/Mexico_City", "district": "Michoacán de Ocampo"}, {"id": 515, "name": "Villa Victoria", "name_ru": "Villa Victoria", "tz": "America/Mexico_City", "district": "México"}, {"id": 516, "name": "Huebampo", "name_ru": "Huebampo", "tz": "America/Hermosillo", "district": "Sonora"}, {"id": 517, "name": "Tila", "name_ru": "Tila", "tz": "America/Mexico_City", "district": "Chiapas"}, {"id": 518, "name": "Tecamachalco", "name_ru": "Tecamachalco", "tz": "America/Mexico_City", "district": "Puebla"}, {"id": 519, "name": "La Trinidad", "name_ru": "La Trinidad", "tz": "America/Mexico_City", "district": "Chiapas"}, {"id": 520, "name": "San Francisco del Rincon", "name_ru": "San Francisco del Rincón", "tz": "America/Mexico_City", "district": "Guanajuato"}, {"id": 521, "name": "San Juan de los Lagos", "name_ru": "San Juan de los Lagos", "tz": "America/Mexico_City", "district": "Jalisco"}, {"id": 522, "name": "Purisima de Bustos", "name_ru": "Purísima de Bustos", "tz": "America/Mexico_City", "district": "Guanajuato"}, {"id": 523, "name": "Zapotlanejo", "name_ru": "Zapotlanejo", "tz": "America/Mexico_City", "district": "Jalisco"}, {"id": 524, "name": "Ixtlahuacan de los Membrillos", "name_ru": "Ixtlahuacán de los Membrillos", "tz": "America/Mexico_City", "district": "Jalisco"}, {"id": 525, "name": "La Barca", "name_ru": "La Barca", "tz": "America/Mexico_City", "district": "Jalisco"}, {"id": 526, "name": "Santa Catarina Otzolotepec", "name_ru": "Santa Catarina Otzolotepec", "tz": "America/Mexico_City", "district": "Puebla"}, {"id": 527, "name": "Zihuatanejo", "name_ru": "Zihuatanejo", "tz": "America/Mexico_City", "district": "Guerrero"}, {"id": 528, "name": "Venustiano Carranza", "name_ru": "Venustiano Carranza", "tz": "America/Mexico_City", "district": "Chiapas"}, {"id": 529, "name": "Ocoyoacac", "name_ru": "Ocoyoacac", "tz": "America/Mexico_City", "district": "Morelos"}, {"id": 530, "name": "Jocotitlan", "name_ru": "Jocotitlán", "tz": "America/Mexico_City", "district": "México"}, {"id": 531, "name": "Santo Domingo Tehuantepec", "name_ru": "Santo Domingo Tehuantepec", "tz": "America/Mexico_City", "district": "Oaxaca"}, {"id": 532, "name": "Apaseo el Alto", "name_ru": "Apaseo el Alto", "tz": "America/Mexico_City", "district": "Guanajuato"}, {"id": 533, "name": "Salto de Agua", "name_ru": "Salto de Agua", "tz": "America/Mexico_City", "district": "Chiapas"}, {"id": 534, "name": "Puerto Penasco", "name_ru": "Puerto Peñasco", "tz": "America/Hermosillo", "district": "Sonora"}, {"id": 535, "name": "Autlan de Navarro", "name_ru": "Autlán de Navarro", "tz": "America/Mexico_City", "district": "Jalisco"}, {"id": 536, "name": "Melchor Ocampo", "name_ru": "Melchor Ocampo", "tz": "America/Mexico_City", "district": "México"}, {"id": 537, "name": "Ciudad Cuauhtemoc", "name_ru": "Ciudad Cuauhtémoc", "tz": "America/Mexico_City", "district": "Veracruz"}, {"id": 538, "name": "Santiago Tuxtla", "name_ru": "Santiago Tuxtla", "tz": "America/Mexico_City", "district": "Veracruz"}, {"id": 539, "name": "Amealco", "name_ru": "Amealco", "tz": "America/Mexico_City", "district": "Querétaro"}, {"id": 540, "name": "Huixtla", "name_ru": "Huixtla", "tz": "America/Mexico_City", "district": "Chiapas"}, {"id": 541, "name": "Tlacotepec", "name_ru": "Tlacotepec", "tz": "America/Mexico_City", "district": "Puebla"}, {"id": 542, "name": "Ixhuatlan de Madero", "name_ru": "Ixhuatlán de Madero", "tz": "America/Mexico_City", "district": "Veracruz"}, {"id": 543, "name": "Encarnacion de Diaz", "name_ru": "Encarnación de Díaz", "tz": "America/Mexico_City", "district": "Jalisco"}, {"id": 544, "name": "Pijijiapan", "name_ru": "Pijijiapan", "tz": "America/Mexico_City", "district": "Chiapas"}, {"id": 545, "name": "Alvarado", "name_ru": "Alvarado", "tz": "America/Mexico_City", "district": "Veracruz"}, {"id": 546, "name": "San Jose Villa de Allende", "name_ru": "San José Villa de Allende", "tz": "America/Mexico_City", "district": "México"}, {"id": 547, "name": "Taxco de Alarcon", "name_ru": "Taxco de Alarcón", "tz": "America/Mexico_City", "district": "Guerrero"}, {"id": 548, "name": "Berriozabal", "name_ru": "Berriozábal", "tz": "America/Mexico_City", "district": "Chiapas"}, {"id": 549, "name": "Santa Lucia del Camino", "name_ru": "Santa Lucía del Camino", "tz": "America/Mexico_City", "district": "Oaxaca"}, {"id": 550, "name": "Tepeapulco", "name_ru": "Tepeapulco", "tz": "America/Mexico_City", "district": "Hidalgo"}, {"id": 551, "name": "San Pedro Mixtepec", "name_ru": "San Pedro Mixtepec", "tz": "America/Mexico_City", "district": "Oaxaca"}, {"id": 552, "name": "Santa Ana Chiautempan", "name_ru": "Santa Ana Chiautempan", "tz": "America/Mexico_City", "district": "Tlaxcala"}, {"id": 553, "name": "Ciudad Serdan", "name_ru": "Ciudad Serdán", "tz": "America/Mexico_City", "district": "Puebla"}, {"id": 554, "name": "Jocotepec", "name_ru": "Jocotepec", "tz": "America/Mexico_City", "district": "Jalisco"}, {"id": 555, "name": "Acatlan de Perez Figueroa", "name_ru": "Acatlán de Pérez Figueroa", "tz": "America/Mexico_City", "district": "Oaxaca"}, {"id": 556, "name": "Santa Maria Huatulco", "name_ru": "Santa María Huatulco", "tz": "America/Mexico_City", "district": "Oaxaca"}, {"id": 557, "name": "Cuautepec de Hinojosa", "name_ru": "Cuautepec de Hinojosa", "tz": "America/Mexico_City", "district": "Hidalgo"}, {"id": 558, "name": "Guacharachi", "name_ru": "Guacharachi", "tz": "America/Chihuahua", "district": "Chihuahua"}, {"id": 559, "name": "Ciudad de Huajuapam de Leon", "name_ru": "Ciudad de Huajuapam de León", "tz": "America/Mexico_City", "district": "Oaxaca"}, {"id": 560, "name": "Montemorelos", "name_ru": "Montemorelos", "tz": "America/Monterrey", "district": "Nuevo León"}, {"id": 561, "name": "Tres Valles", "name_ru": "Tres Valles", "tz": "America/Mexico_City", "district": "Veracruz"}, {"id": 562, "name": "Simojovel de Allende", "name_ru": "Simojovel de Allende", "tz": "America/Mexico_City", "district": "Chiapas"}, {"id": 563, "name": "Zongolica", "name_ru": "Zongolica", "tz": "America/Mexico_City", "district": "Veracruz"}, {"id": 564, "name": "Oxchuc", "name_ru": "Oxchuc", "tz": "America/Mexico_City", "district": "Chiapas"}, {"id": 565, "name": "Pedro Celestino Negrete", "name_ru": "Pedro Celestino Negrete", "tz": "America/Monterrey", "district": "Durango"}, {"id": 566, "name": "Hueyapan de Ocampo", "name_ru": "Hueyapan de Ocampo", "tz": "America/Mexico_City", "district": "Veracruz"}, {"id": 567, "name": "Jesus Maria", "name_ru": "Jesús María", "tz": "America/Mexico_City", "district": "Aguascalientes"}, {"id": 568, "name": "Coyuca de Catalan", "name_ru": "Coyuca de Catalán", "tz": "America/Mexico_City", "district": "Guerrero"}, {"id": 569, "name": "Tequila", "name_ru": "Tequila", "tz": "America/Mexico_City", "district": "Jalisco"}, {"id": 570, "name": "Camargo", "name_ru": "Camargo", "tz": "America/Chihuahua", "district": "Chihuahua"}, {"id": 571, "name": "Matias Romero", "name_ru": "Matías Romero", "tz": "America/Mexico_City", "district": "Oaxaca"}, {"id": 572, "name": "Tlalixcoyan", "name_ru": "Tlalixcoyan", "tz": "America/Mexico_City", "district": "Veracruz"}, {"id": 573, "name": "Apan", "name_ru": "Apan", "tz": "America/Mexico_City", "district": "Hidalgo"}, {"id": 574, "name": "Jiquipilas", "name_ru": "Jiquipilas", "tz": "America/Mexico_City", "district": "Chiapas"}, {"id": 575, "name": "Galeana", "name_ru": "Galeana", "tz": "America/Monterrey", "district": "Nuevo León"}, {"id": 576, "name": "San Felipe Orizatlan", "name_ru": "San Felipe Orizatlán", "tz": "America/Mexico_City", "district": "Hidalgo"}, {"id": 577, "name": "Yajalon", "name_ru": "Yajalón", "tz": "America/Mexico_City", "district": "Chiapas"}, {"id": 578, "name": "Mixquiahuala de Juarez", "name_ru": "Mixquiahuala de Juarez", "tz": "America/Mexico_City", "district": "Hidalgo"}, {"id": 579, "name": "Santiago", "name_ru": "Santiago", "tz": "America/Monterrey", "district": "Nuevo León"}, {"id": 580, "name": "Progreso", "name_ru": "Progreso", "tz": "America/Merida", "district": "Yucatán"}, {"id": 581, "name": "Coatepec Harinas", "name_ru": "Coatepec Harinas", "tz": "America/Mexico_City", "district": "México"}, {"id": 582, "name": "Ciudad Manuel Doblado", "name_ru": "Ciudad Manuel Doblado", "tz": "America/Mexico_City", "district": "Guanajuato"}, {"id": 583, "name": "Sayula", "name_ru": "Sayula", "tz": "America/Mexico_City", "district": "Jalisco"}, {"id": 584, "name": "Jaral del Progreso", "name_ru": "Jaral del Progreso", "tz": "America/Mexico_City", "district": "Guanajuato"}, {"id": 585, "name": "Jose Maria Morelos", "name_ru": "José María Morelos", "tz": "America/Cancun", "district": "Quintana Roo"}, {"id": 586, "name": "Zacatepec", "name_ru": "Zacatepec", "tz": "America/Mexico_City", "district": "Morelos"}, {"id": 587, "name": "Tangancicuaro de Arista", "name_ru": "Tangancícuaro de Arista", "tz": "America/Mexico_City", "district": "México"}, {"id": 588, "name": "Huehuetan", "name_ru": "Huehuetán", "tz": "America/Mexico_City", "district": "Chiapas"}, {"id": 589, "name": "Bochil", "name_ru": "Bochil", "tz": "America/Mexico_City", "district": "Chiapas"}, {"id": 590, "name": "Ocuilan de Arteaga", "name_ru": "Ocuilan de Arteaga", "tz": "America/Mexico_City", "district": "México"}, {"id": 591, "name": "Zimapan", "name_ru": "Zimapan", "tz": "America/Mexico_City", "district": "Hidalgo"}, {"id": 592, "name": "Santa Ana Nextlalpan", "name_ru": "Santa Ana Nextlalpan", "tz": "America/Mexico_City", "district": "México"}, {"id": 593, "name": "Tepeji del Rio de Ocampo", "name_ru": "Tepeji del Río de Ocampo", "tz": "America/Mexico_City", "district": "Hidalgo"}, {"id": 594, "name": "Temascalapa", "name_ru": "Temascalapa", "tz": "America/Mexico_City", "district": "Hidalgo"}, {"id": 595, "name": "San Felipe", "name_ru": "San Felipe", "tz": "America/Mexico_City", "district": "Guanajuato"}, {"id": 596, "name": "Capulhuac", "name_ru": "Capulhuac", "tz": "America/Mexico_City", "district": "México"}, {"id": 597, "name": "Tuzantan", "name_ru": "Tuzantán", "tz": "America/Mexico_City", "district": "Chiapas"}, {"id": 598, "name": "Petatlan", "name_ru": "Petatlán", "tz": "America/Mexico_City", "district": "Guerrero"}, {"id": 599, "name": "Temascaltepec de Gonzalez", "name_ru": "Temascaltepec de González", "tz": "America/Mexico_City", "district": "México"}, {"id": 600, "name": "Turicato", "name_ru": "Turicato", "tz": "America/Mexico_City", "district": "Michoacán de Ocampo"}, {"id": 601, "name": "Tecozautla", "name_ru": "Tecozautla", "tz": "America/Mexico_City", "district": "Hidalgo"}, {"id": 602, "name": "Pichucalco", "name_ru": "Pichucalco", "tz": "America/Mexico_City", "district": "Chiapas"}, {"id": 603, "name": "Amatenango de la Frontera", "name_ru": "Amatenango de la Frontera", "tz": "America/Mexico_City", "district": "Chiapas"}, {"id": 604, "name": "Tepetlaoxtoc", "name_ru": "Tepetlaoxtoc", "tz": "America/Mexico_City", "district": "México"}, {"id": 605, "name": "San Rafael", "name_ru": "San Rafael", "tz": "America/Mexico_City", "district": "Veracruz"}, {"id": 606, "name": "Xalatlaco", "name_ru": "Xalatlaco", "tz": "America/Mexico_City", "district": "México"}, {"id": 607, "name": "Tequisquiapan", "name_ru": "Tequisquiapan", "tz": "America/Mexico_City", "district": "Querétaro"}, {"id": 608, "name": "Ozumba", "name_ru": "Ozumba", "tz": "America/Mexico_City", "district": "México"}, {"id": 609, "name": "Juchitepec", "name_ru": "Juchitepec", "tz": "America/Mexico_City", "district": "México"}, {"id": 610, "name": "Villa Comaltitlan", "name_ru": "Villa Comaltitlán", "tz": "America/Mexico_City", "district": "Chiapas"}, {"id": 611, "name": "Nava", "name_ru": "Nava", "tz": "America/Matamoros", "district": "Coahuila de Zaragoza"}, {"id": 612, "name": "San Salvador", "name_ru": "San Salvador", "tz": "America/Mexico_City", "district": "Hidalgo"}, {"id": 613, "name": "Las Rosas", "name_ru": "Las Rosas", "tz": "America/Mexico_City", "district": "Chiapas"}, {"id": 614, "name": "Zacoalco de Torres", "name_ru": "Zacoalco de Torres", "tz": "America/Mexico_City", "district": "Jalisco"}, {"id": 615, "name": "San Felipe Jalapa de Diaz", "name_ru": "San Felipe Jalapa de Díaz", "tz": "America/Mexico_City", "district": "Oaxaca"}, {"id": 616, "name": "Tehuipango", "name_ru": "Tehuipango", "tz": "America/Mexico_City", "district": "Veracruz"}, {"id": 617, "name": "Quiroga", "name_ru": "Quiroga", "tz": "America/Mexico_City", "district": "Michoacán de Ocampo"}, {"id": 618, "name": "Nochistlan de Mejia", "name_ru": "Nochistlán de Mejía", "tz": "America/Mexico_City", "district": "Zacatecas"}, {"id": 619, "name": "Tlalpujahua de Rayon", "name_ru": "Tlalpujahua de Rayón", "tz": "America/Mexico_City", "district": "México"}, {"id": 620, "name": "Villa Luvianos", "name_ru": "Villa Luvianos", "tz": "America/Mexico_City", "district": "México"}, {"id": 621, "name": "Salinas Victoria", "name_ru": "Salinas Victoria", "tz": "America/Monterrey", "district": "Nuevo León"}, {"id": 622, "name": "Atlautla", "name_ru": "Atlautla", "tz": "America/Mexico_City", "district": "México"}, {"id": 623, "name": "San Juan Guichicovi", "name_ru": "San Juan Guichicovi", "tz": "America/Mexico_City", "district": "Oaxaca"}, {"id": 624, "name": "Zempoala", "name_ru": "Zempoala", "tz": "America/Mexico_City", "district": "Hidalgo"}, {"id": 625, "name": "Cueramaro", "name_ru": "Cuerámaro", "tz": "America/Mexico_City", "district": "Guanajuato"}, {"id": 626, "name": "Atitalaquia", "name_ru": "Atitalaquia", "tz": "America/Mexico_City", "district": "Hidalgo"}, {"id": 627, "name": "Tepehuacan de Guerrero", "name_ru": "Tepehuacán de Guerrero", "tz": "America/Mexico_City", "district": "Hidalgo"}, {"id": 628, "name": "Ixtapa", "name_ru": "Ixtapa", "tz": "America/Mexico_City", "district": "Chiapas"}, {"id": 629, "name": "San Agustin Tlaxiaca", "name_ru": "San Agustín Tlaxiaca", "tz": "America/Mexico_City", "district": "Hidalgo"}, {"id": 630, "name": "Tlaxcoapan", "name_ru": "Tlaxcoapan", "tz": "America/Mexico_City", "district": "Hidalgo"}, {"id": 631, "name": "Sabanilla", "name_ru": "Sabanilla", "tz": "America/Mexico_City", "district": "Chiapas"}, {"id": 632, "name": "Amatepec", "name_ru": "Amatepec", "tz": "America/Mexico_City", "district": "México"}, {"id": 633, "name": "Jaltenco", "name_ru": "Jaltenco", "tz": "America/Mexico_City", "district": "México"}, {"id": 634, "name": "Zacualtipan", "name_ru": "Zacualtipán", "tz": "America/Mexico_City", "district": "Hidalgo"}, {"id": 635, "name": "Santa Maria Colotepec", "name_ru": "Santa María Colotepec", "tz": "America/Mexico_City", "district": "Oaxaca"}, {"id": 636, "name": "Huejotzingo", "name_ru": "Huejotzingo", "tz": "America/Mexico_City", "district": "Puebla"}, {"id": 637, "name": "Jalpan", "name_ru": "Jalpan", "tz": "America/Mexico_City", "district": "Querétaro"}, {"id": 638, "name": "Santa Maria Tonameca", "name_ru": "Santa María Tonameca", "tz": "America/Mexico_City", "district": "Oaxaca"}, {"id": 639, "name": "Sultepec", "name_ru": "Sultepec", "tz": "America/Mexico_City", "district": "México"}, {"id": 640, "name": "La Huerta", "name_ru": "La Huerta", "tz": "America/Mexico_City", "district": "Jalisco"}, {"id": 641, "name": "San Agustin Loxicha", "name_ru": "San Agustín Loxicha", "tz": "America/Mexico_City", "district": "Oaxaca"}, {"id": 642, "name": "Paraiso", "name_ru": "Paraíso", "tz": "America/Mexico_City", "district": "Tabasco"}, {"id": 643, "name": "San Miguel Ocotenco", "name_ru": "San Miguel Ocotenco", "tz": "America/Mexico_City", "district": "Puebla"}, {"id": 644, "name": "Tecolutla", "name_ru": "Tecolutla", "tz": "America/Mexico_City", "district": "Veracruz"}, {"id": 645, "name": "Tepalcatepec", "name_ru": "Tepalcatepec", "tz": "America/Mexico_City", "district": "Michoacán de Ocampo"}, {"id": 646, "name": "Soledad Atzompa", "name_ru": "Soledad Atzompa", "tz": "America/Mexico_City", "district": "Veracruz"}, {"id": 647, "name": "San Juan Cotzocon", "name_ru": "San Juan Cotzocón", "tz": "America/Mexico_City", "district": "Oaxaca"}, {"id": 648, "name": "Ahualulco de Mercado", "name_ru": "Ahualulco de Mercado", "tz": "America/Mexico_City", "district": "Jalisco"}, {"id": 649, "name": "Doctor Mora", "name_ru": "Doctor Mora", "tz": "America/Mexico_City", "district": "Guanajuato"}, {"id": 650, "name": "Cuilapan de Guerrero", "name_ru": "Cuilapan de Guerrero", "tz": "America/Mexico_City", "district": "Oaxaca"}, {"id": 651, "name": "Huitiupan", "name_ru": "Huitiupán", "tz": "America/Mexico_City", "district": "Chiapas"}, {"id": 652, "name": "Ozuluama de Mascarenas", "name_ru": "Ozuluama de Mascareñas", "tz": "America/Mexico_City", "district": "Veracruz"}, {"id": 653, "name": "Tototlan", "name_ru": "Tototlán", "tz": "America/Mexico_City", "district": "Jalisco"}, {"id": 654, "name": "Tamiahua", "name_ru": "Tamiahua", "tz": "America/Mexico_City", "district": "Veracruz"}, {"id": 655, "name": "San Miguel de Papasquiaro", "name_ru": "San Miguel de Papasquiaro", "tz": "America/Monterrey", "district": "Durango"}, {"id": 656, "name": "El Bosque", "name_ru": "El Bosque", "tz": "America/Mexico_City", "district": "Chiapas"}, {"id": 657, "name": "Magdalena", "name_ru": "Magdalena", "tz": "America/Mexico_City", "district": "Jalisco"}, {"id": 658, "name": "Tecali", "name_ru": "Tecali", "tz": "America/Mexico_City", "district": "Puebla"}, {"id": 659, "name": "Yahualica de Gonzalez Gallo", "name_ru": "Yahualica de González Gallo", "tz": "America/Mexico_City", "district": "Jalisco"}, {"id": 660, "name": "Puente Nacional", "name_ru": "Puente Nacional", "tz": "America/Mexico_City", "district": "Veracruz"}, {"id": 661, "name": "Huautla", "name_ru": "Huautla", "tz": "America/Mexico_City", "district": "Hidalgo"}, {"id": 662, "name": "Tepexi de Rodriguez", "name_ru": "Tepexi de Rodríguez", "tz": "America/Mexico_City", "district": "Puebla"}, {"id": 663, "name": "Acatlan", "name_ru": "Acatlán", "tz": "America/Mexico_City", "district": "Jalisco"}, {"id": 664, "name": "Yahualica", "name_ru": "Yahualica", "tz": "America/Mexico_City", "district": "Hidalgo"}, {"id": 665, "name": "Chapa de Mota", "name_ru": "Chapa de Mota", "tz": "America/Mexico_City", "district": "México"}, {"id": 666, "name": "San Felipe", "name_ru": "San Felipe", "tz": "America/Tijuana", "district": "Baja California"}, {"id": 667, "name": "Axapusco", "name_ru": "Axapusco", "tz": "America/Mexico_City", "district": "México"}, {"id": 668, "name": "Ocotlan de Morelos", "name_ru": "Ocotlán de Morelos", "tz": "America/Mexico_City", "district": "Oaxaca"}, {"id": 669, "name": "San Martin de las Piramides", "name_ru": "San Martín de las Pirámides", "tz": "America/Mexico_City", "district": "México"}, {"id": 670, "name": "La Resolana", "name_ru": "La Resolana", "tz": "America/Mexico_City", "district": "Jalisco"}, {"id": 671, "name": "Acatic", "name_ru": "Acatic", "tz": "America/Mexico_City", "district": "Jalisco"}, {"id": 672, "name": "Santa Maria Chilchotla", "name_ru": "Santa María Chilchotla", "tz": "America/Mexico_City", "district": "Oaxaca"}, {"id": 673, "name": "Chachahuantla", "name_ru": "Chachahuantla", "tz": "America/Mexico_City", "district": "Hidalgo"}, {"id": 674, "name": "Jitotol", "name_ru": "Jitotol", "tz": "America/Mexico_City", "district": "Chiapas"}, {"id": 675, "name": "Chapulhuacan", "name_ru": "Chapulhuacán", "tz": "America/Mexico_City", "district": "Hidalgo"}, {"id": 676, "name": "Colonia General Felipe Angeles", "name_ru": "Colonia General Felipe Ángeles", "tz": "America/Monterrey", "district": "Durango"}, {"id": 677, "name": "Bella Vista", "name_ru": "Bella Vista", "tz": "America/Mexico_City", "district": "Chiapas"}, {"id": 678, "name": "Villa Hidalgo", "name_ru": "Villa Hidalgo", "tz": "America/Mexico_City", "district": "Jalisco"}, {"id": 679, "name": "Huanimaro", "name_ru": "Huanímaro", "tz": "America/Mexico_City", "district": "Guanajuato"}, {"id": 680, "name": "Tepetlixpa", "name_ru": "Tepetlixpa", "tz": "America/Mexico_City", "district": "México"}, {"id": 681, "name": "Cruz Grande", "name_ru": "Cruz Grande", "tz": "America/Mexico_City", "district": "Guerrero"}, {"id": 682, "name": "Benemerito", "name_ru": "Benemérito", "tz": "America/Mexico_City", "district": "Chiapas"}, {"id": 683, "name": "Naranjos", "name_ru": "Naranjos", "tz": "America/Mexico_City", "district": "Veracruz"}, {"id": 684, "name": "Castillo de Teayo", "name_ru": "Castillo de Teayo", "tz": "America/Mexico_City", "district": "Veracruz"}, {"id": 685, "name": "Atlapexco", "name_ru": "Atlapexco", "tz": "America/Mexico_City", "district": "Hidalgo"}, {"id": 686, "name": "El Arenal", "name_ru": "El Arenal", "tz": "America/Mexico_City", "district": "Jalisco"}, {"id": 687, "name": "Comapa", "name_ru": "Comapa", "tz": "America/Mexico_City", "district": "Veracruz"}, {"id": 688, "name": "Puerto Morelos", "name_ru": "Puerto Morelos", "tz": "America/Cancun", "district": "Quintana Roo"}, {"id": 689, "name": "Tapalpa", "name_ru": "Tapalpa", "tz": "America/Mexico_City", "district": "Jalisco"}, {"id": 690, "name": "Amatan", "name_ru": "Amatán", "tz": "America/Mexico_City", "district": "Chiapas"}, {"id": 691, "name": "Jesus Maria", "name_ru": "Jesús María", "tz": "America/Mexico_City", "district": "Jalisco"}, {"id": 692, "name": "Texcaltitlan", "name_ru": "Texcaltitlán", "tz": "America/Mexico_City", "district": "México"}, {"id": 693, "name": "Jamiltepec", "name_ru": "Jamiltepec", "tz": "America/Mexico_City", "district": "Oaxaca"}, {"id": 694, "name": "Huehuetla", "name_ru": "Huehuetla", "tz": "America/Mexico_City", "district": "Puebla"}, {"id": 695, "name": "Cuquio", "name_ru": "Cuquío", "tz": "America/Mexico_City", "district": "Jalisco"}, {"id": 696, "name": "Tlalnelhuayocan", "name_ru": "Tlalnelhuayocan", "tz": "America/Mexico_City", "district": "Veracruz"}, {"id": 697, "name": "Vista Hermosa de Negrete", "name_ru": "Vista Hermosa de Negrete", "tz": "America/Mexico_City", "district": "Michoacán de Ocampo"}, {"id": 698, "name": "Ixtlahuacan del Rio", "name_ru": "Ixtlahuacán del Río", "tz": "America/Mexico_City", "district": "Jalisco"}, {"id": 699, "name": "Ajacuba", "name_ru": "Ajacuba", "tz": "America/Mexico_City", "district": "Hidalgo"}, {"id": 700, "name": "Filomeno Mata", "name_ru": "Filomeno Mata", "tz": "America/Mexico_City", "district": "Veracruz"}, {"id": 701, "name": "Moloacan", "name_ru": "Moloacán", "tz": "America/Mexico_City", "district": "Veracruz"}, {"id": 702, "name": "Santa Cruz Zenzontepec", "name_ru": "Santa Cruz Zenzontepec", "tz": "America/Mexico_City", "district": "Oaxaca"}, {"id": 703, "name": "Asuncion Nochixtlan", "name_ru": "Asunción Nochixtlán", "tz": "America/Mexico_City", "district": "Oaxaca"}, {"id": 704, "name": "San Blas Atempa", "name_ru": "San Blas Atempa", "tz": "America/Mexico_City", "district": "Oaxaca"}, {"id": 705, "name": "San Jose Tenango", "name_ru": "San José Tenango", "tz": "America/Mexico_City", "district": "Oaxaca"}, {"id": 706, "name": "Xochiatipan de Castillo", "name_ru": "Xochiatipan de Castillo", "tz": "America/Mexico_City", "district": "Hidalgo"}, {"id": 707, "name": "Juanacatlan", "name_ru": "Juanacatlán", "tz": "America/Mexico_City", "district": "Jalisco"}, {"id": 708, "name": "Cuautitlan", "name_ru": "Cuautitlán", "tz": "America/Mexico_City", "district": "Jalisco"}, {"id": 709, "name": "Zapotlan del Rey", "name_ru": "Zapotlán del Rey", "tz": "America/Mexico_City", "district": "Jalisco"}, {"id": 710, "name": "Union de San Antonio", "name_ru": "Unión de San Antonio", "tz": "America/Mexico_City", "district": "Jalisco"}, {"id": 711, "name": "San Bartolo Tutotepec", "name_ru": "San Bartolo Tutotepec", "tz": "America/Mexico_City", "district": "Hidalgo"}, {"id": 712, "name": "Tlahuelilpan", "name_ru": "Tlahuelilpan", "tz": "America/Mexico_City", "district": "Hidalgo"}, {"id": 713, "name": "Benito Juarez", "name_ru": "Benito Juárez", "tz": "America/Mexico_City", "district": "Veracruz"}, {"id": 714, "name": "Santos Reyes Nopala", "name_ru": "Santos Reyes Nopala", "tz": "America/Mexico_City", "district": "Oaxaca"}, {"id": 715, "name": "Totutla", "name_ru": "Totutla", "tz": "America/Mexico_City", "district": "Veracruz"}, {"id": 716, "name": "Compostela", "name_ru": "Compostela", "tz": "America/Mazatlan", "district": "Nayarit"}, {"id": 717, "name": "Ziracuaretiro", "name_ru": "Ziracuaretiro", "tz": "America/Mexico_City", "district": "Michoacán de Ocampo"}, {"id": 718, "name": "Cosautlan", "name_ru": "Cosautlán", "tz": "America/Mexico_City", "district": "Veracruz"}, {"id": 719, "name": "Pisaflores", "name_ru": "Pisaflores", "tz": "America/Mexico_City", "district": "Hidalgo"}, {"id": 720, "name": "Tecolotlan", "name_ru": "Tecolotlán", "tz": "America/Mexico_City", "district": "Jalisco"}, {"id": 721, "name": "Calnali", "name_ru": "Calnali", "tz": "America/Mexico_City", "district": "Hidalgo"}, {"id": 722, "name": "Ignacio de la Llave", "name_ru": "Ignacio de la Llave", "tz": "America/Mexico_City", "district": "Veracruz"}, {"id": 723, "name": "San Juan Lalana", "name_ru": "San Juan Lalana", "tz": "America/Mexico_City", "district": "Oaxaca"}, {"id": 724, "name": "Guadalupe Victoria", "name_ru": "Guadalupe Victoria", "tz": "America/Mexico_City", "district": "Puebla"}, {"id": 725, "name": "Jilotepec", "name_ru": "Jilotepec", "tz": "America/Mexico_City", "district": "Veracruz"}, {"id": 726, "name": "San Jacinto Amilpas", "name_ru": "San Jacinto Amilpas", "tz": "America/Mexico_City", "district": "Oaxaca"}, {"id": 727, "name": "Alfajayucan", "name_ru": "Alfajayucan", "tz": "America/Mexico_City", "district": "Hidalgo"}, {"id": 728, "name": "Chalchihuitan", "name_ru": "Chalchihuitán", "tz": "America/Mexico_City", "district": "Chiapas"}, {"id": 729, "name": "Chinampa de Gorostiza", "name_ru": "Chinampa de Gorostiza", "tz": "America/Mexico_City", "district": "Veracruz"}, {"id": 730, "name": "Santa Maria Petapa", "name_ru": "Santa María Petapa", "tz": "America/Mexico_City", "district": "Oaxaca"}, {"id": 731, "name": "Zapotlan de Juarez", "name_ru": "Zapotlán de Juárez", "tz": "America/Mexico_City", "district": "Hidalgo"}, {"id": 732, "name": "Santa Anita", "name_ru": "Santa Anita", "tz": "America/Hermosillo", "district": "Sonora"}, {"id": 733, "name": "Chiconquiaco", "name_ru": "Chiconquiaco", "tz": "America/Mexico_City", "district": "Veracruz"}, {"id": 734, "name": "San Julian", "name_ru": "San Julián", "tz": "America/Mexico_City", "district": "Jalisco"}, {"id": 735, "name": "Cardonal", "name_ru": "Cardonal", "tz": "America/Mexico_City", "district": "Hidalgo"}, {"id": 736, "name": "Tenango de Doria", "name_ru": "Tenango de Doria", "tz": "America/Mexico_City", "district": "Hidalgo"}, {"id": 737, "name": "Ixhuatlan del Sureste", "name_ru": "Ixhuatlán del Sureste", "tz": "America/Mexico_City", "district": "Veracruz"}, {"id": 738, "name": "Tasquillo", "name_ru": "Tasquillo", "tz": "America/Mexico_City", "district": "Hidalgo"}, {"id": 739, "name": "Churumuco de Morelos", "name_ru": "Churumuco de Morelos", "tz": "America/Mexico_City", "district": "Michoacán de Ocampo"}, {"id": 740, "name": "Amatitan", "name_ru": "Amatitán", "tz": "America/Mexico_City", "district": "Jalisco"}, {"id": 741, "name": "Chilcuautla", "name_ru": "Chilcuautla", "tz": "America/Mexico_City", "district": "Hidalgo"}, {"id": 742, "name": "San Pedro Tapanatepec", "name_ru": "San Pedro Tapanatepec", "tz": "America/Mexico_City", "district": "Oaxaca"}, {"id": 743, "name": "Zozocolco de Hidalgo", "name_ru": "Zozocolco de Hidalgo", "tz": "America/Mexico_City", "district": "Veracruz"}, {"id": 744, "name": "El Arenal", "name_ru": "El Arenal", "tz": "America/Mexico_City", "district": "Hidalgo"}, {"id": 745, "name": "Nopala de Villagran", "name_ru": "Nopala de Villagran", "tz": "America/Mexico_City", "district": "Hidalgo"}, {"id": 746, "name": "Mineral del Monte", "name_ru": "Mineral del Monte", "tz": "America/Mexico_City", "district": "Hidalgo"}, {"id": 747, "name": "Tepetzintla", "name_ru": "Tepetzintla", "tz": "America/Mexico_City", "district": "Veracruz"}, {"id": 748, "name": "Tamuin", "name_ru": "Tamuín", "tz": "America/Mexico_City", "district": "San Luis Potosí"}, {"id": 749, "name": "Zontecomatlan de Lopez y Fuentes", "name_ru": "Zontecomatlán de López y Fuentes", "tz": "America/Mexico_City", "district": "Veracruz"}, {"id": 750, "name": "San Andres Timilpan", "name_ru": "San Andrés Timilpan", "tz": "America/Mexico_City", "district": "México"}, {"id": 751, "name": "Nacozari Viejo", "name_ru": "Nacozari Viejo", "tz": "America/Hermosillo", "district": "Sonora"}, {"id": 752, "name": "Cienega de Flores", "name_ru": "Ciénega de Flores", "tz": "America/Monterrey", "district": "Nuevo León"}, {"id": 753, "name": "El Barrio de la Soledad", "name_ru": "El Barrio de la Soledad", "tz": "America/Mexico_City", "district": "Oaxaca"}, {"id": 754, "name": "Santiago Ixtayutla", "name_ru": "Santiago Ixtayutla", "tz": "America/Mexico_City", "district": "Oaxaca"}, {"id": 755, "name": "Almoloya de Alquisiras", "name_ru": "Almoloya de Alquisiras", "tz": "America/Mexico_City", "district": "México"}, {"id": 756, "name": "El Porvenir de Velasco Suarez", "name_ru": "El Porvenir de Velasco Suárez", "tz": "America/Mexico_City", "district": "Chiapas"}, {"id": 757, "name": "Santiago Jocotepec", "name_ru": "Santiago Jocotepec", "tz": "America/Mexico_City", "district": "Oaxaca"}, {"id": 758, "name": "Santiago de Anaya", "name_ru": "Santiago de Anaya", "tz": "America/Mexico_City", "district": "Hidalgo"}, {"id": 759, "name": "Polotitlan de la Ilustracion", "name_ru": "Polotitlán de la Ilustración", "tz": "America/Mexico_City", "district": "México"}, {"id": 760, "name": "San Pedro Pochutla", "name_ru": "San Pedro Pochutla", "tz": "America/Mexico_City", "district": "Oaxaca"}, {"id": 761, "name": "Eloxochitlan", "name_ru": "Eloxochitlán", "tz": "America/Mexico_City", "district": "Puebla"}, {"id": 762, "name": "Ixcatepec", "name_ru": "Ixcatepec", "tz": "America/Mexico_City", "district": "Veracruz"}, {"id": 763, "name": "Tianguistengo", "name_ru": "Tianguistengo", "tz": "America/Mexico_City", "district": "Hidalgo"}, {"id": 764, "name": "Chalma", "name_ru": "Chalma", "tz": "America/Mexico_City", "district": "Veracruz"}, {"id": 765, "name": "Ilamatlan", "name_ru": "Ilamatlán", "tz": "America/Mexico_City", "district": "Veracruz"}, {"id": 766, "name": "Union de Tula", "name_ru": "Unión de Tula", "tz": "America/Mexico_City", "district": "Jalisco"}, {"id": 767, "name": "Espita", "name_ru": "Espita", "tz": "America/Merida", "district": "Yucatán"}, {"id": 768, "name": "Soyaniquilpan", "name_ru": "Soyaniquilpan", "tz": "America/Mexico_City", "district": "México"}, {"id": 769, "name": "Cocotitlan", "name_ru": "Cocotitlán", "tz": "America/Mexico_City", "district": "México"}, {"id": 770, "name": "Mazatlan Villa de Flores", "name_ru": "Mazatlán Villa de Flores", "tz": "America/Mexico_City", "district": "Oaxaca"}, {"id": 771, "name": "Singuilucan", "name_ru": "Singuilucan", "tz": "America/Mexico_City", "district": "Hidalgo"}, {"id": 772, "name": "Tapilula", "name_ru": "Tapilula", "tz": "America/Mexico_City", "district": "Chiapas"}, {"id": 773, "name": "Maravilla Tenejapa", "name_ru": "Maravilla Tenejapa", "tz": "America/Mexico_City", "district": "Chiapas"}, {"id": 774, "name": "Zaragoza", "name_ru": "Zaragoza", "tz": "America/Matamoros", "district": "Coahuila de Zaragoza"}, {"id": 775, "name": "Tenango del Aire", "name_ru": "Tenango del Aire", "tz": "America/Mexico_City", "district": "México"}, {"id": 776, "name": "Santiago Amoltepec", "name_ru": "Santiago Amoltepec", "tz": "America/Mexico_City", "district": "Oaxaca"}, {"id": 777, "name": "Tepetzintla", "name_ru": "Tepetzintla", "tz": "America/Mexico_City", "district": "Puebla"}, {"id": 778, "name": "Olintla", "name_ru": "Olintla", "tz": "America/Mexico_City", "district": "Puebla"}, {"id": 779, "name": "Ocotepec", "name_ru": "Ocotepec", "tz": "America/Mexico_City", "district": "Chiapas"}, {"id": 780, "name": "Emiliano Zapata", "name_ru": "Emiliano Zapata", "tz": "America/Mexico_City", "district": "Hidalgo"}, {"id": 781, "name": "Santa Ana Maya", "name_ru": "Santa Ana Maya", "tz": "America/Mexico_City", "district": "Michoacán de Ocampo"}, {"id": 782, "name": "Mecatlan", "name_ru": "Mecatlán", "tz": "America/Mexico_City", "district": "Veracruz"}, {"id": 783, "name": "Tezoatlan de Segura y Luna", "name_ru": "Tezoatlán de Segura y Luna", "tz": "America/Mexico_City", "district": "Oaxaca"}, {"id": 784, "name": "Alamos", "name_ru": "Álamos", "tz": "America/Hermosillo", "district": "Sonora"}, {"id": 785, "name": "Cuichapa", "name_ru": "Cuichapa", "tz": "America/Mexico_City", "district": "Veracruz"}, {"id": 786, "name": "Mixtla de Altamirano", "name_ru": "Mixtla de Altamirano", "tz": "America/Mexico_City", "district": "Veracruz"}, {"id": 787, "name": "Citlaltepec", "name_ru": "Citlaltépec", "tz": "America/Mexico_City", "district": "Veracruz"}, {"id": 788, "name": "Mitontic", "name_ru": "Mitontic", "tz": "America/Mexico_City", "district": "Chiapas"}, {"id": 789, "name": "Chanal", "name_ru": "Chanal", "tz": "America/Mexico_City", "district": "Chiapas"}, {"id": 790, "name": "San Carlos Yautepec", "name_ru": "San Carlos Yautepec", "tz": "America/Mexico_City", "district": "Oaxaca"}, {"id": 791, "name": "Jacala", "name_ru": "Jacala", "tz": "America/Mexico_City", "district": "Hidalgo"}, {"id": 792, "name": "Tlacolulan", "name_ru": "Tlacolulan", "tz": "America/Mexico_City", "district": "Veracruz"}, {"id": 793, "name": "Villa Aldama", "name_ru": "Villa Aldama", "tz": "America/Mexico_City", "district": "Veracruz"}, {"id": 794, "name": "Ojuelos de Jalisco", "name_ru": "Ojuelos de Jalisco", "tz": "America/Mexico_City", "district": "Jalisco"}, {"id": 795, "name": "Zaragoza", "name_ru": "Zaragoza", "tz": "America/Mexico_City", "district": "Veracruz"}, {"id": 796, "name": "Abasolo", "name_ru": "Abasolo", "tz": "America/Monterrey", "district": "Tamaulipas"}, {"id": 797, "name": "Tolcayuca", "name_ru": "Tolcayuca", "tz": "America/Mexico_City", "district": "Morelos"}, {"id": 798, "name": "Tlachichilco", "name_ru": "Tlachichilco", "tz": "America/Mexico_City", "district": "Veracruz"}, {"id": 799, "name": "Santa Cruz Itundujia", "name_ru": "Santa Cruz Itundujia", "tz": "America/Mexico_City", "district": "Oaxaca"}, {"id": 800, "name": "Temamatla", "name_ru": "Temamatla", "tz": "America/Mexico_City", "district": "México"}, {"id": 801, "name": "Epazoyucan", "name_ru": "Epazoyucan", "tz": "America/Mexico_City", "district": "Hidalgo"}, {"id": 802, "name": "Chapantongo", "name_ru": "Chapantongo", "tz": "America/Mexico_City", "district": "Hidalgo"}, {"id": 803, "name": "Joquicingo", "name_ru": "Joquicingo", "tz": "America/Mexico_City", "district": "México"}, {"id": 804, "name": "Mineral de Angangueo", "name_ru": "Mineral de Angangueo", "tz": "America/Mexico_City", "district": "Michoacán de Ocampo"}, {"id": 805, "name": "San Nicolas Buenos Aires", "name_ru": "San Nicolas Buenos Aires", "tz": "America/Mexico_City", "district": "Puebla"}, {"id": 806, "name": "Tepetlan", "name_ru": "Tepetlán", "tz": "America/Mexico_City", "district": "Veracruz"}, {"id": 807, "name": "Texcatepec", "name_ru": "Texcatepec", "tz": "America/Mexico_City", "district": "Veracruz"}, {"id": 808, "name": "San Juanito de Escobedo", "name_ru": "San Juanito de Escobedo", "tz": "America/Mexico_City", "district": "Jalisco"}, {"id": 809, "name": "Ciudad Insurgentes", "name_ru": "Ciudad Insurgentes", "tz": "America/Mazatlan", "district": "Baja California Sur"}, {"id": 810, "name": "Tecoh", "name_ru": "Tecoh", "tz": "America/Merida", "district": "Yucatán"}, {"id": 811, "name": "San Pablo Huixtepec", "name_ru": "San Pablo Huixtepec", "tz": "America/Mexico_City", "district": "Oaxaca"}, {"id": 812, "name": "Ixtacomitan", "name_ru": "Ixtacomitán", "tz": "America/Mexico_City", "district": "Chiapas"}, {"id": 813, "name": "Emiliano Zapata", "name_ru": "Emiliano Zapata", "tz": "America/Mexico_City", "district": "Chiapas"}, {"id": 814, "name": "Tezontepec", "name_ru": "Tezontepec", "tz": "America/Mexico_City", "district": "Hidalgo"}, {"id": 815, "name": "Santa Barbara", "name_ru": "Santa Bárbara", "tz": "America/Chihuahua", "district": "Chihuahua"}, {"id": 816, "name": "Santa Catarina Ayotzingo", "name_ru": "Santa Catarina Ayotzingo", "tz": "America/Mexico_City", "district": "México"}, {"id": 817, "name": "Villa Purificacion", "name_ru": "Villa Purificación", "tz": "America/Mexico_City", "district": "Jalisco"}, {"id": 818, "name": "Almoloya", "name_ru": "Almoloya", "tz": "America/Mexico_City", "district": "Hidalgo"}, {"id": 819, "name": "Santiago Suchilquitongo", "name_ru": "Santiago Suchilquitongo", "tz": "America/Mexico_City", "district": "Oaxaca"}, {"id": 820, "name": "Jaltocan", "name_ru": "Jaltocan", "tz": "America/Mexico_City", "district": "Hidalgo"}, {"id": 821, "name": "Coroneo", "name_ru": "Coroneo", "tz": "America/Mexico_City", "district": "Guanajuato"}, {"id": 822, "name": "Molango", "name_ru": "Molango", "tz": "America/Mexico_City", "district": "Hidalgo"}, {"id": 823, "name": "Agua Blanca Iturbide", "name_ru": "Agua Blanca Iturbide", "tz": "America/Mexico_City", "district": "Hidalgo"}, {"id": 824, "name": "Teocuitatlan de Corona", "name_ru": "Teocuitatlán de Corona", "tz": "America/Mexico_City", "district": "Jalisco"}, {"id": 825, "name": "Chavinda", "name_ru": "Chavinda", "tz": "America/Mexico_City", "district": "Michoacán de Ocampo"}, {"id": 826, "name": "Hecelchakan", "name_ru": "Hecelchakán", "tz": "America/Merida", "district": "Campeche"}, {"id": 827, "name": "Seye", "name_ru": "Seyé", "tz": "America/Merida", "district": "Yucatán"}, {"id": 828, "name": "San Blas", "name_ru": "San Blas", "tz": "America/Mazatlan", "district": "Nayarit"}, {"id": 829, "name": "La Mision", "name_ru": "La Misión", "tz": "America/Mexico_City", "district": "Hidalgo"}, {"id": 830, "name": "Arteaga", "name_ru": "Arteaga", "tz": "America/Monterrey", "district": "Coahuila de Zaragoza"}, {"id": 831, "name": "Santa Isabel Cholula", "name_ru": "Santa Isabel Cholula", "tz": "America/Mexico_City", "district": "Puebla"}, {"id": 832, "name": "San Agustin de las Juntas", "name_ru": "San Agustín de las Juntas", "tz": "America/Mexico_City", "district": "Oaxaca"}, {"id": 833, "name": "San Pedro Huamelula", "name_ru": "San Pedro Huamelula", "tz": "America/Mexico_City", "district": "Oaxaca"}, {"id": 834, "name": "Santa Maria Ajoloapan", "name_ru": "Santa María Ajoloapan", "tz": "America/Mexico_City", "district": "Morelos"}, {"id": 835, "name": "Coycoyan de las Flores", "name_ru": "Coycoyan de las Flores", "tz": "America/Mexico_City", "district": "Guerrero"}, {"id": 836, "name": "Teotitlan", "name_ru": "Teotitlán", "tz": "America/Mexico_City", "district": "Oaxaca"}, {"id": 837, "name": "Santa Cruz Atizapan", "name_ru": "Santa Cruz Atizapán", "tz": "America/Mexico_City", "district": "México"}, {"id": 838, "name": "Cuicatlan", "name_ru": "Cuicatlan", "tz": "America/Mexico_City", "district": "Oaxaca"}, {"id": 839, "name": "Amatenango del Valle", "name_ru": "Amatenango del Valle", "tz": "America/Mexico_City", "district": "Chiapas"}, {"id": 840, "name": "Jilotlan de los Dolores", "name_ru": "Jilotlán de los Dolores", "tz": "America/Mexico_City", "district": "Jalisco"}, {"id": 841, "name": "San Pedro Ixtlahuaca", "name_ru": "San Pedro Ixtlahuaca", "tz": "America/Mexico_City", "district": "Oaxaca"}, {"id": 842, "name": "Nopaltepec", "name_ru": "Nopaltepec", "tz": "America/Mexico_City", "district": "Morelos"}, {"id": 843, "name": "Huaniqueo de Morales", "name_ru": "Huaniqueo de Morales", "tz": "America/Mexico_City", "district": "México"}, {"id": 844, "name": "Hueyotlipan", "name_ru": "Hueyotlipan", "tz": "America/Mexico_City", "district": "Puebla"}, {"id": 845, "name": "Hostotipaquillo", "name_ru": "Hostotipaquillo", "tz": "America/Mexico_City", "district": "Jalisco"}, {"id": 846, "name": "Santo Tomas de los Platanos", "name_ru": "Santo Tomás de los Plátanos", "tz": "America/Mexico_City", "district": "México"}, {"id": 847, "name": "Tzitzio", "name_ru": "Tzitzio", "tz": "America/Mexico_City", "district": "Michoacán de Ocampo"}, {"id": 848, "name": "Lototla", "name_ru": "Lototla", "tz": "America/Mexico_City", "district": "Hidalgo"}, {"id": 849, "name": "Ecatzingo", "name_ru": "Ecatzingo", "tz": "America/Mexico_City", "district": "México"}, {"id": 850, "name": "Caracuaro", "name_ru": "Carácuaro", "tz": "America/Mexico_City", "district": "Michoacán de Ocampo"}, {"id": 851, "name": "Comala", "name_ru": "Comala", "tz": "America/Mexico_City", "district": "Colima"}, {"id": 852, "name": "Coapilla", "name_ru": "Coapilla", "tz": "America/Mexico_City", "district": "Chiapas"}, {"id": 853, "name": "Tlahuiltepa", "name_ru": "Tlahuiltepa", "tz": "America/Mexico_City", "district": "Hidalgo"}, {"id": 854, "name": "Santa Maria del Tule", "name_ru": "Santa María del Tule", "tz": "America/Mexico_City", "district": "Oaxaca"}, {"id": 855, "name": "Santo Domingo Petapa", "name_ru": "Santo Domingo Petapa", "tz": "America/Mexico_City", "district": "Oaxaca"}, {"id": 856, "name": "Guerrero", "name_ru": "Guerrero", "tz": "America/Chihuahua", "district": "Chihuahua"}, {"id": 857, "name": "Villa Chalcatongo de Hidalgo", "name_ru": "Villa Chalcatongo de Hidalgo", "tz": "America/Mexico_City", "district": "Oaxaca"}, {"id": 858, "name": "San Pablo Villa de Mitla", "name_ru": "San Pablo Villa de Mitla", "tz": "America/Mexico_City", "district": "Oaxaca"}, {"id": 859, "name": "Villa Morelos", "name_ru": "Villa Morelos", "tz": "America/Mexico_City", "district": "México"}, {"id": 860, "name": "San Francisco Ixhuatan", "name_ru": "San Francisco Ixhuatan", "tz": "America/Mexico_City", "district": "Oaxaca"}, {"id": 861, "name": "Tepechitlan", "name_ru": "Tepechitlán", "tz": "America/Mexico_City", "district": "Zacatecas"}, {"id": 862, "name": "Tepetitlan", "name_ru": "Tepetitlan", "tz": "America/Mexico_City", "district": "Hidalgo"}, {"id": 863, "name": "San Jose de Gracia", "name_ru": "San José de Gracia", "tz": "America/Mexico_City", "district": "Aguascalientes"}, {"id": 864, "name": "Santa Maria Xadani", "name_ru": "Santa María Xadani", "tz": "America/Mexico_City", "district": "Oaxaca"}, {"id": 865, "name": "Ciudad Cerralvo", "name_ru": "Ciudad Cerralvo", "tz": "America/Monterrey", "district": "Nuevo León"}, {"id": 866, "name": "Tlanalapa", "name_ru": "Tlanalapa", "tz": "America/Mexico_City", "district": "Hidalgo"}, {"id": 867, "name": "El Espinal", "name_ru": "El Espinal", "tz": "America/Mexico_City", "district": "Oaxaca"}, {"id": 868, "name": "Conkal", "name_ru": "Conkal", "tz": "America/Merida", "district": "Yucatán"}, {"id": 869, "name": "Cacalchen", "name_ru": "Cacalchen", "tz": "America/Merida", "district": "Yucatán"}, {"id": 870, "name": "Imuris", "name_ru": "Imuris", "tz": "America/Hermosillo", "district": "Sonora"}, {"id": 871, "name": "San Pablo Huitzo", "name_ru": "San Pablo Huitzo", "tz": "America/Mexico_City", "district": "Oaxaca"}, {"id": 872, "name": "San Miguel del Puerto", "name_ru": "San Miguel del Puerto", "tz": "America/Mexico_City", "district": "Oaxaca"}, {"id": 873, "name": "San Sebastian Tecomaxtlahuaca", "name_ru": "San Sebastián Tecomaxtlahuaca", "tz": "America/Mexico_City", "district": "Oaxaca"}, {"id": 874, "name": "Santiago Yosondua", "name_ru": "Santiago Yosondúa", "tz": "America/Mexico_City", "district": "Oaxaca"}, {"id": 875, "name": "Texmelucan", "name_ru": "Texmelucan", "tz": "America/Mexico_City", "district": "Oaxaca"}, {"id": 876, "name": "Tumbiscatio de Ruiz", "name_ru": "Tumbiscatío de Ruiz", "tz": "America/Mexico_City", "district": "Michoacán de Ocampo"}, {"id": 877, "name": "Chicomuselo", "name_ru": "Chicomuselo", "tz": "America/Mexico_City", "district": "Chiapas"}, {"id": 878, "name": "Atotonilco de Tula", "name_ru": "Atotonilco de Tula", "tz": "America/Mexico_City", "district": "Hidalgo"}, {"id": 879, "name": "Albarradas", "name_ru": "Albarradas", "tz": "America/Mexico_City", "district": "Oaxaca"}, {"id": 880, "name": "San Miguel Quetzaltepec", "name_ru": "San Miguel Quetzaltepec", "tz": "America/Mexico_City", "district": "Oaxaca"}, {"id": 881, "name": "Topolobampo", "name_ru": "Topolobampo", "tz": "America/Mazatlan", "district": "Sinaloa"}, {"id": 882, "name": "Kinchil", "name_ru": "Kinchil", "tz": "America/Merida", "district": "Yucatán"}, {"id": 883, "name": "San Martin Hidalgo", "name_ru": "San Martín Hidalgo", "tz": "America/Mexico_City", "district": "Jalisco"}, {"id": 884, "name": "Solosuchiapa", "name_ru": "Solosuchiapa", "tz": "America/Mexico_City", "district": "Chiapas"}, {"id": 885, "name": "Cosala", "name_ru": "Cosalá", "tz": "America/Mazatlan", "district": "Sinaloa"}, {"id": 886, "name": "Tenampa", "name_ru": "Tenampa", "tz": "America/Mexico_City", "district": "Veracruz"}, {"id": 887, "name": "San Felipe Tejalapan", "name_ru": "San Felipe Tejalapan", "tz": "America/Mexico_City", "district": "Oaxaca"}, {"id": 888, "name": "Tonila", "name_ru": "Tonila", "tz": "America/Mexico_City", "district": "Jalisco"}, {"id": 889, "name": "Temax", "name_ru": "Temax", "tz": "America/Merida", "district": "Yucatán"}, {"id": 890, "name": "Tecuanipan", "name_ru": "Tecuanipan", "tz": "America/Mexico_City", "district": "Puebla"}, {"id": 891, "name": "Villa Diaz Ordaz", "name_ru": "Villa Díaz Ordaz", "tz": "America/Mexico_City", "district": "Oaxaca"}, {"id": 892, "name": "Chapultenango", "name_ru": "Chapultenango", "tz": "America/Mexico_City", "district": "Chiapas"}, {"id": 893, "name": "Dzilam Gonzalez", "name_ru": "Dzilam González", "tz": "America/Merida", "district": "Yucatán"}, {"id": 894, "name": "San Bernardino", "name_ru": "San Bernardino", "tz": "America/Mexico_City", "district": "México"}, {"id": 895, "name": "Omitlan de Juarez", "name_ru": "Omitlán de Juárez", "tz": "America/Mexico_City", "district": "Hidalgo"}, {"id": 896, "name": "Teteles de Avila Castillo", "name_ru": "Teteles de Avila Castillo", "tz": "America/Mexico_City", "district": "Puebla"}, {"id": 897, "name": "Mapimi", "name_ru": "Mapimí", "tz": "America/Monterrey", "district": "Durango"}, {"id": 898, "name": "Francisco Leon", "name_ru": "Francisco León", "tz": "America/Mexico_City", "district": "Chiapas"}, {"id": 899, "name": "Homun", "name_ru": "Homun", "tz": "America/Merida", "district": "Yucatán"}, {"id": 900, "name": "Dzidzantun", "name_ru": "Dzidzantun", "tz": "America/Merida", "district": "Yucatán"}, {"id": 901, "name": "Rosales", "name_ru": "Rosales", "tz": "America/Chihuahua", "district": "Chihuahua"}, {"id": 902, "name": "San Diego de Alejandria", "name_ru": "San Diego de Alejandría", "tz": "America/Mexico_City", "district": "Jalisco"}, {"id": 903, "name": "San Antonino Monteverde", "name_ru": "San Antonino Monteverde", "tz": "America/Mexico_City", "district": "Oaxaca"}, {"id": 904, "name": "Chichimila", "name_ru": "Chichimila", "tz": "America/Merida", "district": "Yucatán"}, {"id": 905, "name": "Villa Union", "name_ru": "Villa Unión", "tz": "America/Matamoros", "district": "Coahuila de Zaragoza"}, {"id": 906, "name": "Tlilapan", "name_ru": "Tlilapan", "tz": "America/Mexico_City", "district": "Veracruz"}, {"id": 907, "name": "Tomatlan", "name_ru": "Tomatlán", "tz": "America/Mexico_City", "district": "Veracruz"}, {"id": 908, "name": "Colipa", "name_ru": "Colipa", "tz": "America/Mexico_City", "district": "Veracruz"}, {"id": 909, "name": "Zacualpan", "name_ru": "Zacualpan", "tz": "America/Mexico_City", "district": "Veracruz"}, {"id": 910, "name": "Huautepec", "name_ru": "Huautepec", "tz": "America/Mexico_City", "district": "Oaxaca"}, {"id": 911, "name": "Santiago", "name_ru": "Santiago", "tz": "America/Mexico_City", "district": "Veracruz"}, {"id": 912, "name": "Ixtapan del Oro", "name_ru": "Ixtapan del Oro", "tz": "America/Mexico_City", "district": "México"}, {"id": 913, "name": "La Grandeza", "name_ru": "La Grandeza", "tz": "America/Mexico_City", "district": "Chiapas"}, {"id": 914, "name": "Ayotzintepec", "name_ru": "Ayotzintepec", "tz": "America/Mexico_City", "district": "Oaxaca"}, {"id": 915, "name": "Texhuacan", "name_ru": "Texhuacán", "tz": "America/Mexico_City", "district": "Veracruz"}, {"id": 916, "name": "Sotuta", "name_ru": "Sotuta", "tz": "America/Merida", "district": "Yucatán"}, {"id": 917, "name": "Tixpehual", "name_ru": "Tixpehual", "tz": "America/Merida", "district": "Yucatán"}, {"id": 918, "name": "Tlapanaloya", "name_ru": "Tlapanaloya", "tz": "America/Mexico_City", "district": "Morelos"}, {"id": 919, "name": "Todos Santos", "name_ru": "Todos Santos", "tz": "America/Mazatlan", "district": "Baja California Sur"}, {"id": 920, "name": "Tuzamapan", "name_ru": "Tuzamapan", "tz": "America/Mexico_City", "district": "Puebla"}, {"id": 921, "name": "Pinotepa de Don Luis", "name_ru": "Pinotepa de Don Luis", "tz": "America/Mexico_City", "district": "Oaxaca"}, {"id": 922, "name": "Tenamaxtlan", "name_ru": "Tenamaxtlán", "tz": "America/Mexico_City", "district": "Jalisco"}, {"id": 923, "name": "Samahil", "name_ru": "Samahil", "tz": "America/Merida", "district": "Yucatán"}, {"id": 924, "name": "Xochicoatlan", "name_ru": "Xochicoatlán", "tz": "America/Mexico_City", "district": "Hidalgo"}, {"id": 925, "name": "San Buenaventura", "name_ru": "San Buenaventura", "tz": "America/Chihuahua", "district": "Chihuahua"}, {"id": 926, "name": "San Jose del Progreso", "name_ru": "San José del Progreso", "tz": "America/Mexico_City", "district": "Oaxaca"}, {"id": 927, "name": "Santiago Yaveo", "name_ru": "Santiago Yaveo", "tz": "America/Mexico_City", "district": "Oaxaca"}, {"id": 928, "name": "Ocampo", "name_ru": "Ocampo", "tz": "America/Monterrey", "district": "Tamaulipas"}, {"id": 929, "name": "Santiago Maravatio", "name_ru": "Santiago Maravatío", "tz": "America/Mexico_City", "district": "Guanajuato"}, {"id": 930, "name": "Tuxcueca", "name_ru": "Tuxcueca", "tz": "America/Mexico_City", "district": "Jalisco"}, {"id": 931, "name": "Morelos", "name_ru": "Morelos", "tz": "America/Matamoros", "district": "Coahuila de Zaragoza"}, {"id": 932, "name": "Santa Lucia Monte Verde", "name_ru": "Santa Lucía Monte Verde", "tz": "America/Mexico_City", "district": "Oaxaca"}, {"id": 933, "name": "Tatatila", "name_ru": "Tatatila", "tz": "America/Mexico_City", "district": "Veracruz"}, {"id": 934, "name": "San Juan Mixtepec", "name_ru": "San Juan Mixtepec", "tz": "America/Mexico_City", "district": "Oaxaca"}, {"id": 935, "name": "Gomez Farias", "name_ru": "Gómez Farías", "tz": "America/Chihuahua", "district": "Chihuahua"}, {"id": 936, "name": "Creel", "name_ru": "Creel", "tz": "America/Chihuahua", "district": "Chihuahua"}, {"id": 937, "name": "Silacayoapam", "name_ru": "Silacayoápam", "tz": "America/Mexico_City", "district": "Oaxaca"}, {"id": 938, "name": "San Jeronimo Tlacochahuaya", "name_ru": "San Jerónimo Tlacochahuaya", "tz": "America/Mexico_City", "district": "Oaxaca"}, {"id": 939, "name": "Atengo", "name_ru": "Atengo", "tz": "America/Mexico_City", "district": "Jalisco"}, {"id": 940, "name": "Penon Blanco", "name_ru": "Peñón Blanco", "tz": "America/Monterrey", "district": "Durango"}, {"id": 941, "name": "Santa Maria Yucuhiti", "name_ru": "Santa María Yucuhiti", "tz": "America/Mexico_City", "district": "Oaxaca"}, {"id": 942, "name": "San Andres Huaxpaltepec", "name_ru": "San Andrés Huaxpaltepec", "tz": "America/Mexico_City", "district": "Oaxaca"}, {"id": 943, "name": "Nicolas Flores", "name_ru": "Nicolás Flores", "tz": "America/Mexico_City", "district": "Hidalgo"}, {"id": 944, "name": "San Antonio Canada", "name_ru": "San Antonio Cañada", "tz": "America/Mexico_City", "district": "Puebla"}, {"id": 945, "name": "Chiquilistlan", "name_ru": "Chiquilistlán", "tz": "America/Mexico_City", "district": "Jalisco"}, {"id": 946, "name": "Concepcion de Buenos Aires", "name_ru": "Concepción de Buenos Aires", "tz": "America/Mexico_City", "district": "Jalisco"}, {"id": 947, "name": "San Simon de Guerrero", "name_ru": "San Simón de Guerrero", "tz": "America/Mexico_City", "district": "México"}, {"id": 948, "name": "Magdalena Tequisistlan", "name_ru": "Magdalena Tequisistlán", "tz": "America/Mexico_City", "district": "Oaxaca"}, {"id": 949, "name": "Los Reyes", "name_ru": "Los Reyes", "tz": "America/Mexico_City", "district": "Veracruz"}, {"id": 950, "name": "San Miguel Panixtlahuaca", "name_ru": "San Miguel Panixtlahuaca", "tz": "America/Mexico_City", "district": "Oaxaca"}, {"id": 951, "name": "San Juan Numi", "name_ru": "San Juan Ñumí", "tz": "America/Mexico_City", "district": "Oaxaca"}, {"id": 952, "name": "Tancoco", "name_ru": "Tancoco", "tz": "America/Mexico_City", "district": "Veracruz"}, {"id": 953, "name": "Otatitlan", "name_ru": "Otatitlán", "tz": "America/Mexico_City", "district": "Veracruz"}, {"id": 954, "name": "Metapa", "name_ru": "Metapa", "tz": "America/Mexico_City", "district": "Chiapas"}, {"id": 955, "name": "San Andres Huayapam", "name_ru": "San Andrés Huayápam", "tz": "America/Mexico_City", "district": "Oaxaca"}, {"id": 956, "name": "San Sebastian del Oeste", "name_ru": "San Sebastián del Oeste", "tz": "America/Mexico_City", "district": "Jalisco"}, {"id": 957, "name": "Huejucar", "name_ru": "Huejúcar", "tz": "America/Mexico_City", "district": "Jalisco"}, {"id": 958, "name": "Atarjea", "name_ru": "Atarjea", "tz": "America/Mexico_City", "district": "Guanajuato"}, {"id": 959, "name": "Xoxocotla", "name_ru": "Xoxocotla", "tz": "America/Mexico_City", "district": "Veracruz"}, {"id": 960, "name": "San Nicolas Tolentino", "name_ru": "San Nicolás Tolentino", "tz": "America/Mexico_City", "district": "San Luis Potosí"}, {"id": 961, "name": "Naco", "name_ru": "Naco", "tz": "America/Hermosillo", "district": "Sonora"}, {"id": 962, "name": "Teojomulco", "name_ru": "Teojomulco", "tz": "America/Mexico_City", "district": "Oaxaca"}, {"id": 963, "name": "Valle de Juarez", "name_ru": "Valle de Juárez", "tz": "America/Mexico_City", "district": "Jalisco"}, {"id": 964, "name": "El Limon", "name_ru": "El Limón", "tz": "America/Mexico_City", "district": "Jalisco"}, {"id": 965, "name": "Ixtapangajoya", "name_ru": "Ixtapangajoya", "tz": "America/Mexico_City", "district": "Chiapas"}, {"id": 966, "name": "General Bravo", "name_ru": "General Bravo", "tz": "America/Monterrey", "district": "Nuevo León"}, {"id": 967, "name": "Totontepec Villa de Morelos", "name_ru": "Totontepec Villa de Morelos", "tz": "America/Mexico_City", "district": "Oaxaca"}, {"id": 968, "name": "Acula", "name_ru": "Acula", "tz": "America/Mexico_City", "district": "Veracruz"}, {"id": 969, "name": "Lampazos de Naranjo", "name_ru": "Lampazos de Naranjo", "tz": "America/Monterrey", "district": "Nuevo León"}, {"id": 970, "name": "Santiago Zacatepec", "name_ru": "Santiago Zacatepec", "tz": "America/Mexico_City", "district": "Oaxaca"}, {"id": 971, "name": "San Cristobal Amatlan", "name_ru": "San Cristóbal Amatlán", "tz": "America/Mexico_City", "district": "Oaxaca"}, {"id": 972, "name": "San Dionisio del Mar", "name_ru": "San Dionisio del Mar", "tz": "America/Mexico_City", "district": "Oaxaca"}, {"id": 973, "name": "Jalcomulco", "name_ru": "Jalcomulco", "tz": "America/Mexico_City", "district": "Veracruz"}, {"id": 974, "name": "San Jeronimo Coatlan", "name_ru": "San Jerónimo Coatlán", "tz": "America/Mexico_City", "district": "Oaxaca"}, {"id": 975, "name": "Nautla", "name_ru": "Nautla", "tz": "America/Mexico_City", "district": "Veracruz"}, {"id": 976, "name": "Mazatan", "name_ru": "Mazatán", "tz": "America/Hermosillo", "district": "Sonora"}, {"id": 977, "name": "Punta Prieta", "name_ru": "Punta Prieta", "tz": "America/Tijuana", "district": "Baja California"}, {"id": 978, "name": "Pueblo Viejo", "name_ru": "Pueblo Viejo", "tz": "America/Mexico_City", "district": "México"}, {"id": 979, "name": "Ixtapa Zihuatanejo", "name_ru": "Ixtapa Zihuatanejo", "tz": "America/Mexico_City", "district": "Guerrero"}, {"id": 980, "name": "Vicam Pueblo", "name_ru": "Vícam Pueblo", "tz": "America/Hermosillo", "district": "Sonora"}, {"id": 981, "name": "Tamchen", "name_ru": "Tamchen", "tz": "America/Merida", "district": "Yucatán"}, {"id": 982, "name": "San Quintin", "name_ru": "San Quintín", "tz": "America/Tijuana", "district": "Baja California"}, {"id": 983, "name": "San Francisco", "name_ru": "San Francisco", "tz": "America/Mexico_City", "district": "Jalisco"}, {"id": 984, "name": "Altata", "name_ru": "Altata", "tz": "America/Mazatlan", "district": "Sinaloa"}]