[{"id": 1, "name": "Kuala Lumpur", "name_ru": "Kuala Lumpur", "tz": "Asia/Kuala_Lumpur", "district": "Kuala Lumpur"}, {"id": 2, "name": "Klang", "name_ru": "Klang", "tz": "Asia/Kuala_Lumpur", "district": "Selangor"}, {"id": 3, "name": "Ipoh", "name_ru": "Ipoh", "tz": "Asia/Kuala_Lumpur", "district": "Perak"}, {"id": 4, "name": "Butterworth", "name_ru": "Butterworth", "tz": "Asia/Kuala_Lumpur", "district": "Pulau Pinang"}, {"id": 5, "name": "George Town", "name_ru": "George Town", "tz": "Asia/Kuala_Lumpur", "district": "Pulau Pinang"}, {"id": 6, "name": "Petaling Jaya", "name_ru": "Petaling Jaya", "tz": "Asia/Kuala_Lumpur", "district": "Selangor"}, {"id": 7, "name": "Kuantan", "name_ru": "Kuantan", "tz": "Asia/Kuala_Lumpur", "district": "Pahang"}, {"id": 8, "name": "Shah Alam", "name_ru": "Shah Alam", "tz": "Asia/Kuala_Lumpur", "district": "Selangor"}, {"id": 9, "name": "Johor Bahru", "name_ru": "Johor Bahru", "tz": "Asia/Kuala_Lumpur", "district": "Johor"}, {"id": 10, "name": "Kota Bharu", "name_ru": "Kota Bharu", "tz": "Asia/Kuala_Lumpur", "district": "Kelantan"}, {"id": 11, "name": "Melaka", "name_ru": "Melaka", "tz": "Asia/Kuala_Lumpur", "district": "Melaka"}, {"id": 12, "name": "Kota Kinabalu", "name_ru": "Kota Kinabalu", "tz": "Asia/Kuching", "district": "Sabah"}, {"id": 13, "name": "Seremban", "name_ru": "Seremban", "tz": "Asia/Kuala_Lumpur", "district": "Negeri Sembilan"}, {"id": 14, "name": "Sandakan", "name_ru": "Sandakan", "tz": "Asia/Kuching", "district": "Sabah"}, {"id": 15, "name": "Sungai Petani", "name_ru": "Sungai Petani", "tz": "Asia/Kuala_Lumpur", "district": "Kedah"}, {"id": 16, "name": "Kuching", "name_ru": "Kuching", "tz": "Asia/Kuching", "district": "Sarawak"}, {"id": 17, "name": "Kuala Terengganu", "name_ru": "Kuala Terengganu", "tz": "Asia/Kuala_Lumpur", "district": "Terengganu"}, {"id": 18, "name": "Sibu", "name_ru": "Sibu", "tz": "Asia/Kuching", "district": "Sarawak"}, {"id": 19, "name": "Taiping", "name_ru": "Taiping", "tz": "Asia/Kuala_Lumpur", "district": "Perak"}, {"id": 20, "name": "Miri", "name_ru": "Miri", "tz": "Asia/Kuching", "district": "Sarawak"}, {"id": 21, "name": "Alor Setar", "name_ru": "Alor Setar", "tz": "Asia/Kuala_Lumpur", "district": "Kedah"}, {"id": 22, "name": "Bukit Mertajam", "name_ru": "Bukit Mertajam", "tz": "Asia/Kuala_Lumpur", "district": "Pulau Pinang"}, {"id": 23, "name": "Lahad Datu", "name_ru": "Lahad Datu", "tz": "Asia/Kuching", "district": "Sabah"}, {"id": 24, "name": "Muar", "name_ru": "Muar", "tz": "Asia/Kuala_Lumpur", "district": "Johor"}, {"id": 25, "name": "Kluang", "name_ru": "Kluang", "tz": "Asia/Kuala_Lumpur", "district": "Johor"}, {"id": 26, "name": "Batu Pahat", "name_ru": "Batu Pahat", "tz": "Asia/Kuala_Lumpur", "district": "Johor"}, {"id": 27, "name": "Bintulu", "name_ru": "Bintulu", "tz": "Asia/Kuching", "district": "Sarawak"}, {"id": 28, "name": "Tawau", "name_ru": "Tawau", "tz": "Asia/Kuching", "district": "Sabah"}, {"id": 29, "name": "Teluk Intan", "name_ru": "Teluk Intan", "tz": "Asia/Kuala_Lumpur", "district": "Perak"}, {"id": 30, "name": "Putrajaya", "name_ru": "Putrajaya", "tz": "Asia/Kuala_Lumpur", "district": "Putrajaya"}, {"id": 31, "name": "Kangar", "name_ru": "Kangar", "tz": "Asia/Kuala_Lumpur", "district": "Perlis"}, {"id": 32, "name": "Labuan", "name_ru": "Labuan", "tz": "Asia/Kuching", "district": "Labuan"}, {"id": 33, "name": "Cukai", "name_ru": "Cukai", "tz": "Asia/Kuala_Lumpur", "district": "Terengganu"}, {"id": 34, "name": "Raub", "name_ru": "Raub", "tz": "Asia/Kuala_Lumpur", "district": "Pahang"}, {"id": 35, "name": "Kuala Lipis", "name_ru": "Kuala Lipis", "tz": "Asia/Kuala_Lumpur", "district": "Pahang"}]