[{"id": 1, "name": "Maputo", "name_ru": "Maputo", "tz": "", "district": "Maputo"}, {"id": 2, "name": "Matola", "name_ru": "Matola", "tz": "", "district": "Maputo"}, {"id": 3, "name": "Nampula", "name_ru": "Nampula", "tz": "", "district": "Nampula"}, {"id": 4, "name": "Beira", "name_ru": "Beira", "tz": "", "district": "Sofala"}, {"id": 5, "name": "Chimoio", "name_ru": "Chimoio", "tz": "", "district": "Manica"}, {"id": 6, "name": "Cidade de Nacala", "name_ru": "Cidade de Nacala", "tz": "", "district": "Nampula"}, {"id": 7, "name": "Quelimane", "name_ru": "Quelimane", "tz": "", "district": "Zambézia"}, {"id": 8, "name": "Tete", "name_ru": "Tete", "tz": "", "district": "Tete"}, {"id": 9, "name": "Pemba", "name_ru": "Pemba", "tz": "", "district": "Cabo Delgado"}, {"id": 10, "name": "Lichinga", "name_ru": "Lichinga", "tz": "", "district": "Niassa"}, {"id": 11, "name": "Xai-Xai", "name_ru": "Xai-Xai", "tz": "", "district": "Gaza"}, {"id": 12, "name": "Maxixe", "name_ru": "Maxixe", "tz": "", "district": "Inhambane"}, {"id": 13, "name": "Inhambane", "name_ru": "Inhambane", "tz": "", "district": "Inhambane"}, {"id": 14, "name": "Dondo", "name_ru": "Dondo", "tz": "", "district": "Sofala"}, {"id": 15, "name": "Cuamba", "name_ru": "Cuamba", "tz": "", "district": "Niassa"}, {"id": 16, "name": "Montepuez", "name_ru": "Montepuez", "tz": "", "district": "Cabo Delgado"}, {"id": 17, "name": "Mocuba", "name_ru": "Mocuba", "tz": "", "district": "Zambézia"}, {"id": 18, "name": "Mocuba", "name_ru": "Mocuba", "tz": "", "district": "Zambézia"}, {"id": 19, "name": "Chokwe", "name_ru": "Chokwé", "tz": "", "district": "Gaza"}, {"id": 20, "name": "Manhica", "name_ru": "Manhiça", "tz": "", "district": "Maputo"}, {"id": 21, "name": "Chibuto", "name_ru": "Chibuto", "tz": "", "district": "Gaza"}, {"id": 22, "name": "Antonio Enes", "name_ru": "António Enes", "tz": "", "district": "Nampula"}, {"id": 23, "name": "Moatize", "name_ru": "Moatize", "tz": "", "district": "Tete"}, {"id": 24, "name": "Mocimboa da Praia", "name_ru": "Mocímboa da Praia", "tz": "", "district": "Cabo Delgado"}, {"id": 25, "name": "Namaacha", "name_ru": "Namaacha", "tz": "", "district": "Maputo"}, {"id": 26, "name": "Mocimboa", "name_ru": "Mocímboa", "tz": "", "district": "Cabo Delgado"}, {"id": 27, "name": "Palma", "name_ru": "Palma", "tz": "", "district": "Cabo Delgado"}, {"id": 28, "name": "Macia", "name_ru": "Macia", "tz": "", "district": "Gaza"}, {"id": 29, "name": "Mapai", "name_ru": "Mapai", "tz": "", "district": "Gaza"}, {"id": 30, "name": "Chinde", "name_ru": "Chinde", "tz": "", "district": "Zambézia"}, {"id": 31, "name": "Ilha de Mocambique", "name_ru": "Ilha de Moçambique", "tz": "", "district": "Nampula"}, {"id": 32, "name": "Manica", "name_ru": "Manica", "tz": "", "district": "Manica"}, {"id": 33, "name": "Espungabera", "name_ru": "Espungabera", "tz": "", "district": "Manica"}, {"id": 34, "name": "Vilankulo", "name_ru": "Vilankulo", "tz": "", "district": "Inhambane"}, {"id": 35, "name": "Marrupa", "name_ru": "Marrupa", "tz": "", "district": "Niassa"}, {"id": 36, "name": "Nicoadala", "name_ru": "Nicoadala", "tz": "", "district": "Zambézia"}, {"id": 37, "name": "Ligonha", "name_ru": "Ligonha", "tz": "", "district": "Nampula"}, {"id": 38, "name": "Regedor Quissico", "name_ru": "Regedor Quissico", "tz": "", "district": "Inhambane"}, {"id": 39, "name": "Massangena", "name_ru": "Massangena", "tz": "", "district": "Gaza"}, {"id": 40, "name": "Panda", "name_ru": "Panda", "tz": "", "district": "Inhambane"}, {"id": 41, "name": "Chiramba", "name_ru": "Chiramba", "tz": "", "district": "Manica"}]