[{"id": 1, "name": "Windhoek", "name_ru": "Windhoek", "tz": "", "district": "Khomas"}, {"id": 2, "name": "Rundu", "name_ru": "Rundu", "tz": "", "district": "Kavango East"}, {"id": 3, "name": "Oshakati", "name_ru": "Oshakati", "tz": "", "district": "Oshana"}, {"id": 4, "name": "Swakopmund", "name_ru": "Swakopmund", "tz": "", "district": "Erongo"}, {"id": 5, "name": "Otjiwarongo", "name_ru": "Otjiwarongo", "tz": "", "district": "Otjozondjupa"}, {"id": 6, "name": "Katima Mulilo", "name_ru": "Katima Mulilo", "tz": "", "district": "Zambezi"}, {"id": 7, "name": "Rehoboth", "name_ru": "Rehoboth", "tz": "", "district": "Hardap"}, {"id": 8, "name": "Gobabis", "name_ru": "Gobabis", "tz": "", "district": "Omaheke"}, {"id": 9, "name": "Keetmanshoop", "name_ru": "Keetmanshoop", "tz": "", "district": "//Karas"}, {"id": 10, "name": "Mariental", "name_ru": "Mariental", "tz": "", "district": "Hardap"}, {"id": 11, "name": "Opuwo", "name_ru": "Opuwo", "tz": "", "district": "Kunene"}, {"id": 12, "name": "Outapi", "name_ru": "Outapi", "tz": "", "district": "Omusati"}, {"id": 13, "name": "Eenhana", "name_ru": "Eenhana", "tz": "", "district": "Ohangwena"}, {"id": 14, "name": "Omuthiya", "name_ru": "Omuthiya", "tz": "", "district": "Oshikoto"}, {"id": 15, "name": "Nkurenkuru", "name_ru": "Nkurenkuru", "tz": "", "district": "Kavango West"}, {"id": 16, "name": "Walvisbaai", "name_ru": "Walvisbaai", "tz": "", "district": "Erongo"}, {"id": 17, "name": "Grootfontein", "name_ru": "Grootfontein", "tz": "", "district": "Otjozondjupa"}, {"id": 18, "name": "Okahandja", "name_ru": "Okahandja", "tz": "", "district": "Otjozondjupa"}, {"id": 19, "name": "Tsumeb", "name_ru": "Tsumeb", "tz": "", "district": "Oshikoto"}, {"id": 20, "name": "Luderitz", "name_ru": "Lüderitz", "tz": "", "district": "//Karas"}, {"id": 21, "name": "Oshikango", "name_ru": "Oshikango", "tz": "", "district": "Ohangwena"}, {"id": 22, "name": "Ongwediva", "name_ru": "Ongwediva", "tz": "", "district": "Oshana"}, {"id": 23, "name": "Omaruru", "name_ru": "Omaruru", "tz": "", "district": "Erongo"}, {"id": 24, "name": "Bethanie", "name_ru": "Bethanie", "tz": "", "district": "//Karas"}, {"id": 25, "name": "Usakos", "name_ru": "Usakos", "tz": "", "district": "Erongo"}, {"id": 26, "name": "Outjo", "name_ru": "Outjo", "tz": "", "district": "Kunene"}, {"id": 27, "name": "Karasburg", "name_ru": "Karasburg", "tz": "", "district": "//Karas"}, {"id": 28, "name": "Kamanjab", "name_ru": "Kamanjab", "tz": "", "district": "Kunene"}, {"id": 29, "name": "Maltahohe", "name_ru": "Maltahöhe", "tz": "", "district": "Hardap"}, {"id": 30, "name": "Oranjemund", "name_ru": "Oranjemund", "tz": "", "district": "//Karas"}, {"id": 31, "name": "Otavi", "name_ru": "Otavi", "tz": "", "district": "Otjozondjupa"}, {"id": 32, "name": "Karibib", "name_ru": "Karibib", "tz": "", "district": "Erongo"}]