[{"id": 1, "name": "Niamey", "name_ru": "Niamey", "tz": "", "district": "Niamey"}, {"id": 2, "name": "Maradi", "name_ru": "Maradi", "tz": "", "district": "Maradi"}, {"id": 3, "name": "Zinder", "name_ru": "Zinder", "tz": "", "district": "Zinder"}, {"id": 4, "name": "Agadez", "name_ru": "Agadez", "tz": "", "district": "Agadez"}, {"id": 5, "name": "Tahoua", "name_ru": "Tahoua", "tz": "", "district": "Tahoua"}, {"id": 6, "name": "Dosso", "name_ru": "Dosso", "tz": "", "district": "Dosso"}, {"id": 7, "name": "Diffa", "name_ru": "Diffa", "tz": "", "district": "Diffa"}, {"id": 8, "name": "Tillaberi", "name_ru": "Tillabéri", "tz": "", "district": "Tillabéri"}, {"id": 9, "name": "Arlit", "name_ru": "Arlit", "tz": "", "district": "Agadez"}, {"id": 10, "name": "Birnin Konni", "name_ru": "Birnin Konni", "tz": "", "district": "Tahoua"}, {"id": 11, "name": "Gaya", "name_ru": "Gaya", "tz": "", "district": "Dosso"}, {"id": 12, "name": "Ayorou", "name_ru": "Ayorou", "tz": "", "district": "Tillabéri"}, {"id": 13, "name": "Madaoua", "name_ru": "Madaoua", "tz": "", "district": "Tahoua"}, {"id": 14, "name": "Nguigmi", "name_ru": "Nguigmi", "tz": "", "district": "Diffa"}, {"id": 15, "name": "Guidan Roumdji", "name_ru": "Guidan Roumdji", "tz": "", "district": "Maradi"}, {"id": 16, "name": "Baleyara", "name_ru": "Baléyara", "tz": "", "district": "Tillabéri"}, {"id": 17, "name": "Goure", "name_ru": "Gouré", "tz": "", "district": "Zinder"}, {"id": 18, "name": "Galmi", "name_ru": "Galmi", "tz": "", "district": "Tahoua"}, {"id": 19, "name": "Kawara", "name_ru": "Kawara", "tz": "", "district": "Tahoua"}, {"id": 20, "name": "Takieta", "name_ru": "Takiéta", "tz": "", "district": "Zinder"}, {"id": 21, "name": "Dabnou", "name_ru": "Dabnou", "tz": "", "district": "Tahoua"}, {"id": 22, "name": "Bani Bangou", "name_ru": "Bani Bangou", "tz": "", "district": "Tillabéri"}, {"id": 23, "name": "Tyourout", "name_ru": "Tyourout", "tz": "", "district": "Tahoua"}, {"id": 24, "name": "Kouli Kouara", "name_ru": "Kouli Kouara", "tz": "", "district": "Tillabéri"}, {"id": 25, "name": "Tounfafi", "name_ru": "Tounfafi", "tz": "", "district": "Tahoua"}, {"id": 26, "name": "Bandio", "name_ru": "Bandio", "tz": "", "district": "Tillabéri"}, {"id": 27, "name": "Toulou", "name_ru": "Toulou", "tz": "", "district": "Tahoua"}, {"id": 28, "name": "Gidan Ider", "name_ru": "Gidan Idèr", "tz": "", "district": "Tahoua"}, {"id": 29, "name": "Baguey", "name_ru": "Baguéy", "tz": "", "district": "Tahoua"}, {"id": 30, "name": "Birnin Kazoe", "name_ru": "Birnin Kazoé", "tz": "", "district": "Zinder"}, {"id": 31, "name": "Yaama", "name_ru": "Yaama", "tz": "", "district": "Tahoua"}, {"id": 32, "name": "Dafawa", "name_ru": "Dafawa", "tz": "", "district": "Tahoua"}, {"id": 33, "name": "Taza", "name_ru": "Taza", "tz": "", "district": "Tahoua"}, {"id": 34, "name": "Angoul Denya", "name_ru": "Angoul Dénya", "tz": "", "district": "Tahoua"}, {"id": 35, "name": "Dosey", "name_ru": "Dosey", "tz": "", "district": "Tahoua"}, {"id": 36, "name": "Toubout", "name_ru": "Toubout", "tz": "", "district": "Tahoua"}, {"id": 37, "name": "Laba", "name_ru": "Laba", "tz": "", "district": "Tahoua"}, {"id": 38, "name": "Moussadeye", "name_ru": "Moussadèye", "tz": "", "district": "Dosso"}, {"id": 39, "name": "Bakin Birji I", "name_ru": "Bakin Birji I", "tz": "", "district": "Zinder"}, {"id": 40, "name": "Sokole", "name_ru": "Sokolé", "tz": "", "district": "Tahoua"}, {"id": 41, "name": "Nasarawa", "name_ru": "Nasarawa", "tz": "", "district": "Tahoua"}, {"id": 42, "name": "Madeta II", "name_ru": "Madéta II", "tz": "", "district": "Tahoua"}, {"id": 43, "name": "Aouloumal", "name_ru": "Aouloumal", "tz": "", "district": "Tahoua"}, {"id": 44, "name": "Belbeji", "name_ru": "Bélbéji", "tz": "", "district": "Zinder"}, {"id": 45, "name": "Hamdallay", "name_ru": "Hamdallay", "tz": "", "district": "Tillabéri"}, {"id": 46, "name": "Asoudie", "name_ru": "Asoudié", "tz": "", "district": "Tahoua"}, {"id": 47, "name": "Sabon Birni", "name_ru": "Sabon Birni", "tz": "", "district": "Dosso"}, {"id": 48, "name": "Dindi", "name_ru": "Dindi", "tz": "", "district": "Tahoua"}, {"id": 49, "name": "Dan Kori", "name_ru": "Dan Kori", "tz": "", "district": "Maradi"}, {"id": 50, "name": "Masalata", "name_ru": "Masalata", "tz": "", "district": "Tahoua"}, {"id": 51, "name": "Garadoume", "name_ru": "Garadoumé", "tz": "", "district": "Tahoua"}, {"id": 52, "name": "Kelente", "name_ru": "Kélénté", "tz": "", "district": "Tahoua"}, {"id": 53, "name": "Toudouni", "name_ru": "Toudouni", "tz": "", "district": "Tahoua"}, {"id": 54, "name": "Djibale", "name_ru": "Djibalé", "tz": "", "district": "Tahoua"}, {"id": 55, "name": "Kaora Abdou", "name_ru": "Kaora Abdou", "tz": "", "district": "Tahoua"}, {"id": 56, "name": "Bouti", "name_ru": "Bouti", "tz": "", "district": "Diffa"}, {"id": 57, "name": "Koundoumawa", "name_ru": "Koundoumawa", "tz": "", "district": "Zinder"}, {"id": 58, "name": "Soubdou", "name_ru": "Soubdou", "tz": "", "district": "Zinder"}, {"id": 59, "name": "Riadi Dan Bizo", "name_ru": "Riadi Dan Bizo", "tz": "", "district": "Maradi"}, {"id": 60, "name": "Souloulou", "name_ru": "Souloulou", "tz": "", "district": "Maradi"}, {"id": 61, "name": "Moulela", "name_ru": "Mouléla", "tz": "", "district": "Tahoua"}, {"id": 62, "name": "Nakoni", "name_ru": "Nakoni", "tz": "", "district": "Tahoua"}, {"id": 63, "name": "Gandasamou", "name_ru": "Gandasamou", "tz": "", "district": "Tahoua"}, {"id": 64, "name": "Sabonkafi", "name_ru": "Sabonkafi", "tz": "", "district": "Zinder"}, {"id": 65, "name": "Jambriji", "name_ru": "Jambriji", "tz": "", "district": "Zinder"}, {"id": 66, "name": "Malgorou", "name_ru": "Malgorou", "tz": "", "district": "Dosso"}, {"id": 67, "name": "Dan Gona", "name_ru": "Dan Gona", "tz": "", "district": "Tahoua"}, {"id": 68, "name": "Diambala", "name_ru": "Diambala", "tz": "", "district": "Tillabéri"}, {"id": 69, "name": "Djado", "name_ru": "Djado", "tz": "", "district": "Agadez"}]