[{"id": 1, "name": "Lagos", "name_ru": "Lagos", "tz": "", "district": "Lagos"}, {"id": 2, "name": "Kano", "name_ru": "Kano", "tz": "", "district": "Kano"}, {"id": 3, "name": "Ibadan", "name_ru": "Ibadan", "tz": "", "district": "Oyo"}, {"id": 4, "name": "Aba", "name_ru": "Aba", "tz": "", "district": "Abia"}, {"id": 5, "name": "Onitsha", "name_ru": "Onitsha", "tz": "", "district": "Anambra"}, {"id": 6, "name": "Abuja", "name_ru": "Abuja", "tz": "", "district": "Federal Capital Territory"}, {"id": 7, "name": "Maiduguri", "name_ru": "Maiduguri", "tz": "", "district": "Borno"}, {"id": 8, "name": "Benin City", "name_ru": "Benin City", "tz": "", "district": "Edo"}, {"id": 9, "name": "Ikare", "name_ru": "Ikare", "tz": "", "district": "Ondo"}, {"id": 10, "name": "Ogbomoso", "name_ru": "Ogbomoso", "tz": "", "district": "Oyo"}, {"id": 11, "name": "Port Harcourt", "name_ru": "Port Harcourt", "tz": "", "district": "Rivers"}, {"id": 12, "name": "Owerri", "name_ru": "Owerri", "tz": "", "district": "Imo"}, {"id": 13, "name": "Abeokuta", "name_ru": "Abeokuta", "tz": "", "district": "Ogun"}, {"id": 14, "name": "Ikeja", "name_ru": "Ikeja", "tz": "", "district": "Lagos"}, {"id": 15, "name": "Akure", "name_ru": "Akure", "tz": "", "district": "Ondo"}, {"id": 16, "name": "Ilorin", "name_ru": "Ilorin", "tz": "", "district": "Kwara"}, {"id": 17, "name": "Warri", "name_ru": "Warri", "tz": "", "district": "Delta"}, {"id": 18, "name": "Kaduna", "name_ru": "Kaduna", "tz": "", "district": "Kaduna"}, {"id": 19, "name": "Osogbo", "name_ru": "Osogbo", "tz": "", "district": "Osun"}, {"id": 20, "name": "Enugu", "name_ru": "Enugu", "tz": "", "district": "Enugu"}, {"id": 21, "name": "Bauchi", "name_ru": "Bauchi", "tz": "", "district": "Bauchi"}, {"id": 22, "name": "Jalingo", "name_ru": "Jalingo", "tz": "", "district": "Taraba"}, {"id": 23, "name": "Jos", "name_ru": "Jos", "tz": "", "district": "Plateau"}, {"id": 24, "name": "Ile-Ife", "name_ru": "Ile-Ife", "tz": "", "district": "Osun"}, {"id": 25, "name": "Calabar", "name_ru": "Calabar", "tz": "", "district": "Cross River"}, {"id": 26, "name": "Ado-Ekiti", "name_ru": "Ado-Ekiti", "tz": "", "district": "Ekiti"}, {"id": 27, "name": "Uyo", "name_ru": "Uyo", "tz": "", "district": "Akwa Ibom"}, {"id": 28, "name": "Sokoto", "name_ru": "Sokoto", "tz": "", "district": "Sokoto"}, {"id": 29, "name": "Zaria", "name_ru": "Zaria", "tz": "", "district": "Kaduna"}, {"id": 30, "name": "Yola", "name_ru": "Yola", "tz": "", "district": "Adamawa"}, {"id": 31, "name": "Oyo", "name_ru": "Oyo", "tz": "", "district": "Oyo"}, {"id": 32, "name": "Gusau", "name_ru": "Gusau", "tz": "", "district": "Zamfara"}, {"id": 33, "name": "Umuahia", "name_ru": "Umuahia", "tz": "", "district": "Abia"}, {"id": 34, "name": "Lafia", "name_ru": "Lafia", "tz": "", "district": "Nasarawa"}, {"id": 35, "name": "Minna", "name_ru": "Minna", "tz": "", "district": "Niger"}, {"id": 36, "name": "Katsina", "name_ru": "Katsina", "tz": "", "district": "Katsina"}, {"id": 37, "name": "Awka", "name_ru": "Awka", "tz": "", "district": "Anambra"}, {"id": 38, "name": "Owo", "name_ru": "Owo", "tz": "", "district": "Ondo"}, {"id": 39, "name": "Gombe", "name_ru": "Gombe", "tz": "", "district": "Gombe"}, {"id": 40, "name": "Ondo", "name_ru": "Ondo", "tz": "", "district": "Ondo"}, {"id": 41, "name": "Damaturu", "name_ru": "Damaturu", "tz": "", "district": "Yobe"}, {"id": 42, "name": "Iwo", "name_ru": "Iwo", "tz": "", "district": "Osun"}, {"id": 43, "name": "Sapele", "name_ru": "Sapele", "tz": "", "district": "Delta"}, {"id": 44, "name": "Apapa", "name_ru": "Apapa", "tz": "", "district": "Lagos"}, {"id": 45, "name": "Mubi", "name_ru": "Mubi", "tz": "", "district": "Adamawa"}, {"id": 46, "name": "Ijebu-Ode", "name_ru": "Ijebu-Ode", "tz": "", "district": "Ogun"}, {"id": 47, "name": "Burutu", "name_ru": "Burutu", "tz": "", "district": "Delta"}, {"id": 48, "name": "Mai'Adua", "name_ru": "Maiâ€™Adua", "tz": "", "district": "Katsina"}, {"id": 49, "name": "Epe", "name_ru": "Epe", "tz": "", "district": "Lagos"}, {"id": 50, "name": "Funtua", "name_ru": "Funtua", "tz": "", "district": "Katsina"}, {"id": 51, "name": "Bida", "name_ru": "Bida", "tz": "", "district": "Niger"}, {"id": 52, "name": "Makurdi", "name_ru": "Makurdi", "tz": "", "district": "Benue"}, {"id": 53, "name": "Zango", "name_ru": "Zango", "tz": "", "district": "Katsina"}, {"id": 54, "name": "Dutse", "name_ru": "Dutse", "tz": "", "district": "Jigawa"}, {"id": 55, "name": "Gashua", "name_ru": "Gashua", "tz": "", "district": "Yobe"}, {"id": 56, "name": "Bama", "name_ru": "Bama", "tz": "", "district": "Borno"}, {"id": 57, "name": "Nsukka", "name_ru": "Nsukka", "tz": "", "district": "Enugu"}, {"id": 58, "name": "Nguru", "name_ru": "Nguru", "tz": "", "district": "Yobe"}, {"id": 59, "name": "Birnin Kebbi", "name_ru": "Birnin Kebbi", "tz": "", "district": "Kebbi"}, {"id": 60, "name": "Azare", "name_ru": "Azare", "tz": "", "district": "Bauchi"}, {"id": 61, "name": "Lokoja", "name_ru": "Lokoja", "tz": "", "district": "Kogi"}, {"id": 62, "name": "Asaba", "name_ru": "Asaba", "tz": "", "district": "Delta"}, {"id": 63, "name": "Yenagoa", "name_ru": "Yenagoa", "tz": "", "district": "Bayelsa"}, {"id": 64, "name": "Abakaliki", "name_ru": "Abakaliki", "tz": "", "district": "Ebonyi"}, {"id": 65, "name": "Kontagora", "name_ru": "Kontagora", "tz": "", "district": "Niger"}, {"id": 66, "name": "Iseyin", "name_ru": "Iseyin", "tz": "", "district": "Oyo"}, {"id": 67, "name": "Biu", "name_ru": "Biu", "tz": "", "district": "Borno"}, {"id": 68, "name": "Wukari", "name_ru": "Wukari", "tz": "", "district": "Taraba"}, {"id": 69, "name": "Keffi", "name_ru": "Keffi", "tz": "", "district": "Nasarawa"}, {"id": 70, "name": "Potiskum", "name_ru": "Potiskum", "tz": "", "district": "Yobe"}, {"id": 71, "name": "Idah", "name_ru": "Idah", "tz": "", "district": "Kogi"}, {"id": 72, "name": "Numan", "name_ru": "Numan", "tz": "", "district": "Adamawa"}, {"id": 73, "name": "Otukpo", "name_ru": "Otukpo", "tz": "", "district": "Benue"}, {"id": 74, "name": "Kumo", "name_ru": "Kumo", "tz": "", "district": "Gombe"}, {"id": 75, "name": "Ikot Abasi", "name_ru": "Ikot Abasi", "tz": "", "district": "Akwa Ibom"}, {"id": 76, "name": "Koko", "name_ru": "Koko", "tz": "", "district": "Kebbi"}, {"id": 77, "name": "Orlu", "name_ru": "Orlu", "tz": "", "district": "Imo"}]