[{"id": 1, "name": "Managua", "name_ru": "Managua", "tz": "", "district": "Managua"}, {"id": 2, "name": "Boaco", "name_ru": "Boaco", "tz": "", "district": "Boaco"}, {"id": 3, "name": "Leon", "name_ru": "León", "tz": "", "district": "León"}, {"id": 4, "name": "Masaya", "name_ru": "Masaya", "tz": "", "district": "Masaya"}, {"id": 5, "name": "Jinotega", "name_ru": "Jinotega", "tz": "", "district": "Jinotega"}, {"id": 6, "name": "Matagalpa", "name_ru": "Matagalpa", "tz": "", "district": "Matagalpa"}, {"id": 7, "name": "Esteli", "name_ru": "Estelí", "tz": "", "district": "Estelí"}, {"id": 8, "name": "Chinandega", "name_ru": "Chinandega", "tz": "", "district": "Chinandega"}, {"id": 9, "name": "Tipitapa", "name_ru": "Tipitapa", "tz": "", "district": "Managua"}, {"id": 10, "name": "Granada", "name_ru": "Granada", "tz": "", "district": "Granada"}, {"id": 11, "name": "Juigalpa", "name_ru": "Juigalpa", "tz": "", "district": "Chontales"}, {"id": 12, "name": "Jinotepe", "name_ru": "Jinotepe", "tz": "", "district": "Carazo"}, {"id": 13, "name": "Bluefields", "name_ru": "Bluefields", "tz": "", "district": "Caribe Sur"}, {"id": 14, "name": "Ocotal", "name_ru": "Ocotal", "tz": "", "district": "Nueva Segovia"}, {"id": 15, "name": "Bilwi", "name_ru": "Bilwi", "tz": "", "district": "Caribe Norte"}, {"id": 16, "name": "Rivas", "name_ru": "Rivas", "tz": "", "district": "Rivas"}, {"id": 17, "name": "Somoto", "name_ru": "Somoto", "tz": "", "district": "Madriz"}, {"id": 18, "name": "San Carlos", "name_ru": "San Carlos", "tz": "", "district": "Río San Juan"}, {"id": 19, "name": "Wiwili", "name_ru": "Wiwilí", "tz": "", "district": "Nueva Segovia"}, {"id": 20, "name": "Siuna", "name_ru": "Siuna", "tz": "", "district": "Caribe Norte"}, {"id": 21, "name": "San Jose de Bocay", "name_ru": "San José de Bocay", "tz": "", "district": "Jinotega"}, {"id": 22, "name": "El Cua", "name_ru": "El Cuá", "tz": "", "district": "Jinotega"}, {"id": 23, "name": "Diriamba", "name_ru": "Diriamba", "tz": "", "district": "Carazo"}, {"id": 24, "name": "El Rama", "name_ru": "El Rama", "tz": "", "district": "Caribe Sur"}, {"id": 25, "name": "Chichigalpa", "name_ru": "Chichigalpa", "tz": "", "district": "Chinandega"}, {"id": 26, "name": "Waslala", "name_ru": "Waslala", "tz": "", "district": "Caribe Norte"}, {"id": 27, "name": "Ciudad Dario", "name_ru": "Ciudad Darío", "tz": "", "district": "Matagalpa"}, {"id": 28, "name": "El Viejo", "name_ru": "El Viejo", "tz": "", "district": "Chinandega"}, {"id": 29, "name": "Nandaime", "name_ru": "Nandaime", "tz": "", "district": "Granada"}, {"id": 30, "name": "San Sebastian de Yali", "name_ru": "San Sebastián de Yalí", "tz": "", "district": "Jinotega"}, {"id": 31, "name": "La Trinidad", "name_ru": "La Trinidad", "tz": "", "district": "Managua"}, {"id": 32, "name": "Condega", "name_ru": "Condega", "tz": "", "district": "Estelí"}, {"id": 33, "name": "San Marcos", "name_ru": "San Marcos", "tz": "", "district": "Carazo"}, {"id": 34, "name": "San Rafael del Sur", "name_ru": "San Rafael del Sur", "tz": "", "district": "Managua"}, {"id": 35, "name": "Corinto", "name_ru": "Corinto", "tz": "", "district": "Chinandega"}, {"id": 36, "name": "San Rafael del Norte", "name_ru": "San Rafael del Norte", "tz": "", "district": "Jinotega"}, {"id": 37, "name": "Pueblo Nuevo", "name_ru": "Pueblo Nuevo", "tz": "", "district": "Estelí"}, {"id": 38, "name": "El Castillo de La Concepcion", "name_ru": "El Castillo de La Concepción", "tz": "", "district": "Río San Juan"}, {"id": 39, "name": "San Juan del Sur", "name_ru": "San Juan del Sur", "tz": "", "district": "Rivas"}, {"id": 40, "name": "Bonanza", "name_ru": "Bonanza", "tz": "", "district": "Caribe Norte"}, {"id": 41, "name": "Niquinohomo", "name_ru": "Niquinohomo", "tz": "", "district": "Masaya"}, {"id": 42, "name": "El Realejo", "name_ru": "El Realejo", "tz": "", "district": "Chinandega"}, {"id": 43, "name": "Yalaguina", "name_ru": "Yalagüina", "tz": "", "district": "Madriz"}, {"id": 44, "name": "Kukrahill", "name_ru": "Kukrahill", "tz": "", "district": "Caribe Sur"}, {"id": 45, "name": "Catarina", "name_ru": "Catarina", "tz": "", "district": "Masaya"}, {"id": 46, "name": "La Concordia", "name_ru": "La Concordia", "tz": "", "district": "Jinotega"}, {"id": 47, "name": "San Jose de Cusmapa", "name_ru": "San José de Cusmapa", "tz": "", "district": "Madriz"}, {"id": 48, "name": "Mozonte", "name_ru": "Mozonte", "tz": "", "district": "Nueva Segovia"}, {"id": 49, "name": "San Francisco del Norte", "name_ru": "San Francisco del Norte", "tz": "", "district": "Chinandega"}, {"id": 50, "name": "Prinzapolka", "name_ru": "Prinzapolka", "tz": "", "district": "Caribe Norte"}, {"id": 51, "name": "El Rosario", "name_ru": "El Rosario", "tz": "", "district": "Carazo"}, {"id": 52, "name": "Greytown", "name_ru": "Greytown", "tz": "", "district": "Río San Juan"}]