[{"id": 1, "name": "Amsterdam", "name_ru": "Amsterdam", "tz": "", "district": "Noord-Holland"}, {"id": 2, "name": "The Hague", "name_ru": "The Hague", "tz": "", "district": "Zuid-Holland"}, {"id": 3, "name": "Rotterdam", "name_ru": "Rotterdam", "tz": "", "district": "Zuid-Holland"}, {"id": 4, "name": "Utrecht", "name_ru": "Utrecht", "tz": "", "district": "Utrecht"}, {"id": 5, "name": "Eindhoven", "name_ru": "Eindhoven", "tz": "", "district": "Noord-Brabant"}, {"id": 6, "name": "Tilburg", "name_ru": "Tilburg", "tz": "", "district": "Noord-Brabant"}, {"id": 7, "name": "Almere", "name_ru": "Almere", "tz": "", "district": "Flevoland"}, {"id": 8, "name": "Groningen", "name_ru": "Groningen", "tz": "", "district": "Groningen"}, {"id": 9, "name": "Breda", "name_ru": "Breda", "tz": "", "district": "Noord-Brabant"}, {"id": 10, "name": "Nijmegen", "name_ru": "Nijmegen", "tz": "", "district": "Gelderland"}, {"id": 11, "name": "Haarlem", "name_ru": "Haarlem", "tz": "", "district": "Noord-Holland"}, {"id": 12, "name": "Apeldoorn", "name_ru": "Apeldoorn", "tz": "", "district": "Gelderland"}, {"id": 13, "name": "Enschede", "name_ru": "Enschede", "tz": "", "district": "Overijssel"}, {"id": 14, "name": "Amersfoort", "name_ru": "Amersfoort", "tz": "", "district": "Utrecht"}, {"id": 15, "name": "Zaanstad", "name_ru": "Zaanstad", "tz": "", "district": "Noord-Holland"}, {"id": 16, "name": "Hoofddorp", "name_ru": "Hoofddorp", "tz": "", "district": "Noord-Holland"}, {"id": 17, "name": "Arnhem", "name_ru": "Arnhem", "tz": "", "district": "Gelderland"}, {"id": 18, "name": "'s-Hertogenbosch", "name_ru": "’s-Hertogenbosch", "tz": "", "district": "Noord-Brabant"}, {"id": 19, "name": "Leiden", "name_ru": "Leiden", "tz": "", "district": "Zuid-Holland"}, {"id": 20, "name": "Zoetermeer", "name_ru": "Zoetermeer", "tz": "", "district": "Zuid-Holland"}, {"id": 21, "name": "Zwolle", "name_ru": "Zwolle", "tz": "", "district": "Overijssel"}, {"id": 22, "name": "Maastricht", "name_ru": "Maastricht", "tz": "", "district": "Limburg"}, {"id": 23, "name": "Dordrecht", "name_ru": "Dordrecht", "tz": "", "district": "Zuid-Holland"}, {"id": 24, "name": "Alphen aan den Rijn", "name_ru": "Alphen aan den Rijn", "tz": "", "district": "Zuid-Holland"}, {"id": 25, "name": "Alkmaar", "name_ru": "Alkmaar", "tz": "", "district": "Noord-Holland"}, {"id": 26, "name": "Emmen", "name_ru": "Emmen", "tz": "", "district": "Drenthe"}, {"id": 27, "name": "Delft", "name_ru": "Delft", "tz": "", "district": "Zuid-Holland"}, {"id": 28, "name": "Amstelveen", "name_ru": "Amstelveen", "tz": "", "district": "Noord-Holland"}, {"id": 29, "name": "Purmerend", "name_ru": "Purmerend", "tz": "", "district": "Noord-Holland"}, {"id": 30, "name": "Schiedam", "name_ru": "Schiedam", "tz": "", "district": "Zuid-Holland"}, {"id": 31, "name": "Lelystad", "name_ru": "Lelystad", "tz": "", "district": "Flevoland"}, {"id": 32, "name": "Gouda", "name_ru": "Gouda", "tz": "", "district": "Zuid-Holland"}, {"id": 33, "name": "Spijkenisse", "name_ru": "Spijkenisse", "tz": "", "district": "Zuid-Holland"}, {"id": 34, "name": "Vlaardingen", "name_ru": "Vlaardingen", "tz": "", "district": "Zuid-Holland"}, {"id": 35, "name": "Zaandam", "name_ru": "Zaandam", "tz": "", "district": "Noord-Holland"}, {"id": 36, "name": "Capelle aan den IJssel", "name_ru": "Capelle aan den IJssel", "tz": "", "district": "Zuid-Holland"}, {"id": 37, "name": "Veenendaal", "name_ru": "Veenendaal", "tz": "", "district": "Utrecht"}, {"id": 38, "name": "Assen", "name_ru": "Assen", "tz": "", "district": "Drenthe"}, {"id": 39, "name": "Katwijk", "name_ru": "Katwijk", "tz": "", "district": "Zuid-Holland"}, {"id": 40, "name": "Nieuwegein", "name_ru": "Nieuwegein", "tz": "", "district": "Utrecht"}, {"id": 41, "name": "Rijswijk", "name_ru": "Rijswijk", "tz": "", "district": "Zuid-Holland"}, {"id": 42, "name": "Barendrecht", "name_ru": "Barendrecht", "tz": "", "district": "Zuid-Holland"}, {"id": 43, "name": "Middelburg", "name_ru": "Middelburg", "tz": "", "district": "Zeeland"}, {"id": 44, "name": "Kerkrade", "name_ru": "Kerkrade", "tz": "", "district": "Limburg"}, {"id": 45, "name": "Beverwijk", "name_ru": "Beverwijk", "tz": "", "district": "Noord-Holland"}, {"id": 46, "name": "Maassluis", "name_ru": "Maassluis", "tz": "", "district": "Zuid-Holland"}, {"id": 47, "name": "Papendrecht", "name_ru": "Papendrecht", "tz": "", "district": "Zuid-Holland"}, {"id": 48, "name": "Bussum", "name_ru": "Bussum", "tz": "", "district": "Noord-Holland"}, {"id": 49, "name": "Hendrik-Ido-Ambacht", "name_ru": "Hendrik-Ido-Ambacht", "tz": "", "district": "Zuid-Holland"}, {"id": 50, "name": "Krimpen aan den IJssel", "name_ru": "Krimpen aan den IJssel", "tz": "", "district": "Zuid-Holland"}, {"id": 51, "name": "Diemen", "name_ru": "Diemen", "tz": "", "district": "Noord-Holland"}, {"id": 52, "name": "Heemstede", "name_ru": "Heemstede", "tz": "", "district": "Noord-Holland"}, {"id": 53, "name": "Leiderdorp", "name_ru": "Leiderdorp", "tz": "", "district": "Zuid-Holland"}, {"id": 54, "name": "Oegstgeest", "name_ru": "Oegstgeest", "tz": "", "district": "Zuid-Holland"}, {"id": 55, "name": "Voorschoten", "name_ru": "Voorschoten", "tz": "", "district": "Zuid-Holland"}, {"id": 56, "name": "Leeuwarden", "name_ru": "Leeuwarden", "tz": "", "district": "Fryslân"}, {"id": 57, "name": "Oranjestad", "name_ru": "Oranjestad", "tz": "", "district": ""}, {"id": 58, "name": "The Bottom", "name_ru": "The Bottom", "tz": "", "district": ""}, {"id": 59, "name": "Kralendijk", "name_ru": "Kralendijk", "tz": "", "district": ""}, {"id": 60, "name": "Deventer", "name_ru": "Deventer", "tz": "", "district": "Overijssel"}, {"id": 61, "name": "Helmond", "name_ru": "Helmond", "tz": "", "district": "Noord-Brabant"}, {"id": 62, "name": "Oss", "name_ru": "Oss", "tz": "", "district": "Noord-Brabant"}, {"id": 63, "name": "Hilversum", "name_ru": "Hilversum", "tz": "", "district": "Noord-Holland"}, {"id": 64, "name": "Heerlen", "name_ru": "Heerlen", "tz": "", "district": "Limburg"}, {"id": 65, "name": "Hengelo", "name_ru": "Hengelo", "tz": "", "district": "Overijssel"}, {"id": 66, "name": "Roosendaal", "name_ru": "Roosendaal", "tz": "", "district": "Noord-Brabant"}, {"id": 67, "name": "Hoorn", "name_ru": "Hoorn", "tz": "", "district": "Noord-Holland"}, {"id": 68, "name": "Almelo", "name_ru": "Almelo", "tz": "", "district": "Overijssel"}, {"id": 69, "name": "Ede", "name_ru": "Ede", "tz": "", "district": "Gelderland"}, {"id": 70, "name": "Velsen-Zuid", "name_ru": "Velsen-Zuid", "tz": "", "district": "Noord-Holland"}, {"id": 71, "name": "Bergen op Zoom", "name_ru": "Bergen op Zoom", "tz": "", "district": "Noord-Brabant"}, {"id": 72, "name": "Zeist", "name_ru": "Zeist", "tz": "", "district": "Utrecht"}, {"id": 73, "name": "Hardenberg", "name_ru": "Hardenberg", "tz": "", "district": "Overijssel"}, {"id": 74, "name": "Barneveld", "name_ru": "Barneveld", "tz": "", "district": "Gelderland"}, {"id": 75, "name": "Doetinchem", "name_ru": "Doetinchem", "tz": "", "district": "Gelderland"}, {"id": 76, "name": "Heerhugowaard", "name_ru": "Heerhugowaard", "tz": "", "district": "Noord-Holland"}, {"id": 77, "name": "Roermond", "name_ru": "Roermond", "tz": "", "district": "Limburg"}, {"id": 78, "name": "Oosterhout", "name_ru": "Oosterhout", "tz": "", "district": "Noord-Brabant"}, {"id": 79, "name": "Den Helder", "name_ru": "Den Helder", "tz": "", "district": "Noord-Holland"}, {"id": 80, "name": "Hoogeveen", "name_ru": "Hoogeveen", "tz": "", "district": "Drenthe"}, {"id": 81, "name": "Terneuzen", "name_ru": "Terneuzen", "tz": "", "district": "Zeeland"}, {"id": 82, "name": "Kampen", "name_ru": "Kampen", "tz": "", "district": "Overijssel"}, {"id": 83, "name": "Woerden", "name_ru": "Woerden", "tz": "", "district": "Utrecht"}, {"id": 84, "name": "Houten", "name_ru": "Houten", "tz": "", "district": "Utrecht"}, {"id": 85, "name": "Sittard", "name_ru": "Sittard", "tz": "", "district": "Limburg"}, {"id": 86, "name": "Weert", "name_ru": "Weert", "tz": "", "district": "Limburg"}, {"id": 87, "name": "IJmuiden", "name_ru": "IJmuiden", "tz": "", "district": "Noord-Holland"}, {"id": 88, "name": "Waalwijk", "name_ru": "Waalwijk", "tz": "", "district": "Noord-Brabant"}, {"id": 89, "name": "Harderwijk", "name_ru": "Harderwijk", "tz": "", "district": "Gelderland"}, {"id": 90, "name": "Zutphen", "name_ru": "Zutphen", "tz": "", "district": "Gelderland"}, {"id": 91, "name": "Ridderkerk", "name_ru": "Ridderkerk", "tz": "", "district": "Zuid-Holland"}, {"id": 92, "name": "Schagen", "name_ru": "Schagen", "tz": "", "district": "Noord-Holland"}, {"id": 93, "name": "Soest", "name_ru": "Soest", "tz": "", "district": "Utrecht"}, {"id": 94, "name": "Veldhoven", "name_ru": "Veldhoven", "tz": "", "district": "Noord-Brabant"}, {"id": 95, "name": "Zwijndrecht", "name_ru": "Zwijndrecht", "tz": "", "district": "Zuid-Holland"}, {"id": 96, "name": "Medemblik", "name_ru": "Medemblik", "tz": "", "district": "Noord-Holland"}, {"id": 97, "name": "Heusden", "name_ru": "Heusden", "tz": "", "district": "Noord-Brabant"}, {"id": 98, "name": "Etten-Leur", "name_ru": "Etten-Leur", "tz": "", "district": "Noord-Brabant"}, {"id": 99, "name": "Vlissingen", "name_ru": "Vlissingen", "tz": "", "district": "Zeeland"}, {"id": 100, "name": "Rheden", "name_ru": "Rheden", "tz": "", "district": "Gelderland"}, {"id": 101, "name": "Zevenaar", "name_ru": "Zevenaar", "tz": "", "district": "Gelderland"}, {"id": 102, "name": "Venray", "name_ru": "Venray", "tz": "", "district": "Limburg"}, {"id": 103, "name": "Noordwijk", "name_ru": "Noordwijk", "tz": "", "district": "Zuid-Holland"}, {"id": 104, "name": "Nijkerk", "name_ru": "Nijkerk", "tz": "", "district": "Gelderland"}, {"id": 105, "name": "De Bilt", "name_ru": "De Bilt", "tz": "", "district": "Utrecht"}, {"id": 106, "name": "Tiel", "name_ru": "Tiel", "tz": "", "district": "Gelderland"}, {"id": 107, "name": "Uden", "name_ru": "Uden", "tz": "", "district": "Noord-Brabant"}, {"id": 108, "name": "Wijchen", "name_ru": "Wijchen", "tz": "", "district": "Gelderland"}, {"id": 109, "name": "Hellevoetsluis", "name_ru": "Hellevoetsluis", "tz": "", "district": "Zuid-Holland"}, {"id": 110, "name": "Maarssen", "name_ru": "Maarssen", "tz": "", "district": "Utrecht"}, {"id": 111, "name": "Dronten", "name_ru": "Dronten", "tz": "", "district": "Flevoland"}, {"id": 112, "name": "Heemskerk", "name_ru": "Heemskerk", "tz": "", "district": "Noord-Holland"}, {"id": 113, "name": "Wageningen", "name_ru": "Wageningen", "tz": "", "district": "Gelderland"}, {"id": 114, "name": "Landgraaf", "name_ru": "Landgraaf", "tz": "", "district": "Limburg"}, {"id": 115, "name": "Veghel", "name_ru": "Veghel", "tz": "", "district": "Noord-Brabant"}, {"id": 116, "name": "Venlo", "name_ru": "Venlo", "tz": "", "district": "Limburg"}, {"id": 117, "name": "Teijlingen", "name_ru": "Teijlingen", "tz": "", "district": "Zuid-Holland"}, {"id": 118, "name": "Goes", "name_ru": "Goes", "tz": "", "district": "Zeeland"}, {"id": 119, "name": "Raalte", "name_ru": "Raalte", "tz": "", "district": "Overijssel"}, {"id": 120, "name": "Moerdijk", "name_ru": "Moerdijk", "tz": "", "district": "Noord-Brabant"}, {"id": 121, "name": "Gorinchem", "name_ru": "Gorinchem", "tz": "", "district": "Zuid-Holland"}, {"id": 122, "name": "Castricum", "name_ru": "Castricum", "tz": "", "district": "Noord-Holland"}, {"id": 123, "name": "Bronkhorst", "name_ru": "Bronkhorst", "tz": "", "district": "Gelderland"}, {"id": 124, "name": "Hellendoorn", "name_ru": "Hellendoorn", "tz": "", "district": "Overijssel"}, {"id": 125, "name": "Coevorden", "name_ru": "Coevorden", "tz": "", "district": "Drenthe"}, {"id": 126, "name": "Berg en Dal", "name_ru": "Berg en Dal", "tz": "", "district": "Gelderland"}, {"id": 127, "name": "IJsselstein", "name_ru": "IJsselstein", "tz": "", "district": "Utrecht"}, {"id": 128, "name": "Meppel", "name_ru": "Meppel", "tz": "", "district": "Drenthe"}, {"id": 129, "name": "Sneek", "name_ru": "Sneek", "tz": "", "district": "Fryslân"}, {"id": 130, "name": "Tynaarlo", "name_ru": "Tynaarlo", "tz": "", "district": "Drenthe"}, {"id": 131, "name": "Lochem", "name_ru": "Lochem", "tz": "", "district": "Gelderland"}, {"id": 132, "name": "Epe", "name_ru": "Epe", "tz": "", "district": "Gelderland"}, {"id": 133, "name": "Oldenzaal", "name_ru": "Oldenzaal", "tz": "", "district": "Overijssel"}, {"id": 134, "name": "Rosmalen", "name_ru": "Rosmalen", "tz": "", "district": "Noord-Brabant"}, {"id": 135, "name": "Aalsmeer", "name_ru": "Aalsmeer", "tz": "", "district": "Noord-Holland"}, {"id": 136, "name": "Deurne", "name_ru": "Deurne", "tz": "", "district": "Noord-Brabant"}, {"id": 137, "name": "Stadskanaal", "name_ru": "Stadskanaal", "tz": "", "district": "Groningen"}, {"id": 138, "name": "Renkum", "name_ru": "Renkum", "tz": "", "district": "Gelderland"}, {"id": 139, "name": "Valkenswaard", "name_ru": "Valkenswaard", "tz": "", "district": "Noord-Brabant"}, {"id": 140, "name": "Boxtel", "name_ru": "Boxtel", "tz": "", "district": "Noord-Brabant"}, {"id": 141, "name": "Best", "name_ru": "Best", "tz": "", "district": "Noord-Brabant"}, {"id": 142, "name": "Leusden", "name_ru": "Leusden", "tz": "", "district": "Utrecht"}, {"id": 143, "name": "Uithoorn", "name_ru": "Uithoorn", "tz": "", "district": "Noord-Holland"}, {"id": 144, "name": "Bergen", "name_ru": "Bergen", "tz": "", "district": "Noord-Holland"}, {"id": 145, "name": "Heesch", "name_ru": "Heesch", "tz": "", "district": "Noord-Brabant"}, {"id": 146, "name": "Oosterend", "name_ru": "Oosterend", "tz": "", "district": "Fryslân"}, {"id": 147, "name": "Brunssum", "name_ru": "Brunssum", "tz": "", "district": "Limburg"}, {"id": 148, "name": "Sint-Michielsgestel", "name_ru": "Sint-Michielsgestel", "tz": "", "district": "Noord-Brabant"}, {"id": 149, "name": "Culemborg", "name_ru": "Culemborg", "tz": "", "district": "Gelderland"}, {"id": 150, "name": "Boxmeer", "name_ru": "Boxmeer", "tz": "", "district": "Noord-Brabant"}, {"id": 151, "name": "Waddinxveen", "name_ru": "Waddinxveen", "tz": "", "district": "Zuid-Holland"}, {"id": 152, "name": "Winterswijk", "name_ru": "Winterswijk", "tz": "", "district": "Gelderland"}, {"id": 153, "name": "Langedijk", "name_ru": "Langedijk", "tz": "", "district": "Noord-Holland"}, {"id": 154, "name": "Nieuwkoop", "name_ru": "Nieuwkoop", "tz": "", "district": "Zuid-Holland"}, {"id": 155, "name": "Heerenveen", "name_ru": "Heerenveen", "tz": "", "district": "Fryslân"}, {"id": 156, "name": "Dalfsen", "name_ru": "Dalfsen", "tz": "", "district": "Overijssel"}, {"id": 157, "name": "Zaltbommel", "name_ru": "Zaltbommel", "tz": "", "district": "Gelderland"}, {"id": 158, "name": "Veendam", "name_ru": "Veendam", "tz": "", "district": "Groningen"}, {"id": 159, "name": "Nunspeet", "name_ru": "Nunspeet", "tz": "", "district": "Gelderland"}, {"id": 160, "name": "Hulst", "name_ru": "Hulst", "tz": "", "district": "Zeeland"}, {"id": 161, "name": "Drimmelen", "name_ru": "Drimmelen", "tz": "", "district": "Noord-Brabant"}, {"id": 162, "name": "Aalten", "name_ru": "Aalten", "tz": "", "district": "Gelderland"}, {"id": 163, "name": "Ermelo", "name_ru": "Ermelo", "tz": "", "district": "Gelderland"}, {"id": 164, "name": "Vught", "name_ru": "Vught", "tz": "", "district": "Noord-Brabant"}, {"id": 165, "name": "Werkendam", "name_ru": "Werkendam", "tz": "", "district": "Noord-Brabant"}, {"id": 166, "name": "Geldermalsen", "name_ru": "Geldermalsen", "tz": "", "district": "Gelderland"}, {"id": 167, "name": "Dongen", "name_ru": "Dongen", "tz": "", "district": "Noord-Brabant"}, {"id": 168, "name": "Sliedrecht", "name_ru": "Sliedrecht", "tz": "", "district": "Zuid-Holland"}, {"id": 169, "name": "Wassenaar", "name_ru": "Wassenaar", "tz": "", "district": "Zuid-Holland"}, {"id": 170, "name": "Oisterwijk", "name_ru": "Oisterwijk", "tz": "", "district": "Noord-Brabant"}, {"id": 171, "name": "Beuningen", "name_ru": "Beuningen", "tz": "", "district": "Gelderland"}, {"id": 172, "name": "Stein", "name_ru": "Stein", "tz": "", "district": "Limburg"}, {"id": 173, "name": "Duiven", "name_ru": "Duiven", "tz": "", "district": "Gelderland"}, {"id": 174, "name": "Tholen", "name_ru": "Tholen", "tz": "", "district": "Zeeland"}, {"id": 175, "name": "Veenoord", "name_ru": "Veenoord", "tz": "", "district": "Fryslân"}, {"id": 176, "name": "Oud-Beijerland", "name_ru": "Oud-Beijerland", "tz": "", "district": "Zuid-Holland"}, {"id": 177, "name": "Baarn", "name_ru": "Baarn", "tz": "", "district": "Utrecht"}, {"id": 178, "name": "Cuijk", "name_ru": "Cuijk", "tz": "", "district": "Noord-Brabant"}, {"id": 179, "name": "Steenbergen", "name_ru": "Steenbergen", "tz": "", "district": "Noord-Brabant"}, {"id": 180, "name": "Delfzijl", "name_ru": "Delfzijl", "tz": "", "district": "Groningen"}, {"id": 181, "name": "Heiloo", "name_ru": "Heiloo", "tz": "", "district": "Noord-Holland"}, {"id": 182, "name": "Voorst", "name_ru": "Voorst", "tz": "", "district": "Gelderland"}, {"id": 183, "name": "Wierden", "name_ru": "Wierden", "tz": "", "district": "Overijssel"}, {"id": 184, "name": "Haaksbergen", "name_ru": "Haaksbergen", "tz": "", "district": "Overijssel"}, {"id": 185, "name": "Putten", "name_ru": "Putten", "tz": "", "district": "Gelderland"}, {"id": 186, "name": "Goirle", "name_ru": "Goirle", "tz": "", "district": "Noord-Brabant"}, {"id": 187, "name": "Wijk bij Duurstede", "name_ru": "Wijk bij Duurstede", "tz": "", "district": "Utrecht"}, {"id": 188, "name": "Lisse", "name_ru": "Lisse", "tz": "", "district": "Zuid-Holland"}, {"id": 189, "name": "Borne", "name_ru": "Borne", "tz": "", "district": "Overijssel"}, {"id": 190, "name": "Bloemendaal", "name_ru": "Bloemendaal", "tz": "", "district": "Noord-Holland"}, {"id": 191, "name": "Oldebroek", "name_ru": "Oldebroek", "tz": "", "district": "Gelderland"}, {"id": 192, "name": "Loon op Zand", "name_ru": "Loon op Zand", "tz": "", "district": "Noord-Brabant"}, {"id": 193, "name": "Elburg", "name_ru": "Elburg", "tz": "", "district": "Gelderland"}, {"id": 194, "name": "Sluis", "name_ru": "Sluis", "tz": "", "district": "Zeeland"}, {"id": 195, "name": "Hillegom", "name_ru": "Hillegom", "tz": "", "district": "Zuid-Holland"}, {"id": 196, "name": "Rucphen", "name_ru": "Rucphen", "tz": "", "district": "Noord-Brabant"}, {"id": 197, "name": "Losser", "name_ru": "Losser", "tz": "", "district": "Overijssel"}, {"id": 198, "name": "Beek en Donk", "name_ru": "Beek en Donk", "tz": "", "district": "Noord-Brabant"}, {"id": 199, "name": "Zeewolde", "name_ru": "Zeewolde", "tz": "", "district": "Flevoland"}, {"id": 200, "name": "Geertruidenberg", "name_ru": "Geertruidenberg", "tz": "", "district": "Noord-Brabant"}, {"id": 201, "name": "Woensdrecht", "name_ru": "Woensdrecht", "tz": "", "district": "Noord-Brabant"}, {"id": 202, "name": "Alblasserdam", "name_ru": "Alblasserdam", "tz": "", "district": "Zuid-Holland"}, {"id": 203, "name": "Zundert", "name_ru": "Zundert", "tz": "", "district": "Noord-Brabant"}, {"id": 204, "name": "Leerdam", "name_ru": "Leerdam", "tz": "", "district": "Zuid-Holland"}, {"id": 205, "name": "Tubbergen", "name_ru": "Tubbergen", "tz": "", "district": "Overijssel"}, {"id": 206, "name": "Urk", "name_ru": "Urk", "tz": "", "district": "Flevoland"}, {"id": 207, "name": "Brummen", "name_ru": "Brummen", "tz": "", "district": "Gelderland"}, {"id": 208, "name": "Cranendonck", "name_ru": "Cranendonck", "tz": "", "district": "Noord-Brabant"}, {"id": 209, "name": "Edam", "name_ru": "Edam", "tz": "", "district": "Noord-Holland"}, {"id": 210, "name": "Rhenen", "name_ru": "Rhenen", "tz": "", "district": "Utrecht"}, {"id": 211, "name": "Bladel", "name_ru": "Bladel", "tz": "", "district": "Noord-Brabant"}, {"id": 212, "name": "Vianen", "name_ru": "Vianen", "tz": "", "district": "Utrecht"}, {"id": 213, "name": "Haren", "name_ru": "Haren", "tz": "", "district": "Groningen"}, {"id": 214, "name": "Weesp", "name_ru": "Weesp", "tz": "", "district": "Noord-Holland"}, {"id": 215, "name": "Leek", "name_ru": "Leek", "tz": "", "district": "Groningen"}, {"id": 216, "name": "Enkhuizen", "name_ru": "Enkhuizen", "tz": "", "district": "Noord-Holland"}, {"id": 217, "name": "Meerssen", "name_ru": "Meerssen", "tz": "", "district": "Limburg"}, {"id": 218, "name": "Someren", "name_ru": "Someren", "tz": "", "district": "Noord-Brabant"}, {"id": 219, "name": "Eersel", "name_ru": "Eersel", "tz": "", "district": "Noord-Brabant"}, {"id": 220, "name": "Groesbeek", "name_ru": "Groesbeek", "tz": "", "district": "Gelderland"}, {"id": 221, "name": "Druten", "name_ru": "Druten", "tz": "", "district": "Gelderland"}, {"id": 222, "name": "Zuidhorn", "name_ru": "Zuidhorn", "tz": "", "district": "Groningen"}, {"id": 223, "name": "Hardinxveld-Giessendam", "name_ru": "Hardinxveld-Giessendam", "tz": "", "district": "Zuid-Holland"}, {"id": 224, "name": "Oirschot", "name_ru": "Oirschot", "tz": "", "district": "Noord-Brabant"}, {"id": 225, "name": "Heerde", "name_ru": "Heerde", "tz": "", "district": "Gelderland"}, {"id": 226, "name": "Bergeijk", "name_ru": "Bergeijk", "tz": "", "district": "Noord-Brabant"}, {"id": 227, "name": "Bodegraven", "name_ru": "Bodegraven", "tz": "", "district": "Zuid-Holland"}, {"id": 228, "name": "Middelharnis", "name_ru": "Middelharnis", "tz": "", "district": "Zuid-Holland"}, {"id": 229, "name": "Sint-Oedenrode", "name_ru": "Sint-Oedenrode", "tz": "", "district": "Noord-Brabant"}, {"id": 230, "name": "Waalre", "name_ru": "Waalre", "tz": "", "district": "Noord-Brabant"}, {"id": 231, "name": "Naarden", "name_ru": "Naarden", "tz": "", "district": "Noord-Holland"}, {"id": 232, "name": "Ommen", "name_ru": "Ommen", "tz": "", "district": "Overijssel"}, {"id": 233, "name": "Brielle", "name_ru": "Brielle", "tz": "", "district": "Zuid-Holland"}, {"id": 234, "name": "Schijndel", "name_ru": "Schijndel", "tz": "", "district": "Noord-Brabant"}, {"id": 235, "name": "Echt", "name_ru": "Echt", "tz": "", "district": "Limburg"}, {"id": 236, "name": "Gennep", "name_ru": "Gennep", "tz": "", "district": "Limburg"}, {"id": 237, "name": "Son en Breugel", "name_ru": "Son en Breugel", "tz": "", "district": "Noord-Brabant"}, {"id": 238, "name": "Zandvoort", "name_ru": "Zandvoort", "tz": "", "district": "Noord-Holland"}, {"id": 239, "name": "Noordwijkerhout", "name_ru": "Noordwijkerhout", "tz": "", "district": "Zuid-Holland"}, {"id": 240, "name": "Nederweert", "name_ru": "Nederweert", "tz": "", "district": "Limburg"}, {"id": 241, "name": "Staphorst", "name_ru": "Staphorst", "tz": "", "district": "Overijssel"}, {"id": 242, "name": "Asten", "name_ru": "Asten", "tz": "", "district": "Noord-Brabant"}, {"id": 243, "name": "Heumen", "name_ru": "Heumen", "tz": "", "district": "Gelderland"}, {"id": 244, "name": "Westervoort", "name_ru": "Westervoort", "tz": "", "district": "Gelderland"}, {"id": 245, "name": "Beek", "name_ru": "Beek", "tz": "", "district": "Limburg"}, {"id": 246, "name": "Harenkarspel", "name_ru": "Harenkarspel", "tz": "", "district": "Noord-Holland"}, {"id": 247, "name": "Harlingen", "name_ru": "Harlingen", "tz": "", "district": "Fryslân"}, {"id": 248, "name": "Sassenheim", "name_ru": "Sassenheim", "tz": "", "district": "Zuid-Holland"}, {"id": 249, "name": "Vlagtwedde", "name_ru": "Vlagtwedde", "tz": "", "district": "Groningen"}, {"id": 250, "name": "Boskoop", "name_ru": "Boskoop", "tz": "", "district": "Zuid-Holland"}, {"id": 251, "name": "Nuth", "name_ru": "Nuth", "tz": "", "district": "Limburg"}, {"id": 252, "name": "Bunnik", "name_ru": "Bunnik", "tz": "", "district": "Utrecht"}, {"id": 253, "name": "Hilvarenbeek", "name_ru": "Hilvarenbeek", "tz": "", "district": "Noord-Brabant"}, {"id": 254, "name": "Breukelen", "name_ru": "Breukelen", "tz": "", "district": "Utrecht"}, {"id": 255, "name": "Woudrichem", "name_ru": "Woudrichem", "tz": "", "district": "Noord-Brabant"}, {"id": 256, "name": "Slochteren", "name_ru": "Slochteren", "tz": "", "district": "Groningen"}, {"id": 257, "name": "Lopik", "name_ru": "Lopik", "tz": "", "district": "Utrecht"}, {"id": 258, "name": "Haaren", "name_ru": "Haaren", "tz": "", "district": "Noord-Brabant"}, {"id": 259, "name": "Montfoort", "name_ru": "Montfoort", "tz": "", "district": "Utrecht"}, {"id": 260, "name": "Uitgeest", "name_ru": "Uitgeest", "tz": "", "district": "Noord-Holland"}, {"id": 261, "name": "Beilen", "name_ru": "Beilen", "tz": "", "district": "Drenthe"}, {"id": 262, "name": "Beesel", "name_ru": "Beesel", "tz": "", "district": "Limburg"}, {"id": 263, "name": "Schoonhoven", "name_ru": "Schoonhoven", "tz": "", "district": "Zuid-Holland"}, {"id": 264, "name": "Margraten", "name_ru": "Margraten", "tz": "", "district": "Limburg"}, {"id": 265, "name": "Winsum", "name_ru": "Winsum", "tz": "", "district": "Groningen"}, {"id": 266, "name": "Reeuwijk", "name_ru": "Reeuwijk", "tz": "", "district": "Zuid-Holland"}, {"id": 267, "name": "Woudenberg", "name_ru": "Woudenberg", "tz": "", "district": "Utrecht"}, {"id": 268, "name": "Schinnen", "name_ru": "Schinnen", "tz": "", "district": "Limburg"}, {"id": 269, "name": "Oudenbosch", "name_ru": "Oudenbosch", "tz": "", "district": "Noord-Brabant"}, {"id": 270, "name": "Bergen", "name_ru": "Bergen", "tz": "", "district": "Limburg"}, {"id": 271, "name": "Franeker", "name_ru": "Franeker", "tz": "", "district": "Fryslân"}, {"id": 272, "name": "Grave", "name_ru": "Grave", "tz": "", "district": "Noord-Brabant"}, {"id": 273, "name": "Kapelle", "name_ru": "Kapelle", "tz": "", "district": "Zeeland"}, {"id": 274, "name": "Voerendaal", "name_ru": "Voerendaal", "tz": "", "district": "Limburg"}, {"id": 275, "name": "Hattem", "name_ru": "Hattem", "tz": "", "district": "Gelderland"}, {"id": 276, "name": "Wieringerwerf", "name_ru": "Wieringerwerf", "tz": "", "district": "Noord-Holland"}, {"id": 277, "name": "Neerijnen", "name_ru": "Neerijnen", "tz": "", "district": "Gelderland"}, {"id": 278, "name": "Dokkum", "name_ru": "Dokkum", "tz": "", "district": "Fryslân"}, {"id": 279, "name": "Grootegast", "name_ru": "Grootegast", "tz": "", "district": "Groningen"}, {"id": 280, "name": "Appingedam", "name_ru": "Appingedam", "tz": "", "district": "Groningen"}, {"id": 281, "name": "Laren", "name_ru": "Laren", "tz": "", "district": "Noord-Holland"}, {"id": 282, "name": "Opmeer", "name_ru": "Opmeer", "tz": "", "district": "Noord-Holland"}, {"id": 283, "name": "Doesburg", "name_ru": "Doesburg", "tz": "", "district": "Gelderland"}, {"id": 284, "name": "Blaricum", "name_ru": "Blaricum", "tz": "", "district": "Noord-Holland"}, {"id": 285, "name": "Landsmeer", "name_ru": "Landsmeer", "tz": "", "district": "Noord-Holland"}, {"id": 286, "name": "Eijsden", "name_ru": "Eijsden", "tz": "", "district": "Limburg"}, {"id": 287, "name": "Sint Anthonis", "name_ru": "Sint Anthonis", "tz": "", "district": "Noord-Brabant"}, {"id": 288, "name": "Leidschendam", "name_ru": "Leidschendam", "tz": "", "district": "Zuid-Holland"}, {"id": 289, "name": "Zierikzee", "name_ru": "Zierikzee", "tz": "", "district": "Zeeland"}, {"id": 290, "name": "Simpelveld", "name_ru": "Simpelveld", "tz": "", "district": "Limburg"}, {"id": 291, "name": "Boekel", "name_ru": "Boekel", "tz": "", "district": "Noord-Brabant"}, {"id": 292, "name": "Bedum", "name_ru": "Bedum", "tz": "", "district": "Groningen"}, {"id": 293, "name": "Marum", "name_ru": "Marum", "tz": "", "district": "Groningen"}, {"id": 294, "name": "Monnickendam", "name_ru": "Monnickendam", "tz": "", "district": "Noord-Holland"}, {"id": 295, "name": "Scherpenzeel", "name_ru": "Scherpenzeel", "tz": "", "district": "Gelderland"}, {"id": 296, "name": "Doorn", "name_ru": "Doorn", "tz": "", "district": "Utrecht"}, {"id": 297, "name": "Vaals", "name_ru": "Vaals", "tz": "", "district": "Limburg"}, {"id": 298, "name": "Oudewater", "name_ru": "Oudewater", "tz": "", "district": "Utrecht"}, {"id": 299, "name": "Oostzaan", "name_ru": "Oostzaan", "tz": "", "district": "Noord-Holland"}, {"id": 300, "name": "Nieuw-Lekkerland", "name_ru": "Nieuw-Lekkerland", "tz": "", "district": "Zuid-Holland"}, {"id": 301, "name": "Bergambacht", "name_ru": "Bergambacht", "tz": "", "district": "Zuid-Holland"}, {"id": 302, "name": "Hoek van Holland", "name_ru": "Hoek van Holland", "tz": "", "district": "Zuid-Holland"}, {"id": 303, "name": "Vlist", "name_ru": "Vlist", "tz": "", "district": "Zuid-Holland"}, {"id": 304, "name": "Liesveld", "name_ru": "Liesveld", "tz": "", "district": "Zuid-Holland"}, {"id": 305, "name": "Ubbergen", "name_ru": "Ubbergen", "tz": "", "district": "Gelderland"}, {"id": 306, "name": "Eemnes", "name_ru": "Eemnes", "tz": "", "district": "Utrecht"}, {"id": 307, "name": "Nieuwleusen", "name_ru": "Nieuwleusen", "tz": "", "district": "Overijssel"}, {"id": 308, "name": "Abcoude", "name_ru": "Abcoude", "tz": "", "district": "Utrecht"}, {"id": 309, "name": "Wervershoof", "name_ru": "Wervershoof", "tz": "", "district": "Noord-Holland"}, {"id": 310, "name": "Strijen", "name_ru": "Strijen", "tz": "", "district": "Zuid-Holland"}, {"id": 311, "name": "Loenen", "name_ru": "Loenen", "tz": "", "district": "Utrecht"}, {"id": 312, "name": "Zoeterwoude", "name_ru": "Zoeterwoude", "tz": "", "district": "Zuid-Holland"}, {"id": 313, "name": "Heel", "name_ru": "Heel", "tz": "", "district": "Limburg"}, {"id": 314, "name": "Dirksland", "name_ru": "Dirksland", "tz": "", "district": "Zuid-Holland"}, {"id": 315, "name": "Ouderkerk aan de Amstel", "name_ru": "Ouderkerk aan de Amstel", "tz": "", "district": "Noord-Holland"}, {"id": 316, "name": "Oostvoorne", "name_ru": "Oostvoorne", "tz": "", "district": "Zuid-Holland"}, {"id": 317, "name": "Anna Paulowna", "name_ru": "Anna Paulowna", "tz": "", "district": "Noord-Holland"}, {"id": 318, "name": "Ten Boer", "name_ru": "Ten Boer", "tz": "", "district": "Groningen"}, {"id": 319, "name": "Lith", "name_ru": "Lith", "tz": "", "district": "Noord-Brabant"}, {"id": 320, "name": "Baarle-Nassau", "name_ru": "Baarle-Nassau", "tz": "", "district": "Noord-Brabant"}, {"id": 321, "name": "Schoorl", "name_ru": "Schoorl", "tz": "", "district": "Noord-Holland"}, {"id": 322, "name": "Teteringen", "name_ru": "Teteringen", "tz": "", "district": "Noord-Brabant"}, {"id": 323, "name": "Andijk", "name_ru": "Andijk", "tz": "", "district": "Noord-Holland"}, {"id": 324, "name": "Millingen aan de Rijn", "name_ru": "Millingen aan de Rijn", "tz": "", "district": "Gelderland"}, {"id": 325, "name": "Groot-Valkenisse", "name_ru": "Groot-Valkenisse", "tz": "", "district": "Zeeland"}, {"id": 326, "name": "Arnemuiden", "name_ru": "Arnemuiden", "tz": "", "district": "Zeeland"}, {"id": 327, "name": "Renswoude", "name_ru": "Renswoude", "tz": "", "district": "Utrecht"}, {"id": 328, "name": "Schermerhorn", "name_ru": "Schermerhorn", "tz": "", "district": "Noord-Holland"}, {"id": 329, "name": "Velden", "name_ru": "Velden", "tz": "", "district": "Limburg"}, {"id": 330, "name": "Wisch", "name_ru": "Wisch", "tz": "", "district": "Gelderland"}, {"id": 331, "name": "Bolsward", "name_ru": "Bolsward", "tz": "", "district": "Fryslân"}]