[{"id": 1, "name": "Oslo", "name_ru": "Oslo", "tz": "", "district": "Oslo"}, {"id": 2, "name": "Bergen", "name_ru": "Bergen", "tz": "", "district": "Hordaland"}, {"id": 3, "name": "Trondheim", "name_ru": "Trondheim", "tz": "", "district": "Sør-Trøndelag"}, {"id": 4, "name": "Stavanger", "name_ru": "Stavanger", "tz": "", "district": "Rogaland"}, {"id": 5, "name": "Kristiansand", "name_ru": "Kristiansand", "tz": "", "district": "Vest-Agder"}, {"id": 6, "name": "Drammen", "name_ru": "Drammen", "tz": "", "district": "Buskerud"}, {"id": 7, "name": "Skien", "name_ru": "Skien", "tz": "", "district": "Telemark"}, {"id": 8, "name": "Bodo", "name_ru": "Bodø", "tz": "", "district": "Nordland"}, {"id": 9, "name": "Arendal", "name_ru": "Arendal", "tz": "", "district": "Aust-Agder"}, {"id": 10, "name": "Tromso", "name_ru": "Tromsø", "tz": "", "district": "Troms"}, {"id": 11, "name": "Molde", "name_ru": "Molde", "tz": "", "district": "Møre og Romsdal"}, {"id": 12, "name": "Hamar", "name_ru": "Hamar", "tz": "", "district": "Hedmark"}, {"id": 13, "name": "Steinkjer", "name_ru": "Steinkjer", "tz": "", "district": "Nord-Trøndelag"}, {"id": 14, "name": "Fredrikstad", "name_ru": "Fredrikstad", "tz": "", "district": "Østfold"}, {"id": 15, "name": "Sandefjord", "name_ru": "Sandefjord", "tz": "", "district": "Vestfold"}, {"id": 16, "name": "Asker", "name_ru": "Asker", "tz": "", "district": "Oslo"}, {"id": 17, "name": "Nordre Fale", "name_ru": "Nordre Fåle", "tz": "", "district": "Akershus"}, {"id": 18, "name": "Sandnes", "name_ru": "Sandnes", "tz": "", "district": "Rogaland"}, {"id": 19, "name": "Tonsberg", "name_ru": "Tønsberg", "tz": "", "district": "Vestfold"}, {"id": 20, "name": "Sarpsborg", "name_ru": "Sarpsborg", "tz": "", "district": "Østfold"}, {"id": 21, "name": "Alesund", "name_ru": "Ålesund", "tz": "", "district": "Møre og Romsdal"}, {"id": 22, "name": "Moss", "name_ru": "Moss", "tz": "", "district": "Østfold"}, {"id": 23, "name": "Lorenskog", "name_ru": "Lørenskog", "tz": "", "district": "Akershus"}, {"id": 24, "name": "Haugesund", "name_ru": "Haugesund", "tz": "", "district": "Rogaland"}, {"id": 25, "name": "Porsgrunn", "name_ru": "Porsgrunn", "tz": "", "district": "Telemark"}, {"id": 26, "name": "Ringsaker", "name_ru": "Ringsaker", "tz": "", "district": "Hedmark"}, {"id": 27, "name": "Halden", "name_ru": "Halden", "tz": "", "district": "Østfold"}, {"id": 28, "name": "Ski", "name_ru": "Ski", "tz": "", "district": "Akershus"}, {"id": 29, "name": "Askoy", "name_ru": "Askøy", "tz": "", "district": "Hordaland"}, {"id": 30, "name": "Lillehammer", "name_ru": "Lillehammer", "tz": "", "district": "Oppland"}, {"id": 31, "name": "Oppegard", "name_ru": "Oppegård", "tz": "", "district": "Akershus"}, {"id": 32, "name": "Sola", "name_ru": "Sola", "tz": "", "district": "Rogaland"}, {"id": 33, "name": "Kongsberg", "name_ru": "Kongsberg", "tz": "", "district": "Buskerud"}, {"id": 34, "name": "Lier", "name_ru": "Lier", "tz": "", "district": "Buskerud"}, {"id": 35, "name": "Eidsvoll", "name_ru": "Eidsvoll", "tz": "", "district": "Akershus"}, {"id": 36, "name": "Nedre Eiker", "name_ru": "Nedre Eiker", "tz": "", "district": "Buskerud"}, {"id": 37, "name": "Sand", "name_ru": "Sand", "tz": "", "district": "Vestfold"}, {"id": 38, "name": "Harstad", "name_ru": "Harstad", "tz": "", "district": "Troms"}, {"id": 39, "name": "Larvik", "name_ru": "Larvik", "tz": "", "district": "Vestfold"}, {"id": 40, "name": "Borre", "name_ru": "Borre", "tz": "", "district": "Vestfold"}, {"id": 41, "name": "Nittedal", "name_ru": "Nittedal", "tz": "", "district": "Akershus"}, {"id": 42, "name": "Stjordal", "name_ru": "Stjørdal", "tz": "", "district": "Nord-Trøndelag"}, {"id": 43, "name": "Royken", "name_ru": "Røyken", "tz": "", "district": "Buskerud"}, {"id": 44, "name": "Sem", "name_ru": "Sem", "tz": "", "district": "Vestfold"}, {"id": 45, "name": "Notteroy", "name_ru": "Nøtterøy", "tz": "", "district": "Vestfold"}, {"id": 46, "name": "Elverum", "name_ru": "Elverum", "tz": "", "district": "Hedmark"}, {"id": 47, "name": "Stange", "name_ru": "Stange", "tz": "", "district": "Hedmark"}, {"id": 48, "name": "Horten", "name_ru": "Horten", "tz": "", "district": "Vestfold"}, {"id": 49, "name": "As", "name_ru": "Ås", "tz": "", "district": "Akershus"}, {"id": 50, "name": "Gjovik", "name_ru": "Gjøvik", "tz": "", "district": "Oppland"}, {"id": 51, "name": "Nesoddtangen", "name_ru": "Nesoddtangen", "tz": "", "district": "Akershus"}, {"id": 52, "name": "Kleppe", "name_ru": "Kleppe", "tz": "", "district": "Rogaland"}, {"id": 53, "name": "Os", "name_ru": "Os", "tz": "", "district": "Hordaland"}, {"id": 54, "name": "Time", "name_ru": "Time", "tz": "", "district": "Rogaland"}, {"id": 55, "name": "Stord", "name_ru": "Stord", "tz": "", "district": "Hordaland"}, {"id": 56, "name": "Mo i Rana", "name_ru": "Mo i Rana", "tz": "", "district": "Nordland"}, {"id": 57, "name": "Kristiansund", "name_ru": "Kristiansund", "tz": "", "district": "Møre og Romsdal"}, {"id": 58, "name": "Vestby", "name_ru": "Vestby", "tz": "", "district": "Akershus"}, {"id": 59, "name": "Sorum", "name_ru": "Sørum", "tz": "", "district": "Akershus"}, {"id": 60, "name": "Kosvik", "name_ru": "Kosvik", "tz": "", "district": "Vest-Agder"}, {"id": 61, "name": "Kongsvinger", "name_ru": "Kongsvinger", "tz": "", "district": "Hedmark"}, {"id": 62, "name": "Rygge", "name_ru": "Rygge", "tz": "", "district": "Østfold"}, {"id": 63, "name": "Frogn", "name_ru": "Frogn", "tz": "", "district": "Akershus"}, {"id": 64, "name": "Voss", "name_ru": "Voss", "tz": "", "district": "Hordaland"}, {"id": 65, "name": "Lindas", "name_ru": "Lindås", "tz": "", "district": "Hordaland"}, {"id": 66, "name": "Mandal", "name_ru": "Mandal", "tz": "", "district": "Vest-Agder"}, {"id": 67, "name": "Alta", "name_ru": "Alta", "tz": "", "district": "Finnmark"}, {"id": 68, "name": "Verdal", "name_ru": "Verdal", "tz": "", "district": "Nord-Trøndelag"}, {"id": 69, "name": "Vennesla", "name_ru": "Vennesla", "tz": "", "district": "Vest-Agder"}, {"id": 70, "name": "Askim", "name_ru": "Askim", "tz": "", "district": "Østfold"}, {"id": 71, "name": "Nannestad", "name_ru": "Nannestad", "tz": "", "district": "Akershus"}, {"id": 72, "name": "Malvik", "name_ru": "Malvik", "tz": "", "district": "Sør-Trøndelag"}, {"id": 73, "name": "Narvik", "name_ru": "Narvik", "tz": "", "district": "Nordland"}, {"id": 74, "name": "Bamble", "name_ru": "Bamble", "tz": "", "district": "Telemark"}, {"id": 75, "name": "Gran", "name_ru": "Gran", "tz": "", "district": "Oppland"}, {"id": 76, "name": "Drobak", "name_ru": "Drøbak", "tz": "", "district": "Akershus"}, {"id": 77, "name": "Grimstad", "name_ru": "Grimstad", "tz": "", "district": "Aust-Agder"}, {"id": 78, "name": "Strand", "name_ru": "Strand", "tz": "", "district": "Rogaland"}, {"id": 79, "name": "Notodden", "name_ru": "Notodden", "tz": "", "district": "Telemark"}, {"id": 80, "name": "Bomlo", "name_ru": "Bømlo", "tz": "", "district": "Hordaland"}, {"id": 81, "name": "Sogndal", "name_ru": "Sogndal", "tz": "", "district": "Sogn og Fjordane"}, {"id": 82, "name": "Lommedalen", "name_ru": "Lommedalen", "tz": "", "district": "Oslo"}, {"id": 83, "name": "Randaberg", "name_ru": "Randaberg", "tz": "", "district": "Rogaland"}, {"id": 84, "name": "Stokke", "name_ru": "Stokke", "tz": "", "district": "Vestfold"}, {"id": 85, "name": "Lenvik", "name_ru": "Lenvik", "tz": "", "district": "Troms"}, {"id": 86, "name": "Egersund", "name_ru": "Egersund", "tz": "", "district": "Rogaland"}, {"id": 87, "name": "Eidsberg", "name_ru": "Eidsberg", "tz": "", "district": "Østfold"}, {"id": 88, "name": "Sogne", "name_ru": "Søgne", "tz": "", "district": "Vest-Agder"}, {"id": 89, "name": "Tysvaer", "name_ru": "Tysvær", "tz": "", "district": "Rogaland"}, {"id": 90, "name": "Enebakk", "name_ru": "Enebakk", "tz": "", "district": "Akershus"}, {"id": 91, "name": "Orsta", "name_ru": "Ørsta", "tz": "", "district": "Møre og Romsdal"}, {"id": 92, "name": "Volda", "name_ru": "Volda", "tz": "", "district": "Møre og Romsdal"}, {"id": 93, "name": "Sortland", "name_ru": "Sortland", "tz": "", "district": "Nordland"}, {"id": 94, "name": "Heum", "name_ru": "Heum", "tz": "", "district": "Vestfold"}, {"id": 95, "name": "Lyngdal", "name_ru": "Lyngdal", "tz": "", "district": "Vest-Agder"}, {"id": 96, "name": "Kragero", "name_ru": "Kragerø", "tz": "", "district": "Telemark"}, {"id": 97, "name": "Levanger", "name_ru": "Levanger", "tz": "", "district": "Nord-Trøndelag"}, {"id": 98, "name": "Forde", "name_ru": "Førde", "tz": "", "district": "Sogn og Fjordane"}, {"id": 99, "name": "Sande", "name_ru": "Sande", "tz": "", "district": "Vestfold"}, {"id": 100, "name": "Farsund", "name_ru": "Farsund", "tz": "", "district": "Vest-Agder"}, {"id": 101, "name": "Fauske", "name_ru": "Fauske", "tz": "", "district": "Nordland"}, {"id": 102, "name": "Haram", "name_ru": "Haram", "tz": "", "district": "Møre og Romsdal"}, {"id": 103, "name": "Lunner", "name_ru": "Lunner", "tz": "", "district": "Oppland"}, {"id": 104, "name": "Flekkefjord", "name_ru": "Flekkefjord", "tz": "", "district": "Vest-Agder"}, {"id": 105, "name": "Floro", "name_ru": "Florø", "tz": "", "district": "Sogn og Fjordane"}, {"id": 106, "name": "Ulstein", "name_ru": "Ulstein", "tz": "", "district": "Møre og Romsdal"}, {"id": 107, "name": "Namsos", "name_ru": "Namsos", "tz": "", "district": "Nord-Trøndelag"}, {"id": 108, "name": "Skaun", "name_ru": "Skaun", "tz": "", "district": "Sør-Trøndelag"}, {"id": 109, "name": "Rakkestad", "name_ru": "Rakkestad", "tz": "", "district": "Østfold"}, {"id": 110, "name": "Hokksund", "name_ru": "Hokksund", "tz": "", "district": "Buskerud"}, {"id": 111, "name": "Hammerfest", "name_ru": "Hammerfest", "tz": "", "district": "Finnmark"}, {"id": 112, "name": "Akrehamn", "name_ru": "Åkrehamn", "tz": "", "district": "Rogaland"}, {"id": 113, "name": "Lillesand", "name_ru": "Lillesand", "tz": "", "district": "Aust-Agder"}, {"id": 114, "name": "Meland", "name_ru": "Meland", "tz": "", "district": "Hordaland"}, {"id": 115, "name": "Loten", "name_ru": "Løten", "tz": "", "district": "Hedmark"}, {"id": 116, "name": "Rade", "name_ru": "Råde", "tz": "", "district": "Østfold"}, {"id": 117, "name": "Sykkylven", "name_ru": "Sykkylven", "tz": "", "district": "Møre og Romsdal"}, {"id": 118, "name": "Alstahaug", "name_ru": "Alstahaug", "tz": "", "district": "Nordland"}, {"id": 119, "name": "Asnes", "name_ru": "Åsnes", "tz": "", "district": "Hedmark"}, {"id": 120, "name": "Stryn", "name_ru": "Stryn", "tz": "", "district": "Sogn og Fjordane"}, {"id": 121, "name": "Oppdal", "name_ru": "Oppdal", "tz": "", "district": "Sør-Trøndelag"}, {"id": 122, "name": "Vestnes", "name_ru": "Vestnes", "tz": "", "district": "Møre og Romsdal"}, {"id": 123, "name": "Sunndalsora", "name_ru": "Sunndalsøra", "tz": "", "district": "Møre og Romsdal"}, {"id": 124, "name": "Jevnaker", "name_ru": "Jevnaker", "tz": "", "district": "Oppland"}, {"id": 125, "name": "Risor", "name_ru": "Risør", "tz": "", "district": "Aust-Agder"}, {"id": 126, "name": "Svelvik", "name_ru": "Svelvik", "tz": "", "district": "Vestfold"}, {"id": 127, "name": "Rissa", "name_ru": "Rissa", "tz": "", "district": "Sør-Trøndelag"}, {"id": 128, "name": "Trysil", "name_ru": "Trysil", "tz": "", "district": "Hedmark"}, {"id": 129, "name": "Melhus", "name_ru": "Melhus", "tz": "", "district": "Sør-Trøndelag"}, {"id": 130, "name": "Mesoy", "name_ru": "Mesøy", "tz": "", "district": "Nordland"}, {"id": 131, "name": "Bo", "name_ru": "Bø", "tz": "", "district": "Telemark"}, {"id": 132, "name": "Klaebu", "name_ru": "Klæbu", "tz": "", "district": "Sør-Trøndelag"}, {"id": 133, "name": "Spydeberg", "name_ru": "Spydeberg", "tz": "", "district": "Østfold"}, {"id": 134, "name": "Sandnessjoen", "name_ru": "Sandnessjøen", "tz": "", "district": "Nordland"}, {"id": 135, "name": "Froland", "name_ru": "Froland", "tz": "", "district": "Aust-Agder"}, {"id": 136, "name": "Andebu", "name_ru": "Andebu", "tz": "", "district": "Vestfold"}, {"id": 137, "name": "Kvinesdal", "name_ru": "Kvinesdal", "tz": "", "district": "Vest-Agder"}, {"id": 138, "name": "Vereide", "name_ru": "Vereide", "tz": "", "district": "Sogn og Fjordane"}, {"id": 139, "name": "Surnadal", "name_ru": "Surnadal", "tz": "", "district": "Møre og Romsdal"}, {"id": 140, "name": "Valer", "name_ru": "Våler", "tz": "", "district": "Østfold"}, {"id": 141, "name": "Sveio", "name_ru": "Sveio", "tz": "", "district": "Hordaland"}, {"id": 142, "name": "Stavern", "name_ru": "Stavern", "tz": "", "district": "Vestfold"}, {"id": 143, "name": "Nord-Fron", "name_ru": "Nord-Fron", "tz": "", "district": "Oppland"}, {"id": 144, "name": "Vadso", "name_ru": "Vadsø", "tz": "", "district": "Finnmark"}, {"id": 145, "name": "Balsfjord", "name_ru": "Balsfjord", "tz": "", "district": "Troms"}, {"id": 146, "name": "Hobol", "name_ru": "Hobøl", "tz": "", "district": "Østfold"}, {"id": 147, "name": "Trogstad", "name_ru": "Trøgstad", "tz": "", "district": "Østfold"}, {"id": 148, "name": "Frei", "name_ru": "Frei", "tz": "", "district": "Møre og Romsdal"}, {"id": 149, "name": "Hareid", "name_ru": "Hareid", "tz": "", "district": "Møre og Romsdal"}, {"id": 150, "name": "Austevoll", "name_ru": "Austevoll", "tz": "", "district": "Hordaland"}, {"id": 151, "name": "Birkenes", "name_ru": "Birkenes", "tz": "", "district": "Aust-Agder"}, {"id": 152, "name": "Hitra", "name_ru": "Hitra", "tz": "", "district": "Sør-Trøndelag"}, {"id": 153, "name": "Oyer", "name_ru": "Øyer", "tz": "", "district": "Oppland"}, {"id": 154, "name": "Sand", "name_ru": "Sand", "tz": "", "district": "Hedmark"}, {"id": 155, "name": "Svolvaer", "name_ru": "Svolvær", "tz": "", "district": "Nordland"}, {"id": 156, "name": "Finnsnes", "name_ru": "Finnsnes", "tz": "", "district": "Troms"}, {"id": 157, "name": "Kirkenes", "name_ru": "Kirkenes", "tz": "", "district": "Finnmark"}, {"id": 158, "name": "Rorvik", "name_ru": "Rørvik", "tz": "", "district": "Nord-Trøndelag"}, {"id": 159, "name": "Kaupanger", "name_ru": "Kaupanger", "tz": "", "district": "Sogn og Fjordane"}, {"id": 160, "name": "Holmestrand", "name_ru": "Holmestrand", "tz": "", "district": "Vestfold"}, {"id": 161, "name": "Vossevangen", "name_ru": "Vossevangen", "tz": "", "district": "Hordaland"}]