[{"id": 1, "name": "Kathmandu", "name_ru": "Kathmandu", "tz": "", "district": "Bāgmatī"}, {"id": 2, "name": "Pokhara", "name_ru": "Pokhara", "tz": "", "district": "Gandakī"}, {"id": 3, "name": "Jitpur", "name_ru": "Jitpur", "tz": "", "district": "Bāgmatī"}, {"id": 4, "name": "Biratnagar", "name_ru": "Birāṭnagar", "tz": "", "district": "Kosī"}, {"id": 5, "name": "Ghorahi", "name_ru": "Ghorāhī", "tz": "", "district": "Rāptī"}, {"id": 6, "name": "Bharatpur", "name_ru": "Bharatpur", "tz": "", "district": "Nārāyanī"}, {"id": 7, "name": "Birganj", "name_ru": "Birgañj", "tz": "", "district": "Nārāyanī"}, {"id": 8, "name": "Butwal", "name_ru": "Butwāl", "tz": "", "district": "Lumbinī"}, {"id": 9, "name": "Dharan", "name_ru": "Dharān", "tz": "", "district": "Kosī"}, {"id": 10, "name": "Dhangadhi", "name_ru": "Dhangaḍhi̇̄", "tz": "", "district": "Setī"}, {"id": 11, "name": "Janakpur", "name_ru": "Janakpur", "tz": "", "district": "Janakpur"}, {"id": 12, "name": "Hetauda", "name_ru": "Heṭauḍā", "tz": "", "district": "Nārāyanī"}, {"id": 13, "name": "Kirtipur", "name_ru": "Kirtipur", "tz": "", "district": "Bāgmatī"}, {"id": 14, "name": "Godawari", "name_ru": "Godāwari̇̄", "tz": "", "district": "Setī"}, {"id": 15, "name": "Birendranagar", "name_ru": "Birendranagar", "tz": "", "district": "Bherī"}, {"id": 16, "name": "Siraha", "name_ru": "Siraha", "tz": "", "district": "Sagarmāthā"}, {"id": 17, "name": "Bhaktapur", "name_ru": "Bhaktapur", "tz": "", "district": "Bāgmatī"}, {"id": 18, "name": "Itahari", "name_ru": "Īṭahari̇̄", "tz": "", "district": "Kosī"}, {"id": 19, "name": "Nepalganj", "name_ru": "Nepālgañj", "tz": "", "district": "Bherī"}, {"id": 20, "name": "Bhairahawa", "name_ru": "Bhairāhawā", "tz": "", "district": "Lumbinī"}, {"id": 21, "name": "Tilakpur", "name_ru": "Tilakpur", "tz": "", "district": "Setī"}, {"id": 22, "name": "Gulariya", "name_ru": "Gulariyā", "tz": "", "district": "Bherī"}, {"id": 23, "name": "Tulsipur", "name_ru": "Tulsīpur", "tz": "", "district": "Rāptī"}, {"id": 24, "name": "Kalaiya", "name_ru": "Kalaiyā", "tz": "", "district": "Nārāyanī"}, {"id": 25, "name": "Hanumannagar", "name_ru": "Hanumānnagar", "tz": "", "district": "Sagarmāthā"}, {"id": 26, "name": "Baglung", "name_ru": "Bāglung", "tz": "", "district": "Dhawalāgiri"}, {"id": 27, "name": "Palpa", "name_ru": "Pālpā", "tz": "", "district": "Lumbinī"}, {"id": 28, "name": "Bidur", "name_ru": "Bidur", "tz": "", "district": "Bāgmatī"}, {"id": 29, "name": "Panauti", "name_ru": "Panauti", "tz": "", "district": "Bāgmatī"}, {"id": 30, "name": "Khadbari", "name_ru": "Khā̃dbāri̇̄", "tz": "", "district": "Kosī"}, {"id": 31, "name": "Malangawa", "name_ru": "Malaṅgawā", "tz": "", "district": "Janakpur"}, {"id": 32, "name": "Jaleshwar", "name_ru": "Jaleshwar", "tz": "", "district": "Janakpur"}, {"id": 33, "name": "Daksinkali", "name_ru": "Dakṣiṇkāli̇̄", "tz": "", "district": "Bāgmatī"}, {"id": 34, "name": "Dadeldhura", "name_ru": "Dadeldhurā", "tz": "", "district": "Mahākālī"}, {"id": 35, "name": "Ilam", "name_ru": "Īlām", "tz": "", "district": "Mechī"}, {"id": 36, "name": "Salyan", "name_ru": "Salyan", "tz": "", "district": "Rāptī"}, {"id": 37, "name": "Bhimphedi", "name_ru": "Bhimphedi", "tz": "", "district": "Nārāyanī"}, {"id": 38, "name": "Ramechhap", "name_ru": "Rāmechhāp", "tz": "", "district": "Janakpur"}, {"id": 39, "name": "Bandipur", "name_ru": "Bandipur", "tz": "", "district": "Gandakī"}, {"id": 40, "name": "Kisanpur", "name_ru": "Kisanpur", "tz": "", "district": "Janakpur"}, {"id": 41, "name": "Chainpur", "name_ru": "Chainpur", "tz": "", "district": "Setī"}, {"id": 42, "name": "Manakamana", "name_ru": "Manakāmanā", "tz": "", "district": "Gandakī"}, {"id": 43, "name": "Jumla", "name_ru": "Jumlā", "tz": "", "district": "Karnālī"}]