[{"id": 1, "name": "Auckland", "name_ru": "Auckland", "tz": "Pacific/Auckland", "district": "Auckland"}, {"id": 2, "name": "Wellington", "name_ru": "Wellington", "tz": "Pacific/Auckland", "district": "Wellington"}, {"id": 3, "name": "Christchurch", "name_ru": "Christchurch", "tz": "Pacific/Auckland", "district": "Canterbury"}, {"id": 4, "name": "Manukau City", "name_ru": "Manukau City", "tz": "Pacific/Auckland", "district": "Auckland"}, {"id": 5, "name": "Northcote", "name_ru": "Northcote", "tz": "Pacific/Auckland", "district": "Auckland"}, {"id": 6, "name": "Waitakere", "name_ru": "Waitakere", "tz": "Pacific/Auckland", "district": "Auckland"}, {"id": 7, "name": "Hamilton", "name_ru": "Hamilton", "tz": "Pacific/Auckland", "district": "Waikato"}, {"id": 8, "name": "Tauranga", "name_ru": "Tauranga", "tz": "Pacific/Auckland", "district": "Bay of Plenty"}, {"id": 9, "name": "Lower Hutt", "name_ru": "Lower Hutt", "tz": "Pacific/Auckland", "district": "Wellington"}, {"id": 10, "name": "Dunedin", "name_ru": "Dunedin", "tz": "Pacific/Auckland", "district": "Otago"}, {"id": 11, "name": "Palmerston North", "name_ru": "Palmerston North", "tz": "Pacific/Auckland", "district": "Manawatu-Wanganui"}, {"id": 12, "name": "Napier", "name_ru": "Napier", "tz": "Pacific/Auckland", "district": "Hawke’s Bay"}, {"id": 13, "name": "Whangarei", "name_ru": "Whangarei", "tz": "Pacific/Auckland", "district": "Northland"}, {"id": 14, "name": "Nelson", "name_ru": "Nelson", "tz": "Pacific/Auckland", "district": "Nelson"}, {"id": 15, "name": "Invercargill", "name_ru": "Invercargill", "tz": "Pacific/Auckland", "district": "Southland"}, {"id": 16, "name": "Gisborne", "name_ru": "Gisborne", "tz": "Pacific/Auckland", "district": "Gisborne"}, {"id": 17, "name": "Blenheim", "name_ru": "Blenheim", "tz": "Pacific/Auckland", "district": "Marlborough"}, {"id": 18, "name": "Richmond", "name_ru": "Richmond", "tz": "Pacific/Auckland", "district": "Tasman"}, {"id": 19, "name": "Whakatane", "name_ru": "Whakatane", "tz": "Pacific/Auckland", "district": "Bay of Plenty"}, {"id": 20, "name": "Mosgiel", "name_ru": "Mosgiel", "tz": "Pacific/Auckland", "district": "Otago"}, {"id": 21, "name": "Greymouth", "name_ru": "Greymouth", "tz": "Pacific/Auckland", "district": "West Coast"}, {"id": 22, "name": "Stratford", "name_ru": "Stratford", "tz": "Pacific/Auckland", "district": "Taranaki"}, {"id": 23, "name": "Waitangi", "name_ru": "Waitangi", "tz": "Pacific/Chatham", "district": "Chatham Islands"}, {"id": 24, "name": "Porirua", "name_ru": "Porirua", "tz": "Pacific/Auckland", "district": "Wellington"}, {"id": 25, "name": "Rotorua", "name_ru": "Rotorua", "tz": "Pacific/Auckland", "district": "Bay of Plenty"}, {"id": 26, "name": "New Plymouth", "name_ru": "New Plymouth", "tz": "Pacific/Auckland", "district": "Taranaki"}, {"id": 27, "name": "Upper Hutt", "name_ru": "Upper Hutt", "tz": "Pacific/Auckland", "district": "Wellington"}, {"id": 28, "name": "Whanganui", "name_ru": "Whanganui", "tz": "Pacific/Auckland", "district": "Manawatu-Wanganui"}, {"id": 29, "name": "Paraparaumu", "name_ru": "Paraparaumu", "tz": "Pacific/Auckland", "district": "Wellington"}, {"id": 30, "name": "Timaru", "name_ru": "Timaru", "tz": "Pacific/Auckland", "district": "Canterbury"}, {"id": 31, "name": "Pukekohe East", "name_ru": "Pukekohe East", "tz": "Pacific/Auckland", "district": "Auckland"}, {"id": 32, "name": "Taupo", "name_ru": "Taupo", "tz": "Pacific/Auckland", "district": "Waikato"}, {"id": 33, "name": "Masterton", "name_ru": "Masterton", "tz": "Pacific/Auckland", "district": "Wellington"}, {"id": 34, "name": "Cambridge", "name_ru": "Cambridge", "tz": "Pacific/Auckland", "district": "Waikato"}, {"id": 35, "name": "Levin", "name_ru": "Levin", "tz": "Pacific/Auckland", "district": "Manawatu-Wanganui"}, {"id": 36, "name": "Ashton", "name_ru": "Ashton", "tz": "Pacific/Auckland", "district": "Canterbury"}, {"id": 37, "name": "Macetown", "name_ru": "Macetown", "tz": "Pacific/Auckland", "district": "Otago"}, {"id": 38, "name": "Feilding", "name_ru": "Feilding", "tz": "Pacific/Auckland", "district": "Manawatu-Wanganui"}, {"id": 39, "name": "Rolleston", "name_ru": "Rolleston", "tz": "Pacific/Auckland", "district": "Canterbury"}, {"id": 40, "name": "Havelock North", "name_ru": "Havelock North", "tz": "Pacific/Auckland", "district": "Hawke’s Bay"}, {"id": 41, "name": "Tokoroa", "name_ru": "Tokoroa", "tz": "Pacific/Auckland", "district": "Waikato"}, {"id": 42, "name": "Waikanae", "name_ru": "Waikanae", "tz": "Pacific/Auckland", "district": "Wellington"}, {"id": 43, "name": "Te Awamutu", "name_ru": "Te Awamutu", "tz": "Pacific/Auckland", "district": "Waikato"}, {"id": 44, "name": "Hawera", "name_ru": "Hawera", "tz": "Pacific/Auckland", "district": "Taranaki"}, {"id": 45, "name": "Waiuku", "name_ru": "Waiuku", "tz": "Pacific/Auckland", "district": "Auckland"}, {"id": 46, "name": "Glencoe", "name_ru": "Glencoe", "tz": "Pacific/Auckland", "district": "Southland"}, {"id": 47, "name": "Wanaka", "name_ru": "Wanaka", "tz": "Pacific/Auckland", "district": "Otago"}, {"id": 48, "name": "Te Puke", "name_ru": "Te Puke", "tz": "Pacific/Auckland", "district": "Bay of Plenty"}, {"id": 49, "name": "Matamata", "name_ru": "Matamata", "tz": "Pacific/Auckland", "district": "Waikato"}, {"id": 50, "name": "Thames", "name_ru": "Thames", "tz": "Pacific/Auckland", "district": "Waikato"}, {"id": 51, "name": "Mount Maunganui", "name_ru": "Mount Maunganui", "tz": "Pacific/Auckland", "district": "Bay of Plenty"}, {"id": 52, "name": "Ngaruawahia", "name_ru": "Ngaruawahia", "tz": "Pacific/Auckland", "district": "Waikato"}, {"id": 53, "name": "Kawerau", "name_ru": "Kawerau", "tz": "Pacific/Auckland", "district": "Bay of Plenty"}, {"id": 54, "name": "Kerikeri", "name_ru": "Kerikeri", "tz": "Pacific/Auckland", "district": "Northland"}, {"id": 55, "name": "Waitara", "name_ru": "Waitara", "tz": "Pacific/Auckland", "district": "Taranaki"}, {"id": 56, "name": "Cromwell", "name_ru": "Cromwell", "tz": "Pacific/Auckland", "district": "Otago"}, {"id": 57, "name": "Kaitaia", "name_ru": "Kaitaia", "tz": "Pacific/Auckland", "district": "Northland"}, {"id": 58, "name": "Lincoln", "name_ru": "Lincoln", "tz": "Pacific/Auckland", "district": "Canterbury"}, {"id": 59, "name": "Alexandra", "name_ru": "Alexandra", "tz": "Pacific/Auckland", "district": "Otago"}, {"id": 60, "name": "Marton", "name_ru": "Marton", "tz": "Pacific/Auckland", "district": "Manawatu-Wanganui"}, {"id": 61, "name": "Whitianga", "name_ru": "Whitianga", "tz": "Pacific/Auckland", "district": "Waikato"}, {"id": 62, "name": "Waihi", "name_ru": "Waihi", "tz": "Pacific/Auckland", "district": "Waikato"}, {"id": 63, "name": "Warkworth", "name_ru": "Warkworth", "tz": "Pacific/Auckland", "district": "Auckland"}, {"id": 64, "name": "Tuakau", "name_ru": "Tuakau", "tz": "Pacific/Auckland", "district": "Waikato"}, {"id": 65, "name": "Turangi", "name_ru": "Turangi", "tz": "Pacific/Auckland", "district": "Waikato"}, {"id": 66, "name": "Westport", "name_ru": "Westport", "tz": "Pacific/Auckland", "district": "West Coast"}, {"id": 67, "name": "Renwick", "name_ru": "Renwick", "tz": "Pacific/Auckland", "district": "Marlborough"}, {"id": 68, "name": "Hokitika", "name_ru": "Hokitika", "tz": "Pacific/Auckland", "district": "West Coast"}, {"id": 69, "name": "Te Anau", "name_ru": "Te Anau", "tz": "Pacific/Auckland", "district": "Southland"}, {"id": 70, "name": "Kaikoura", "name_ru": "Kaikoura", "tz": "Pacific/Auckland", "district": "Canterbury"}, {"id": 71, "name": "Halfmoon Bay", "name_ru": "Halfmoon Bay", "tz": "Pacific/Auckland", "district": "Southland"}, {"id": 72, "name": "Kairaki", "name_ru": "Kairaki", "tz": "Pacific/Auckland", "district": "Canterbury"}]