[{"id": 1, "name": "Muscat", "name_ru": "Muscat", "tz": "", "district": "Masqaţ"}, {"id": 2, "name": "As Sib", "name_ru": "As Sīb", "tz": "", "district": "Masqaţ"}, {"id": 3, "name": "Matrah", "name_ru": "Maţraḩ", "tz": "", "district": "Masqaţ"}, {"id": 4, "name": "Salalah", "name_ru": "Şalālah", "tz": "", "district": "Z̧ufār"}, {"id": 5, "name": "As Suwayhirah as Sahil", "name_ru": "Aş Şuwayḩirah as Sāḩil", "tz": "", "district": "Shamāl al Bāţinah"}, {"id": 6, "name": "`Ibri", "name_ru": "‘Ibrī", "tz": "", "district": "Az̧ Z̧āhirah"}, {"id": 7, "name": "Nizwa", "name_ru": "Nizwá", "tz": "", "district": "Ad Dākhilīyah"}, {"id": 8, "name": "Khasab", "name_ru": "Khaşab", "tz": "", "district": "Musandam"}, {"id": 9, "name": "Al Buraymi", "name_ru": "Al Buraymī", "tz": "", "district": "Al Buraymī"}, {"id": 10, "name": "Suhar", "name_ru": "Şuḩār", "tz": "", "district": "Shamāl al Bāţinah"}, {"id": 11, "name": "Ar Rustaq", "name_ru": "Ar Rustāq", "tz": "", "district": "Janūb al Bāţinah"}, {"id": 12, "name": "Sur", "name_ru": "Şūr", "tz": "", "district": "Janūb ash Sharqīyah"}, {"id": 13, "name": "Ibra'", "name_ru": "Ibrā’", "tz": "", "district": "Shamāl ash Sharqīyah"}, {"id": 14, "name": "Hayma'", "name_ru": "Haymā’", "tz": "", "district": "Al Wusţá"}, {"id": 15, "name": "Al Madrah Sama'il", "name_ru": "Al Madrah Samā’il", "tz": "", "district": "Ad Dākhilīyah"}, {"id": 16, "name": "Mirbat", "name_ru": "Mirbāţ", "tz": "", "district": "Z̧ufār"}]