[{"id": 1, "name": "Panama City", "name_ru": "Panama City", "tz": "", "district": "Panamá"}, {"id": 2, "name": "San Miguelito", "name_ru": "San Miguelito", "tz": "", "district": "Panamá"}, {"id": 3, "name": "Colon", "name_ru": "Colón", "tz": "", "district": "Colón"}, {"id": 4, "name": "David", "name_ru": "David", "tz": "", "district": "Chiriquí"}, {"id": 5, "name": "La Chorrera", "name_ru": "La Chorrera", "tz": "", "district": "Panamá Oeste"}, {"id": 6, "name": "Chitre", "name_ru": "Chitré", "tz": "", "district": "Herrera"}, {"id": 7, "name": "Santiago", "name_ru": "Santiago", "tz": "", "district": "Veraguas"}, {"id": 8, "name": "Penonome", "name_ru": "Penonomé", "tz": "", "district": "Coclé"}, {"id": 9, "name": "Bocas del Toro", "name_ru": "Bocas del Toro", "tz": "", "district": "Bocas del Toro"}, {"id": 10, "name": "Las Tablas", "name_ru": "Las Tablas", "tz": "", "district": "Los Santos"}, {"id": 11, "name": "La Palma", "name_ru": "La Palma", "tz": "", "district": "Darién"}, {"id": 12, "name": "Buabidi", "name_ru": "Buabidi", "tz": "", "district": "Ngöbe-Buglé"}, {"id": 13, "name": "Gaigirgordub", "name_ru": "Gaigirgordub", "tz": "", "district": "Kuna Yala"}, {"id": 14, "name": "Sieyik", "name_ru": "Sieyik", "tz": "", "district": "Bocas del Toro"}, {"id": 15, "name": "Union Choco", "name_ru": "Unión Chocó", "tz": "", "district": "Emberá-Wounaan"}, {"id": 16, "name": "Balboa Heights", "name_ru": "Balboa Heights", "tz": "", "district": "Panamá"}, {"id": 17, "name": "Pacora", "name_ru": "Pacora", "tz": "", "district": "Panamá"}, {"id": 18, "name": "Puerto Armuelles", "name_ru": "Puerto Armuelles", "tz": "", "district": "Chiriquí"}, {"id": 19, "name": "Guarare", "name_ru": "Guararé", "tz": "", "district": "Los Santos"}, {"id": 20, "name": "Guabito", "name_ru": "Guabito", "tz": "", "district": "Bocas del Toro"}, {"id": 21, "name": "Almirante", "name_ru": "Almirante", "tz": "", "district": "Bocas del Toro"}, {"id": 22, "name": "Jaque", "name_ru": "Jaqué", "tz": "", "district": "Darién"}]