[{"id": 1, "name": "Lima", "name_ru": "Lima", "tz": "", "district": "Lima"}, {"id": 2, "name": "Callao", "name_ru": "Callao", "tz": "", "district": "Callao"}, {"id": 3, "name": "Arequipa", "name_ru": "Arequipa", "tz": "", "district": "Arequipa"}, {"id": 4, "name": "Trujillo", "name_ru": "Trujillo", "tz": "", "district": "La Libertad"}, {"id": 5, "name": "Chiclayo", "name_ru": "Chiclayo", "tz": "", "district": "Lambayeque"}, {"id": 6, "name": "Chimbote", "name_ru": "Chimbote", "tz": "", "district": "Ancash"}, {"id": 7, "name": "Piura", "name_ru": "Piura", "tz": "", "district": "Piura"}, {"id": 8, "name": "Cusco", "name_ru": "Cusco", "tz": "", "district": "Cusco"}, {"id": 9, "name": "Huancayo", "name_ru": "Huancayo", "tz": "", "district": "Junín"}, {"id": 10, "name": "Iquitos", "name_ru": "Iquitos", "tz": "", "district": "Loreto"}, {"id": 11, "name": "Pucallpa", "name_ru": "Pucallpa", "tz": "", "district": "Ucayali"}, {"id": 12, "name": "Juliaca", "name_ru": "Juliaca", "tz": "", "district": "Puno"}, {"id": 13, "name": "Tacna", "name_ru": "Tacna", "tz": "", "district": "Tacna"}, {"id": 14, "name": "Ica", "name_ru": "Ica", "tz": "", "district": "Ica"}, {"id": 15, "name": "Tarapoto", "name_ru": "Tarapoto", "tz": "", "district": "San Martín"}, {"id": 16, "name": "Huacho", "name_ru": "Huacho", "tz": "", "district": "Lima"}, {"id": 17, "name": "Cajamarca", "name_ru": "Cajamarca", "tz": "", "district": "Cajamarca"}, {"id": 18, "name": "Huanuco", "name_ru": "Huánuco", "tz": "", "district": "Huánuco"}, {"id": 19, "name": "Ayacucho", "name_ru": "Ayacucho", "tz": "", "district": "Ayacucho"}, {"id": 20, "name": "Paita", "name_ru": "Paita", "tz": "", "district": "Piura"}, {"id": 21, "name": "Sullana", "name_ru": "Sullana", "tz": "", "district": "Piura"}, {"id": 22, "name": "Huaycan", "name_ru": "Huaycan", "tz": "", "district": "Lima"}, {"id": 23, "name": "Barranca", "name_ru": "Barranca", "tz": "", "district": "Lima"}, {"id": 24, "name": "Puno", "name_ru": "Puno", "tz": "", "district": "Puno"}, {"id": 25, "name": "Huaraz", "name_ru": "Huaraz", "tz": "", "district": "Ancash"}, {"id": 26, "name": "Pisco", "name_ru": "Pisco", "tz": "", "district": "Ica"}, {"id": 27, "name": "Tumbes", "name_ru": "Tumbes", "tz": "", "district": "Tumbes"}, {"id": 28, "name": "Puerto Maldonado", "name_ru": "Puerto Maldonado", "tz": "", "district": "Madre de Dios"}, {"id": 29, "name": "Abancay", "name_ru": "Abancay", "tz": "", "district": "Apurímac"}, {"id": 30, "name": "Moquegua", "name_ru": "Moquegua", "tz": "", "district": "Moquegua"}, {"id": 31, "name": "Cerro de Pasco", "name_ru": "Cerro de Pasco", "tz": "", "district": "Pasco"}, {"id": 32, "name": "Moyobamba", "name_ru": "Moyobamba", "tz": "", "district": "San Martín"}, {"id": 33, "name": "Huancavelica", "name_ru": "Huancavelica", "tz": "", "district": "Huancavelica"}, {"id": 34, "name": "Chachapoyas", "name_ru": "Chachapoyas", "tz": "", "district": "Amazonas"}, {"id": 35, "name": "Talara", "name_ru": "Talara", "tz": "", "district": "Piura"}, {"id": 36, "name": "Chosica", "name_ru": "Chosica", "tz": "", "district": "Lima"}, {"id": 37, "name": "Andahuaylas", "name_ru": "Andahuaylas", "tz": "", "district": "Apurímac"}, {"id": 38, "name": "Huaral", "name_ru": "Huaral", "tz": "", "district": "Lima"}, {"id": 39, "name": "Chulucanas", "name_ru": "Chulucanas", "tz": "", "district": "Piura"}, {"id": 40, "name": "Ilo", "name_ru": "Ilo", "tz": "", "district": "Moquegua"}, {"id": 41, "name": "Chincha Alta", "name_ru": "Chincha Alta", "tz": "", "district": "Ica"}, {"id": 42, "name": "Yurimaguas", "name_ru": "Yurimaguas", "tz": "", "district": "Loreto"}, {"id": 43, "name": "Lambayeque", "name_ru": "Lambayeque", "tz": "", "district": "Lambayeque"}, {"id": 44, "name": "Chota", "name_ru": "Chota", "tz": "", "district": "Cajamarca"}, {"id": 45, "name": "Tarma", "name_ru": "Tarma", "tz": "", "district": "Junín"}, {"id": 46, "name": "Jaen", "name_ru": "Jaén", "tz": "", "district": "Cajamarca"}, {"id": 47, "name": "Tingo Maria", "name_ru": "Tingo María", "tz": "", "district": "Huánuco"}, {"id": 48, "name": "Bagua Grande", "name_ru": "Bagua Grande", "tz": "", "district": "Amazonas"}, {"id": 49, "name": "Huaura", "name_ru": "Huaura", "tz": "", "district": "Lima"}, {"id": 50, "name": "Juanjui", "name_ru": "Juanjuí", "tz": "", "district": "San Martín"}, {"id": 51, "name": "Viru", "name_ru": "Virú", "tz": "", "district": "La Libertad"}, {"id": 52, "name": "Sicuani", "name_ru": "Sicuani", "tz": "", "district": "Cusco"}, {"id": 53, "name": "Forbe Oroya", "name_ru": "Forbe Oroya", "tz": "", "district": "Junín"}, {"id": 54, "name": "Chancay", "name_ru": "Chancay", "tz": "", "district": "Lima"}, {"id": 55, "name": "Ferrenafe", "name_ru": "Ferreñafe", "tz": "", "district": "Lambayeque"}, {"id": 56, "name": "Sechura", "name_ru": "Sechura", "tz": "", "district": "Piura"}, {"id": 57, "name": "Pativilca", "name_ru": "Pativilca", "tz": "", "district": "Lima"}, {"id": 58, "name": "Huamachuco", "name_ru": "Huamachuco", "tz": "", "district": "La Libertad"}, {"id": 59, "name": "Huanta", "name_ru": "Huanta", "tz": "", "district": "Ayacucho"}, {"id": 60, "name": "Casma", "name_ru": "Casma", "tz": "", "district": "Ancash"}, {"id": 61, "name": "Tocache Nuevo", "name_ru": "Tocache Nuevo", "tz": "", "district": "San Martín"}, {"id": 62, "name": "Jauja", "name_ru": "Jauja", "tz": "", "district": "Junín"}, {"id": 63, "name": "Mollendo", "name_ru": "Mollendo", "tz": "", "district": "Arequipa"}, {"id": 64, "name": "Pacasmayo", "name_ru": "Pacasmayo", "tz": "", "district": "La Libertad"}, {"id": 65, "name": "San Vicente de Canete", "name_ru": "San Vicente de Cañete", "tz": "", "district": "Lima"}, {"id": 66, "name": "Otuzco", "name_ru": "Otuzco", "tz": "", "district": "La Libertad"}, {"id": 67, "name": "Santo Tomas", "name_ru": "Santo Tomás", "tz": "", "district": "Cusco"}, {"id": 68, "name": "Caras", "name_ru": "Carás", "tz": "", "district": "Ancash"}, {"id": 69, "name": "Nazca", "name_ru": "Nazca", "tz": "", "district": "Ica"}, {"id": 70, "name": "Camana", "name_ru": "Camaná", "tz": "", "district": "Arequipa"}, {"id": 71, "name": "Juli", "name_ru": "Juli", "tz": "", "district": "Puno"}, {"id": 72, "name": "Ayaviri", "name_ru": "Ayaviri", "tz": "", "district": "Puno"}, {"id": 73, "name": "Contamana", "name_ru": "Contamana", "tz": "", "district": "Loreto"}, {"id": 74, "name": "Requena", "name_ru": "Requena", "tz": "", "district": "Loreto"}, {"id": 75, "name": "Zarumilla", "name_ru": "Zarumilla", "tz": "", "district": "Tumbes"}, {"id": 76, "name": "Puerto Pimentel", "name_ru": "Puerto Pimentel", "tz": "", "district": "Lambayeque"}, {"id": 77, "name": "San Pedro de Lloc", "name_ru": "San Pedro de Lloc", "tz": "", "district": "La Libertad"}, {"id": 78, "name": "Huarmey", "name_ru": "Huarmey", "tz": "", "district": "Ancash"}, {"id": 79, "name": "Ilave", "name_ru": "Ilave", "tz": "", "district": "Puno"}, {"id": 80, "name": "Puquio", "name_ru": "Puquio", "tz": "", "district": "Ayacucho"}, {"id": 81, "name": "Junin", "name_ru": "Junín", "tz": "", "district": "Junín"}, {"id": 82, "name": "San Ramon", "name_ru": "San Ramón", "tz": "", "district": "Junín"}, {"id": 83, "name": "Lamas", "name_ru": "Lamas", "tz": "", "district": "San Martín"}, {"id": 84, "name": "Motupe", "name_ru": "Motupe", "tz": "", "district": "Lambayeque"}, {"id": 85, "name": "Cajabamba", "name_ru": "Cajabamba", "tz": "", "district": "Cajamarca"}, {"id": 86, "name": "Chilca", "name_ru": "Chilca", "tz": "", "district": "Lima"}, {"id": 87, "name": "Oxapampa", "name_ru": "Oxapampa", "tz": "", "district": "Pasco"}, {"id": 88, "name": "Santiago", "name_ru": "Santiago", "tz": "", "district": "Ica"}, {"id": 89, "name": "Salaverry", "name_ru": "Salaverry", "tz": "", "district": "La Libertad"}, {"id": 90, "name": "Satipo", "name_ru": "Satipo", "tz": "", "district": "Junín"}, {"id": 91, "name": "Yungay", "name_ru": "Yungay", "tz": "", "district": "Ancash"}, {"id": 92, "name": "Coracora", "name_ru": "Coracora", "tz": "", "district": "Ayacucho"}, {"id": 93, "name": "Desaguadero", "name_ru": "Desaguadero", "tz": "", "district": "Puno"}, {"id": 94, "name": "Caballococha", "name_ru": "Caballococha", "tz": "", "district": "Loreto"}, {"id": 95, "name": "Urubamba", "name_ru": "Urubamba", "tz": "", "district": "Cusco"}, {"id": 96, "name": "Nauta", "name_ru": "Nauta", "tz": "", "district": "Loreto"}, {"id": 97, "name": "Olmos", "name_ru": "Olmos", "tz": "", "district": "Lambayeque"}, {"id": 98, "name": "Putina", "name_ru": "Putina", "tz": "", "district": "Puno"}, {"id": 99, "name": "Lagunas", "name_ru": "Lagunas", "tz": "", "district": "Loreto"}, {"id": 100, "name": "Tournavista", "name_ru": "Tournavista", "tz": "", "district": "Huánuco"}, {"id": 101, "name": "Gueppi", "name_ru": "Güeppí", "tz": "", "district": "Loreto"}, {"id": 102, "name": "Rocafuerte", "name_ru": "Rocafuerte", "tz": "", "district": "Loreto"}, {"id": 103, "name": "Andoas", "name_ru": "Andoas", "tz": "", "district": "Loreto"}, {"id": 104, "name": "Puca Urco", "name_ru": "Puca Urco", "tz": "", "district": "Loreto"}, {"id": 105, "name": "Soldado Bartra", "name_ru": "Soldado Bartra", "tz": "", "district": "Loreto"}]