[{"id": 1, "name": "Port Moresby", "name_ru": "Port Moresby", "tz": "Pacific/Port_Moresby", "district": "National Capital"}, {"id": 2, "name": "Lae", "name_ru": "Lae", "tz": "Pacific/Port_Moresby", "district": "Morobe"}, {"id": 3, "name": "Madang", "name_ru": "Madang", "tz": "Pacific/Port_Moresby", "district": "Madang"}, {"id": 4, "name": "Mount Hagen", "name_ru": "Mount Hagen", "tz": "Pacific/Port_Moresby", "district": "Western Highlands"}, {"id": 5, "name": "Popondetta", "name_ru": "Popondetta", "tz": "Pacific/Port_Moresby", "district": "Northern"}, {"id": 6, "name": "Mendi", "name_ru": "Mendi", "tz": "Pacific/Port_Moresby", "district": "Southern Highlands"}, {"id": 7, "name": "Wewak", "name_ru": "Wewak", "tz": "Pacific/Port_Moresby", "district": "East Sepik"}, {"id": 8, "name": "Goroka", "name_ru": "Goroka", "tz": "Pacific/Port_Moresby", "district": "Eastern Highlands"}, {"id": 9, "name": "Kavieng", "name_ru": "Kavieng", "tz": "Pacific/Port_Moresby", "district": "New Ireland"}, {"id": 10, "name": "Kimbe", "name_ru": "Kimbe", "tz": "Pacific/Port_Moresby", "district": "West New Britain"}, {"id": 11, "name": "Daru", "name_ru": "Daru", "tz": "Pacific/Port_Moresby", "district": "Western"}, {"id": 12, "name": "Alotau", "name_ru": "Alotau", "tz": "Pacific/Port_Moresby", "district": "Milne Bay"}, {"id": 13, "name": "Vanimo", "name_ru": "Vanimo", "tz": "Pacific/Port_Moresby", "district": "West Sepik"}, {"id": 14, "name": "Kundiawa", "name_ru": "Kundiawa", "tz": "Pacific/Port_Moresby", "district": "Chimbu"}, {"id": 15, "name": "Lorengau", "name_ru": "Lorengau", "tz": "Pacific/Port_Moresby", "district": "Manus"}, {"id": 16, "name": "Kerema", "name_ru": "Kerema", "tz": "Pacific/Port_Moresby", "district": "Gulf"}, {"id": 17, "name": "Wabag", "name_ru": "Wabag", "tz": "Pacific/Port_Moresby", "district": "Enga"}, {"id": 18, "name": "Kokopo", "name_ru": "Kokopo", "tz": "Pacific/Port_Moresby", "district": "East New Britain"}, {"id": 19, "name": "Kurumul", "name_ru": "Kurumul", "tz": "Pacific/Port_Moresby", "district": "Jiwaka"}, {"id": 20, "name": "Tari", "name_ru": "Tari", "tz": "Pacific/Port_Moresby", "district": "Hela"}, {"id": 21, "name": "Buka", "name_ru": "Buka", "tz": "Pacific/Bougainville", "district": "Bougainville"}, {"id": 22, "name": "Arawa", "name_ru": "Arawa", "tz": "Pacific/Bougainville", "district": "Bougainville"}, {"id": 23, "name": "Kiunga", "name_ru": "Kiunga", "tz": "Pacific/Port_Moresby", "district": "Western"}, {"id": 24, "name": "Rabaul", "name_ru": "Rabaul", "tz": "Pacific/Port_Moresby", "district": "East New Britain"}, {"id": 25, "name": "Kieta", "name_ru": "Kieta", "tz": "Pacific/Bougainville", "district": "Bougainville"}, {"id": 26, "name": "Sohano", "name_ru": "Sohano", "tz": "Pacific/Bougainville", "district": "Bougainville"}, {"id": 27, "name": "Hoskins", "name_ru": "Hoskins", "tz": "Pacific/Port_Moresby", "district": "West New Britain"}, {"id": 28, "name": "Amau", "name_ru": "Amau", "tz": "Pacific/Port_Moresby", "district": "Central"}]