[{"id": 1, "name": "Manila", "name_ru": "Manila", "tz": "", "district": "Manila"}, {"id": 2, "name": "Quezon City", "name_ru": "Quezon City", "tz": "", "district": "Quezon"}, {"id": 3, "name": "Davao", "name_ru": "Davao", "tz": "", "district": "Davao"}, {"id": 4, "name": "Caloocan City", "name_ru": "Caloocan City", "tz": "", "district": "Caloocan"}, {"id": 5, "name": "Zamboanga City", "name_ru": "Zamboanga City", "tz": "", "district": "Zamboanga"}, {"id": 6, "name": "Cebu City", "name_ru": "Cebu City", "tz": "", "district": "Cebu"}, {"id": 7, "name": "Taguig City", "name_ru": "Taguig City", "tz": "", "district": "Taguig"}, {"id": 8, "name": "Antipolo", "name_ru": "Antipolo", "tz": "", "district": "Rizal"}, {"id": 9, "name": "Pasig City", "name_ru": "Pasig City", "tz": "", "district": "Pasig"}, {"id": 10, "name": "Valenzuela", "name_ru": "Valenzuela", "tz": "", "district": "Valenzuela"}, {"id": 11, "name": "Cagayan de Oro", "name_ru": "Cagayan de Oro", "tz": "", "district": "Cagayan de Oro"}, {"id": 12, "name": "City of Paranaque", "name_ru": "City of Parañaque", "tz": "", "district": "Parañaque"}, {"id": 13, "name": "Dasmarinas", "name_ru": "Dasmariñas", "tz": "", "district": "Cavite"}, {"id": 14, "name": "General Santos", "name_ru": "General Santos", "tz": "", "district": "General Santos"}, {"id": 15, "name": "Bacoor", "name_ru": "Bacoor", "tz": "", "district": "Cavite"}, {"id": 16, "name": "San Jose del Monte", "name_ru": "San Jose del Monte", "tz": "", "district": "Bulacan"}, {"id": 17, "name": "Makati City", "name_ru": "Makati City", "tz": "", "district": "Makati"}, {"id": 18, "name": "Las Pinas City", "name_ru": "Las Piñas City", "tz": "", "district": "Las Piñas"}, {"id": 19, "name": "Bacolod", "name_ru": "Bacolod", "tz": "", "district": "Bacolod"}, {"id": 20, "name": "Muntinlupa City", "name_ru": "Muntinlupa City", "tz": "", "district": "Muntinlupa"}, {"id": 21, "name": "City of Calamba", "name_ru": "City of Calamba", "tz": "", "district": "Laguna"}, {"id": 22, "name": "Lapu-Lapu City", "name_ru": "Lapu-Lapu City", "tz": "", "district": "Lapu-Lapu"}, {"id": 23, "name": "Imus", "name_ru": "Imus", "tz": "", "district": "Cavite"}, {"id": 24, "name": "Mandaluyong City", "name_ru": "Mandaluyong City", "tz": "", "district": "Mandaluyong"}, {"id": 25, "name": "Angeles City", "name_ru": "Angeles City", "tz": "", "district": "Angeles"}, {"id": 26, "name": "Pasay City", "name_ru": "Pasay City", "tz": "", "district": "Pasay"}, {"id": 27, "name": "Marikina City", "name_ru": "Marikina City", "tz": "", "district": "Marikina"}, {"id": 28, "name": "Iloilo", "name_ru": "Iloilo", "tz": "", "district": "Iloilo"}, {"id": 29, "name": "General Trias", "name_ru": "General Trias", "tz": "", "district": "Cavite"}, {"id": 30, "name": "Rodriguez", "name_ru": "Rodriguez", "tz": "", "district": "Rizal"}, {"id": 31, "name": "Santa Rosa", "name_ru": "Santa Rosa", "tz": "", "district": "Laguna"}, {"id": 32, "name": "Binan", "name_ru": "Biñan", "tz": "", "district": "Laguna"}, {"id": 33, "name": "Taytay", "name_ru": "Taytay", "tz": "", "district": "Rizal"}, {"id": 34, "name": "Malabon", "name_ru": "Malabon", "tz": "", "district": "Malabon"}, {"id": 35, "name": "Tarlac City", "name_ru": "Tarlac City", "tz": "", "district": "Tarlac"}, {"id": 36, "name": "Cainta", "name_ru": "Cainta", "tz": "", "district": "Rizal"}, {"id": 37, "name": "Lipa City", "name_ru": "Lipa City", "tz": "", "district": "Batangas"}, {"id": 38, "name": "Mandaue City", "name_ru": "Mandaue City", "tz": "", "district": "Mandaue"}, {"id": 39, "name": "Butuan", "name_ru": "Butuan", "tz": "", "district": "Butuan"}, {"id": 40, "name": "Baguio City", "name_ru": "Baguio City", "tz": "", "district": "Baguio"}, {"id": 41, "name": "Iligan", "name_ru": "Iligan", "tz": "", "district": "Iligan"}, {"id": 42, "name": "Cabuyao", "name_ru": "Cabuyao", "tz": "", "district": "Laguna"}, {"id": 43, "name": "San Fernando", "name_ru": "San Fernando", "tz": "", "district": "Pampanga"}, {"id": 44, "name": "San Pedro", "name_ru": "San Pedro", "tz": "", "district": "Laguna"}, {"id": 45, "name": "Batangas", "name_ru": "Batangas", "tz": "", "district": "Batangas"}, {"id": 46, "name": "Cabanatuan City", "name_ru": "Cabanatuan City", "tz": "", "district": "Nueva Ecija"}, {"id": 47, "name": "Cotabato", "name_ru": "Cotabato", "tz": "", "district": "Cotabato"}, {"id": 48, "name": "Binangonan", "name_ru": "Binangonan", "tz": "", "district": "Rizal"}, {"id": 49, "name": "Tanza", "name_ru": "Tanza", "tz": "", "district": "Cavite"}, {"id": 50, "name": "Puerto Princesa", "name_ru": "Puerto Princesa", "tz": "", "district": "Puerto Princesa"}, {"id": 51, "name": "Navotas", "name_ru": "Navotas", "tz": "", "district": "Navotas"}, {"id": 52, "name": "Tagum", "name_ru": "Tagum", "tz": "", "district": "Davao del Norte"}, {"id": 53, "name": "Silang", "name_ru": "Silang", "tz": "", "district": "Cavite"}, {"id": 54, "name": "Mabalacat", "name_ru": "Mabalacat", "tz": "", "district": "Pampanga"}, {"id": 55, "name": "Santa Maria", "name_ru": "Santa Maria", "tz": "", "district": "Bulacan"}, {"id": 56, "name": "San Pablo", "name_ru": "San Pablo", "tz": "", "district": "Laguna"}, {"id": 57, "name": "Lucena", "name_ru": "Lucena", "tz": "", "district": "Lucena"}, {"id": 58, "name": "San Mateo", "name_ru": "San Mateo", "tz": "", "district": "Rizal"}, {"id": 59, "name": "Talisay", "name_ru": "Talisay", "tz": "", "district": "Cebu"}, {"id": 60, "name": "Malolos", "name_ru": "Malolos", "tz": "", "district": "Bulacan"}, {"id": 61, "name": "Marilao", "name_ru": "Marilao", "tz": "", "district": "Bulacan"}, {"id": 62, "name": "Olongapo", "name_ru": "Olongapo", "tz": "", "district": "Olongapo"}, {"id": 63, "name": "Tacloban", "name_ru": "Tacloban", "tz": "", "district": "Tacloban"}, {"id": 64, "name": "Meycauayan", "name_ru": "Meycauayan", "tz": "", "district": "Bulacan"}, {"id": 65, "name": "Ormoc", "name_ru": "Ormoc", "tz": "", "district": "Ormoc"}, {"id": 66, "name": "Santo Tomas", "name_ru": "Santo Tomas", "tz": "", "district": "Batangas"}, {"id": 67, "name": "Valencia", "name_ru": "Valencia", "tz": "", "district": "Bukidnon"}, {"id": 68, "name": "Trece Martires City", "name_ru": "Trece Martires City", "tz": "", "district": "Cavite"}, {"id": 69, "name": "Naga City", "name_ru": "Naga City", "tz": "", "district": "Naga"}, {"id": 70, "name": "Pagadian", "name_ru": "Pagadian", "tz": "", "district": "Zamboanga del Sur"}, {"id": 71, "name": "Legazpi City", "name_ru": "Legazpi City", "tz": "", "district": "Albay"}, {"id": 72, "name": "Panabo", "name_ru": "Panabo", "tz": "", "district": "Davao del Norte"}, {"id": 73, "name": "Marawi City", "name_ru": "Marawi City", "tz": "", "district": "Lanao del Sur"}, {"id": 74, "name": "Toledo", "name_ru": "Toledo", "tz": "", "district": "Cebu"}, {"id": 75, "name": "San Carlos City", "name_ru": "San Carlos City", "tz": "", "district": "Pangasinan"}, {"id": 76, "name": "Kabankalan", "name_ru": "Kabankalan", "tz": "", "district": "Negros Occidental"}, {"id": 77, "name": "Koronadal", "name_ru": "Koronadal", "tz": "", "district": "South Cotabato"}, {"id": 78, "name": "Tanauan", "name_ru": "Tanauan", "tz": "", "district": "Batangas"}, {"id": 79, "name": "General Mariano Alvarez", "name_ru": "General Mariano Alvarez", "tz": "", "district": "Cavite"}, {"id": 80, "name": "Bago", "name_ru": "Bago", "tz": "", "district": "Negros Occidental"}, {"id": 81, "name": "Malaybalay", "name_ru": "Malaybalay", "tz": "", "district": "Bukidnon"}, {"id": 82, "name": "Digos", "name_ru": "Digos", "tz": "", "district": "Davao del Sur"}, {"id": 83, "name": "Calbayog City", "name_ru": "Calbayog City", "tz": "", "district": "Samar"}, {"id": 84, "name": "Sorsogon", "name_ru": "Sorsogon", "tz": "", "district": "Sorsogon"}, {"id": 85, "name": "Roxas City", "name_ru": "Roxas City", "tz": "", "district": "Capiz"}, {"id": 86, "name": "Dagupan City", "name_ru": "Dagupan City", "tz": "", "district": "Dagupan"}, {"id": 87, "name": "Mexico", "name_ru": "Mexico", "tz": "", "district": "Pampanga"}, {"id": 88, "name": "Lubao", "name_ru": "Lubao", "tz": "", "district": "Pampanga"}, {"id": 89, "name": "Polomolok", "name_ru": "Polomolok", "tz": "", "district": "South Cotabato"}, {"id": 90, "name": "San Miguel", "name_ru": "San Miguel", "tz": "", "district": "Bulacan"}, {"id": 91, "name": "Baliuag", "name_ru": "Baliuag", "tz": "", "district": "Bulacan"}, {"id": 92, "name": "Surigao", "name_ru": "Surigao", "tz": "", "district": "Surigao del Norte"}, {"id": 93, "name": "Concepcion", "name_ru": "Concepcion", "tz": "", "district": "Tarlac"}, {"id": 94, "name": "Tuguegarao", "name_ru": "Tuguegarao", "tz": "", "district": "Cagayan"}, {"id": 95, "name": "Midsayap", "name_ru": "Midsayap", "tz": "", "district": "Cotabato"}, {"id": 96, "name": "Pikit", "name_ru": "Pikit", "tz": "", "district": "Cotabato"}, {"id": 97, "name": "Naic", "name_ru": "Naic", "tz": "", "district": "Cavite"}, {"id": 98, "name": "Sariaya", "name_ru": "Sariaya", "tz": "", "district": "Quezon"}, {"id": 99, "name": "Kidapawan", "name_ru": "Kidapawan", "tz": "", "district": "Cotabato"}, {"id": 100, "name": "Pandi", "name_ru": "Pandi", "tz": "", "district": "Bulacan"}, {"id": 101, "name": "Cadiz", "name_ru": "Cadiz", "tz": "", "district": "Negros Occidental"}, {"id": 102, "name": "Ilagan", "name_ru": "Ilagan", "tz": "", "district": "Isabela"}, {"id": 103, "name": "Danao", "name_ru": "Danao", "tz": "", "district": "Cebu"}, {"id": 104, "name": "Poblacion", "name_ru": "Poblacion", "tz": "", "district": "Cebu"}, {"id": 105, "name": "Capas", "name_ru": "Capas", "tz": "", "district": "Tarlac"}, {"id": 106, "name": "San Juan", "name_ru": "San Juan", "tz": "", "district": "San Juan"}, {"id": 107, "name": "San Jose", "name_ru": "San Jose", "tz": "", "district": "Occidental Mindoro"}, {"id": 108, "name": "Minglanilla", "name_ru": "Minglanilla", "tz": "", "district": "Cebu"}, {"id": 109, "name": "Consolacion", "name_ru": "Consolacion", "tz": "", "district": "Cebu"}, {"id": 110, "name": "San Jose", "name_ru": "San Jose", "tz": "", "district": "Nueva Ecija"}, {"id": 111, "name": "Mariveles", "name_ru": "Mariveles", "tz": "", "district": "Bataan"}, {"id": 112, "name": "Sagay", "name_ru": "Sagay", "tz": "", "district": "Negros Occidental"}, {"id": 113, "name": "Santiago", "name_ru": "Santiago", "tz": "", "district": "Santiago"}, {"id": 114, "name": "Mati", "name_ru": "Mati", "tz": "", "district": "Davao Oriental"}, {"id": 115, "name": "Calapan", "name_ru": "Calapan", "tz": "", "district": "Oriental Mindoro"}, {"id": 116, "name": "Urdaneta", "name_ru": "Urdaneta", "tz": "", "district": "Pangasinan"}, {"id": 117, "name": "Arayat", "name_ru": "Arayat", "tz": "", "district": "Pampanga"}, {"id": 118, "name": "Bocaue", "name_ru": "Bocaue", "tz": "", "district": "Bulacan"}, {"id": 119, "name": "Malasiqui", "name_ru": "Malasiqui", "tz": "", "district": "Pangasinan"}, {"id": 120, "name": "Calabayan", "name_ru": "Calabayan", "tz": "", "district": "Isabela"}, {"id": 121, "name": "Tabaco", "name_ru": "Tabaco", "tz": "", "district": "Albay"}, {"id": 122, "name": "Porac", "name_ru": "Porac", "tz": "", "district": "Pampanga"}, {"id": 123, "name": "Ozamiz City", "name_ru": "Ozamiz City", "tz": "", "district": "Misamis Occidental"}, {"id": 124, "name": "Tanay", "name_ru": "Tanay", "tz": "", "district": "Rizal"}, {"id": 125, "name": "La Trinidad", "name_ru": "La Trinidad", "tz": "", "district": "Benguet"}, {"id": 126, "name": "Candelaria", "name_ru": "Candelaria", "tz": "", "district": "Quezon"}, {"id": 127, "name": "Dipolog", "name_ru": "Dipolog", "tz": "", "district": "Zamboanga del Norte"}, {"id": 128, "name": "Jolo", "name_ru": "Jolo", "tz": "", "district": "Sulu"}, {"id": 129, "name": "Dumaguete City", "name_ru": "Dumaguete City", "tz": "", "district": "Negros Oriental"}, {"id": 130, "name": "Carcar", "name_ru": "Carcar", "tz": "", "district": "Cebu"}, {"id": 131, "name": "Nasugbu", "name_ru": "Nasugbu", "tz": "", "district": "Batangas"}, {"id": 132, "name": "Gingoog", "name_ru": "Gingoog", "tz": "", "district": "Misamis Oriental"}, {"id": 133, "name": "Norzagaray", "name_ru": "Norzagaray", "tz": "", "district": "Bulacan"}, {"id": 134, "name": "Floridablanca", "name_ru": "Floridablanca", "tz": "", "district": "Pampanga"}, {"id": 135, "name": "Angono", "name_ru": "Angono", "tz": "", "district": "Rizal"}, {"id": 136, "name": "Daraga", "name_ru": "Daraga", "tz": "", "district": "Albay"}, {"id": 137, "name": "Hagonoy", "name_ru": "Hagonoy", "tz": "", "district": "Bulacan"}, {"id": 138, "name": "Naga", "name_ru": "Naga", "tz": "", "district": "Cebu"}, {"id": 139, "name": "Talavera", "name_ru": "Talavera", "tz": "", "district": "Nueva Ecija"}, {"id": 140, "name": "San Carlos", "name_ru": "San Carlos", "tz": "", "district": "Negros Occidental"}, {"id": 141, "name": "Guagua", "name_ru": "Guagua", "tz": "", "district": "Pampanga"}, {"id": 142, "name": "Silay", "name_ru": "Silay", "tz": "", "district": "Negros Occidental"}, {"id": 143, "name": "City of Isabela", "name_ru": "City of Isabela", "tz": "", "district": "Basilan"}, {"id": 144, "name": "Santo Tomas", "name_ru": "Santo Tomas", "tz": "", "district": "Davao del Norte"}, {"id": 145, "name": "Rosario", "name_ru": "Rosario", "tz": "", "district": "Batangas"}, {"id": 146, "name": "Guimba", "name_ru": "Guimba", "tz": "", "district": "Nueva Ecija"}, {"id": 147, "name": "San Fernando", "name_ru": "San Fernando", "tz": "", "district": "La Union"}, {"id": 148, "name": "Santa Cruz", "name_ru": "Santa Cruz", "tz": "", "district": "Laguna"}, {"id": 149, "name": "Magalang", "name_ru": "Magalang", "tz": "", "district": "Pampanga"}, {"id": 150, "name": "Gapan", "name_ru": "Gapan", "tz": "", "district": "Nueva Ecija"}, {"id": 151, "name": "Bayawan", "name_ru": "Bayawan", "tz": "", "district": "Negros Oriental"}, {"id": 152, "name": "Tabuk", "name_ru": "Tabuk", "tz": "", "district": "Kalinga"}, {"id": 153, "name": "Calumpit", "name_ru": "Calumpit", "tz": "", "district": "Bulacan"}, {"id": 154, "name": "Candaba", "name_ru": "Candaba", "tz": "", "district": "Pampanga"}, {"id": 155, "name": "Dinalupihan", "name_ru": "Dinalupihan", "tz": "", "district": "Bataan"}, {"id": 156, "name": "Apalit", "name_ru": "Apalit", "tz": "", "district": "Pampanga"}, {"id": 157, "name": "Ligao", "name_ru": "Ligao", "tz": "", "district": "Albay"}, {"id": 158, "name": "Malita", "name_ru": "Malita", "tz": "", "district": "Davao Occidental"}, {"id": 159, "name": "Plaridel", "name_ru": "Plaridel", "tz": "", "district": "Bulacan"}, {"id": 160, "name": "Guiguinto", "name_ru": "Guiguinto", "tz": "", "district": "Bulacan"}, {"id": 161, "name": "Los Banos", "name_ru": "Los Baños", "tz": "", "district": "Laguna"}, {"id": 162, "name": "Samal", "name_ru": "Samal", "tz": "", "district": "Davao del Norte"}, {"id": 163, "name": "Himamaylan", "name_ru": "Himamaylan", "tz": "", "district": "Negros Occidental"}, {"id": 164, "name": "Bongao", "name_ru": "Bongao", "tz": "", "district": "Tawi-Tawi"}, {"id": 165, "name": "San Ildefonso", "name_ru": "San Ildefonso", "tz": "", "district": "Bulacan"}, {"id": 166, "name": "Mangaldan", "name_ru": "Mangaldan", "tz": "", "district": "Pangasinan"}, {"id": 167, "name": "Iriga City", "name_ru": "Iriga City", "tz": "", "district": "Camarines Sur"}, {"id": 168, "name": "San Juan", "name_ru": "San Juan", "tz": "", "district": "Batangas"}, {"id": 169, "name": "Daet", "name_ru": "Daet", "tz": "", "district": "Camarines Norte"}, {"id": 170, "name": "Rosario", "name_ru": "Rosario", "tz": "", "district": "Cavite"}, {"id": 171, "name": "Manolo Fortich", "name_ru": "Manolo Fortich", "tz": "", "district": "Bukidnon"}, {"id": 172, "name": "Libmanan", "name_ru": "Libmanan", "tz": "", "district": "Camarines Sur"}, {"id": 173, "name": "Tayabas", "name_ru": "Tayabas", "tz": "", "district": "Quezon"}, {"id": 174, "name": "Laoag", "name_ru": "Laoag", "tz": "", "district": "Ilocos Norte"}, {"id": 175, "name": "Subic", "name_ru": "Subic", "tz": "", "district": "Zambales"}, {"id": 176, "name": "Kawit", "name_ru": "Kawit", "tz": "", "district": "Cavite"}, {"id": 177, "name": "Baybay", "name_ru": "Baybay", "tz": "", "district": "Leyte"}, {"id": 178, "name": "Pulilan", "name_ru": "Pulilan", "tz": "", "district": "Bulacan"}, {"id": 179, "name": "Tacurong", "name_ru": "Tacurong", "tz": "", "district": "Sultan Kudarat"}, {"id": 180, "name": "Cavite City", "name_ru": "Cavite City", "tz": "", "district": "Cavite"}, {"id": 181, "name": "Naujan", "name_ru": "Naujan", "tz": "", "district": "Oriental Mindoro"}, {"id": 182, "name": "Quezon", "name_ru": "Quezon", "tz": "", "district": "Bukidnon"}, {"id": 183, "name": "Glan", "name_ru": "Glan", "tz": "", "district": "Sarangani"}, {"id": 184, "name": "Carmona", "name_ru": "Carmona", "tz": "", "district": "Cavite"}, {"id": 185, "name": "Bayugan", "name_ru": "Bayugan", "tz": "", "district": "Agusan del Sur"}, {"id": 186, "name": "Talisay", "name_ru": "Talisay", "tz": "", "district": "Negros Occidental"}, {"id": 187, "name": "Lingayen", "name_ru": "Lingayen", "tz": "", "district": "Pangasinan"}, {"id": 188, "name": "Cawayan", "name_ru": "Cawayan", "tz": "", "district": "Negros Occidental"}, {"id": 189, "name": "Maramag", "name_ru": "Maramag", "tz": "", "district": "Bukidnon"}, {"id": 190, "name": "Tagbilaran City", "name_ru": "Tagbilaran City", "tz": "", "district": "Bohol"}, {"id": 191, "name": "Carmen", "name_ru": "Carmen", "tz": "", "district": "Cotabato"}, {"id": 192, "name": "Pateros", "name_ru": "Pateros", "tz": "", "district": "Laguna"}, {"id": 193, "name": "Tiaong", "name_ru": "Tiaong", "tz": "", "district": "Quezon"}, {"id": 194, "name": "Catbalogan", "name_ru": "Catbalogan", "tz": "", "district": "Samar"}, {"id": 195, "name": "Bulan", "name_ru": "Bulan", "tz": "", "district": "Sorsogon"}, {"id": 196, "name": "Malungun", "name_ru": "Maluñgun", "tz": "", "district": "Sarangani"}, {"id": 197, "name": "Sultan Kudarat", "name_ru": "Sultan Kudarat", "tz": "", "district": "Maguindanao"}, {"id": 198, "name": "Balanga", "name_ru": "Balanga", "tz": "", "district": "Bataan"}, {"id": 199, "name": "Masbate", "name_ru": "Masbate", "tz": "", "district": "Masbate"}, {"id": 200, "name": "Sindangan", "name_ru": "Sindangan", "tz": "", "district": "Zamboanga del Norte"}, {"id": 201, "name": "Paniqui", "name_ru": "Paniqui", "tz": "", "district": "Tarlac"}, {"id": 202, "name": "San Rafael", "name_ru": "San Rafael", "tz": "", "district": "Bulacan"}, {"id": 203, "name": "Parang", "name_ru": "Parang", "tz": "", "district": "Maguindanao"}, {"id": 204, "name": "Guihulngan", "name_ru": "Guihulñgan", "tz": "", "district": "Negros Oriental"}, {"id": 205, "name": "Calasiao", "name_ru": "Calasiao", "tz": "", "district": "Pangasinan"}, {"id": 206, "name": "Santa Cruz", "name_ru": "Santa Cruz", "tz": "", "district": "Davao del Sur"}, {"id": 207, "name": "Lamitan", "name_ru": "Lamitan", "tz": "", "district": "Basilan"}, {"id": 208, "name": "Talipao", "name_ru": "Talipao", "tz": "", "district": "Sulu"}, {"id": 209, "name": "Catarman", "name_ru": "Catarman", "tz": "", "district": "Northern Samar"}, {"id": 210, "name": "Isulan", "name_ru": "Isulan", "tz": "", "district": "Sultan Kudarat"}, {"id": 211, "name": "Kalibo", "name_ru": "Kalibo", "tz": "", "district": "Aklan"}, {"id": 212, "name": "Ipil", "name_ru": "Ipil", "tz": "", "district": "Zamboanga Sibugay"}, {"id": 213, "name": "Prosperidad", "name_ru": "Prosperidad", "tz": "", "district": "Agusan del Sur"}, {"id": 214, "name": "Alabel", "name_ru": "Alabel", "tz": "", "district": "Sarangani"}, {"id": 215, "name": "Maasin", "name_ru": "Maasin", "tz": "", "district": "Southern Leyte"}, {"id": 216, "name": "Nabunturan", "name_ru": "Nabunturan", "tz": "", "district": "Compostela Valley"}, {"id": 217, "name": "Cabadbaran", "name_ru": "Cabadbaran", "tz": "", "district": "Agusan del Norte"}, {"id": 218, "name": "Balagtas", "name_ru": "Balagtas", "tz": "", "district": "Bulacan"}, {"id": 219, "name": "Virac", "name_ru": "Virac", "tz": "", "district": "Catanduanes"}, {"id": 220, "name": "Poblacion", "name_ru": "Poblacion", "tz": "", "district": "Cebu"}, {"id": 221, "name": "Pavia", "name_ru": "Pavia", "tz": "", "district": "Iloilo"}, {"id": 222, "name": "Oroquieta", "name_ru": "Oroquieta", "tz": "", "district": "Misamis Occidental"}, {"id": 223, "name": "Borongan", "name_ru": "Borongan", "tz": "", "district": "Eastern Samar"}, {"id": 224, "name": "Bayombong", "name_ru": "Bayombong", "tz": "", "district": "Nueva Vizcaya"}, {"id": 225, "name": "Teresa", "name_ru": "Teresa", "tz": "", "district": "Rizal"}, {"id": 226, "name": "San Jose", "name_ru": "San Jose", "tz": "", "district": "Antique"}, {"id": 227, "name": "Taal", "name_ru": "Taal", "tz": "", "district": "Batangas"}, {"id": 228, "name": "Tandag", "name_ru": "Tandag", "tz": "", "district": "Surigao del Sur"}, {"id": 229, "name": "Naval", "name_ru": "Naval", "tz": "", "district": "Biliran"}, {"id": 230, "name": "Caridad", "name_ru": "Caridad", "tz": "", "district": "Cavite"}, {"id": 231, "name": "Boac", "name_ru": "Boac", "tz": "", "district": "Marinduque"}, {"id": 232, "name": "Vigan", "name_ru": "Vigan", "tz": "", "district": "Ilocos Sur"}, {"id": 233, "name": "Iba", "name_ru": "Iba", "tz": "", "district": "Zambales"}, {"id": 234, "name": "Noveleta", "name_ru": "Noveleta", "tz": "", "district": "Cavite"}, {"id": 235, "name": "Bangued", "name_ru": "Bangued", "tz": "", "district": "Abra"}, {"id": 236, "name": "Tubod", "name_ru": "Tubod", "tz": "", "district": "Lanao del Norte"}, {"id": 237, "name": "Mamburao", "name_ru": "Mamburao", "tz": "", "district": "Occidental Mindoro"}, {"id": 238, "name": "Palayan City", "name_ru": "Palayan City", "tz": "", "district": "Nueva Ecija"}, {"id": 239, "name": "Baler", "name_ru": "Baler", "tz": "", "district": "Aurora"}, {"id": 240, "name": "Mambajao", "name_ru": "Mambajao", "tz": "", "district": "Camiguin"}, {"id": 241, "name": "Romblon", "name_ru": "Romblon", "tz": "", "district": "Romblon"}, {"id": 242, "name": "Jordan", "name_ru": "Jordan", "tz": "", "district": "Guimaras"}, {"id": 243, "name": "San Roque", "name_ru": "San Roque", "tz": "", "district": "Cavite"}, {"id": 244, "name": "Shariff Aguak", "name_ru": "Shariff Aguak", "tz": "", "district": "Maguindanao"}, {"id": 245, "name": "Cabarroguis", "name_ru": "Cabarroguis", "tz": "", "district": "Quirino"}, {"id": 246, "name": "Camaligan", "name_ru": "Camaligan", "tz": "", "district": "Camarines Sur"}, {"id": 247, "name": "Siquijor", "name_ru": "Siquijor", "tz": "", "district": "Siquijor"}, {"id": 248, "name": "General Emilio Aguinaldo", "name_ru": "General Emilio Aguinaldo", "tz": "", "district": "Cavite"}, {"id": 249, "name": "Bontoc", "name_ru": "Bontoc", "tz": "", "district": "Mountain"}, {"id": 250, "name": "Lagawe", "name_ru": "Lagawe", "tz": "", "district": "Ifugao"}, {"id": 251, "name": "Kabugao", "name_ru": "Kabugao", "tz": "", "district": "Apayao"}, {"id": 252, "name": "Magugpo Poblacion", "name_ru": "Magugpo Poblacion", "tz": "", "district": "Davao del Norte"}, {"id": 253, "name": "Basco", "name_ru": "Basco", "tz": "", "district": "Batanes"}, {"id": 254, "name": "Santa Cruz", "name_ru": "Santa Cruz", "tz": "", "district": "Laguna"}, {"id": 255, "name": "Koronadal", "name_ru": "Koronadal", "tz": "", "district": "South Cotabato"}, {"id": 256, "name": "San Jose", "name_ru": "San Jose", "tz": "", "district": "Dinagat Islands"}, {"id": 257, "name": "Tabuk", "name_ru": "Tabuk", "tz": "", "district": "Kalinga"}, {"id": 258, "name": "Pili", "name_ru": "Pili", "tz": "", "district": "Camarines Sur"}, {"id": 259, "name": "Alaminos", "name_ru": "Alaminos", "tz": "", "district": "Pangasinan"}, {"id": 260, "name": "Pili", "name_ru": "Pili", "tz": "", "district": "Camarines Sur"}, {"id": 261, "name": "Oton", "name_ru": "Oton", "tz": "", "district": "Iloilo"}, {"id": 262, "name": "Bislig", "name_ru": "Bislig", "tz": "", "district": "Surigao del Sur"}, {"id": 263, "name": "M'lang", "name_ru": "M’lang", "tz": "", "district": "Cotabato"}, {"id": 264, "name": "Balayan", "name_ru": "Balayan", "tz": "", "district": "Batangas"}, {"id": 265, "name": "Escalante", "name_ru": "Escalante", "tz": "", "district": "Negros Occidental"}, {"id": 266, "name": "Balamban", "name_ru": "Balamban", "tz": "", "district": "Cebu"}, {"id": 267, "name": "Gerona", "name_ru": "Gerona", "tz": "", "district": "Tarlac"}, {"id": 268, "name": "Lopez", "name_ru": "Lopez", "tz": "", "district": "Quezon"}, {"id": 269, "name": "Daanbantayan", "name_ru": "Daanbantayan", "tz": "", "district": "Cebu"}, {"id": 270, "name": "Monkayo", "name_ru": "Monkayo", "tz": "", "district": "Compostela Valley"}, {"id": 271, "name": "Lemery", "name_ru": "Lemery", "tz": "", "district": "Batangas"}, {"id": 272, "name": "Kabacan", "name_ru": "Kabacan", "tz": "", "district": "Cotabato"}, {"id": 273, "name": "Indanan", "name_ru": "Indanan", "tz": "", "district": "Sulu"}, {"id": 274, "name": "Santa Barbara", "name_ru": "Santa Barbara", "tz": "", "district": "Pangasinan"}, {"id": 275, "name": "Palimbang", "name_ru": "Palimbang", "tz": "", "district": "Sultan Kudarat"}, {"id": 276, "name": "Sablayan", "name_ru": "Sablayan", "tz": "", "district": "Occidental Mindoro"}, {"id": 277, "name": "Bauan", "name_ru": "Bauan", "tz": "", "district": "Batangas"}, {"id": 278, "name": "Salaman", "name_ru": "Salaman", "tz": "", "district": "Sultan Kudarat"}, {"id": 279, "name": "Pongotan", "name_ru": "Pongotan", "tz": "", "district": "Compostela Valley"}, {"id": 280, "name": "Victorias", "name_ru": "Victorias", "tz": "", "district": "Negros Occidental"}, {"id": 281, "name": "Pinamalayan", "name_ru": "Pinamalayan", "tz": "", "district": "Oriental Mindoro"}, {"id": 282, "name": "Compostela", "name_ru": "Compostela", "tz": "", "district": "Compostela Valley"}, {"id": 283, "name": "Polangui", "name_ru": "Polangui", "tz": "", "district": "Albay"}, {"id": 284, "name": "Bogo", "name_ru": "Bogo", "tz": "", "district": "Cebu"}, {"id": 285, "name": "Banga", "name_ru": "Banga", "tz": "", "district": "South Cotabato"}, {"id": 286, "name": "Surallah", "name_ru": "Surallah", "tz": "", "district": "South Cotabato"}, {"id": 287, "name": "Hinigaran", "name_ru": "Hinigaran", "tz": "", "district": "Negros Occidental"}, {"id": 288, "name": "Calabanga", "name_ru": "Calabanga", "tz": "", "district": "Camarines Sur"}, {"id": 289, "name": "Passi", "name_ru": "Passi", "tz": "", "district": "Iloilo"}, {"id": 290, "name": "Murcia", "name_ru": "Murcia", "tz": "", "district": "Negros Occidental"}, {"id": 291, "name": "Calauan", "name_ru": "Calauan", "tz": "", "district": "Laguna"}, {"id": 292, "name": "Solana", "name_ru": "Solana", "tz": "", "district": "Cagayan"}, {"id": 293, "name": "Baras", "name_ru": "Baras", "tz": "", "district": "Rizal"}, {"id": 294, "name": "Aroroy", "name_ru": "Aroroy", "tz": "", "district": "Masbate"}, {"id": 295, "name": "Echague", "name_ru": "Echague", "tz": "", "district": "Isabela"}, {"id": 296, "name": "San Fabian", "name_ru": "San Fabian", "tz": "", "district": "La Union"}, {"id": 297, "name": "Makilala", "name_ru": "Makilala", "tz": "", "district": "Cotabato"}, {"id": 298, "name": "Calaca", "name_ru": "Calaca", "tz": "", "district": "Batangas"}, {"id": 299, "name": "Camiling", "name_ru": "Camiling", "tz": "", "district": "Tarlac"}, {"id": 300, "name": "Baggao", "name_ru": "Baggao", "tz": "", "district": "Cagayan"}, {"id": 301, "name": "Binmaley", "name_ru": "Binmaley", "tz": "", "district": "Pangasinan"}, {"id": 302, "name": "Nabua", "name_ru": "Nabua", "tz": "", "district": "Camarines Sur"}, {"id": 303, "name": "Bantayan", "name_ru": "Bantayan", "tz": "", "district": "Cebu"}, {"id": 304, "name": "Tagaytay", "name_ru": "Tagaytay", "tz": "", "district": "Cavite"}, {"id": 305, "name": "Cabiao", "name_ru": "Cabiao", "tz": "", "district": "Nueva Ecija"}, {"id": 306, "name": "Guinobatan", "name_ru": "Guinobatan", "tz": "", "district": "Albay"}, {"id": 307, "name": "Batarasa", "name_ru": "Batarasa", "tz": "", "district": "Palawan"}, {"id": 308, "name": "Dapitan", "name_ru": "Dapitan", "tz": "", "district": "Zamboanga del Norte"}, {"id": 309, "name": "Science City of Munoz", "name_ru": "Science City of Muñoz", "tz": "", "district": "Nueva Ecija"}, {"id": 310, "name": "Bais", "name_ru": "Bais", "tz": "", "district": "Negros Oriental"}, {"id": 311, "name": "Bolinao", "name_ru": "Bolinao", "tz": "", "district": "Pangasinan"}, {"id": 312, "name": "San Antonio", "name_ru": "San Antonio", "tz": "", "district": "Nueva Ecija"}, {"id": 313, "name": "Maco", "name_ru": "Maco", "tz": "", "district": "Compostela Valley"}, {"id": 314, "name": "Taytay", "name_ru": "Taytay", "tz": "", "district": "Palawan"}, {"id": 315, "name": "Siaton", "name_ru": "Siaton", "tz": "", "district": "Negros Oriental"}, {"id": 316, "name": "Mabinay", "name_ru": "Mabinay", "tz": "", "district": "Negros Oriental"}, {"id": 317, "name": "Tanjay", "name_ru": "Tanjay", "tz": "", "district": "Negros Oriental"}, {"id": 318, "name": "Calatrava", "name_ru": "Calatrava", "tz": "", "district": "Negros Occidental"}, {"id": 319, "name": "Carmen", "name_ru": "Carmen", "tz": "", "district": "Davao del Norte"}, {"id": 320, "name": "Bulacan", "name_ru": "Bulacan", "tz": "", "district": "Bulacan"}, {"id": 321, "name": "Siasi", "name_ru": "Siasi", "tz": "", "district": "Sulu"}, {"id": 322, "name": "Ubay", "name_ru": "Ubay", "tz": "", "district": "Bohol"}, {"id": 323, "name": "Buhi", "name_ru": "Buhi", "tz": "", "district": "Camarines Sur"}, {"id": 324, "name": "Matalam", "name_ru": "Matalam", "tz": "", "district": "Cotabato"}, {"id": 325, "name": "Lambunao", "name_ru": "Lambunao", "tz": "", "district": "Iloilo"}, {"id": 326, "name": "Barili", "name_ru": "Barili", "tz": "", "district": "Cebu"}, {"id": 327, "name": "San Jose", "name_ru": "San Jose", "tz": "", "district": "Batangas"}, {"id": 328, "name": "Kapalong", "name_ru": "Kapalong", "tz": "", "district": "Davao del Norte"}, {"id": 329, "name": "Tagoloan", "name_ru": "Tagoloan", "tz": "", "district": "Misamis Oriental"}, {"id": 330, "name": "San Francisco", "name_ru": "San Francisco", "tz": "", "district": "Agusan del Sur"}, {"id": 331, "name": "Malapatan", "name_ru": "Malapatan", "tz": "", "district": "Sarangani"}, {"id": 332, "name": "Jaen", "name_ru": "Jaen", "tz": "", "district": "Nueva Ecija"}, {"id": 333, "name": "Poblacion", "name_ru": "Poblacion", "tz": "", "district": "Sultan Kudarat"}, {"id": 334, "name": "Robles", "name_ru": "Robles", "tz": "", "district": "Negros Occidental"}, {"id": 335, "name": "Patikul", "name_ru": "Patikul", "tz": "", "district": "Sulu"}, {"id": 336, "name": "Mangatarem", "name_ru": "Mangatarem", "tz": "", "district": "Pangasinan"}, {"id": 337, "name": "Bauang", "name_ru": "Bauang", "tz": "", "district": "La Union"}, {"id": 338, "name": "Pagbilao", "name_ru": "Pagbilao", "tz": "", "district": "Quezon"}, {"id": 339, "name": "Pototan", "name_ru": "Pototan", "tz": "", "district": "Iloilo"}, {"id": 340, "name": "Limay", "name_ru": "Limay", "tz": "", "district": "Bataan"}, {"id": 341, "name": "Macabebe", "name_ru": "Macabebe", "tz": "", "district": "Pampanga"}, {"id": 342, "name": "Argao", "name_ru": "Argao", "tz": "", "district": "Cebu"}, {"id": 343, "name": "Bamban", "name_ru": "Bamban", "tz": "", "district": "Tarlac"}, {"id": 344, "name": "Bustos", "name_ru": "Bustos", "tz": "", "district": "Bulacan"}, {"id": 345, "name": "Narra", "name_ru": "Narra", "tz": "", "district": "Palawan"}, {"id": 346, "name": "Hermosa", "name_ru": "Hermosa", "tz": "", "district": "Bataan"}, {"id": 347, "name": "Santa Catalina", "name_ru": "Santa Catalina", "tz": "", "district": "Negros Oriental"}, {"id": 348, "name": "Manaoag", "name_ru": "Manaoag", "tz": "", "district": "Pangasinan"}, {"id": 349, "name": "Umingan", "name_ru": "Umingan", "tz": "", "district": "Pangasinan"}, {"id": 350, "name": "Bongabong", "name_ru": "Bongabong", "tz": "", "district": "Oriental Mindoro"}, {"id": 351, "name": "Talakag", "name_ru": "Talakag", "tz": "", "district": "Bukidnon"}, {"id": 352, "name": "Palo", "name_ru": "Palo", "tz": "", "district": "Leyte"}, {"id": 353, "name": "Infanta", "name_ru": "Infanta", "tz": "", "district": "Quezon"}, {"id": 354, "name": "Santa Rosa", "name_ru": "Santa Rosa", "tz": "", "district": "Nueva Ecija"}, {"id": 355, "name": "Pilar", "name_ru": "Pilar", "tz": "", "district": "Sorsogon"}, {"id": 356, "name": "Pinamungahan", "name_ru": "Pinamungahan", "tz": "", "district": "Cebu"}, {"id": 357, "name": "Libon", "name_ru": "Libon", "tz": "", "district": "Albay"}, {"id": 358, "name": "Bugallon", "name_ru": "Bugallon", "tz": "", "district": "Pangasinan"}, {"id": 359, "name": "Pozorrubio", "name_ru": "Pozorrubio", "tz": "", "district": "Pangasinan"}, {"id": 360, "name": "Dalaguete", "name_ru": "Dalaguete", "tz": "", "district": "Cebu"}, {"id": 361, "name": "Esperanza", "name_ru": "Esperanza", "tz": "", "district": "Sultan Kudarat"}, {"id": 362, "name": "Balingasag", "name_ru": "Balingasag", "tz": "", "district": "Misamis Oriental"}, {"id": 363, "name": "Dumangas", "name_ru": "Dumangas", "tz": "", "district": "Iloilo"}, {"id": 364, "name": "Alicia", "name_ru": "Alicia", "tz": "", "district": "Isabela"}, {"id": 365, "name": "Brookes Point", "name_ru": "Brookes Point", "tz": "", "district": "Palawan"}, {"id": 366, "name": "Lala", "name_ru": "Lala", "tz": "", "district": "Lanao del Norte"}, {"id": 367, "name": "Tupi", "name_ru": "Tupi", "tz": "", "district": "South Cotabato"}, {"id": 368, "name": "Bula", "name_ru": "Bula", "tz": "", "district": "Camarines Sur"}, {"id": 369, "name": "Jose Abad Santos", "name_ru": "Jose Abad Santos", "tz": "", "district": "Davao Occidental"}, {"id": 370, "name": "Carles", "name_ru": "Carles", "tz": "", "district": "Iloilo"}, {"id": 371, "name": "San Fernando", "name_ru": "San Fernando", "tz": "", "district": "Cebu"}, {"id": 372, "name": "Bacacay", "name_ru": "Bacacay", "tz": "", "district": "Albay"}, {"id": 373, "name": "Morong", "name_ru": "Morong", "tz": "", "district": "Rizal"}, {"id": 374, "name": "Catanauan", "name_ru": "Catanauan", "tz": "", "district": "Quezon"}, {"id": 375, "name": "Sipalay", "name_ru": "Sipalay", "tz": "", "district": "Negros Occidental"}, {"id": 376, "name": "Camalig", "name_ru": "Camalig", "tz": "", "district": "Albay"}, {"id": 377, "name": "Pigcawayan", "name_ru": "Pigcawayan", "tz": "", "district": "Cotabato"}, {"id": 378, "name": "Pililla", "name_ru": "Pililla", "tz": "", "district": "Rizal"}, {"id": 379, "name": "Gumaca", "name_ru": "Gumaca", "tz": "", "district": "Quezon"}, {"id": 380, "name": "Calauag", "name_ru": "Calauag", "tz": "", "district": "Quezon"}, {"id": 381, "name": "Binalbagan", "name_ru": "Binalbagan", "tz": "", "district": "Negros Occidental"}, {"id": 382, "name": "Talibon", "name_ru": "Talibon", "tz": "", "district": "Bohol"}, {"id": 383, "name": "Parang", "name_ru": "Parang", "tz": "", "district": "Sulu"}, {"id": 384, "name": "Goa", "name_ru": "Goa", "tz": "", "district": "Camarines Sur"}, {"id": 385, "name": "Orani", "name_ru": "Orani", "tz": "", "district": "Bataan"}, {"id": 386, "name": "Mauban", "name_ru": "Mauban", "tz": "", "district": "Quezon"}, {"id": 387, "name": "Tumauini", "name_ru": "Tumauini", "tz": "", "district": "Isabela"}, {"id": 388, "name": "Rizal", "name_ru": "Rizal", "tz": "", "district": "Nueva Ecija"}, {"id": 389, "name": "Tinambac", "name_ru": "Tinambac", "tz": "", "district": "Camarines Sur"}, {"id": 390, "name": "San Pascual", "name_ru": "San Pascual", "tz": "", "district": "Batangas"}, {"id": 391, "name": "Roxas", "name_ru": "Roxas", "tz": "", "district": "Palawan"}, {"id": 392, "name": "Indang", "name_ru": "Indang", "tz": "", "district": "Cavite"}, {"id": 393, "name": "Don Carlos", "name_ru": "Don Carlos", "tz": "", "district": "Bukidnon"}, {"id": 394, "name": "La Paz", "name_ru": "La Paz", "tz": "", "district": "Tarlac"}, {"id": 395, "name": "Cawayan", "name_ru": "Cawayan", "tz": "", "district": "Masbate"}, {"id": 396, "name": "Mamungan", "name_ru": "Mamungan", "tz": "", "district": "Lanao del Norte"}, {"id": 397, "name": "Aparri", "name_ru": "Aparri", "tz": "", "district": "Cagayan"}, {"id": 398, "name": "Bagumbayan", "name_ru": "Bagumbayan", "tz": "", "district": "Maguindanao"}, {"id": 399, "name": "Buenavista", "name_ru": "Buenavista", "tz": "", "district": "Agusan del Norte"}, {"id": 400, "name": "San Leonardo", "name_ru": "San Leonardo", "tz": "", "district": "Nueva Ecija"}, {"id": 401, "name": "Tangub", "name_ru": "Tangub", "tz": "", "district": "Misamis Occidental"}, {"id": 402, "name": "Bay", "name_ru": "Bay", "tz": "", "district": "Laguna"}, {"id": 403, "name": "Alamada", "name_ru": "Alamada", "tz": "", "district": "Cotabato"}, {"id": 404, "name": "Castillejos", "name_ru": "Castillejos", "tz": "", "district": "Zambales"}, {"id": 405, "name": "Miagao", "name_ru": "Miagao", "tz": "", "district": "Iloilo"}, {"id": 406, "name": "Tuburan", "name_ru": "Tuburan", "tz": "", "district": "Cebu"}, {"id": 407, "name": "Sipocot", "name_ru": "Sipocot", "tz": "", "district": "Camarines Sur"}, {"id": 408, "name": "Cuyapo", "name_ru": "Cuyapo", "tz": "", "district": "Nueva Ecija"}, {"id": 409, "name": "Santa Barbara", "name_ru": "Santa Barbara", "tz": "", "district": "Iloilo"}, {"id": 410, "name": "Rosales", "name_ru": "Rosales", "tz": "", "district": "Pangasinan"}, {"id": 411, "name": "Agoo", "name_ru": "Agoo", "tz": "", "district": "La Union"}, {"id": 412, "name": "San Mateo", "name_ru": "San Mateo", "tz": "", "district": "Isabela"}, {"id": 413, "name": "Janiuay", "name_ru": "Janiuay", "tz": "", "district": "Iloilo"}, {"id": 414, "name": "La Carlota", "name_ru": "La Carlota", "tz": "", "district": "Negros Occidental"}, {"id": 415, "name": "Bongabon", "name_ru": "Bongabon", "tz": "", "district": "Nueva Ecija"}, {"id": 416, "name": "Lupon", "name_ru": "Lupon", "tz": "", "district": "Davao Oriental"}, {"id": 417, "name": "Botolan", "name_ru": "Botolan", "tz": "", "district": "Zambales"}, {"id": 418, "name": "Opol", "name_ru": "Opol", "tz": "", "district": "Misamis Oriental"}, {"id": 419, "name": "Angat", "name_ru": "Angat", "tz": "", "district": "Bulacan"}, {"id": 420, "name": "San Remigio", "name_ru": "San Remigio", "tz": "", "district": "Cebu"}, {"id": 421, "name": "Oas", "name_ru": "Oas", "tz": "", "district": "Albay"}, {"id": 422, "name": "Malvar", "name_ru": "Malvar", "tz": "", "district": "Batangas"}, {"id": 423, "name": "Roxas", "name_ru": "Roxas", "tz": "", "district": "Isabela"}, {"id": 424, "name": "Lantapan", "name_ru": "Lantapan", "tz": "", "district": "Bukidnon"}, {"id": 425, "name": "Kiamba", "name_ru": "Kiamba", "tz": "", "district": "Sarangani"}, {"id": 426, "name": "Coron", "name_ru": "Coron", "tz": "", "district": "Palawan"}, {"id": 427, "name": "Villasis", "name_ru": "Villasis", "tz": "", "district": "Pangasinan"}, {"id": 428, "name": "Lutayan", "name_ru": "Lutayan", "tz": "", "district": "Maguindanao"}, {"id": 429, "name": "Solano", "name_ru": "Solano", "tz": "", "district": "Nueva Vizcaya"}, {"id": 430, "name": "Nagcarlan", "name_ru": "Nagcarlan", "tz": "", "district": "Laguna"}, {"id": 431, "name": "Quezon", "name_ru": "Quezon", "tz": "", "district": "Palawan"}, {"id": 432, "name": "Maasin", "name_ru": "Maasin", "tz": "", "district": "Sarangani"}, {"id": 433, "name": "Isabela", "name_ru": "Isabela", "tz": "", "district": "Negros Occidental"}, {"id": 434, "name": "Saravia", "name_ru": "Saravia", "tz": "", "district": "Negros Occidental"}, {"id": 435, "name": "Hilongos", "name_ru": "Hilongos", "tz": "", "district": "Leyte"}, {"id": 436, "name": "Sibulan", "name_ru": "Sibulan", "tz": "", "district": "Negros Oriental"}, {"id": 437, "name": "Atimonan", "name_ru": "Atimonan", "tz": "", "district": "Quezon"}, {"id": 438, "name": "Victoria", "name_ru": "Victoria", "tz": "", "district": "Tarlac"}, {"id": 439, "name": "Tuao", "name_ru": "Tuao", "tz": "", "district": "Cagayan"}, {"id": 440, "name": "Aliaga", "name_ru": "Aliaga", "tz": "", "district": "Nueva Ecija"}, {"id": 441, "name": "Sibalom", "name_ru": "Sibalom", "tz": "", "district": "Antique"}, {"id": 442, "name": "Santa Cruz", "name_ru": "Santa Cruz", "tz": "", "district": "Zambales"}, {"id": 443, "name": "Jose Panganiban", "name_ru": "Jose Pañganiban", "tz": "", "district": "Camarines Norte"}, {"id": 444, "name": "Moncada", "name_ru": "Moncada", "tz": "", "district": "Tarlac"}, {"id": 445, "name": "Bansalan", "name_ru": "Bansalan", "tz": "", "district": "Davao del Sur"}, {"id": 446, "name": "San Fernando", "name_ru": "San Fernando", "tz": "", "district": "Bukidnon"}, {"id": 447, "name": "Calinog", "name_ru": "Calinog", "tz": "", "district": "Iloilo"}, {"id": 448, "name": "Santa Ana", "name_ru": "Santa Ana", "tz": "", "district": "Pampanga"}, {"id": 449, "name": "Kapatagan", "name_ru": "Kapatagan", "tz": "", "district": "Lanao del Norte"}, {"id": 450, "name": "Aurora", "name_ru": "Aurora", "tz": "", "district": "Quezon"}, {"id": 451, "name": "Cambanugoy", "name_ru": "Cambanugoy", "tz": "", "district": "Davao del Norte"}, {"id": 452, "name": "Baao", "name_ru": "Baao", "tz": "", "district": "Camarines Sur"}, {"id": 453, "name": "Santo Domingo", "name_ru": "Santo Domingo", "tz": "", "district": "Nueva Ecija"}, {"id": 454, "name": "Orion", "name_ru": "Orion", "tz": "", "district": "Bataan"}, {"id": 455, "name": "Cabatuan", "name_ru": "Cabatuan", "tz": "", "district": "Iloilo"}, {"id": 456, "name": "Itogon", "name_ru": "Itogon", "tz": "", "district": "Benguet"}, {"id": 457, "name": "Tigaon", "name_ru": "Tigaon", "tz": "", "district": "Camarines Sur"}, {"id": 458, "name": "Abuyog", "name_ru": "Abuyog", "tz": "", "district": "Leyte"}, {"id": 459, "name": "Tulunan", "name_ru": "Tulunan", "tz": "", "district": "Cotabato"}, {"id": 460, "name": "Obando", "name_ru": "Obando", "tz": "", "district": "Bulacan"}, {"id": 461, "name": "Rosario", "name_ru": "Rosario", "tz": "", "district": "La Union"}, {"id": 462, "name": "Jinoba-an", "name_ru": "Jinoba-an", "tz": "", "district": "Negros Occidental"}, {"id": 463, "name": "Malay", "name_ru": "Malay", "tz": "", "district": "Aklan"}, {"id": 464, "name": "Castilla", "name_ru": "Castilla", "tz": "", "district": "Sorsogon"}, {"id": 465, "name": "Laoang", "name_ru": "Laoang", "tz": "", "district": "Northern Samar"}, {"id": 466, "name": "Matanao", "name_ru": "Matanao", "tz": "", "district": "Davao del Sur"}, {"id": 467, "name": "Gubat", "name_ru": "Gubat", "tz": "", "district": "Sorsogon"}, {"id": 468, "name": "Paracale", "name_ru": "Paracale", "tz": "", "district": "Camarines Norte"}, {"id": 469, "name": "Medellin", "name_ru": "Medellin", "tz": "", "district": "Cebu"}, {"id": 470, "name": "Maimbung", "name_ru": "Maimbung", "tz": "", "district": "Sulu"}, {"id": 471, "name": "San Simon", "name_ru": "San Simon", "tz": "", "district": "Pampanga"}, {"id": 472, "name": "Alfonso", "name_ru": "Alfonso", "tz": "", "district": "Cavite"}, {"id": 473, "name": "San Mariano", "name_ru": "San Mariano", "tz": "", "district": "Isabela"}, {"id": 474, "name": "Kananya", "name_ru": "Kananya", "tz": "", "district": "Leyte"}, {"id": 475, "name": "Ilog", "name_ru": "Ilog", "tz": "", "district": "Negros Occidental"}, {"id": 476, "name": "Sigaboy", "name_ru": "Sigaboy", "tz": "", "district": "Davao Oriental"}, {"id": 477, "name": "Ragay", "name_ru": "Ragay", "tz": "", "district": "Camarines Sur"}, {"id": 478, "name": "San Francisco", "name_ru": "San Francisco", "tz": "", "district": "Cebu"}, {"id": 479, "name": "Irosin", "name_ru": "Irosin", "tz": "", "district": "Sorsogon"}, {"id": 480, "name": "San Luis", "name_ru": "San Luis", "tz": "", "district": "Pampanga"}, {"id": 481, "name": "Roxas", "name_ru": "Roxas", "tz": "", "district": "Oriental Mindoro"}, {"id": 482, "name": "Esperanza", "name_ru": "Esperanza", "tz": "", "district": "Agusan del Sur"}, {"id": 483, "name": "Ibaan", "name_ru": "Ibaan", "tz": "", "district": "Batangas"}, {"id": 484, "name": "El Salvador", "name_ru": "El Salvador", "tz": "", "district": "Misamis Oriental"}, {"id": 485, "name": "Mansalay", "name_ru": "Mansalay", "tz": "", "district": "Oriental Mindoro"}, {"id": 486, "name": "Calatagan", "name_ru": "Calatagan", "tz": "", "district": "Batangas"}, {"id": 487, "name": "Masantol", "name_ru": "Masantol", "tz": "", "district": "Pampanga"}, {"id": 488, "name": "Canlaon", "name_ru": "Canlaon", "tz": "", "district": "Negros Oriental"}, {"id": 489, "name": "Upi", "name_ru": "Upi", "tz": "", "district": "Maguindanao"}, {"id": 490, "name": "Gattaran", "name_ru": "Gattaran", "tz": "", "district": "Cagayan"}, {"id": 491, "name": "Barotac Nuevo", "name_ru": "Barotac Nuevo", "tz": "", "district": "Iloilo"}, {"id": 492, "name": "Baganga", "name_ru": "Baganga", "tz": "", "district": "Davao Oriental"}, {"id": 493, "name": "Palompon", "name_ru": "Palompon", "tz": "", "district": "Leyte"}, {"id": 494, "name": "Asingan", "name_ru": "Asingan", "tz": "", "district": "Pangasinan"}, {"id": 495, "name": "Cogan", "name_ru": "Cogan", "tz": "", "district": "Cebu"}, {"id": 496, "name": "Dumanjog", "name_ru": "Dumanjog", "tz": "", "district": "Cebu"}, {"id": 497, "name": "Tanauan", "name_ru": "Tanauan", "tz": "", "district": "Leyte"}, {"id": 498, "name": "New Corella", "name_ru": "New Corella", "tz": "", "district": "Davao del Norte"}, {"id": 499, "name": "Santa Maria", "name_ru": "Santa Maria", "tz": "", "district": "Davao del Sur"}, {"id": 500, "name": "Jasaan", "name_ru": "Jasaan", "tz": "", "district": "Misamis Oriental"}, {"id": 501, "name": "Milagros", "name_ru": "Milagros", "tz": "", "district": "Masbate"}, {"id": 502, "name": "Binalonan", "name_ru": "Binalonan", "tz": "", "district": "Pangasinan"}, {"id": 503, "name": "Alangalang", "name_ru": "Alangalang", "tz": "", "district": "Leyte"}, {"id": 504, "name": "Uson", "name_ru": "Uson", "tz": "", "district": "Masbate"}, {"id": 505, "name": "Buluan", "name_ru": "Buluan", "tz": "", "district": "Maguindanao"}, {"id": 506, "name": "Hagonoy", "name_ru": "Hagonoy", "tz": "", "district": "Davao del Sur"}, {"id": 507, "name": "Lian", "name_ru": "Lian", "tz": "", "district": "Batangas"}, {"id": 508, "name": "Tiwi", "name_ru": "Tiwi", "tz": "", "district": "Albay"}, {"id": 509, "name": "Ramon", "name_ru": "Ramon", "tz": "", "district": "Isabela"}, {"id": 510, "name": "Poblacion", "name_ru": "Poblacion", "tz": "", "district": "Cebu"}, {"id": 511, "name": "Paombong", "name_ru": "Paombong", "tz": "", "district": "Bulacan"}, {"id": 512, "name": "Lagonoy", "name_ru": "Lagonoy", "tz": "", "district": "Camarines Sur"}, {"id": 513, "name": "Basey", "name_ru": "Basey", "tz": "", "district": "Samar"}, {"id": 514, "name": "Pangantocan", "name_ru": "Pangantocan", "tz": "", "district": "Bukidnon"}, {"id": 515, "name": "Placer", "name_ru": "Placer", "tz": "", "district": "Masbate"}, {"id": 516, "name": "Libungan", "name_ru": "Libungan", "tz": "", "district": "Cotabato"}, {"id": 517, "name": "Magsaysay", "name_ru": "Magsaysay", "tz": "", "district": "Davao del Sur"}, {"id": 518, "name": "Pila", "name_ru": "Pila", "tz": "", "district": "Laguna"}, {"id": 519, "name": "Diffun", "name_ru": "Diffun", "tz": "", "district": "Quirino"}, {"id": 520, "name": "Urbiztondo", "name_ru": "Urbiztondo", "tz": "", "district": "Pangasinan"}, {"id": 521, "name": "General Tinio", "name_ru": "General Tinio", "tz": "", "district": "Nueva Ecija"}, {"id": 522, "name": "Bambang", "name_ru": "Bambang", "tz": "", "district": "Nueva Vizcaya"}, {"id": 523, "name": "Batac", "name_ru": "Batac", "tz": "", "district": "Ilocos Norte"}, {"id": 524, "name": "Mulanay", "name_ru": "Mulanay", "tz": "", "district": "Quezon"}, {"id": 525, "name": "Asturias", "name_ru": "Asturias", "tz": "", "district": "Cebu"}, {"id": 526, "name": "Mercedes", "name_ru": "Mercedes", "tz": "", "district": "Camarines Norte"}, {"id": 527, "name": "Manapla", "name_ru": "Manapla", "tz": "", "district": "Negros Occidental"}, {"id": 528, "name": "San Isidro", "name_ru": "San Isidro", "tz": "", "district": "Nueva Ecija"}, {"id": 529, "name": "Carigara", "name_ru": "Carigara", "tz": "", "district": "Leyte"}, {"id": 530, "name": "Estancia", "name_ru": "Estancia", "tz": "", "district": "Iloilo"}, {"id": 531, "name": "Pontevedra", "name_ru": "Pontevedra", "tz": "", "district": "Negros Occidental"}, {"id": 532, "name": "Sara", "name_ru": "Sara", "tz": "", "district": "Iloilo"}, {"id": 533, "name": "Santa Cruz", "name_ru": "Santa Cruz", "tz": "", "district": "Marinduque"}, {"id": 534, "name": "Masinloc", "name_ru": "Masinloc", "tz": "", "district": "Zambales"}, {"id": 535, "name": "San Manuel", "name_ru": "San Manuel", "tz": "", "district": "Pangasinan"}, {"id": 536, "name": "Trento", "name_ru": "Trento", "tz": "", "district": "Agusan del Sur"}, {"id": 537, "name": "Tapas", "name_ru": "Tapas", "tz": "", "district": "Capiz"}, {"id": 538, "name": "Minalabac", "name_ru": "Minalabac", "tz": "", "district": "Camarines Sur"}, {"id": 539, "name": "Titay", "name_ru": "Titay", "tz": "", "district": "Zamboanga Sibugay"}, {"id": 540, "name": "Tagkawayan", "name_ru": "Tagkawayan", "tz": "", "district": "Quezon"}, {"id": 541, "name": "Cabagan", "name_ru": "Cabagan", "tz": "", "district": "Isabela"}, {"id": 542, "name": "Impasugong", "name_ru": "Impasugong", "tz": "", "district": "Bukidnon"}, {"id": 543, "name": "Magpet", "name_ru": "Magpet", "tz": "", "district": "Cotabato"}, {"id": 544, "name": "Kitaotao", "name_ru": "Kitaotao", "tz": "", "district": "Bukidnon"}, {"id": 545, "name": "Sibonga", "name_ru": "Sibonga", "tz": "", "district": "Cebu"}, {"id": 546, "name": "Pasacao", "name_ru": "Pasacao", "tz": "", "district": "Camarines Sur"}, {"id": 547, "name": "Ajuy", "name_ru": "Ajuy", "tz": "", "district": "Iloilo"}, {"id": 548, "name": "Dauis", "name_ru": "Dauis", "tz": "", "district": "Bohol"}, {"id": 549, "name": "Guiuan", "name_ru": "Guiuan", "tz": "", "district": "Eastern Samar"}, {"id": 550, "name": "Lucban", "name_ru": "Lucban", "tz": "", "district": "Quezon"}, {"id": 551, "name": "Barobo", "name_ru": "Barobo", "tz": "", "district": "Surigao del Sur"}, {"id": 552, "name": "Molave", "name_ru": "Molave", "tz": "", "district": "Zamboanga del Sur"}, {"id": 553, "name": "Buenavista", "name_ru": "Buenavista", "tz": "", "district": "Iloilo"}, {"id": 554, "name": "Aurora", "name_ru": "Aurora", "tz": "", "district": "Zamboanga del Sur"}, {"id": 555, "name": "Hamtic", "name_ru": "Hamtic", "tz": "", "district": "Antique"}, {"id": 556, "name": "Padre Garcia", "name_ru": "Padre Garcia", "tz": "", "district": "Batangas"}, {"id": 557, "name": "Sison", "name_ru": "Sison", "tz": "", "district": "Pangasinan"}, {"id": 558, "name": "Bani", "name_ru": "Bani", "tz": "", "district": "Pangasinan"}, {"id": 559, "name": "San Joaquin", "name_ru": "San Joaquin", "tz": "", "district": "Iloilo"}, {"id": 560, "name": "Burauen", "name_ru": "Burauen", "tz": "", "district": "Leyte"}, {"id": 561, "name": "Ibajay", "name_ru": "Ibajay", "tz": "", "district": "Aklan"}, {"id": 562, "name": "Naguilian", "name_ru": "Naguilian", "tz": "", "district": "La Union"}, {"id": 563, "name": "Bato", "name_ru": "Bato", "tz": "", "district": "Camarines Sur"}, {"id": 564, "name": "President Roxas", "name_ru": "President Roxas", "tz": "", "district": "Cotabato"}, {"id": 565, "name": "Claveria", "name_ru": "Claveria", "tz": "", "district": "Misamis Oriental"}, {"id": 566, "name": "Alaminos", "name_ru": "Alaminos", "tz": "", "district": "Laguna"}, {"id": 567, "name": "Leon", "name_ru": "Leon", "tz": "", "district": "Iloilo"}, {"id": 568, "name": "Mabini", "name_ru": "Mabini", "tz": "", "district": "Batangas"}, {"id": 569, "name": "Caramoan", "name_ru": "Caramoan", "tz": "", "district": "Camarines Sur"}, {"id": 570, "name": "Cardona", "name_ru": "Cardona", "tz": "", "district": "Rizal"}, {"id": 571, "name": "Bantacan", "name_ru": "Bantacan", "tz": "", "district": "Compostela Valley"}, {"id": 572, "name": "Ocampo", "name_ru": "Ocampo", "tz": "", "district": "Camarines Sur"}, {"id": 573, "name": "San Narciso", "name_ru": "San Narciso", "tz": "", "district": "Quezon"}, {"id": 574, "name": "Aringay", "name_ru": "Aringay", "tz": "", "district": "La Union"}, {"id": 575, "name": "Kalamansig", "name_ru": "Kalamansig", "tz": "", "district": "Sultan Kudarat"}, {"id": 576, "name": "Cataingan", "name_ru": "Cataingan", "tz": "", "district": "Masbate"}, {"id": 577, "name": "Gloria", "name_ru": "Gloria", "tz": "", "district": "Oriental Mindoro"}, {"id": 578, "name": "Donsol", "name_ru": "Donsol", "tz": "", "district": "Sorsogon"}, {"id": 579, "name": "El Nido", "name_ru": "El Nido", "tz": "", "district": "Palawan"}, {"id": 580, "name": "Amulung", "name_ru": "Amulung", "tz": "", "district": "Cagayan"}, {"id": 581, "name": "Wao", "name_ru": "Wao", "tz": "", "district": "Lanao del Sur"}, {"id": 582, "name": "Penablanca", "name_ru": "Peñablanca", "tz": "", "district": "Cagayan"}, {"id": 583, "name": "Pananaw", "name_ru": "Pananaw", "tz": "", "district": "Sulu"}, {"id": 584, "name": "Pontevedra", "name_ru": "Pontevedra", "tz": "", "district": "Capiz"}, {"id": 585, "name": "Zaragoza", "name_ru": "Zaragoza", "tz": "", "district": "Nueva Ecija"}, {"id": 586, "name": "Alcala", "name_ru": "Alcala", "tz": "", "district": "Pangasinan"}, {"id": 587, "name": "Santa Rita", "name_ru": "Santa Rita", "tz": "", "district": "Pampanga"}, {"id": 588, "name": "Rosario", "name_ru": "Rosario", "tz": "", "district": "Agusan del Sur"}, {"id": 589, "name": "Dumarao", "name_ru": "Dumarao", "tz": "", "district": "Capiz"}, {"id": 590, "name": "Odiongan", "name_ru": "Odiongan", "tz": "", "district": "Romblon"}, {"id": 591, "name": "Kiblawan", "name_ru": "Kiblawan", "tz": "", "district": "Davao del Sur"}, {"id": 592, "name": "Pio Duran", "name_ru": "Pio Duran", "tz": "", "district": "Albay"}, {"id": 593, "name": "Dulag", "name_ru": "Dulag", "tz": "", "district": "Leyte"}, {"id": 594, "name": "Carmen", "name_ru": "Carmen", "tz": "", "district": "Bohol"}, {"id": 595, "name": "Vinzons", "name_ru": "Vinzons", "tz": "", "district": "Camarines Norte"}, {"id": 596, "name": "Minalin", "name_ru": "Minalin", "tz": "", "district": "Pampanga"}, {"id": 597, "name": "Malabang", "name_ru": "Malabang", "tz": "", "district": "Lanao del Sur"}, {"id": 598, "name": "Panay", "name_ru": "Panay", "tz": "", "district": "Capiz"}, {"id": 599, "name": "Libona", "name_ru": "Libona", "tz": "", "district": "Bukidnon"}, {"id": 600, "name": "Dumingag", "name_ru": "Dumingag", "tz": "", "district": "Zamboanga del Sur"}, {"id": 601, "name": "Inabanga", "name_ru": "Inabanga", "tz": "", "district": "Bohol"}, {"id": 602, "name": "Barotac Viejo", "name_ru": "Barotac Viejo", "tz": "", "district": "Iloilo"}, {"id": 603, "name": "Lal-lo", "name_ru": "Lal-lo", "tz": "", "district": "Cagayan"}, {"id": 604, "name": "Bacolor", "name_ru": "Bacolor", "tz": "", "district": "Pampanga"}, {"id": 605, "name": "New Washington", "name_ru": "New Washington", "tz": "", "district": "Aklan"}, {"id": 606, "name": "Siocon", "name_ru": "Siocon", "tz": "", "district": "Zamboanga del Norte"}, {"id": 607, "name": "Mahayag", "name_ru": "Mahayag", "tz": "", "district": "Zamboanga del Sur"}, {"id": 608, "name": "Tuba", "name_ru": "Tuba", "tz": "", "district": "Baguio"}, {"id": 609, "name": "Tibigan", "name_ru": "Tibigan", "tz": "", "district": "Bohol"}, {"id": 610, "name": "Balimbing", "name_ru": "Balimbing", "tz": "", "district": "Tawi-Tawi"}, {"id": 611, "name": "Talisay", "name_ru": "Talisay", "tz": "", "district": "Batangas"}, {"id": 612, "name": "Santa Ignacia", "name_ru": "Santa Ignacia", "tz": "", "district": "Tarlac"}, {"id": 613, "name": "Malinao", "name_ru": "Malinao", "tz": "", "district": "Albay"}, {"id": 614, "name": "Sogod", "name_ru": "Sogod", "tz": "", "district": "Southern Leyte"}, {"id": 615, "name": "Pilar", "name_ru": "Pilar", "tz": "", "district": "Capiz"}, {"id": 616, "name": "Bunawan", "name_ru": "Bunawan", "tz": "", "district": "Agusan del Sur"}, {"id": 617, "name": "Isabel", "name_ru": "Isabel", "tz": "", "district": "Leyte"}, {"id": 618, "name": "Pilar", "name_ru": "Pilar", "tz": "", "district": "Bataan"}, {"id": 619, "name": "Sumisip", "name_ru": "Sumisip", "tz": "", "district": "Basilan"}, {"id": 620, "name": "Albuera", "name_ru": "Albuera", "tz": "", "district": "Leyte"}, {"id": 621, "name": "Ayungon", "name_ru": "Ayungon", "tz": "", "district": "Negros Oriental"}, {"id": 622, "name": "Banisilan", "name_ru": "Banisilan", "tz": "", "district": "Cotabato"}, {"id": 623, "name": "Norala", "name_ru": "Norala", "tz": "", "district": "South Cotabato"}, {"id": 624, "name": "Kabasalan", "name_ru": "Kabasalan", "tz": "", "district": "Zamboanga Sibugay"}, {"id": 625, "name": "Tuy", "name_ru": "Tuy", "tz": "", "district": "Batangas"}, {"id": 626, "name": "Cordon", "name_ru": "Cordon", "tz": "", "district": "Isabela"}, {"id": 627, "name": "Montevista", "name_ru": "Montevista", "tz": "", "district": "Compostela Valley"}, {"id": 628, "name": "Narvacan", "name_ru": "Narvacan", "tz": "", "district": "Ilocos Sur"}, {"id": 629, "name": "Lower Tungawan", "name_ru": "Lower Tungawan", "tz": "", "district": "Zamboanga Sibugay"}, {"id": 630, "name": "Dingle", "name_ru": "Dingle", "tz": "", "district": "Iloilo"}, {"id": 631, "name": "Pagalungan", "name_ru": "Pagalungan", "tz": "", "district": "Maguindanao"}, {"id": 632, "name": "Lupao", "name_ru": "Lupao", "tz": "", "district": "Nueva Ecija"}, {"id": 633, "name": "Tayug", "name_ru": "Tayug", "tz": "", "district": "Pangasinan"}, {"id": 634, "name": "Pagsanjan", "name_ru": "Pagsanjan", "tz": "", "district": "Laguna"}, {"id": 635, "name": "Maluso", "name_ru": "Maluso", "tz": "", "district": "Basilan"}, {"id": 636, "name": "Lumba-a-Bayabao", "name_ru": "Lumba-a-Bayabao", "tz": "", "district": "Lanao del Sur"}, {"id": 637, "name": "Tantangan", "name_ru": "Tantangan", "tz": "", "district": "South Cotabato"}, {"id": 638, "name": "Jones", "name_ru": "Jones", "tz": "", "district": "Isabela"}, {"id": 639, "name": "Talagutong", "name_ru": "Talagutong", "tz": "", "district": "Davao Occidental"}, {"id": 640, "name": "San Jacinto", "name_ru": "San Jacinto", "tz": "", "district": "Pangasinan"}, {"id": 641, "name": "Victoria", "name_ru": "Victoria", "tz": "", "district": "Laguna"}, {"id": 642, "name": "Aguilar", "name_ru": "Aguilar", "tz": "", "district": "Pangasinan"}, {"id": 643, "name": "Basud", "name_ru": "Basud", "tz": "", "district": "Camarines Norte"}, {"id": 644, "name": "Angadanan", "name_ru": "Angadanan", "tz": "", "district": "Isabela"}, {"id": 645, "name": "Concepcion", "name_ru": "Concepcion", "tz": "", "district": "Iloilo"}, {"id": 646, "name": "Buguias", "name_ru": "Buguias", "tz": "", "district": "Benguet"}, {"id": 647, "name": "Maria Aurora", "name_ru": "Maria Aurora", "tz": "", "district": "Aurora"}, {"id": 648, "name": "San Jose", "name_ru": "San Jose", "tz": "", "district": "Camarines Sur"}, {"id": 649, "name": "Manjuyod", "name_ru": "Manjuyod", "tz": "", "district": "Negros Oriental"}, {"id": 650, "name": "Bacnotan", "name_ru": "Bacnotan", "tz": "", "district": "La Union"}, {"id": 651, "name": "Nasipit", "name_ru": "Nasipit", "tz": "", "district": "Agusan del Norte"}, {"id": 652, "name": "Katipunan", "name_ru": "Katipunan", "tz": "", "district": "Zamboanga del Norte"}, {"id": 653, "name": "Dolores", "name_ru": "Dolores", "tz": "", "district": "Eastern Samar"}, {"id": 654, "name": "Culasi", "name_ru": "Culasi", "tz": "", "district": "Antique"}, {"id": 655, "name": "San Pascual", "name_ru": "San Pascual", "tz": "", "district": "Masbate"}, {"id": 656, "name": "Loon", "name_ru": "Loon", "tz": "", "district": "Bohol"}, {"id": 657, "name": "Banaybanay", "name_ru": "Banaybanay", "tz": "", "district": "Davao Oriental"}, {"id": 658, "name": "Labangan", "name_ru": "Labangan", "tz": "", "district": "Zamboanga del Sur"}, {"id": 659, "name": "Bulalacao", "name_ru": "Bulalacao", "tz": "", "district": "Oriental Mindoro"}, {"id": 660, "name": "General Mamerto Natividad", "name_ru": "General Mamerto Natividad", "tz": "", "district": "Nueva Ecija"}, {"id": 661, "name": "Maitum", "name_ru": "Maitum", "tz": "", "district": "Sarangani"}, {"id": 662, "name": "Cateel", "name_ru": "Cateel", "tz": "", "district": "Davao Oriental"}, {"id": 663, "name": "Mandaon", "name_ru": "Mandaon", "tz": "", "district": "Masbate"}, {"id": 664, "name": "Guinayangan", "name_ru": "Guinayangan", "tz": "", "district": "Quezon"}, {"id": 665, "name": "Labason", "name_ru": "Labason", "tz": "", "district": "Zamboanga del Norte"}, {"id": 666, "name": "Badian", "name_ru": "Badian", "tz": "", "district": "Cebu"}, {"id": 667, "name": "Hinatuan", "name_ru": "Hinatuan", "tz": "", "district": "Surigao del Sur"}, {"id": 668, "name": "Jaro", "name_ru": "Jaro", "tz": "", "district": "Leyte"}, {"id": 669, "name": "Loreto", "name_ru": "Loreto", "tz": "", "district": "Agusan del Sur"}, {"id": 670, "name": "Kalilangan", "name_ru": "Kalilangan", "tz": "", "district": "Bukidnon"}, {"id": 671, "name": "Laurel", "name_ru": "Laurel", "tz": "", "district": "Batangas"}, {"id": 672, "name": "Toboso", "name_ru": "Toboso", "tz": "", "district": "Negros Occidental"}, {"id": 673, "name": "Santa Elena", "name_ru": "Santa Elena", "tz": "", "district": "Camarines Norte"}, {"id": 674, "name": "Madridejos", "name_ru": "Madridejos", "tz": "", "district": "Cebu"}, {"id": 675, "name": "Moises Padilla", "name_ru": "Moises Padilla", "tz": "", "district": "Negros Occidental"}, {"id": 676, "name": "Roseller Lim", "name_ru": "Roseller Lim", "tz": "", "district": "Zamboanga Sibugay"}, {"id": 677, "name": "Guambog", "name_ru": "Guambog", "tz": "", "district": "Compostela Valley"}, {"id": 678, "name": "Abucay", "name_ru": "Abucay", "tz": "", "district": "Bataan"}, {"id": 679, "name": "South Upi", "name_ru": "South Upi", "tz": "", "district": "Maguindanao"}, {"id": 680, "name": "Villaba", "name_ru": "Villaba", "tz": "", "district": "Leyte"}, {"id": 681, "name": "Santo Tomas", "name_ru": "Santo Tomas", "tz": "", "district": "Pampanga"}, {"id": 682, "name": "Nueva Valencia", "name_ru": "Nueva Valencia", "tz": "", "district": "Guimaras"}, {"id": 683, "name": "Panitan", "name_ru": "Panitan", "tz": "", "district": "Capiz"}, {"id": 684, "name": "Amadeo", "name_ru": "Amadeo", "tz": "", "district": "Cavite"}, {"id": 685, "name": "Proper Bansud", "name_ru": "Proper Bansud", "tz": "", "district": "Oriental Mindoro"}, {"id": 686, "name": "Tucuran", "name_ru": "Tucuran", "tz": "", "district": "Zamboanga del Sur"}, {"id": 687, "name": "Llanera", "name_ru": "Llanera", "tz": "", "district": "Nueva Ecija"}, {"id": 688, "name": "Balabac", "name_ru": "Balabac", "tz": "", "district": "Palawan"}, {"id": 689, "name": "Liloy", "name_ru": "Liloy", "tz": "", "district": "Zamboanga del Norte"}, {"id": 690, "name": "Santa Rita", "name_ru": "Santa Rita", "tz": "", "district": "Samar"}, {"id": 691, "name": "Carranglan", "name_ru": "Carranglan", "tz": "", "district": "Nueva Ecija"}, {"id": 692, "name": "Santa Cruz", "name_ru": "Santa Cruz", "tz": "", "district": "Occidental Mindoro"}, {"id": 693, "name": "Polanco", "name_ru": "Polanco", "tz": "", "district": "Zamboanga del Norte"}, {"id": 694, "name": "Quezon", "name_ru": "Quezon", "tz": "", "district": "Nueva Ecija"}, {"id": 695, "name": "President Quirino", "name_ru": "President Quirino", "tz": "", "district": "Sultan Kudarat"}, {"id": 696, "name": "Claveria", "name_ru": "Claveria", "tz": "", "district": "Masbate"}, {"id": 697, "name": "Aritao", "name_ru": "Aritao", "tz": "", "district": "Nueva Vizcaya"}, {"id": 698, "name": "Matnog", "name_ru": "Matnog", "tz": "", "district": "Sorsogon"}, {"id": 699, "name": "Bacong", "name_ru": "Bacong", "tz": "", "district": "Negros Oriental"}, {"id": 700, "name": "Puerto Galera", "name_ru": "Puerto Galera", "tz": "", "district": "Oriental Mindoro"}, {"id": 701, "name": "Anda", "name_ru": "Anda", "tz": "", "district": "Pangasinan"}, {"id": 702, "name": "Kibawe", "name_ru": "Kibawe", "tz": "", "district": "Bukidnon"}, {"id": 703, "name": "Naga", "name_ru": "Naga", "tz": "", "district": "Zamboanga Sibugay"}, {"id": 704, "name": "Kasibu", "name_ru": "Kasibu", "tz": "", "district": "Nueva Vizcaya"}, {"id": 705, "name": "Daram", "name_ru": "Daram", "tz": "", "district": "Samar"}, {"id": 706, "name": "San Miguel", "name_ru": "San Miguel", "tz": "", "district": "Surigao del Sur"}, {"id": 707, "name": "Socorro", "name_ru": "Socorro", "tz": "", "district": "Oriental Mindoro"}, {"id": 708, "name": "Tabogon", "name_ru": "Tabogon", "tz": "", "district": "Cebu"}, {"id": 709, "name": "Santa Cruz", "name_ru": "Santa Cruz", "tz": "", "district": "Ilocos Sur"}, {"id": 710, "name": "Tagudin", "name_ru": "Tagudin", "tz": "", "district": "Ilocos Sur"}, {"id": 711, "name": "Malilipot", "name_ru": "Malilipot", "tz": "", "district": "Albay"}, {"id": 712, "name": "Gonzaga", "name_ru": "Gonzaga", "tz": "", "district": "Cagayan"}, {"id": 713, "name": "Mondragon", "name_ru": "Mondragon", "tz": "", "district": "Northern Samar"}, {"id": 714, "name": "Maayon", "name_ru": "Maayon", "tz": "", "district": "Capiz"}, {"id": 715, "name": "Alcala", "name_ru": "Alcala", "tz": "", "district": "Cagayan"}, {"id": 716, "name": "Santo Tomas", "name_ru": "Santo Tomas", "tz": "", "district": "La Union"}, {"id": 717, "name": "Lasam", "name_ru": "Lasam", "tz": "", "district": "Cagayan"}, {"id": 718, "name": "La Libertad", "name_ru": "La Libertad", "tz": "", "district": "Negros Oriental"}, {"id": 719, "name": "Villanueva", "name_ru": "Villanueva", "tz": "", "district": "Misamis Oriental"}, {"id": 720, "name": "San Juan", "name_ru": "San Juan", "tz": "", "district": "La Union"}, {"id": 721, "name": "Vallehermoso", "name_ru": "Vallehermoso", "tz": "", "district": "Negros Oriental"}, {"id": 722, "name": "Tagbina", "name_ru": "Tagbina", "tz": "", "district": "Surigao del Sur"}, {"id": 723, "name": "Tampakan", "name_ru": "Tampakan", "tz": "", "district": "South Cotabato"}, {"id": 724, "name": "Mobo", "name_ru": "Mobo", "tz": "", "district": "Masbate"}, {"id": 725, "name": "Nabas", "name_ru": "Nabas", "tz": "", "district": "Aklan"}, {"id": 726, "name": "Maddela", "name_ru": "Maddela", "tz": "", "district": "Quirino"}, {"id": 727, "name": "Mambusao", "name_ru": "Mambusao", "tz": "", "district": "Capiz"}, {"id": 728, "name": "Lobo", "name_ru": "Lobo", "tz": "", "district": "Batangas"}, {"id": 729, "name": "Maragondon", "name_ru": "Maragondon", "tz": "", "district": "Cavite"}, {"id": 730, "name": "Balaoan", "name_ru": "Balaoan", "tz": "", "district": "La Union"}, {"id": 731, "name": "Valladolid", "name_ru": "Valladolid", "tz": "", "district": "Negros Occidental"}, {"id": 732, "name": "Banga", "name_ru": "Bañga", "tz": "", "district": "Aklan"}, {"id": 733, "name": "Siay", "name_ru": "Siay", "tz": "", "district": "Zamboanga Sibugay"}, {"id": 734, "name": "Leyte", "name_ru": "Leyte", "tz": "", "district": "Leyte"}, {"id": 735, "name": "Panglao", "name_ru": "Panglao", "tz": "", "district": "Bohol"}, {"id": 736, "name": "Rizal", "name_ru": "Rizal", "tz": "", "district": "Occidental Mindoro"}, {"id": 737, "name": "Taysan", "name_ru": "Taysan", "tz": "", "district": "Batangas"}, {"id": 738, "name": "Cabatuan", "name_ru": "Cabatuan", "tz": "", "district": "Isabela"}, {"id": 739, "name": "Dingras", "name_ru": "Dingras", "tz": "", "district": "Ilocos Norte"}, {"id": 740, "name": "Payabon", "name_ru": "Payabon", "tz": "", "district": "Negros Oriental"}, {"id": 741, "name": "Lilio", "name_ru": "Lilio", "tz": "", "district": "Laguna"}, {"id": 742, "name": "Malalag", "name_ru": "Malalag", "tz": "", "district": "Davao del Sur"}, {"id": 743, "name": "Plaridel", "name_ru": "Plaridel", "tz": "", "district": "Misamis Occidental"}, {"id": 744, "name": "Balud", "name_ru": "Balud", "tz": "", "district": "Masbate"}, {"id": 745, "name": "Santo Nino", "name_ru": "Santo Niño", "tz": "", "district": "South Cotabato"}, {"id": 746, "name": "Siniloan", "name_ru": "Siniloan", "tz": "", "district": "Laguna"}, {"id": 747, "name": "Pamplona", "name_ru": "Pamplona", "tz": "", "district": "Negros Oriental"}, {"id": 748, "name": "Baco", "name_ru": "Baco", "tz": "", "district": "Oriental Mindoro"}, {"id": 749, "name": "Alimodian", "name_ru": "Alimodian", "tz": "", "district": "Iloilo"}, {"id": 750, "name": "Tago", "name_ru": "Tago", "tz": "", "district": "Surigao del Sur"}, {"id": 751, "name": "San Nicolas", "name_ru": "San Nicolas", "tz": "", "district": "Pangasinan"}, {"id": 752, "name": "Poblacion", "name_ru": "Poblacion", "tz": "", "district": "Compostela Valley"}, {"id": 753, "name": "Palauig", "name_ru": "Palauig", "tz": "", "district": "Zambales"}, {"id": 754, "name": "Magsaysay", "name_ru": "Magsaysay", "tz": "", "district": "Occidental Mindoro"}, {"id": 755, "name": "Agoncillo", "name_ru": "Agoncillo", "tz": "", "district": "Batangas"}, {"id": 756, "name": "San Nicolas", "name_ru": "San Nicolas", "tz": "", "district": "Ilocos Norte"}, {"id": 757, "name": "Clarin", "name_ru": "Clarin", "tz": "", "district": "Misamis Occidental"}, {"id": 758, "name": "Pamplona", "name_ru": "Pamplona", "tz": "", "district": "Camarines Sur"}, {"id": 759, "name": "Veruela", "name_ru": "Veruela", "tz": "", "district": "Agusan del Sur"}, {"id": 760, "name": "Kalingalan Caluang", "name_ru": "Kalingalan Caluang", "tz": "", "district": "Sulu"}, {"id": 761, "name": "Buldon", "name_ru": "Buldon", "tz": "", "district": "Maguindanao"}, {"id": 762, "name": "Sogod", "name_ru": "Sogod", "tz": "", "district": "Cebu"}, {"id": 763, "name": "Talacogon", "name_ru": "Talacogon", "tz": "", "district": "Agusan del Sur"}, {"id": 764, "name": "Caraga", "name_ru": "Caraga", "tz": "", "district": "Davao Oriental"}, {"id": 765, "name": "Alicia", "name_ru": "Alicia", "tz": "", "district": "Zamboanga Sibugay"}, {"id": 766, "name": "Manay", "name_ru": "Manay", "tz": "", "district": "Davao Oriental"}, {"id": 767, "name": "Damulog", "name_ru": "Damulog", "tz": "", "district": "Bukidnon"}, {"id": 768, "name": "Sual", "name_ru": "Sual", "tz": "", "district": "Pangasinan"}, {"id": 769, "name": "San Dionisio", "name_ru": "San Dionisio", "tz": "", "district": "Iloilo"}, {"id": 770, "name": "Mapandan", "name_ru": "Mapandan", "tz": "", "district": "Pangasinan"}, {"id": 771, "name": "Cabugao", "name_ru": "Cabugao", "tz": "", "district": "Ilocos Sur"}, {"id": 772, "name": "Basista", "name_ru": "Basista", "tz": "", "district": "Pangasinan"}, {"id": 773, "name": "Caluya", "name_ru": "Caluya", "tz": "", "district": "Antique"}, {"id": 774, "name": "San Fernando", "name_ru": "San Fernando", "tz": "", "district": "Camarines Sur"}, {"id": 775, "name": "Bangar", "name_ru": "Bangar", "tz": "", "district": "La Union"}, {"id": 776, "name": "Margosatubig", "name_ru": "Margosatubig", "tz": "", "district": "Zamboanga del Sur"}, {"id": 777, "name": "Valencia", "name_ru": "Valencia", "tz": "", "district": "Negros Oriental"}, {"id": 778, "name": "Samal", "name_ru": "Samal", "tz": "", "district": "Bataan"}, {"id": 779, "name": "Aborlan", "name_ru": "Aborlan", "tz": "", "district": "Palawan"}, {"id": 780, "name": "Olutanga", "name_ru": "Olutanga", "tz": "", "district": "Zamboanga Sibugay"}, {"id": 781, "name": "Jamindan", "name_ru": "Jamindan", "tz": "", "district": "Capiz"}, {"id": 782, "name": "Maasin", "name_ru": "Maasin", "tz": "", "district": "Iloilo"}, {"id": 783, "name": "Real", "name_ru": "Real", "tz": "", "district": "Quezon"}, {"id": 784, "name": "Buug", "name_ru": "Buug", "tz": "", "district": "Zamboanga Sibugay"}, {"id": 785, "name": "San Andres", "name_ru": "San Andres", "tz": "", "district": "Catanduanes"}, {"id": 786, "name": "Patnongon", "name_ru": "Patnongon", "tz": "", "district": "Antique"}, {"id": 787, "name": "Borbon", "name_ru": "Borbon", "tz": "", "district": "Cebu"}, {"id": 788, "name": "Santo Domingo", "name_ru": "Santo Domingo", "tz": "", "district": "Albay"}, {"id": 789, "name": "Tayasan", "name_ru": "Tayasan", "tz": "", "district": "Negros Oriental"}, {"id": 790, "name": "Laur", "name_ru": "Laur", "tz": "", "district": "Nueva Ecija"}, {"id": 791, "name": "Bagabag", "name_ru": "Bagabag", "tz": "", "district": "Nueva Vizcaya"}, {"id": 792, "name": "Luna", "name_ru": "Luna", "tz": "", "district": "La Union"}, {"id": 793, "name": "San Andres", "name_ru": "San Andres", "tz": "", "district": "Quezon"}, {"id": 794, "name": "Luuk", "name_ru": "Luuk", "tz": "", "district": "Sulu"}, {"id": 795, "name": "Mabuhay", "name_ru": "Mabuhay", "tz": "", "district": "Zamboanga Sibugay"}, {"id": 796, "name": "Marantao", "name_ru": "Marantao", "tz": "", "district": "Lanao del Sur"}, {"id": 797, "name": "San Marcelino", "name_ru": "San Marcelino", "tz": "", "district": "Zambales"}, {"id": 798, "name": "Tambulig", "name_ru": "Tambulig", "tz": "", "district": "Zamboanga del Sur"}, {"id": 799, "name": "Magallanes", "name_ru": "Magallanes", "tz": "", "district": "Sorsogon"}, {"id": 800, "name": "Oras", "name_ru": "Oras", "tz": "", "district": "Eastern Samar"}, {"id": 801, "name": "San Antonio", "name_ru": "San Antonio", "tz": "", "district": "Zambales"}, {"id": 802, "name": "Bantay", "name_ru": "Bantay", "tz": "", "district": "Ilocos Sur"}, {"id": 803, "name": "Mankayan", "name_ru": "Mankayan", "tz": "", "district": "Benguet"}, {"id": 804, "name": "Sitangkai", "name_ru": "Sitangkai", "tz": "", "district": "Tawi-Tawi"}, {"id": 805, "name": "Basilisa", "name_ru": "Basilisa", "tz": "", "district": "Surigao del Norte"}, {"id": 806, "name": "San Enrique", "name_ru": "San Enrique", "tz": "", "district": "Iloilo"}, {"id": 807, "name": "Moalboal", "name_ru": "Moalboal", "tz": "", "district": "Cebu"}, {"id": 808, "name": "Imbatug", "name_ru": "Imbatug", "tz": "", "district": "Bukidnon"}, {"id": 809, "name": "Languyan", "name_ru": "Languyan", "tz": "", "district": "Tawi-Tawi"}, {"id": 810, "name": "Sagnay", "name_ru": "Sagnay", "tz": "", "district": "Camarines Sur"}, {"id": 811, "name": "Magsaysay", "name_ru": "Magsaysay", "tz": "", "district": "Misamis Oriental"}, {"id": 812, "name": "Canaman", "name_ru": "Canaman", "tz": "", "district": "Camarines Sur"}, {"id": 813, "name": "Manucan", "name_ru": "Manucan", "tz": "", "district": "Zamboanga del Norte"}, {"id": 814, "name": "San Luis", "name_ru": "San Luis", "tz": "", "district": "Batangas"}, {"id": 815, "name": "Aurora", "name_ru": "Aurora", "tz": "", "district": "Isabela"}, {"id": 816, "name": "Numancia", "name_ru": "Numancia", "tz": "", "district": "Aklan"}, {"id": 817, "name": "Enrile", "name_ru": "Enrile", "tz": "", "district": "Cagayan"}, {"id": 818, "name": "Cuenca", "name_ru": "Cuenca", "tz": "", "district": "Batangas"}, {"id": 819, "name": "Las Navas", "name_ru": "Las Navas", "tz": "", "district": "Northern Samar"}, {"id": 820, "name": "Dinas", "name_ru": "Dinas", "tz": "", "district": "Zamboanga del Sur"}, {"id": 821, "name": "Gasan", "name_ru": "Gasan", "tz": "", "district": "Marinduque"}, {"id": 822, "name": "Simbahan", "name_ru": "Simbahan", "tz": "", "district": "Sulu"}, {"id": 823, "name": "Cabanglasan", "name_ru": "Cabanglasan", "tz": "", "district": "Bukidnon"}, {"id": 824, "name": "Dagami", "name_ru": "Dagami", "tz": "", "district": "Leyte"}, {"id": 825, "name": "Rapu-Rapu", "name_ru": "Rapu-Rapu", "tz": "", "district": "Albay"}, {"id": 826, "name": "Capalonga", "name_ru": "Capalonga", "tz": "", "district": "Camarines Norte"}, {"id": 827, "name": "Siayan", "name_ru": "Siayan", "tz": "", "district": "Zamboanga del Norte"}, {"id": 828, "name": "Pandan", "name_ru": "Pandan", "tz": "", "district": "Antique"}, {"id": 829, "name": "Barira", "name_ru": "Barira", "tz": "", "district": "Maguindanao"}, {"id": 830, "name": "Gutalac", "name_ru": "Gutalac", "tz": "", "district": "Zamboanga del Norte"}, {"id": 831, "name": "Bautista", "name_ru": "Bautista", "tz": "", "district": "Pangasinan"}, {"id": 832, "name": "Claveria", "name_ru": "Claveria", "tz": "", "district": "Surigao del Norte"}, {"id": 833, "name": "San Antonio", "name_ru": "San Antonio", "tz": "", "district": "Quezon"}, {"id": 834, "name": "Sibuco", "name_ru": "Sibuco", "tz": "", "district": "Zamboanga del Norte"}, {"id": 835, "name": "Matanog", "name_ru": "Matanog", "tz": "", "district": "Maguindanao"}, {"id": 836, "name": "Jagna", "name_ru": "Jagna", "tz": "", "district": "Bohol"}, {"id": 837, "name": "Casiguran", "name_ru": "Casiguran", "tz": "", "district": "Sorsogon"}, {"id": 838, "name": "Medina", "name_ru": "Medina", "tz": "", "district": "Misamis Oriental"}, {"id": 839, "name": "Guimbal", "name_ru": "Guimbal", "tz": "", "district": "Iloilo"}, {"id": 840, "name": "Leganes", "name_ru": "Leganes", "tz": "", "district": "Iloilo"}, {"id": 841, "name": "Santa Ana", "name_ru": "Santa Ana", "tz": "", "district": "Cagayan"}, {"id": 842, "name": "Pambujan", "name_ru": "Pambujan", "tz": "", "district": "Northern Samar"}, {"id": 843, "name": "Balasan", "name_ru": "Balasan", "tz": "", "district": "Iloilo"}, {"id": 844, "name": "Santa Fe", "name_ru": "Santa Fe", "tz": "", "district": "Cebu"}, {"id": 845, "name": "Mendez-Nunez", "name_ru": "Mendez-Nuñez", "tz": "", "district": "Cavite"}, {"id": 846, "name": "Pola", "name_ru": "Pola", "tz": "", "district": "Oriental Mindoro"}, {"id": 847, "name": "Juban", "name_ru": "Juban", "tz": "", "district": "Sorsogon"}, {"id": 848, "name": "Morong", "name_ru": "Morong", "tz": "", "district": "Bataan"}, {"id": 849, "name": "Sulop", "name_ru": "Sulop", "tz": "", "district": "Davao del Sur"}, {"id": 850, "name": "Allacapan", "name_ru": "Allacapan", "tz": "", "district": "Cagayan"}, {"id": 851, "name": "Gandara", "name_ru": "Gandara", "tz": "", "district": "Samar"}, {"id": 852, "name": "Trinidad", "name_ru": "Trinidad", "tz": "", "district": "Bohol"}, {"id": 853, "name": "Lingig", "name_ru": "Lingig", "tz": "", "district": "Surigao del Sur"}, {"id": 854, "name": "Abra de Ilog", "name_ru": "Abra de Ilog", "tz": "", "district": "Occidental Mindoro"}, {"id": 855, "name": "San Luis", "name_ru": "San Luis", "tz": "", "district": "Agusan del Sur"}, {"id": 856, "name": "Munai", "name_ru": "Munai", "tz": "", "district": "Lanao del Norte"}, {"id": 857, "name": "Payao", "name_ru": "Payao", "tz": "", "district": "Zamboanga Sibugay"}, {"id": 858, "name": "Aloguinsan", "name_ru": "Aloguinsan", "tz": "", "district": "Cebu"}, {"id": 859, "name": "Duenas", "name_ru": "Dueñas", "tz": "", "district": "Iloilo"}, {"id": 860, "name": "Milaor", "name_ru": "Milaor", "tz": "", "district": "Camarines Sur"}, {"id": 861, "name": "Laoac East", "name_ru": "Laoac East", "tz": "", "district": "Pangasinan"}, {"id": 862, "name": "Barugo", "name_ru": "Barugo", "tz": "", "district": "Leyte"}, {"id": 863, "name": "Bugasong", "name_ru": "Bugasong", "tz": "", "district": "Antique"}, {"id": 864, "name": "Mogpog", "name_ru": "Mogpog", "tz": "", "district": "Marinduque"}, {"id": 865, "name": "Santa Maria", "name_ru": "Santa Maria", "tz": "", "district": "Laguna"}, {"id": 866, "name": "Abulug", "name_ru": "Abulug", "tz": "", "district": "Cagayan"}, {"id": 867, "name": "Jalajala", "name_ru": "Jalajala", "tz": "", "district": "Rizal"}, {"id": 868, "name": "Bonifacio", "name_ru": "Bonifacio", "tz": "", "district": "Misamis Occidental"}, {"id": 869, "name": "Ballesteros", "name_ru": "Ballesteros", "tz": "", "district": "Cagayan"}, {"id": 870, "name": "Santa Maria", "name_ru": "Santa Maria", "tz": "", "district": "Pangasinan"}, {"id": 871, "name": "Bayog", "name_ru": "Bayog", "tz": "", "district": "Zamboanga del Sur"}, {"id": 872, "name": "New Panamao", "name_ru": "New Panamao", "tz": "", "district": "Sulu"}, {"id": 873, "name": "Simunul", "name_ru": "Simunul", "tz": "", "district": "Tawi-Tawi"}, {"id": 874, "name": "Talayan", "name_ru": "Talayan", "tz": "", "district": "Maguindanao"}, {"id": 875, "name": "San Manuel", "name_ru": "San Manuel", "tz": "", "district": "Isabela"}, {"id": 876, "name": "Tandubas", "name_ru": "Tandubas", "tz": "", "district": "Tawi-Tawi"}, {"id": 877, "name": "Sibutu", "name_ru": "Sibutu", "tz": "", "district": "Tawi-Tawi"}, {"id": 878, "name": "Pinukpuk", "name_ru": "Pinukpuk", "tz": "", "district": "Kalinga"}, {"id": 879, "name": "Guindulman", "name_ru": "Guindulman", "tz": "", "district": "Bohol"}, {"id": 880, "name": "San Quintin", "name_ru": "San Quintin", "tz": "", "district": "Pangasinan"}, {"id": 881, "name": "General Nakar", "name_ru": "General Nakar", "tz": "", "district": "Quezon"}, {"id": 882, "name": "Dao", "name_ru": "Dao", "tz": "", "district": "Capiz"}, {"id": 883, "name": "Palapag", "name_ru": "Palapag", "tz": "", "district": "Northern Samar"}, {"id": 884, "name": "Tabango", "name_ru": "Tabango", "tz": "", "district": "Leyte"}, {"id": 885, "name": "Initao", "name_ru": "Initao", "tz": "", "district": "Misamis Oriental"}, {"id": 886, "name": "Cantilan", "name_ru": "Cantilan", "tz": "", "district": "Surigao del Sur"}, {"id": 887, "name": "San Remigio", "name_ru": "San Remigio", "tz": "", "district": "Antique"}, {"id": 888, "name": "Tobias Fornier", "name_ru": "Tobias Fornier", "tz": "", "district": "Antique"}, {"id": 889, "name": "Lianga", "name_ru": "Lianga", "tz": "", "district": "Surigao del Sur"}, {"id": 890, "name": "Lupi Viejo", "name_ru": "Lupi Viejo", "tz": "", "district": "Camarines Sur"}, {"id": 891, "name": "Catmon", "name_ru": "Catmon", "tz": "", "district": "Cebu"}, {"id": 892, "name": "Sibagat", "name_ru": "Sibagat", "tz": "", "district": "Agusan del Sur"}, {"id": 893, "name": "Bacarra", "name_ru": "Bacarra", "tz": "", "district": "Ilocos Norte"}, {"id": 894, "name": "Naguilian", "name_ru": "Naguilian", "tz": "", "district": "Isabela"}, {"id": 895, "name": "Datu Paglas", "name_ru": "Datu Paglas", "tz": "", "district": "Maguindanao"}, {"id": 896, "name": "Kadingilan", "name_ru": "Kadingilan", "tz": "", "district": "Bukidnon"}, {"id": 897, "name": "Batan", "name_ru": "Batan", "tz": "", "district": "Aklan"}, {"id": 898, "name": "Capoocan", "name_ru": "Capoocan", "tz": "", "district": "Leyte"}, {"id": 899, "name": "Batobato", "name_ru": "Batobato", "tz": "", "district": "Davao Oriental"}, {"id": 900, "name": "Masiu", "name_ru": "Masiu", "tz": "", "district": "Lanao del Sur"}, {"id": 901, "name": "Midsalip", "name_ru": "Midsalip", "tz": "", "district": "Zamboanga del Sur"}, {"id": 902, "name": "Sapa Sapa", "name_ru": "Sapa Sapa", "tz": "", "district": "Tawi-Tawi"}, {"id": 903, "name": "Banate", "name_ru": "Banate", "tz": "", "district": "Iloilo"}, {"id": 904, "name": "Getafe", "name_ru": "Getafe", "tz": "", "district": "Bohol"}, {"id": 905, "name": "Columbio", "name_ru": "Columbio", "tz": "", "district": "Sultan Kudarat"}, {"id": 906, "name": "San Vicente", "name_ru": "San Vicente", "tz": "", "district": "Palawan"}, {"id": 907, "name": "Calape", "name_ru": "Calape", "tz": "", "district": "Bohol"}, {"id": 908, "name": "Vintar", "name_ru": "Vintar", "tz": "", "district": "Ilocos Norte"}, {"id": 909, "name": "Dupax Del Norte", "name_ru": "Dupax Del Norte", "tz": "", "district": "Nueva Vizcaya"}, {"id": 910, "name": "Pandami", "name_ru": "Pandami", "tz": "", "district": "Sulu"}, {"id": 911, "name": "Dipaculao", "name_ru": "Dipaculao", "tz": "", "district": "Aurora"}, {"id": 912, "name": "Dumalinao", "name_ru": "Dumalinao", "tz": "", "district": "Zamboanga del Sur"}, {"id": 913, "name": "Lumbang", "name_ru": "Lumbang", "tz": "", "district": "Laguna"}, {"id": 914, "name": "Dolores", "name_ru": "Dolores", "tz": "", "district": "Quezon"}, {"id": 915, "name": "Badoc", "name_ru": "Badoc", "tz": "", "district": "Ilocos Norte"}, {"id": 916, "name": "Matalom", "name_ru": "Matalom", "tz": "", "district": "Leyte"}, {"id": 917, "name": "Diplahan", "name_ru": "Diplahan", "tz": "", "district": "Zamboanga Sibugay"}, {"id": 918, "name": "Mayantoc", "name_ru": "Mayantoc", "tz": "", "district": "Tarlac"}, {"id": 919, "name": "Balindong", "name_ru": "Balindong", "tz": "", "district": "Lanao del Sur"}, {"id": 920, "name": "Penaranda", "name_ru": "Peñaranda", "tz": "", "district": "Nueva Ecija"}, {"id": 921, "name": "Alubijid", "name_ru": "Alubijid", "tz": "", "district": "Misamis Oriental"}, {"id": 922, "name": "Jimalalud", "name_ru": "Jimalalud", "tz": "", "district": "Negros Oriental"}, {"id": 923, "name": "Mallig", "name_ru": "Mallig", "tz": "", "district": "Isabela"}, {"id": 924, "name": "Igbaras", "name_ru": "Igbaras", "tz": "", "district": "Iloilo"}, {"id": 925, "name": "Balimbing", "name_ru": "Balimbing", "tz": "", "district": "Lanao del Norte"}, {"id": 926, "name": "Tubao", "name_ru": "Tubao", "tz": "", "district": "La Union"}, {"id": 927, "name": "Buguey", "name_ru": "Buguey", "tz": "", "district": "Cagayan"}, {"id": 928, "name": "Catubig", "name_ru": "Catubig", "tz": "", "district": "Northern Samar"}, {"id": 929, "name": "Salug", "name_ru": "Salug", "tz": "", "district": "Zamboanga del Norte"}, {"id": 930, "name": "Tamparan", "name_ru": "Tamparan", "tz": "", "district": "Lanao del Sur"}, {"id": 931, "name": "Caramoran", "name_ru": "Caramoran", "tz": "", "district": "Catanduanes"}, {"id": 932, "name": "Bauko", "name_ru": "Bauko", "tz": "", "district": "Mountain"}, {"id": 933, "name": "Malangas", "name_ru": "Malangas", "tz": "", "district": "Zamboanga Sibugay"}, {"id": 934, "name": "Claveria", "name_ru": "Claveria", "tz": "", "district": "Cagayan"}, {"id": 935, "name": "Polillo", "name_ru": "Polillo", "tz": "", "district": "Quezon"}, {"id": 936, "name": "Mataas Na Kahoy", "name_ru": "Mataas Na Kahoy", "tz": "", "district": "Batangas"}, {"id": 937, "name": "Sigma", "name_ru": "Sigma", "tz": "", "district": "Capiz"}, {"id": 938, "name": "Sergio Osmena Sr", "name_ru": "Sergio Osmeña Sr", "tz": "", "district": "Zamboanga del Sur"}, {"id": 939, "name": "Calubian", "name_ru": "Calubian", "tz": "", "district": "Leyte"}, {"id": 940, "name": "Merida", "name_ru": "Merida", "tz": "", "district": "Leyte"}, {"id": 941, "name": "Ivisan", "name_ru": "Ivisan", "tz": "", "district": "Capiz"}, {"id": 942, "name": "Pantabangan", "name_ru": "Pantabangan", "tz": "", "district": "Nueva Ecija"}, {"id": 943, "name": "Magsingal", "name_ru": "Magsingal", "tz": "", "district": "Ilocos Sur"}, {"id": 944, "name": "Lemery", "name_ru": "Lemery", "tz": "", "district": "Iloilo"}, {"id": 945, "name": "President Roxas", "name_ru": "President Roxas", "tz": "", "district": "Capiz"}, {"id": 946, "name": "Dimataling", "name_ru": "Dimataling", "tz": "", "district": "Zamboanga del Sur"}, {"id": 947, "name": "Dasol", "name_ru": "Dasol", "tz": "", "district": "Pangasinan"}, {"id": 948, "name": "Bagac", "name_ru": "Bagac", "tz": "", "district": "Bataan"}, {"id": 949, "name": "Pulupandan", "name_ru": "Pulupandan", "tz": "", "district": "Negros Occidental"}, {"id": 950, "name": "Buenavista", "name_ru": "Buenavista", "tz": "", "district": "Quezon"}, {"id": 951, "name": "Siraway", "name_ru": "Siraway", "tz": "", "district": "Zamboanga del Norte"}, {"id": 952, "name": "Gata", "name_ru": "Gata", "tz": "", "district": "Lanao del Sur"}, {"id": 953, "name": "Paracelis", "name_ru": "Paracelis", "tz": "", "district": "Mountain"}, {"id": 954, "name": "San Narciso", "name_ru": "San Narciso", "tz": "", "district": "Zambales"}, {"id": 955, "name": "Tairan Camp", "name_ru": "Tairan Camp", "tz": "", "district": "Basilan"}, {"id": 956, "name": "San Miguel", "name_ru": "San Miguel", "tz": "", "district": "Iloilo"}, {"id": 957, "name": "Balatan", "name_ru": "Balatan", "tz": "", "district": "Camarines Sur"}, {"id": 958, "name": "La Paz", "name_ru": "La Paz", "tz": "", "district": "Agusan del Sur"}, {"id": 959, "name": "San Isidro", "name_ru": "San Isidro", "tz": "", "district": "Leyte"}, {"id": 960, "name": "Ganassi", "name_ru": "Ganassi", "tz": "", "district": "Lanao del Sur"}, {"id": 961, "name": "Aglipay", "name_ru": "Aglipay", "tz": "", "district": "Quirino"}, {"id": 962, "name": "Gamu", "name_ru": "Gamu", "tz": "", "district": "Isabela"}, {"id": 963, "name": "Anilao", "name_ru": "Anilao", "tz": "", "district": "Iloilo"}, {"id": 964, "name": "Torrijos", "name_ru": "Torrijos", "tz": "", "district": "Marinduque"}, {"id": 965, "name": "Pantao-Ragat", "name_ru": "Pantao-Ragat", "tz": "", "district": "Lanao del Norte"}, {"id": 966, "name": "Santa Maria", "name_ru": "Santa Maria", "tz": "", "district": "Ilocos Sur"}, {"id": 967, "name": "Maguing", "name_ru": "Maguing", "tz": "", "district": "Lanao del Sur"}, {"id": 968, "name": "Balungao", "name_ru": "Balungao", "tz": "", "district": "Pangasinan"}, {"id": 969, "name": "Candijay", "name_ru": "Candijay", "tz": "", "district": "Bohol"}, {"id": 970, "name": "Dumalag", "name_ru": "Dumalag", "tz": "", "district": "Capiz"}, {"id": 971, "name": "Candelaria", "name_ru": "Candelaria", "tz": "", "district": "Zambales"}, {"id": 972, "name": "Balete", "name_ru": "Balete", "tz": "", "district": "Aklan"}, {"id": 973, "name": "Iguig", "name_ru": "Iguig", "tz": "", "district": "Cagayan"}, {"id": 974, "name": "Salay", "name_ru": "Salay", "tz": "", "district": "Misamis Oriental"}, {"id": 975, "name": "Las Nieves", "name_ru": "Las Nieves", "tz": "", "district": "Agusan del Norte"}, {"id": 976, "name": "Dauin", "name_ru": "Dauin", "tz": "", "district": "Negros Oriental"}, {"id": 977, "name": "Calintaan", "name_ru": "Calintaan", "tz": "", "district": "Occidental Mindoro"}, {"id": 978, "name": "Padada", "name_ru": "Padada", "tz": "", "district": "Davao del Sur"}, {"id": 979, "name": "Piagapo", "name_ru": "Piagapo", "tz": "", "district": "Lanao del Sur"}, {"id": 980, "name": "Marogong", "name_ru": "Marogong", "tz": "", "district": "Lanao del Sur"}, {"id": 981, "name": "Makato", "name_ru": "Makato", "tz": "", "district": "Aklan"}, {"id": 982, "name": "Agno", "name_ru": "Agno", "tz": "", "district": "Pangasinan"}, {"id": 983, "name": "Placer", "name_ru": "Placer", "tz": "", "district": "Surigao del Norte"}, {"id": 984, "name": "Bontoc", "name_ru": "Bontoc", "tz": "", "district": "Southern Leyte"}, {"id": 985, "name": "Ragan Sur", "name_ru": "Ragan Sur", "tz": "", "district": "Isabela"}, {"id": 986, "name": "San Roque", "name_ru": "San Roque", "tz": "", "district": "Northern Samar"}, {"id": 987, "name": "Buenavista", "name_ru": "Buenavista", "tz": "", "district": "Bohol"}, {"id": 988, "name": "Balabagan", "name_ru": "Balabagan", "tz": "", "district": "Lanao del Sur"}, {"id": 989, "name": "San Jacinto", "name_ru": "San Jacinto", "tz": "", "district": "Masbate"}, {"id": 990, "name": "Zamboanguita", "name_ru": "Zamboanguita", "tz": "", "district": "Negros Oriental"}, {"id": 991, "name": "Benito Soliven", "name_ru": "Benito Soliven", "tz": "", "district": "Isabela"}, {"id": 992, "name": "San Luis", "name_ru": "San Luis", "tz": "", "district": "Aurora"}, {"id": 993, "name": "Pasuquin", "name_ru": "Pasuquin", "tz": "", "district": "Ilocos Norte"}, {"id": 994, "name": "Manticao", "name_ru": "Manticao", "tz": "", "district": "Misamis Oriental"}, {"id": 995, "name": "Licab", "name_ru": "Licab", "tz": "", "district": "Nueva Ecija"}, {"id": 996, "name": "South Ubian", "name_ru": "South Ubian", "tz": "", "district": "Tawi-Tawi"}, {"id": 997, "name": "Sumilao", "name_ru": "Sumilao", "tz": "", "district": "Bukidnon"}, {"id": 998, "name": "Kumalarang", "name_ru": "Kumalarang", "tz": "", "district": "Zamboanga del Sur"}, {"id": 999, "name": "Lavezares", "name_ru": "Lavezares", "tz": "", "district": "Northern Samar"}, {"id": 1000, "name": "Santo Domingo", "name_ru": "Santo Domingo", "tz": "", "district": "Ilocos Sur"}, {"id": 1001, "name": "Garchitorena", "name_ru": "Garchitorena", "tz": "", "district": "Camarines Sur"}, {"id": 1002, "name": "Oslob", "name_ru": "Oslob", "tz": "", "district": "Cebu"}, {"id": 1003, "name": "Sexmoan", "name_ru": "Sexmoan", "tz": "", "district": "Pampanga"}, {"id": 1004, "name": "Dapa", "name_ru": "Dapa", "tz": "", "district": "Surigao del Norte"}, {"id": 1005, "name": "Hinunangan", "name_ru": "Hinunangan", "tz": "", "district": "Southern Leyte"}, {"id": 1006, "name": "Poona-Piagapo", "name_ru": "Poona-Piagapo", "tz": "", "district": "Lanao del Norte"}, {"id": 1007, "name": "Jimenez", "name_ru": "Jimenez", "tz": "", "district": "Misamis Occidental"}, {"id": 1008, "name": "Lugus", "name_ru": "Lugus", "tz": "", "district": "Sulu"}, {"id": 1009, "name": "Tabuelan", "name_ru": "Tabuelan", "tz": "", "district": "Cebu"}, {"id": 1010, "name": "Ponot", "name_ru": "Ponot", "tz": "", "district": "Zamboanga del Norte"}, {"id": 1011, "name": "Babatngon", "name_ru": "Babatngon", "tz": "", "district": "Leyte"}, {"id": 1012, "name": "San Manuel", "name_ru": "San Manuel", "tz": "", "district": "Tarlac"}, {"id": 1013, "name": "Ampatuan", "name_ru": "Ampatuan", "tz": "", "district": "Maguindanao"}, {"id": 1014, "name": "Baleno", "name_ru": "Baleno", "tz": "", "district": "Masbate"}, {"id": 1015, "name": "Mabini", "name_ru": "Mabini", "tz": "", "district": "Bohol"}, {"id": 1016, "name": "Pilar", "name_ru": "Pilar", "tz": "", "district": "Bohol"}, {"id": 1017, "name": "Tudela", "name_ru": "Tudela", "tz": "", "district": "Misamis Occidental"}, {"id": 1018, "name": "Tibiao", "name_ru": "Tibiao", "tz": "", "district": "Antique"}, {"id": 1019, "name": "Santiago", "name_ru": "Santiago", "tz": "", "district": "Agusan del Norte"}, {"id": 1020, "name": "Basay", "name_ru": "Basay", "tz": "", "district": "Negros Oriental"}, {"id": 1021, "name": "Saint Bernard", "name_ru": "Saint Bernard", "tz": "", "district": "Southern Leyte"}, {"id": 1022, "name": "Dona Remedios Trinidad", "name_ru": "Doña Remedios Trinidad", "tz": "", "district": "Bulacan"}, {"id": 1023, "name": "Valencia", "name_ru": "Valencia", "tz": "", "district": "Bohol"}, {"id": 1024, "name": "Magdalena", "name_ru": "Magdalena", "tz": "", "district": "Laguna"}, {"id": 1025, "name": "Santo Nino", "name_ru": "Santo Niño", "tz": "", "district": "Cagayan"}, {"id": 1026, "name": "Kolambugan", "name_ru": "Kolambugan", "tz": "", "district": "Lanao del Norte"}, {"id": 1027, "name": "Datu Piang", "name_ru": "Datu Piang", "tz": "", "district": "Maguindanao"}, {"id": 1028, "name": "Reina Mercedes Viejo", "name_ru": "Reina Mercedes Viejo", "tz": "", "district": "Isabela"}, {"id": 1029, "name": "Libacao", "name_ru": "Libacao", "tz": "", "district": "Aklan"}, {"id": 1030, "name": "Talusan", "name_ru": "Talusan", "tz": "", "district": "Zamboanga Sibugay"}, {"id": 1031, "name": "Majayjay", "name_ru": "Majayjay", "tz": "", "district": "Laguna"}, {"id": 1032, "name": "Mainit", "name_ru": "Mainit", "tz": "", "district": "Surigao del Norte"}, {"id": 1033, "name": "Cabangan", "name_ru": "Cabangan", "tz": "", "district": "Zambales"}, {"id": 1034, "name": "Cuartero", "name_ru": "Cuartero", "tz": "", "district": "Capiz"}, {"id": 1035, "name": "Aloran", "name_ru": "Aloran", "tz": "", "district": "Misamis Occidental"}, {"id": 1036, "name": "Bayang", "name_ru": "Bayang", "tz": "", "district": "Lanao del Sur"}, {"id": 1037, "name": "Talisay", "name_ru": "Talisay", "tz": "", "district": "Camarines Norte"}, {"id": 1038, "name": "San Isidro", "name_ru": "San Isidro", "tz": "", "district": "Northern Samar"}, {"id": 1039, "name": "Dingalan", "name_ru": "Dingalan", "tz": "", "district": "Aurora"}, {"id": 1040, "name": "Alitagtag", "name_ru": "Alitagtag", "tz": "", "district": "Batangas"}, {"id": 1041, "name": "Mahaplag", "name_ru": "Mahaplag", "tz": "", "district": "Leyte"}, {"id": 1042, "name": "Lapuyan", "name_ru": "Lapuyan", "tz": "", "district": "Zamboanga del Sur"}, {"id": 1043, "name": "Zarraga", "name_ru": "Zarraga", "tz": "", "district": "Iloilo"}, {"id": 1044, "name": "Pitogo", "name_ru": "Pitogo", "tz": "", "district": "Zamboanga del Sur"}, {"id": 1045, "name": "Leon Postigo", "name_ru": "Leon Postigo", "tz": "", "district": "Zamboanga del Norte"}, {"id": 1046, "name": "Villareal", "name_ru": "Villareal", "tz": "", "district": "Samar"}, {"id": 1047, "name": "Bien Unido", "name_ru": "Bien Unido", "tz": "", "district": "Bohol"}, {"id": 1048, "name": "Conner", "name_ru": "Conner", "tz": "", "district": "Apayao"}, {"id": 1049, "name": "Macalelon", "name_ru": "Macalelon", "tz": "", "district": "Quezon"}, {"id": 1050, "name": "Ramon Magsaysay", "name_ru": "Ramon Magsaysay", "tz": "", "district": "Zamboanga del Sur"}, {"id": 1051, "name": "Palanas", "name_ru": "Palanas", "tz": "", "district": "Masbate"}, {"id": 1052, "name": "San Isidro", "name_ru": "San Isidro", "tz": "", "district": "Isabela"}, {"id": 1053, "name": "Badiangan", "name_ru": "Badiangan", "tz": "", "district": "Iloilo"}, {"id": 1054, "name": "Magarao", "name_ru": "Magarao", "tz": "", "district": "Camarines Sur"}, {"id": 1055, "name": "San Jose", "name_ru": "San Jose", "tz": "", "district": "Dinagat Islands"}, {"id": 1056, "name": "Taraka", "name_ru": "Taraka", "tz": "", "district": "Lanao del Sur"}, {"id": 1057, "name": "Saguiaran", "name_ru": "Saguiaran", "tz": "", "district": "Lanao del Sur"}, {"id": 1058, "name": "Quezon", "name_ru": "Quezon", "tz": "", "district": "Isabela"}, {"id": 1059, "name": "Labrador", "name_ru": "Labrador", "tz": "", "district": "Pangasinan"}, {"id": 1060, "name": "San Juan", "name_ru": "San Juan", "tz": "", "district": "Ilocos Sur"}, {"id": 1061, "name": "Tarragona", "name_ru": "Tarragona", "tz": "", "district": "Davao Oriental"}, {"id": 1062, "name": "Santa Margarita", "name_ru": "Santa Margarita", "tz": "", "district": "Samar"}, {"id": 1063, "name": "Pantar", "name_ru": "Pantar", "tz": "", "district": "Lanao del Norte"}, {"id": 1064, "name": "Lagindingan", "name_ru": "Lagindingan", "tz": "", "district": "Misamis Oriental"}, {"id": 1065, "name": "Sapian", "name_ru": "Sapian", "tz": "", "district": "Capiz"}, {"id": 1066, "name": "Lauaan", "name_ru": "Lauaan", "tz": "", "district": "Antique"}, {"id": 1067, "name": "Bugho", "name_ru": "Bugho", "tz": "", "district": "Leyte"}, {"id": 1068, "name": "San Pablo", "name_ru": "San Pablo", "tz": "", "district": "Zamboanga del Sur"}, {"id": 1069, "name": "Macrohon", "name_ru": "Macrohon", "tz": "", "district": "Southern Leyte"}, {"id": 1070, "name": "Malitbog", "name_ru": "Malitbog", "tz": "", "district": "Bukidnon"}, {"id": 1071, "name": "Pandag", "name_ru": "Pandag", "tz": "", "district": "Maguindanao"}, {"id": 1072, "name": "Poro", "name_ru": "Poro", "tz": "", "district": "Cebu"}, {"id": 1073, "name": "Pura", "name_ru": "Pura", "tz": "", "district": "Tarlac"}, {"id": 1074, "name": "Casiguran", "name_ru": "Casiguran", "tz": "", "district": "Aurora"}, {"id": 1075, "name": "Bubong", "name_ru": "Bubong", "tz": "", "district": "Lanao del Sur"}, {"id": 1076, "name": "Mabini", "name_ru": "Mabini", "tz": "", "district": "Pangasinan"}, {"id": 1077, "name": "Madalum", "name_ru": "Madalum", "tz": "", "district": "Lanao del Sur"}, {"id": 1078, "name": "Del Gallego", "name_ru": "Del Gallego", "tz": "", "district": "Camarines Sur"}, {"id": 1079, "name": "Kayapa", "name_ru": "Kayapa", "tz": "", "district": "Nueva Vizcaya"}, {"id": 1080, "name": "Santa Josefa", "name_ru": "Santa Josefa", "tz": "", "district": "Agusan del Sur"}, {"id": 1081, "name": "Santa Lucia", "name_ru": "Santa Lucia", "tz": "", "district": "Ilocos Sur"}, {"id": 1082, "name": "Manito", "name_ru": "Manito", "tz": "", "district": "Albay"}, {"id": 1083, "name": "Lamut", "name_ru": "Lamut", "tz": "", "district": "Ifugao"}, {"id": 1084, "name": "Burgos", "name_ru": "Burgos", "tz": "", "district": "Isabela"}, {"id": 1085, "name": "Sinait", "name_ru": "Sinait", "tz": "", "district": "Ilocos Sur"}, {"id": 1086, "name": "Buenavista", "name_ru": "Buenavista", "tz": "", "district": "Marinduque"}, {"id": 1087, "name": "San Pablo", "name_ru": "San Pablo", "tz": "", "district": "Isabela"}, {"id": 1088, "name": "Sanchez-Mira", "name_ru": "Sanchez-Mira", "tz": "", "district": "Cagayan"}, {"id": 1089, "name": "Infanta", "name_ru": "Infanta", "tz": "", "district": "Pangasinan"}, {"id": 1090, "name": "Sierra Bullones", "name_ru": "Sierra Bullones", "tz": "", "district": "Bohol"}, {"id": 1091, "name": "Socorro", "name_ru": "Socorro", "tz": "", "district": "Surigao del Norte"}, {"id": 1092, "name": "Bobon", "name_ru": "Bobon", "tz": "", "district": "Northern Samar"}, {"id": 1093, "name": "Dancagan", "name_ru": "Dancagan", "tz": "", "district": "Bukidnon"}, {"id": 1094, "name": "Binidayan", "name_ru": "Binidayan", "tz": "", "district": "Lanao del Sur"}, {"id": 1095, "name": "Tabina", "name_ru": "Tabina", "tz": "", "district": "Zamboanga del Sur"}, {"id": 1096, "name": "Tubay", "name_ru": "Tubay", "tz": "", "district": "Agusan del Norte"}, {"id": 1097, "name": "Natividad", "name_ru": "Natividad", "tz": "", "district": "Pangasinan"}, {"id": 1098, "name": "Talisayan", "name_ru": "Talisayan", "tz": "", "district": "Misamis Oriental"}, {"id": 1099, "name": "Santa Maria", "name_ru": "Santa Maria", "tz": "", "district": "Isabela"}, {"id": 1100, "name": "Tarangnan", "name_ru": "Tarangnan", "tz": "", "district": "Samar"}, {"id": 1101, "name": "Alegria", "name_ru": "Alegria", "tz": "", "district": "Cebu"}, {"id": 1102, "name": "Altavas", "name_ru": "Altavas", "tz": "", "district": "Aklan"}, {"id": 1103, "name": "Lopez Jaena", "name_ru": "Lopez Jaena", "tz": "", "district": "Misamis Occidental"}, {"id": 1104, "name": "Allen", "name_ru": "Allen", "tz": "", "district": "Northern Samar"}, {"id": 1105, "name": "Ayuquitan", "name_ru": "Ayuquitan", "tz": "", "district": "Negros Oriental"}, {"id": 1106, "name": "Tipo-Tipo", "name_ru": "Tipo-Tipo", "tz": "", "district": "Basilan"}, {"id": 1107, "name": "Busuanga", "name_ru": "Busuanga", "tz": "", "district": "Palawan"}, {"id": 1108, "name": "Unisan", "name_ru": "Unisan", "tz": "", "district": "Quezon"}, {"id": 1109, "name": "Sarrat", "name_ru": "Sarrat", "tz": "", "district": "Ilocos Norte"}, {"id": 1110, "name": "Pangil", "name_ru": "Pangil", "tz": "", "district": "Laguna"}, {"id": 1111, "name": "San Nicolas", "name_ru": "San Nicolas", "tz": "", "district": "Batangas"}, {"id": 1112, "name": "Camalaniugan", "name_ru": "Camalaniugan", "tz": "", "district": "Cagayan"}, {"id": 1113, "name": "San Miguel", "name_ru": "San Miguel", "tz": "", "district": "Bohol"}, {"id": 1114, "name": "Tumbao", "name_ru": "Tumbao", "tz": "", "district": "Maguindanao"}, {"id": 1115, "name": "Talugtug", "name_ru": "Talugtug", "tz": "", "district": "Nueva Ecija"}, {"id": 1116, "name": "Nagtipunan", "name_ru": "Nagtipunan", "tz": "", "district": "Quirino"}, {"id": 1117, "name": "Paete", "name_ru": "Paete", "tz": "", "district": "Laguna"}, {"id": 1118, "name": "Monreal", "name_ru": "Monreal", "tz": "", "district": "Masbate"}, {"id": 1119, "name": "Paoay", "name_ru": "Paoay", "tz": "", "district": "Ilocos Norte"}, {"id": 1120, "name": "Poblacion", "name_ru": "Poblacion", "tz": "", "district": "Southern Leyte"}, {"id": 1121, "name": "Kalayaan", "name_ru": "Kalayaan", "tz": "", "district": "Laguna"}, {"id": 1122, "name": "San Felipe", "name_ru": "San Felipe", "tz": "", "district": "Zambales"}, {"id": 1123, "name": "Pagudpud", "name_ru": "Pagudpud", "tz": "", "district": "Ilocos Norte"}, {"id": 1124, "name": "Quirino", "name_ru": "Quirino", "tz": "", "district": "Isabela"}, {"id": 1125, "name": "Dimasalang", "name_ru": "Dimasalang", "tz": "", "district": "Masbate"}, {"id": 1126, "name": "Ternate", "name_ru": "Ternate", "tz": "", "district": "Cavite"}, {"id": 1127, "name": "General Luna", "name_ru": "General Luna", "tz": "", "district": "Quezon"}, {"id": 1128, "name": "Baroy", "name_ru": "Baroy", "tz": "", "district": "Lanao del Norte"}, {"id": 1129, "name": "Balete", "name_ru": "Balete", "tz": "", "district": "Batangas"}, {"id": 1130, "name": "San Enrique", "name_ru": "San Enrique", "tz": "", "district": "Negros Occidental"}, {"id": 1131, "name": "Solsona", "name_ru": "Solsona", "tz": "", "district": "Ilocos Norte"}, {"id": 1132, "name": "Piat", "name_ru": "Piat", "tz": "", "district": "Cagayan"}, {"id": 1133, "name": "Jabonga", "name_ru": "Jabonga", "tz": "", "district": "Agusan del Norte"}, {"id": 1134, "name": "Tugaya", "name_ru": "Tugaya", "tz": "", "district": "Lanao del Sur"}, {"id": 1135, "name": "Santo Tomas", "name_ru": "Santo Tomas", "tz": "", "district": "Isabela"}, {"id": 1136, "name": "Pamplona", "name_ru": "Pamplona", "tz": "", "district": "Cagayan"}, {"id": 1137, "name": "Lucena", "name_ru": "Lucena", "tz": "", "district": "Iloilo"}, {"id": 1138, "name": "Tamilisan", "name_ru": "Tamilisan", "tz": "", "district": "Zamboanga del Norte"}, {"id": 1139, "name": "Patian", "name_ru": "Patian", "tz": "", "district": "Sulu"}, {"id": 1140, "name": "Tuburan", "name_ru": "Tuburan", "tz": "", "district": "Basilan"}, {"id": 1141, "name": "Burdeos", "name_ru": "Burdeos", "tz": "", "district": "Quezon"}, {"id": 1142, "name": "Sagbayan", "name_ru": "Sagbayan", "tz": "", "district": "Bohol"}, {"id": 1143, "name": "Carrascal", "name_ru": "Carrascal", "tz": "", "district": "Surigao del Sur"}, {"id": 1144, "name": "Malinao", "name_ru": "Malinao", "tz": "", "district": "Aklan"}, {"id": 1145, "name": "Garcia Hernandez", "name_ru": "Garcia Hernandez", "tz": "", "district": "Bohol"}, {"id": 1146, "name": "Bacolod", "name_ru": "Bacolod", "tz": "", "district": "Lanao del Norte"}, {"id": 1147, "name": "Mina", "name_ru": "Mina", "tz": "", "district": "Iloilo"}, {"id": 1148, "name": "Kauswagan", "name_ru": "Kauswagan", "tz": "", "district": "Lanao del Norte"}, {"id": 1149, "name": "Alicia", "name_ru": "Alicia", "tz": "", "district": "Bohol"}, {"id": 1150, "name": "Lagonglong", "name_ru": "Lagonglong", "tz": "", "district": "Misamis Oriental"}, {"id": 1151, "name": "Caibiran", "name_ru": "Caibiran", "tz": "", "district": "Biliran"}, {"id": 1152, "name": "Ramain", "name_ru": "Ramain", "tz": "", "district": "Lanao del Sur"}, {"id": 1153, "name": "San Fernando", "name_ru": "San Fernando", "tz": "", "district": "Romblon"}, {"id": 1154, "name": "San Agustin", "name_ru": "San Agustin", "tz": "", "district": "Romblon"}, {"id": 1155, "name": "Quezon", "name_ru": "Quezon", "tz": "", "district": "Nueva Vizcaya"}, {"id": 1156, "name": "Bulusan", "name_ru": "Bulusan", "tz": "", "district": "Sorsogon"}, {"id": 1157, "name": "Magallanes", "name_ru": "Magallanes", "tz": "", "district": "Cavite"}, {"id": 1158, "name": "Cavinti", "name_ru": "Cavinti", "tz": "", "district": "Laguna"}, {"id": 1159, "name": "Pitogo", "name_ru": "Pitogo", "tz": "", "district": "Bohol"}, {"id": 1160, "name": "Tangalan", "name_ru": "Tangalan", "tz": "", "district": "Aklan"}, {"id": 1161, "name": "Catigbian", "name_ru": "Catigbian", "tz": "", "district": "Bohol"}, {"id": 1162, "name": "Limbuhan", "name_ru": "Limbuhan", "tz": "", "district": "Masbate"}, {"id": 1163, "name": "Pakil", "name_ru": "Pakil", "tz": "", "district": "Laguna"}, {"id": 1164, "name": "Burgos", "name_ru": "Burgos", "tz": "", "district": "Pangasinan"}, {"id": 1165, "name": "Kalawit", "name_ru": "Kalawit", "tz": "", "district": "Zamboanga del Norte"}, {"id": 1166, "name": "Candoni", "name_ru": "Candoni", "tz": "", "district": "Negros Occidental"}, {"id": 1167, "name": "Padre Burgos", "name_ru": "Padre Burgos", "tz": "", "district": "Quezon"}, {"id": 1168, "name": "Baliguian", "name_ru": "Baliguian", "tz": "", "district": "Zamboanga del Norte"}, {"id": 1169, "name": "Ramos", "name_ru": "Ramos", "tz": "", "district": "Tarlac"}, {"id": 1170, "name": "Cuyo", "name_ru": "Cuyo", "tz": "", "district": "Palawan"}, {"id": 1171, "name": "Caba", "name_ru": "Caba", "tz": "", "district": "La Union"}, {"id": 1172, "name": "Dumaran", "name_ru": "Dumaran", "tz": "", "district": "Palawan"}, {"id": 1173, "name": "Gamay", "name_ru": "Gamay", "tz": "", "district": "Northern Samar"}, {"id": 1174, "name": "Maibog", "name_ru": "Maibog", "tz": "", "district": "Southern Leyte"}, {"id": 1175, "name": "Maigo", "name_ru": "Maigo", "tz": "", "district": "Lanao del Norte"}, {"id": 1176, "name": "Barbasa", "name_ru": "Barbasa", "tz": "", "district": "Antique"}, {"id": 1177, "name": "Calamba", "name_ru": "Calamba", "tz": "", "district": "Misamis Occidental"}, {"id": 1178, "name": "General Luna", "name_ru": "General Luna", "tz": "", "district": "Surigao del Norte"}, {"id": 1179, "name": "Calbiga", "name_ru": "Calbiga", "tz": "", "district": "Samar"}, {"id": 1180, "name": "Cajidiocan", "name_ru": "Cajidiocan", "tz": "", "district": "Romblon"}, {"id": 1181, "name": "Tubungan", "name_ru": "Tubungan", "tz": "", "district": "Iloilo"}, {"id": 1182, "name": "Culion", "name_ru": "Culion", "tz": "", "district": "Palawan"}, {"id": 1183, "name": "Carmen", "name_ru": "Carmen", "tz": "", "district": "Agusan del Norte"}, {"id": 1184, "name": "Baclayon", "name_ru": "Baclayon", "tz": "", "district": "Bohol"}, {"id": 1185, "name": "Pitogo", "name_ru": "Pitogo", "tz": "", "district": "Quezon"}, {"id": 1186, "name": "Prieto Diaz", "name_ru": "Prieto Diaz", "tz": "", "district": "Sorsogon"}, {"id": 1187, "name": "Viga", "name_ru": "Viga", "tz": "", "district": "Catanduanes"}, {"id": 1188, "name": "Oteiza", "name_ru": "Oteiza", "tz": "", "district": "Surigao del Sur"}, {"id": 1189, "name": "Lumbatan", "name_ru": "Lumbatan", "tz": "", "district": "Lanao del Sur"}, {"id": 1190, "name": "Santa Teresita", "name_ru": "Santa Teresita", "tz": "", "district": "Batangas"}, {"id": 1191, "name": "Butig", "name_ru": "Butig", "tz": "", "district": "Lanao del Sur"}, {"id": 1192, "name": "Lazi", "name_ru": "Lazi", "tz": "", "district": "Siquijor"}, {"id": 1193, "name": "Magallanes", "name_ru": "Magallanes", "tz": "", "district": "Agusan del Norte"}, {"id": 1194, "name": "Parabcan", "name_ru": "Parabcan", "tz": "", "district": "Camarines Sur"}, {"id": 1195, "name": "Sarangani", "name_ru": "Sarangani", "tz": "", "district": "Davao del Sur"}, {"id": 1196, "name": "Naawan", "name_ru": "Naawan", "tz": "", "district": "Misamis Oriental"}, {"id": 1197, "name": "Piddig", "name_ru": "Piddig", "tz": "", "district": "Ilocos Norte"}, {"id": 1198, "name": "Batad", "name_ru": "Batad", "tz": "", "district": "Iloilo"}, {"id": 1199, "name": "Santa Fe", "name_ru": "Santa Fe", "tz": "", "district": "Leyte"}, {"id": 1200, "name": "Maribojoc", "name_ru": "Maribojoc", "tz": "", "district": "Bohol"}, {"id": 1201, "name": "San Jose", "name_ru": "San Jose", "tz": "", "district": "Negros Oriental"}, {"id": 1202, "name": "Anini-y", "name_ru": "Anini-y", "tz": "", "district": "Antique"}, {"id": 1203, "name": "Salcedo", "name_ru": "Salcedo", "tz": "", "district": "Eastern Samar"}, {"id": 1204, "name": "Bato", "name_ru": "Bato", "tz": "", "district": "Catanduanes"}, {"id": 1205, "name": "San Agustin", "name_ru": "San Agustin", "tz": "", "district": "Isabela"}, {"id": 1206, "name": "Madamba", "name_ru": "Madamba", "tz": "", "district": "Lanao del Sur"}, {"id": 1207, "name": "Gigaquit", "name_ru": "Gigaquit", "tz": "", "district": "Surigao del Norte"}, {"id": 1208, "name": "Guipos", "name_ru": "Guipos", "tz": "", "district": "Zamboanga del Sur"}, {"id": 1209, "name": "Looc", "name_ru": "Looc", "tz": "", "district": "Romblon"}, {"id": 1210, "name": "MacArthur", "name_ru": "MacArthur", "tz": "", "district": "Leyte"}, {"id": 1211, "name": "Cabucgayan", "name_ru": "Cabucgayan", "tz": "", "district": "Biliran"}, {"id": 1212, "name": "San Fernando", "name_ru": "San Fernando", "tz": "", "district": "Masbate"}, {"id": 1213, "name": "Tigbao", "name_ru": "Tigbao", "tz": "", "district": "Zamboanga del Sur"}, {"id": 1214, "name": "Cagwait", "name_ru": "Cagwait", "tz": "", "district": "Surigao del Sur"}, {"id": 1215, "name": "Can-Avid", "name_ru": "Can-Avid", "tz": "", "district": "Eastern Samar"}, {"id": 1216, "name": "Rancheria Payau", "name_ru": "Rancheria Payau", "tz": "", "district": "Zamboanga del Sur"}, {"id": 1217, "name": "Pandan", "name_ru": "Pandan", "tz": "", "district": "Catanduanes"}, {"id": 1218, "name": "Tolosa", "name_ru": "Tolosa", "tz": "", "district": "Leyte"}, {"id": 1219, "name": "Inopacan", "name_ru": "Inopacan", "tz": "", "district": "Leyte"}, {"id": 1220, "name": "Clarin", "name_ru": "Clarin", "tz": "", "district": "Bohol"}, {"id": 1221, "name": "Linamon", "name_ru": "Linamon", "tz": "", "district": "Lanao del Norte"}, {"id": 1222, "name": "Mabitac", "name_ru": "Mabitac", "tz": "", "district": "Laguna"}, {"id": 1223, "name": "Llorente", "name_ru": "Llorente", "tz": "", "district": "Eastern Samar"}, {"id": 1224, "name": "Kitcharao", "name_ru": "Kitcharao", "tz": "", "district": "Agusan del Norte"}, {"id": 1225, "name": "Ronda", "name_ru": "Ronda", "tz": "", "district": "Cebu"}, {"id": 1226, "name": "Luna", "name_ru": "Luna", "tz": "", "district": "Apayao"}, {"id": 1227, "name": "Barcelona", "name_ru": "Barcelona", "tz": "", "district": "Sorsogon"}, {"id": 1228, "name": "Lugait", "name_ru": "Lugait", "tz": "", "district": "Misamis Oriental"}, {"id": 1229, "name": "Dupax del Sur", "name_ru": "Dupax del Sur", "tz": "", "district": "Nueva Vizcaya"}, {"id": 1230, "name": "Hindang", "name_ru": "Hindang", "tz": "", "district": "Leyte"}, {"id": 1231, "name": "Aguinaldo", "name_ru": "Aguinaldo", "tz": "", "district": "Santiago"}, {"id": 1232, "name": "Luna", "name_ru": "Luna", "tz": "", "district": "Isabela"}, {"id": 1233, "name": "Luisiana", "name_ru": "Luisiana", "tz": "", "district": "Laguna"}, {"id": 1234, "name": "Banting", "name_ru": "Banting", "tz": "", "district": "Sulu"}, {"id": 1235, "name": "San Guillermo", "name_ru": "San Guillermo", "tz": "", "district": "Isabela"}, {"id": 1236, "name": "Samboan", "name_ru": "Samboan", "tz": "", "district": "Cebu"}, {"id": 1237, "name": "Kawayan", "name_ru": "Kawayan", "tz": "", "district": "Biliran"}, {"id": 1238, "name": "Banaue", "name_ru": "Banaue", "tz": "", "district": "Ifugao"}, {"id": 1239, "name": "Sapang Dalaga", "name_ru": "Sapang Dalaga", "tz": "", "district": "Misamis Occidental"}, {"id": 1240, "name": "Caoayan", "name_ru": "Caoayan", "tz": "", "district": "Ilocos Sur"}, {"id": 1241, "name": "Kapay", "name_ru": "Kapay", "tz": "", "district": "Lanao del Sur"}, {"id": 1242, "name": "Magsaysay", "name_ru": "Magsaysay", "tz": "", "district": "Lanao del Norte"}, {"id": 1243, "name": "Pinan", "name_ru": "Piñan", "tz": "", "district": "Zamboanga del Norte"}, {"id": 1244, "name": "Danao", "name_ru": "Danao", "tz": "", "district": "Bohol"}, {"id": 1245, "name": "Villa Verde", "name_ru": "Villa Verde", "tz": "", "district": "Nueva Vizcaya"}, {"id": 1246, "name": "Del Carmen", "name_ru": "Del Carmen", "tz": "", "district": "Surigao del Norte"}, {"id": 1247, "name": "Dagohoy", "name_ru": "Dagohoy", "tz": "", "district": "Bohol"}, {"id": 1248, "name": "Malabuyoc", "name_ru": "Malabuyoc", "tz": "", "district": "Cebu"}, {"id": 1249, "name": "Valderrama", "name_ru": "Valderrama", "tz": "", "district": "Antique"}, {"id": 1250, "name": "Mulundo", "name_ru": "Mulundo", "tz": "", "district": "Lanao del Sur"}, {"id": 1251, "name": "San Miguel", "name_ru": "San Miguel", "tz": "", "district": "Zamboanga del Sur"}, {"id": 1252, "name": "Santiago", "name_ru": "Santiago", "tz": "", "district": "Ilocos Sur"}, {"id": 1253, "name": "San Miguel", "name_ru": "San Miguel", "tz": "", "district": "Leyte"}, {"id": 1254, "name": "Sinacaban", "name_ru": "Sinacaban", "tz": "", "district": "Misamis Occidental"}, {"id": 1255, "name": "Tigbauan", "name_ru": "Tigbauan", "tz": "", "district": "Iloilo"}, {"id": 1256, "name": "Tingloy", "name_ru": "Tingloy", "tz": "", "district": "Batangas"}, {"id": 1257, "name": "Santa Teresita", "name_ru": "Santa Teresita", "tz": "", "district": "Cagayan"}, {"id": 1258, "name": "Cabusao", "name_ru": "Cabusao", "tz": "", "district": "Camarines Sur"}, {"id": 1259, "name": "Pugo", "name_ru": "Pugo", "tz": "", "district": "La Union"}, {"id": 1260, "name": "Rizal", "name_ru": "Rizal", "tz": "", "district": "Kalinga"}, {"id": 1261, "name": "Tublay", "name_ru": "Tublay", "tz": "", "district": "Benguet"}, {"id": 1262, "name": "Pastrana", "name_ru": "Pastrana", "tz": "", "district": "Leyte"}, {"id": 1263, "name": "Buruanga", "name_ru": "Buruanga", "tz": "", "district": "Aklan"}, {"id": 1264, "name": "Siruma", "name_ru": "Siruma", "tz": "", "district": "Camarines Sur"}, {"id": 1265, "name": "Cervantes", "name_ru": "Cervantes", "tz": "", "district": "Ilocos Sur"}, {"id": 1266, "name": "Espiritu", "name_ru": "Espiritu", "tz": "", "district": "Ilocos Norte"}, {"id": 1267, "name": "Marihatag", "name_ru": "Marihatag", "tz": "", "district": "Surigao del Sur"}, {"id": 1268, "name": "Alcoy", "name_ru": "Alcoy", "tz": "", "district": "Cebu"}, {"id": 1269, "name": "Jiabong", "name_ru": "Jiabong", "tz": "", "district": "Samar"}, {"id": 1270, "name": "Tadian", "name_ru": "Tadian", "tz": "", "district": "Mountain"}, {"id": 1271, "name": "La Paz", "name_ru": "La Paz", "tz": "", "district": "Leyte"}, {"id": 1272, "name": "Kapangan", "name_ru": "Kapangan", "tz": "", "district": "Benguet"}, {"id": 1273, "name": "Diadi", "name_ru": "Diadi", "tz": "", "district": "Nueva Vizcaya"}, {"id": 1274, "name": "Atok", "name_ru": "Atok", "tz": "", "district": "Benguet"}, {"id": 1275, "name": "Rizal", "name_ru": "Rizal", "tz": "", "district": "Cagayan"}, {"id": 1276, "name": "San Teodoro", "name_ru": "San Teodoro", "tz": "", "district": "Oriental Mindoro"}, {"id": 1277, "name": "Lumbayanague", "name_ru": "Lumbayanague", "tz": "", "district": "Lanao del Sur"}, {"id": 1278, "name": "San Gabriel", "name_ru": "San Gabriel", "tz": "", "district": "La Union"}, {"id": 1279, "name": "Malimono", "name_ru": "Malimono", "tz": "", "district": "Surigao del Norte"}, {"id": 1280, "name": "Duero", "name_ru": "Duero", "tz": "", "district": "Bohol"}, {"id": 1281, "name": "Santander", "name_ru": "Santander", "tz": "", "district": "Cebu"}, {"id": 1282, "name": "Cortes", "name_ru": "Cortes", "tz": "", "district": "Bohol"}, {"id": 1283, "name": "Candon", "name_ru": "Candon", "tz": "", "district": "Ilocos Sur"}, {"id": 1284, "name": "Rizal", "name_ru": "Rizal", "tz": "", "district": "Laguna"}, {"id": 1285, "name": "Sebaste", "name_ru": "Sebaste", "tz": "", "district": "Antique"}, {"id": 1286, "name": "Madalag", "name_ru": "Madalag", "tz": "", "district": "Aklan"}, {"id": 1287, "name": "Taft", "name_ru": "Taft", "tz": "", "district": "Eastern Samar"}, {"id": 1288, "name": "Nunungan", "name_ru": "Nunuñgan", "tz": "", "district": "Lanao del Norte"}, {"id": 1289, "name": "Balilihan", "name_ru": "Balilihan", "tz": "", "district": "Bohol"}, {"id": 1290, "name": "Paglat", "name_ru": "Paglat", "tz": "", "district": "Maguindanao"}, {"id": 1291, "name": "Baliangao", "name_ru": "Baliangao", "tz": "", "district": "Misamis Occidental"}, {"id": 1292, "name": "Bilar", "name_ru": "Bilar", "tz": "", "district": "Bohol"}, {"id": 1293, "name": "Bombon", "name_ru": "Bombon", "tz": "", "district": "Camarines Sur"}, {"id": 1294, "name": "Paluan", "name_ru": "Paluan", "tz": "", "district": "Occidental Mindoro"}, {"id": 1295, "name": "Tinoc", "name_ru": "Tinoc", "tz": "", "district": "Ifugao"}, {"id": 1296, "name": "Mayorga", "name_ru": "Mayorga", "tz": "", "district": "Leyte"}, {"id": 1297, "name": "Cagdianao", "name_ru": "Cagdianao", "tz": "", "district": "Dinagat Islands"}, {"id": 1298, "name": "Gitagum", "name_ru": "Gitagum", "tz": "", "district": "Misamis Oriental"}, {"id": 1299, "name": "Santa Fe", "name_ru": "Santa Fe", "tz": "", "district": "Nueva Vizcaya"}, {"id": 1300, "name": "Almeria", "name_ru": "Almeria", "tz": "", "district": "Biliran"}, {"id": 1301, "name": "Marcos", "name_ru": "Marcos", "tz": "", "district": "Ilocos Norte"}, {"id": 1302, "name": "Pinabacdao", "name_ru": "Pinabacdao", "tz": "", "district": "Samar"}, {"id": 1303, "name": "San Jose", "name_ru": "San Jose", "tz": "", "district": "Northern Samar"}, {"id": 1304, "name": "Loay", "name_ru": "Loay", "tz": "", "district": "Bohol"}, {"id": 1305, "name": "Libjo", "name_ru": "Libjo", "tz": "", "district": "Dinagat Islands"}, {"id": 1306, "name": "Buadiposo-Buntong", "name_ru": "Buadiposo-Buntong", "tz": "", "district": "Lanao del Sur"}, {"id": 1307, "name": "Bucay", "name_ru": "Bucay", "tz": "", "district": "Abra"}, {"id": 1308, "name": "Santa Fe", "name_ru": "Santa Fe", "tz": "", "district": "Romblon"}, {"id": 1309, "name": "Anda", "name_ru": "Anda", "tz": "", "district": "Bohol"}, {"id": 1310, "name": "Cortes", "name_ru": "Cortes", "tz": "", "district": "Surigao del Sur"}, {"id": 1311, "name": "San Rafael", "name_ru": "San Rafael", "tz": "", "district": "Iloilo"}, {"id": 1312, "name": "Flora", "name_ru": "Flora", "tz": "", "district": "Apayao"}, {"id": 1313, "name": "Marabut", "name_ru": "Marabut", "tz": "", "district": "Samar"}, {"id": 1314, "name": "Jovellar", "name_ru": "Jovellar", "tz": "", "district": "Albay"}, {"id": 1315, "name": "Biliran", "name_ru": "Biliran", "tz": "", "district": "Biliran"}, {"id": 1316, "name": "Catarman", "name_ru": "Catarman", "tz": "", "district": "Camiguin"}, {"id": 1317, "name": "Pinili", "name_ru": "Pinili", "tz": "", "district": "Ilocos Norte"}, {"id": 1318, "name": "Esperanza", "name_ru": "Esperanza", "tz": "", "district": "Masbate"}, {"id": 1319, "name": "Kiangan", "name_ru": "Kiangan", "tz": "", "district": "Ifugao"}, {"id": 1320, "name": "Loboc", "name_ru": "Loboc", "tz": "", "district": "Bohol"}, {"id": 1321, "name": "Sibutao", "name_ru": "Sibutao", "tz": "", "district": "Zamboanga del Norte"}, {"id": 1322, "name": "Palanan", "name_ru": "Palanan", "tz": "", "district": "Isabela"}, {"id": 1323, "name": "Matagob", "name_ru": "Matagob", "tz": "", "district": "Leyte"}, {"id": 1324, "name": "Libertad", "name_ru": "Libertad", "tz": "", "district": "Antique"}, {"id": 1325, "name": "Boljoon", "name_ru": "Boljoon", "tz": "", "district": "Cebu"}, {"id": 1326, "name": "San Jorge", "name_ru": "San Jorge", "tz": "", "district": "Samar"}, {"id": 1327, "name": "Lubang", "name_ru": "Lubang", "tz": "", "district": "Occidental Mindoro"}, {"id": 1328, "name": "Tagana-an", "name_ru": "Tagana-an", "tz": "", "district": "Surigao del Norte"}, {"id": 1329, "name": "Santa Magdalena", "name_ru": "Santa Magdalena", "tz": "", "district": "Sorsogon"}, {"id": 1330, "name": "Alcantara", "name_ru": "Alcantara", "tz": "", "district": "Romblon"}, {"id": 1331, "name": "Saguday", "name_ru": "Saguday", "tz": "", "district": "Quirino"}, {"id": 1332, "name": "Calayan", "name_ru": "Calayan", "tz": "", "district": "Cagayan"}, {"id": 1333, "name": "Alcantara", "name_ru": "Alcantara", "tz": "", "district": "Cebu"}, {"id": 1334, "name": "Sudipen", "name_ru": "Sudipen", "tz": "", "district": "La Union"}, {"id": 1335, "name": "Tomas Oppus", "name_ru": "Tomas Oppus", "tz": "", "district": "Southern Leyte"}, {"id": 1336, "name": "Dilasag", "name_ru": "Dilasag", "tz": "", "district": "Aurora"}, {"id": 1337, "name": "Ginatilan", "name_ru": "Ginatilan", "tz": "", "district": "Cebu"}, {"id": 1338, "name": "Famy", "name_ru": "Famy", "tz": "", "district": "Laguna"}, {"id": 1339, "name": "Tubaran", "name_ru": "Tubaran", "tz": "", "district": "Lanao del Sur"}, {"id": 1340, "name": "La Paz", "name_ru": "La Paz", "tz": "", "district": "Abra"}, {"id": 1341, "name": "Madrid", "name_ru": "Madrid", "tz": "", "district": "Surigao del Sur"}, {"id": 1342, "name": "San Juan", "name_ru": "San Juan", "tz": "", "district": "Siquijor"}, {"id": 1343, "name": "Zumarraga", "name_ru": "Zumarraga", "tz": "", "district": "Samar"}, {"id": 1344, "name": "San Miguel", "name_ru": "San Miguel", "tz": "", "district": "Palawan"}, {"id": 1345, "name": "Arteche", "name_ru": "Arteche", "tz": "", "district": "Eastern Samar"}, {"id": 1346, "name": "Panukulan", "name_ru": "Panukulan", "tz": "", "district": "Quezon"}, {"id": 1347, "name": "Alegria", "name_ru": "Alegria", "tz": "", "district": "Surigao del Norte"}, {"id": 1348, "name": "Bingawan", "name_ru": "Bingawan", "tz": "", "district": "Iloilo"}, {"id": 1349, "name": "Leso", "name_ru": "Leso", "tz": "", "district": "Aklan"}, {"id": 1350, "name": "Alabat", "name_ru": "Alabat", "tz": "", "district": "Quezon"}, {"id": 1351, "name": "Tankal", "name_ru": "Tankal", "tz": "", "district": "Lanao del Norte"}, {"id": 1352, "name": "Quezon", "name_ru": "Quezon", "tz": "", "district": "Quezon"}, {"id": 1353, "name": "Despujols", "name_ru": "Despujols", "tz": "", "district": "Romblon"}, {"id": 1354, "name": "San Tomas", "name_ru": "San Tomas", "tz": "", "district": "Pangasinan"}, {"id": 1355, "name": "Santa Catalina", "name_ru": "Santa Catalina", "tz": "", "district": "Ilocos Sur"}, {"id": 1356, "name": "Julita", "name_ru": "Julita", "tz": "", "district": "Leyte"}, {"id": 1357, "name": "Kabayan", "name_ru": "Kabayan", "tz": "", "district": "Benguet"}, {"id": 1358, "name": "Sulat", "name_ru": "Sulat", "tz": "", "district": "Eastern Samar"}, {"id": 1359, "name": "San Miguel", "name_ru": "San Miguel", "tz": "", "district": "Catanduanes"}, {"id": 1360, "name": "Mayoyao", "name_ru": "Mayoyao", "tz": "", "district": "Ifugao"}, {"id": 1361, "name": "Anao-aon", "name_ru": "Anao-aon", "tz": "", "district": "Surigao del Norte"}, {"id": 1362, "name": "Ambaguio", "name_ru": "Ambaguio", "tz": "", "district": "Nueva Vizcaya"}, {"id": 1363, "name": "San Policarpo", "name_ru": "San Policarpo", "tz": "", "district": "Eastern Samar"}, {"id": 1364, "name": "Magdiwang", "name_ru": "Magdiwang", "tz": "", "district": "Romblon"}, {"id": 1365, "name": "Pudtol", "name_ru": "Pudtol", "tz": "", "district": "Apayao"}, {"id": 1366, "name": "Victoria", "name_ru": "Victoria", "tz": "", "district": "Northern Samar"}, {"id": 1367, "name": "Libagon", "name_ru": "Libagon", "tz": "", "district": "Southern Leyte"}, {"id": 1368, "name": "Tubod", "name_ru": "Tubod", "tz": "", "district": "Surigao del Norte"}, {"id": 1369, "name": "Motiong", "name_ru": "Motiong", "tz": "", "district": "Samar"}, {"id": 1370, "name": "Maydolong", "name_ru": "Maydolong", "tz": "", "district": "Eastern Samar"}, {"id": 1371, "name": "Tagoloan", "name_ru": "Tagoloan", "tz": "", "district": "Lanao del Norte"}, {"id": 1372, "name": "Rizal", "name_ru": "Rizal", "tz": "", "district": "Zamboanga del Norte"}, {"id": 1373, "name": "Silvino Lobos", "name_ru": "Silvino Lobos", "tz": "", "district": "Northern Samar"}, {"id": 1374, "name": "Patnanungan", "name_ru": "Patnanungan", "tz": "", "district": "Quezon"}, {"id": 1375, "name": "Bangui", "name_ru": "Bangui", "tz": "", "district": "Ilocos Norte"}, {"id": 1376, "name": "Santa", "name_ru": "Santa", "tz": "", "district": "Ilocos Sur"}, {"id": 1377, "name": "Tatarikan", "name_ru": "Tatarikan", "tz": "", "district": "Lanao del Sur"}, {"id": 1378, "name": "Antequera", "name_ru": "Antequera", "tz": "", "district": "Bohol"}, {"id": 1379, "name": "Tayum", "name_ru": "Tayum", "tz": "", "district": "Abra"}, {"id": 1380, "name": "Mahinog", "name_ru": "Mahinog", "tz": "", "district": "Camiguin"}, {"id": 1381, "name": "Matungao", "name_ru": "Matungao", "tz": "", "district": "Lanao del Norte"}, {"id": 1382, "name": "San Juan", "name_ru": "San Juan", "tz": "", "district": "Southern Leyte"}, {"id": 1383, "name": "Calanogas", "name_ru": "Calanogas", "tz": "", "district": "Lanao del Sur"}, {"id": 1384, "name": "Lagangilang", "name_ru": "Lagangilang", "tz": "", "district": "Abra"}, {"id": 1385, "name": "Bacuag", "name_ru": "Bacuag", "tz": "", "district": "Surigao del Norte"}, {"id": 1386, "name": "Dimiao", "name_ru": "Dimiao", "tz": "", "district": "Bohol"}, {"id": 1387, "name": "San Julian", "name_ru": "San Julian", "tz": "", "district": "Eastern Samar"}, {"id": 1388, "name": "Batuan", "name_ru": "Batuan", "tz": "", "district": "Masbate"}, {"id": 1389, "name": "Belison", "name_ru": "Belison", "tz": "", "district": "Antique"}, {"id": 1390, "name": "Nampicuan", "name_ru": "Nampicuan", "tz": "", "district": "Nueva Ecija"}, {"id": 1391, "name": "Larena", "name_ru": "Larena", "tz": "", "district": "Siquijor"}, {"id": 1392, "name": "Lope de Vega", "name_ru": "Lope de Vega", "tz": "", "district": "Northern Samar"}, {"id": 1393, "name": "Quinapundan", "name_ru": "Quinapundan", "tz": "", "district": "Eastern Samar"}, {"id": 1394, "name": "Boston", "name_ru": "Boston", "tz": "", "district": "Davao Oriental"}, {"id": 1395, "name": "Maria", "name_ru": "Maria", "tz": "", "district": "Siquijor"}, {"id": 1396, "name": "Pualas", "name_ru": "Pualas", "tz": "", "district": "Lanao del Sur"}, {"id": 1397, "name": "Bakun", "name_ru": "Bakun", "tz": "", "district": "Benguet"}, {"id": 1398, "name": "Bagulin", "name_ru": "Bagulin", "tz": "", "district": "La Union"}, {"id": 1399, "name": "Sison", "name_ru": "Sison", "tz": "", "district": "Surigao del Norte"}, {"id": 1400, "name": "General MacArthur", "name_ru": "General MacArthur", "tz": "", "district": "Eastern Samar"}, {"id": 1401, "name": "Araceli", "name_ru": "Araceli", "tz": "", "district": "Palawan"}, {"id": 1402, "name": "Bokod", "name_ru": "Bokod", "tz": "", "district": "Benguet"}, {"id": 1403, "name": "Kinogitan", "name_ru": "Kinogitan", "tz": "", "district": "Misamis Oriental"}, {"id": 1404, "name": "Balangiga", "name_ru": "Balangiga", "tz": "", "district": "Eastern Samar"}, {"id": 1405, "name": "Mapanas", "name_ru": "Mapanas", "tz": "", "district": "Northern Samar"}, {"id": 1406, "name": "Santol", "name_ru": "Santol", "tz": "", "district": "La Union"}, {"id": 1407, "name": "San Vicente", "name_ru": "San Vicente", "tz": "", "district": "Ilocos Sur"}, {"id": 1408, "name": "Batuan", "name_ru": "Batuan", "tz": "", "district": "Bohol"}, {"id": 1409, "name": "Sampaloc", "name_ru": "Sampaloc", "tz": "", "district": "Quezon"}, {"id": 1410, "name": "Hinabangan", "name_ru": "Hinabangan", "tz": "", "district": "Samar"}, {"id": 1411, "name": "Lanuza", "name_ru": "Lanuza", "tz": "", "district": "Surigao del Sur"}, {"id": 1412, "name": "Dakit", "name_ru": "Dakit", "tz": "", "district": "Southern Leyte"}, {"id": 1413, "name": "Baras", "name_ru": "Baras", "tz": "", "district": "Catanduanes"}, {"id": 1414, "name": "Libertad", "name_ru": "Libertad", "tz": "", "district": "Misamis Oriental"}, {"id": 1415, "name": "San Clemente", "name_ru": "San Clemente", "tz": "", "district": "Tarlac"}, {"id": 1416, "name": "Santa Marcela", "name_ru": "Santa Marcela", "tz": "", "district": "Apayao"}, {"id": 1417, "name": "Giporlos", "name_ru": "Giporlos", "tz": "", "district": "Eastern Samar"}, {"id": 1418, "name": "Agutaya", "name_ru": "Agutaya", "tz": "", "district": "Palawan"}, {"id": 1419, "name": "Tinglayan", "name_ru": "Tinglayan", "tz": "", "district": "Kalinga"}, {"id": 1420, "name": "Silago", "name_ru": "Silago", "tz": "", "district": "Southern Leyte"}, {"id": 1421, "name": "Agdangan", "name_ru": "Agdangan", "tz": "", "district": "Quezon"}, {"id": 1422, "name": "Culaba", "name_ru": "Culaba", "tz": "", "district": "Leyte"}, {"id": 1423, "name": "Sagay", "name_ru": "Sagay", "tz": "", "district": "Camiguin"}, {"id": 1424, "name": "Lawaan", "name_ru": "Lawaan", "tz": "", "district": "Eastern Samar"}, {"id": 1425, "name": "Burgos", "name_ru": "Burgos", "tz": "", "district": "Ilocos Sur"}, {"id": 1426, "name": "Perez", "name_ru": "Perez", "tz": "", "district": "Quezon"}, {"id": 1427, "name": "Santo Nino", "name_ru": "Santo Niño", "tz": "", "district": "Samar"}, {"id": 1428, "name": "Balbalan", "name_ru": "Balbalan", "tz": "", "district": "Kalinga"}, {"id": 1429, "name": "Pilar", "name_ru": "Pilar", "tz": "", "district": "Cebu"}, {"id": 1430, "name": "Magsaysay", "name_ru": "Magsaysay", "tz": "", "district": "Palawan"}, {"id": 1431, "name": "San Vicente", "name_ru": "San Vicente", "tz": "", "district": "Camarines Norte"}, {"id": 1432, "name": "Pidigan", "name_ru": "Pidigan", "tz": "", "district": "Abra"}, {"id": 1433, "name": "Anao", "name_ru": "Anao", "tz": "", "district": "Tarlac"}, {"id": 1434, "name": "Capul", "name_ru": "Capul", "tz": "", "district": "Northern Samar"}, {"id": 1435, "name": "Tagoloan", "name_ru": "Tagoloan", "tz": "", "district": "Lanao del Sur"}, {"id": 1436, "name": "Hinundayan", "name_ru": "Hinundayan", "tz": "", "district": "Southern Leyte"}, {"id": 1437, "name": "Currimao", "name_ru": "Currimao", "tz": "", "district": "Ilocos Norte"}, {"id": 1438, "name": "Calanasan", "name_ru": "Calanasan", "tz": "", "district": "Apayao"}, {"id": 1439, "name": "Lila", "name_ru": "Lila", "tz": "", "district": "Bohol"}, {"id": 1440, "name": "Josefina", "name_ru": "Josefina", "tz": "", "district": "Zamboanga del Sur"}, {"id": 1441, "name": "Tabontabon", "name_ru": "Tabontabon", "tz": "", "district": "Leyte"}, {"id": 1442, "name": "Gainza", "name_ru": "Gainza", "tz": "", "district": "Camarines Sur"}, {"id": 1443, "name": "Agcogon", "name_ru": "Agcogon", "tz": "", "district": "Romblon"}, {"id": 1444, "name": "Lapinig", "name_ru": "Lapinig", "tz": "", "district": "Northern Samar"}, {"id": 1445, "name": "Nueva Era", "name_ru": "Nueva Era", "tz": "", "district": "Ilocos Norte"}, {"id": 1446, "name": "Mutia", "name_ru": "Mutia", "tz": "", "district": "Zamboanga del Norte"}, {"id": 1447, "name": "Carmen", "name_ru": "Carmen", "tz": "", "district": "Surigao del Sur"}, {"id": 1448, "name": "Dolores", "name_ru": "Dolores", "tz": "", "district": "Abra"}, {"id": 1449, "name": "Biri", "name_ru": "Biri", "tz": "", "district": "Northern Samar"}, {"id": 1450, "name": "Manabo", "name_ru": "Manabo", "tz": "", "district": "Abra"}, {"id": 1451, "name": "Sablan", "name_ru": "Sablan", "tz": "", "district": "Benguet"}, {"id": 1452, "name": "Alburquerque", "name_ru": "Alburquerque", "tz": "", "district": "Bohol"}, {"id": 1453, "name": "Sagada", "name_ru": "Sagada", "tz": "", "district": "Mountain"}, {"id": 1454, "name": "Tudela", "name_ru": "Tudela", "tz": "", "district": "Cebu"}, {"id": 1455, "name": "Padre Burgos", "name_ru": "Padre Burgos", "tz": "", "district": "Southern Leyte"}, {"id": 1456, "name": "Sevilla", "name_ru": "Sevilla", "tz": "", "district": "Bohol"}, {"id": 1457, "name": "Calatrava", "name_ru": "Calatrava", "tz": "", "district": "Romblon"}, {"id": 1458, "name": "Rosario", "name_ru": "Rosario", "tz": "", "district": "Northern Samar"}, {"id": 1459, "name": "Bagamanoc", "name_ru": "Bagamanoc", "tz": "", "district": "Catanduanes"}, {"id": 1460, "name": "Salcedo", "name_ru": "Salcedo", "tz": "", "district": "Ilocos Sur"}, {"id": 1461, "name": "Balingoan", "name_ru": "Balingoan", "tz": "", "district": "Misamis Oriental"}, {"id": 1462, "name": "Panaon", "name_ru": "Panaon", "tz": "", "district": "Misamis Occidental"}, {"id": 1463, "name": "San Juan", "name_ru": "San Juan", "tz": "", "district": "Abra"}, {"id": 1464, "name": "Suyo", "name_ru": "Suyo", "tz": "", "district": "Ilocos Sur"}, {"id": 1465, "name": "Burgos", "name_ru": "Burgos", "tz": "", "district": "Ilocos Norte"}, {"id": 1466, "name": "San Ricardo", "name_ru": "San Ricardo", "tz": "", "district": "Southern Leyte"}, {"id": 1467, "name": "Dinagat", "name_ru": "Dinagat", "tz": "", "district": "Dinagat Islands"}, {"id": 1468, "name": "Pasil", "name_ru": "Pasil", "tz": "", "district": "Kalinga"}, {"id": 1469, "name": "Galimuyod", "name_ru": "Galimuyod", "tz": "", "district": "Ilocos Sur"}, {"id": 1470, "name": "Pilar", "name_ru": "Pilar", "tz": "", "district": "Surigao del Norte"}, {"id": 1471, "name": "Pintuyan", "name_ru": "Pintuyan", "tz": "", "district": "Southern Leyte"}, {"id": 1472, "name": "Corcuera", "name_ru": "Corcuera", "tz": "", "district": "Romblon"}, {"id": 1473, "name": "Plaridel", "name_ru": "Plaridel", "tz": "", "district": "Quezon"}, {"id": 1474, "name": "Natonin", "name_ru": "Natonin", "tz": "", "district": "Mountain"}, {"id": 1475, "name": "Pilar", "name_ru": "Pilar", "tz": "", "district": "Abra"}, {"id": 1476, "name": "Balangkayan", "name_ru": "Balangkayan", "tz": "", "district": "Eastern Samar"}, {"id": 1477, "name": "Sugbongkogon", "name_ru": "Sugbongkogon", "tz": "", "district": "Misamis Oriental"}, {"id": 1478, "name": "Hingyon", "name_ru": "Hingyon", "tz": "", "district": "Ifugao"}, {"id": 1479, "name": "San Isidro", "name_ru": "San Isidro", "tz": "", "district": "Bohol"}, {"id": 1480, "name": "Panganiban", "name_ru": "Panganiban", "tz": "", "district": "Catanduanes"}, {"id": 1481, "name": "Sabangan", "name_ru": "Sabangan", "tz": "", "district": "Mountain"}, {"id": 1482, "name": "Corella", "name_ru": "Corella", "tz": "", "district": "Bohol"}, {"id": 1483, "name": "Loreto", "name_ru": "Loreto", "tz": "", "district": "Dinagat Islands"}, {"id": 1484, "name": "Santa Monica", "name_ru": "Santa Monica", "tz": "", "district": "Surigao del Norte"}, {"id": 1485, "name": "Almagro", "name_ru": "Almagro", "tz": "", "district": "Samar"}, {"id": 1486, "name": "Lubuagan", "name_ru": "Lubuagan", "tz": "", "district": "Kalinga"}, {"id": 1487, "name": "Quirino", "name_ru": "Quirino", "tz": "", "district": "Ilocos Sur"}, {"id": 1488, "name": "Concepcion", "name_ru": "Concepcion", "tz": "", "district": "Misamis Occidental"}, {"id": 1489, "name": "San Antonio", "name_ru": "San Antonio", "tz": "", "district": "Northern Samar"}, {"id": 1490, "name": "Burgos", "name_ru": "Burgos", "tz": "", "district": "La Union"}, {"id": 1491, "name": "Tagapul-an", "name_ru": "Tagapul-an", "tz": "", "district": "Samar"}, {"id": 1492, "name": "Bayabas", "name_ru": "Bayabas", "tz": "", "district": "Surigao del Sur"}, {"id": 1493, "name": "San Sebastian", "name_ru": "San Sebastian", "tz": "", "district": "Samar"}, {"id": 1494, "name": "San Ildefonso", "name_ru": "San Ildefonso", "tz": "", "district": "Ilocos Sur"}, {"id": 1495, "name": "Hunduan", "name_ru": "Hunduan", "tz": "", "district": "Ifugao"}, {"id": 1496, "name": "San Esteban", "name_ru": "San Esteban", "tz": "", "district": "Ilocos Sur"}, {"id": 1497, "name": "Tanudan", "name_ru": "Tanudan", "tz": "", "district": "Kalinga"}, {"id": 1498, "name": "Gigmoto", "name_ru": "Gigmoto", "tz": "", "district": "Catanduanes"}, {"id": 1499, "name": "San Isidro", "name_ru": "San Isidro", "tz": "", "district": "Surigao del Norte"}, {"id": 1500, "name": "Hernani", "name_ru": "Hernani", "tz": "", "district": "Eastern Samar"}, {"id": 1501, "name": "Tunga", "name_ru": "Tunga", "tz": "", "district": "Leyte"}, {"id": 1502, "name": "Anahawan", "name_ru": "Anahawan", "tz": "", "district": "Southern Leyte"}, {"id": 1503, "name": "Alfonso Castaneda", "name_ru": "Alfonso Castañeda", "tz": "", "district": "Nueva Vizcaya"}, {"id": 1504, "name": "Sadanga", "name_ru": "Sadanga", "tz": "", "district": "Mountain"}, {"id": 1505, "name": "Hipadpad", "name_ru": "Hipadpad", "tz": "", "district": "Eastern Samar"}, {"id": 1506, "name": "Ferrol", "name_ru": "Ferrol", "tz": "", "district": "Romblon"}, {"id": 1507, "name": "Banayoyo", "name_ru": "Banayoyo", "tz": "", "district": "Ilocos Sur"}, {"id": 1508, "name": "Libertad", "name_ru": "Libertad", "tz": "", "district": "Zamboanga del Norte"}, {"id": 1509, "name": "Pagsanghan", "name_ru": "Pagsanghan", "tz": "", "district": "Samar"}, {"id": 1510, "name": "Tubajon", "name_ru": "Tubajon", "tz": "", "district": "Dinagat Islands"}, {"id": 1511, "name": "Talalora", "name_ru": "Talalora", "tz": "", "district": "Samar"}, {"id": 1512, "name": "Looc", "name_ru": "Looc", "tz": "", "district": "Occidental Mindoro"}, {"id": 1513, "name": "Rizal", "name_ru": "Rizal", "tz": "", "district": "Quezon"}, {"id": 1514, "name": "San Jose de Buan", "name_ru": "San Jose de Buan", "tz": "", "district": "Samar"}, {"id": 1515, "name": "Binuangan", "name_ru": "Binuangan", "tz": "", "district": "Misamis Oriental"}, {"id": 1516, "name": "Alilem", "name_ru": "Alilem", "tz": "", "district": "Ilocos Sur"}, {"id": 1517, "name": "Matuguinao", "name_ru": "Matuguinao", "tz": "", "district": "Samar"}, {"id": 1518, "name": "San Vicente", "name_ru": "San Vicente", "tz": "", "district": "Northern Samar"}, {"id": 1519, "name": "San Emilio", "name_ru": "San Emilio", "tz": "", "district": "Ilocos Sur"}, {"id": 1520, "name": "Cagayancillo", "name_ru": "Cagayancillo", "tz": "", "district": "Palawan"}, {"id": 1521, "name": "Penarrubia", "name_ru": "Peñarrubia", "tz": "", "district": "Abra"}, {"id": 1522, "name": "Sikatuna", "name_ru": "Sikatuna", "tz": "", "district": "Bohol"}, {"id": 1523, "name": "Limasawa", "name_ru": "Limasawa", "tz": "", "district": "Southern Leyte"}, {"id": 1524, "name": "Guinisiliban", "name_ru": "Guinisiliban", "tz": "", "district": "Camiguin"}, {"id": 1525, "name": "Enrique Villanueva", "name_ru": "Enrique Villanueva", "tz": "", "district": "Siquijor"}, {"id": 1526, "name": "Besao", "name_ru": "Besao", "tz": "", "district": "Mountain"}, {"id": 1527, "name": "Maripipi", "name_ru": "Maripipi", "tz": "", "district": "Biliran"}, {"id": 1528, "name": "Luba", "name_ru": "Luba", "tz": "", "district": "Abra"}, {"id": 1529, "name": "Sallapadan", "name_ru": "Sallapadan", "tz": "", "district": "Abra"}, {"id": 1530, "name": "Mercedes", "name_ru": "Mercedes", "tz": "", "district": "Eastern Samar"}, {"id": 1531, "name": "Jones", "name_ru": "Jones", "tz": "", "district": "Romblon"}, {"id": 1532, "name": "Divilaca", "name_ru": "Divilaca", "tz": "", "district": "Isabela"}, {"id": 1533, "name": "Dinapigue", "name_ru": "Dinapigue", "tz": "", "district": "Isabela"}, {"id": 1534, "name": "San Quintin", "name_ru": "San Quintin", "tz": "", "district": "Abra"}, {"id": 1535, "name": "San Benito", "name_ru": "San Benito", "tz": "", "district": "Surigao del Norte"}, {"id": 1536, "name": "Villaviciosa", "name_ru": "Villaviciosa", "tz": "", "district": "Abra"}, {"id": 1537, "name": "Tubo", "name_ru": "Tubo", "tz": "", "district": "Abra"}, {"id": 1538, "name": "Taganak", "name_ru": "Taganak", "tz": "", "district": "Tawi-Tawi"}, {"id": 1539, "name": "Nagbukel", "name_ru": "Nagbukel", "tz": "", "district": "Ilocos Sur"}, {"id": 1540, "name": "Maslog", "name_ru": "Maslog", "tz": "", "district": "Eastern Samar"}]