[{"id": 1, "name": "Karachi", "name_ru": "Karachi", "tz": "", "district": "Sindh"}, {"id": 2, "name": "Lahore", "name_ru": "Lahore", "tz": "", "district": "Punjab"}, {"id": 3, "name": "Faisalabad", "name_ru": "Faisalabad", "tz": "", "district": "Punjab"}, {"id": 4, "name": "Rawalpindi", "name_ru": "Rawalpindi", "tz": "", "district": "Punjab"}, {"id": 5, "name": "Gujranwala", "name_ru": "Gujranwala", "tz": "", "district": "Punjab"}, {"id": 6, "name": "Peshawar", "name_ru": "Peshawar", "tz": "", "district": "Khyber Pakhtunkhwa"}, {"id": 7, "name": "Multan", "name_ru": "Multan", "tz": "", "district": "Punjab"}, {"id": 8, "name": "Saidu Sharif", "name_ru": "Saidu Sharif", "tz": "", "district": "Khyber Pakhtunkhwa"}, {"id": 9, "name": "Hyderabad City", "name_ru": "Hyderabad City", "tz": "", "district": "Sindh"}, {"id": 10, "name": "Islamabad", "name_ru": "Islamabad", "tz": "", "district": "Islāmābād"}, {"id": 11, "name": "Quetta", "name_ru": "Quetta", "tz": "", "district": "Balochistān"}, {"id": 12, "name": "Bahawalpur", "name_ru": "Bahawalpur", "tz": "", "district": "Punjab"}, {"id": 13, "name": "Sargodha", "name_ru": "Sargodha", "tz": "", "district": "Punjab"}, {"id": 14, "name": "Sialkot City", "name_ru": "Sialkot City", "tz": "", "district": "Punjab"}, {"id": 15, "name": "Sukkur", "name_ru": "Sukkur", "tz": "", "district": "Sindh"}, {"id": 16, "name": "Larkana", "name_ru": "Larkana", "tz": "", "district": "Sindh"}, {"id": 17, "name": "Chiniot", "name_ru": "Chiniot", "tz": "", "district": "Punjab"}, {"id": 18, "name": "Shekhupura", "name_ru": "Shekhupura", "tz": "", "district": "Punjab"}, {"id": 19, "name": "Jhang City", "name_ru": "Jhang City", "tz": "", "district": "Punjab"}, {"id": 20, "name": "Dera Ghazi Khan", "name_ru": "Dera Ghazi Khan", "tz": "", "district": "Punjab"}, {"id": 21, "name": "Gujrat", "name_ru": "Gujrat", "tz": "", "district": "Punjab"}, {"id": 22, "name": "Rahimyar Khan", "name_ru": "Rahimyar Khan", "tz": "", "district": "Punjab"}, {"id": 23, "name": "Kasur", "name_ru": "Kasur", "tz": "", "district": "Punjab"}, {"id": 24, "name": "Mardan", "name_ru": "Mardan", "tz": "", "district": "Khyber Pakhtunkhwa"}, {"id": 25, "name": "Nawabshah", "name_ru": "Nawabshah", "tz": "", "district": "Sindh"}, {"id": 26, "name": "Sahiwal", "name_ru": "Sahiwal", "tz": "", "district": "Punjab"}, {"id": 27, "name": "Mirpur Khas", "name_ru": "Mirpur Khas", "tz": "", "district": "Sindh"}, {"id": 28, "name": "Okara", "name_ru": "Okara", "tz": "", "district": "Punjab"}, {"id": 29, "name": "Mandi Burewala", "name_ru": "Mandi Burewala", "tz": "", "district": "Punjab"}, {"id": 30, "name": "Jacobabad", "name_ru": "Jacobabad", "tz": "", "district": "Sindh"}, {"id": 31, "name": "Saddiqabad", "name_ru": "Saddiqabad", "tz": "", "district": "Punjab"}, {"id": 32, "name": "Kohat", "name_ru": "Kohat", "tz": "", "district": "Khyber Pakhtunkhwa"}, {"id": 33, "name": "Muridke", "name_ru": "Muridke", "tz": "", "district": "Punjab"}, {"id": 34, "name": "Muzaffargarh", "name_ru": "Muzaffargarh", "tz": "", "district": "Punjab"}, {"id": 35, "name": "Khanpur", "name_ru": "Khanpur", "tz": "", "district": "Punjab"}, {"id": 36, "name": "Gojra", "name_ru": "Gojra", "tz": "", "district": "Punjab"}, {"id": 37, "name": "Mandi Bahauddin", "name_ru": "Mandi Bahauddin", "tz": "", "district": "Punjab"}, {"id": 38, "name": "Abbottabad", "name_ru": "Abbottabad", "tz": "", "district": "Khyber Pakhtunkhwa"}, {"id": 39, "name": "Turbat", "name_ru": "Turbat", "tz": "", "district": "Balochistān"}, {"id": 40, "name": "Dadu", "name_ru": "Dadu", "tz": "", "district": "Sindh"}, {"id": 41, "name": "Khairpur Mir's", "name_ru": "Khairpur Mir’s", "tz": "", "district": "Sindh"}, {"id": 42, "name": "Bahawalnagar", "name_ru": "Bahawalnagar", "tz": "", "district": "Punjab"}, {"id": 43, "name": "Khuzdar", "name_ru": "Khuzdar", "tz": "", "district": "Balochistān"}, {"id": 44, "name": "Pakpattan", "name_ru": "Pakpattan", "tz": "", "district": "Punjab"}, {"id": 45, "name": "Zafarwal", "name_ru": "Zafarwal", "tz": "", "district": "Punjab"}, {"id": 46, "name": "Tando Allahyar", "name_ru": "Tando Allahyar", "tz": "", "district": "Sindh"}, {"id": 47, "name": "Jaranwala", "name_ru": "Jaranwala", "tz": "", "district": "Punjab"}, {"id": 48, "name": "Ahmadpur East", "name_ru": "Ahmadpur East", "tz": "", "district": "Punjab"}, {"id": 49, "name": "Vihari", "name_ru": "Vihari", "tz": "", "district": "Punjab"}, {"id": 50, "name": "New Mirpur", "name_ru": "New Mirpur", "tz": "", "district": "Azad Kashmir"}, {"id": 51, "name": "Kamalia", "name_ru": "Kamalia", "tz": "", "district": "Punjab"}, {"id": 52, "name": "Kot Addu", "name_ru": "Kot Addu", "tz": "", "district": "Punjab"}, {"id": 53, "name": "Nowshera", "name_ru": "Nowshera", "tz": "", "district": "Khyber Pakhtunkhwa"}, {"id": 54, "name": "Swabi", "name_ru": "Swabi", "tz": "", "district": "Khyber Pakhtunkhwa"}, {"id": 55, "name": "Khushab", "name_ru": "Khushab", "tz": "", "district": "Punjab"}, {"id": 56, "name": "Dera Ismail Khan", "name_ru": "Dera Ismail Khan", "tz": "", "district": "Khyber Pakhtunkhwa"}, {"id": 57, "name": "Chaman", "name_ru": "Chaman", "tz": "", "district": "Balochistān"}, {"id": 58, "name": "Charsadda", "name_ru": "Charsadda", "tz": "", "district": "Khyber Pakhtunkhwa"}, {"id": 59, "name": "Kandhkot", "name_ru": "Kandhkot", "tz": "", "district": "Sindh"}, {"id": 60, "name": "Chishtian", "name_ru": "Chishtian", "tz": "", "district": "Punjab"}, {"id": 61, "name": "Hasilpur", "name_ru": "Hasilpur", "tz": "", "district": "Punjab"}, {"id": 62, "name": "Attock Khurd", "name_ru": "Attock Khurd", "tz": "", "district": "Punjab"}, {"id": 63, "name": "Kambar", "name_ru": "Kambar", "tz": "", "district": "Sindh"}, {"id": 64, "name": "Arifwala", "name_ru": "Arifwala", "tz": "", "district": "Punjab"}, {"id": 65, "name": "Muzaffarabad", "name_ru": "Muzaffarabad", "tz": "", "district": "Azad Kashmir"}, {"id": 66, "name": "Mianwali", "name_ru": "Mianwali", "tz": "", "district": "Punjab"}, {"id": 67, "name": "Jalalpur Jattan", "name_ru": "Jalalpur Jattan", "tz": "", "district": "Punjab"}, {"id": 68, "name": "Bhakkar", "name_ru": "Bhakkar", "tz": "", "district": "Punjab"}, {"id": 69, "name": "Zhob", "name_ru": "Zhob", "tz": "", "district": "Balochistān"}, {"id": 70, "name": "Dipalpur", "name_ru": "Dipalpur", "tz": "", "district": "Punjab"}, {"id": 71, "name": "Kharian", "name_ru": "Kharian", "tz": "", "district": "Punjab"}, {"id": 72, "name": "Mian Channun", "name_ru": "Mian Channun", "tz": "", "district": "Punjab"}, {"id": 73, "name": "Bhalwal", "name_ru": "Bhalwal", "tz": "", "district": "Punjab"}, {"id": 74, "name": "Jamshoro", "name_ru": "Jamshoro", "tz": "", "district": "Sindh"}, {"id": 75, "name": "Pattoki", "name_ru": "Pattoki", "tz": "", "district": "Punjab"}, {"id": 76, "name": "Harunabad", "name_ru": "Harunabad", "tz": "", "district": "Punjab"}, {"id": 77, "name": "Kahror Pakka", "name_ru": "Kahror Pakka", "tz": "", "district": "Punjab"}, {"id": 78, "name": "Toba Tek Singh", "name_ru": "Toba Tek Singh", "tz": "", "district": "Punjab"}, {"id": 79, "name": "Samundri", "name_ru": "Samundri", "tz": "", "district": "Punjab"}, {"id": 80, "name": "Shakargarh", "name_ru": "Shakargarh", "tz": "", "district": "Punjab"}, {"id": 81, "name": "Sambrial", "name_ru": "Sambrial", "tz": "", "district": "Punjab"}, {"id": 82, "name": "Shujaabad", "name_ru": "Shujaabad", "tz": "", "district": "Punjab"}, {"id": 83, "name": "Hujra Shah Muqim", "name_ru": "Hujra Shah Muqim", "tz": "", "district": "Punjab"}, {"id": 84, "name": "Kabirwala", "name_ru": "Kabirwala", "tz": "", "district": "Punjab"}, {"id": 85, "name": "Mansehra", "name_ru": "Mansehra", "tz": "", "district": "Khyber Pakhtunkhwa"}, {"id": 86, "name": "Lala Musa", "name_ru": "Lala Musa", "tz": "", "district": "Punjab"}, {"id": 87, "name": "Chunian", "name_ru": "Chunian", "tz": "", "district": "Punjab"}, {"id": 88, "name": "Nankana Sahib", "name_ru": "Nankana Sahib", "tz": "", "district": "Punjab"}, {"id": 89, "name": "Bannu", "name_ru": "Bannu", "tz": "", "district": "Khyber Pakhtunkhwa"}, {"id": 90, "name": "Pasrur", "name_ru": "Pasrur", "tz": "", "district": "Punjab"}, {"id": 91, "name": "Timargara", "name_ru": "Timargara", "tz": "", "district": "Khyber Pakhtunkhwa"}, {"id": 92, "name": "Parachinar", "name_ru": "Parachinar", "tz": "", "district": "Khyber Pakhtunkhwa"}, {"id": 93, "name": "Chenab Nagar", "name_ru": "Chenab Nagar", "tz": "", "district": "Punjab"}, {"id": 94, "name": "Abdul Hakim", "name_ru": "Abdul Hakim", "tz": "", "district": "Punjab"}, {"id": 95, "name": "Gwadar", "name_ru": "Gwadar", "tz": "", "district": "Balochistān"}, {"id": 96, "name": "Hassan Abdal", "name_ru": "Hassan Abdal", "tz": "", "district": "Punjab"}, {"id": 97, "name": "Tank", "name_ru": "Tank", "tz": "", "district": "Khyber Pakhtunkhwa"}, {"id": 98, "name": "Hangu", "name_ru": "Hangu", "tz": "", "district": "Khyber Pakhtunkhwa"}, {"id": 99, "name": "Risalpur Cantonment", "name_ru": "Risalpur Cantonment", "tz": "", "district": "Khyber Pakhtunkhwa"}, {"id": 100, "name": "Karak", "name_ru": "Karak", "tz": "", "district": "Khyber Pakhtunkhwa"}, {"id": 101, "name": "Kundian", "name_ru": "Kundian", "tz": "", "district": "Punjab"}, {"id": 102, "name": "Umarkot", "name_ru": "Umarkot", "tz": "", "district": "Sindh"}, {"id": 103, "name": "Chitral", "name_ru": "Chitral", "tz": "", "district": "Khyber Pakhtunkhwa"}, {"id": 104, "name": "Dainyor", "name_ru": "Dainyor", "tz": "", "district": "Gilgit-Baltistan"}, {"id": 105, "name": "Kulachi", "name_ru": "Kulachi", "tz": "", "district": "Khyber Pakhtunkhwa"}, {"id": 106, "name": "Kalat", "name_ru": "Kalat", "tz": "", "district": "Balochistān"}, {"id": 107, "name": "Kotli", "name_ru": "Kotli", "tz": "", "district": "Azad Kashmir"}, {"id": 108, "name": "Murree", "name_ru": "Murree", "tz": "", "district": "Punjab"}, {"id": 109, "name": "Mithi", "name_ru": "Mithi", "tz": "", "district": "Sindh"}, {"id": 110, "name": "Mian Sahib", "name_ru": "Mian Sahib", "tz": "", "district": "Sindh"}, {"id": 111, "name": "Gilgit", "name_ru": "Gilgit", "tz": "", "district": "Gilgit-Baltistan"}, {"id": 112, "name": "Gilwala", "name_ru": "Gilwala", "tz": "", "district": "Punjab"}]