[{"id": 1, "name": "Warsaw", "name_ru": "Warsaw", "tz": "", "district": "Mazowieckie"}, {"id": 2, "name": "Krakow", "name_ru": "Kraków", "tz": "", "district": "Małopolskie"}, {"id": 3, "name": "Lodz", "name_ru": "Łódź", "tz": "", "district": "Łódzkie"}, {"id": 4, "name": "Wroclaw", "name_ru": "Wrocław", "tz": "", "district": "Dolnośląskie"}, {"id": 5, "name": "Poznan", "name_ru": "Poznań", "tz": "", "district": "Wielkopolskie"}, {"id": 6, "name": "Gdansk", "name_ru": "Gdańsk", "tz": "", "district": "Pomorskie"}, {"id": 7, "name": "Szczecin", "name_ru": "Szczecin", "tz": "", "district": "Zachodniopomorskie"}, {"id": 8, "name": "Bydgoszcz", "name_ru": "Bydgoszcz", "tz": "", "district": "Kujawsko-Pomorskie"}, {"id": 9, "name": "Lublin", "name_ru": "Lublin", "tz": "", "district": "Lubelskie"}, {"id": 10, "name": "Bialystok", "name_ru": "Białystok", "tz": "", "district": "Podlaskie"}, {"id": 11, "name": "Katowice", "name_ru": "Katowice", "tz": "", "district": "Śląskie"}, {"id": 12, "name": "Gdynia", "name_ru": "Gdynia", "tz": "", "district": "Pomorskie"}, {"id": 13, "name": "Czestochowa", "name_ru": "Częstochowa", "tz": "", "district": "Śląskie"}, {"id": 14, "name": "Radom", "name_ru": "Radom", "tz": "", "district": "Mazowieckie"}, {"id": 15, "name": "Torun", "name_ru": "Toruń", "tz": "", "district": "Kujawsko-Pomorskie"}, {"id": 16, "name": "Sosnowiec", "name_ru": "Sosnowiec", "tz": "", "district": "Śląskie"}, {"id": 17, "name": "Kielce", "name_ru": "Kielce", "tz": "", "district": "Świętokrzyskie"}, {"id": 18, "name": "Rzeszow", "name_ru": "Rzeszów", "tz": "", "district": "Podkarpackie"}, {"id": 19, "name": "Gliwice", "name_ru": "Gliwice", "tz": "", "district": "Śląskie"}, {"id": 20, "name": "Zabrze", "name_ru": "Zabrze", "tz": "", "district": "Śląskie"}, {"id": 21, "name": "Olsztyn", "name_ru": "Olsztyn", "tz": "", "district": "Warmińsko-Mazurskie"}, {"id": 22, "name": "Bielsko-Biala", "name_ru": "Bielsko-Biała", "tz": "", "district": "Śląskie"}, {"id": 23, "name": "Bytom", "name_ru": "Bytom", "tz": "", "district": "Śląskie"}, {"id": 24, "name": "Rybnik", "name_ru": "Rybnik", "tz": "", "district": "Śląskie"}, {"id": 25, "name": "Ruda Slaska", "name_ru": "Ruda Śląska", "tz": "", "district": "Śląskie"}, {"id": 26, "name": "Zielona Gora", "name_ru": "Zielona Góra", "tz": "", "district": "Lubuskie"}, {"id": 27, "name": "Tychy", "name_ru": "Tychy", "tz": "", "district": "Śląskie"}, {"id": 28, "name": "Opole", "name_ru": "Opole", "tz": "", "district": "Opolskie"}, {"id": 29, "name": "Gorzow Wielkopolski", "name_ru": "Gorzów Wielkopolski", "tz": "", "district": "Lubuskie"}, {"id": 30, "name": "Dabrowa Gornicza", "name_ru": "Dąbrowa Górnicza", "tz": "", "district": "Śląskie"}, {"id": 31, "name": "Plock", "name_ru": "Płock", "tz": "", "district": "Mazowieckie"}, {"id": 32, "name": "Elblag", "name_ru": "Elbląg", "tz": "", "district": "Warmińsko-Mazurskie"}, {"id": 33, "name": "Walbrzych", "name_ru": "Wałbrzych", "tz": "", "district": "Dolnośląskie"}, {"id": 34, "name": "Tarnow", "name_ru": "Tarnów", "tz": "", "district": "Małopolskie"}, {"id": 35, "name": "Chorzow", "name_ru": "Chorzów", "tz": "", "district": "Śląskie"}, {"id": 36, "name": "Koszalin", "name_ru": "Koszalin", "tz": "", "district": "Zachodniopomorskie"}, {"id": 37, "name": "Inowroclaw", "name_ru": "Inowrocław", "tz": "", "district": "Kujawsko-Pomorskie"}, {"id": 38, "name": "Zamosc", "name_ru": "Zamość", "tz": "", "district": "Lubelskie"}, {"id": 39, "name": "Elk", "name_ru": "Ełk", "tz": "", "district": "Warmińsko-Mazurskie"}, {"id": 40, "name": "Pruszkow", "name_ru": "Pruszków", "tz": "", "district": "Mazowieckie"}, {"id": 41, "name": "Swidnica", "name_ru": "Świdnica", "tz": "", "district": "Dolnośląskie"}, {"id": 42, "name": "Legionowo", "name_ru": "Legionowo", "tz": "", "district": "Mazowieckie"}, {"id": 43, "name": "Swidnik", "name_ru": "Świdnik", "tz": "", "district": "Lubelskie"}, {"id": 44, "name": "Malbork", "name_ru": "Malbork", "tz": "", "district": "Pomorskie"}, {"id": 45, "name": "Sopot", "name_ru": "Sopot", "tz": "", "district": "Pomorskie"}, {"id": 46, "name": "Brzeg", "name_ru": "Brzeg", "tz": "", "district": "Opolskie"}, {"id": 47, "name": "Czeladz", "name_ru": "Czeladź", "tz": "", "district": "Śląskie"}, {"id": 48, "name": "Gizycko", "name_ru": "Giżycko", "tz": "", "district": "Warmińsko-Mazurskie"}, {"id": 49, "name": "Ketrzyn", "name_ru": "Kętrzyn", "tz": "", "district": "Warmińsko-Mazurskie"}, {"id": 50, "name": "Piastow", "name_ru": "Piastów", "tz": "", "district": "Mazowieckie"}, {"id": 51, "name": "Koscian", "name_ru": "Kościan", "tz": "", "district": "Wielkopolskie"}, {"id": 52, "name": "Szczytno", "name_ru": "Szczytno", "tz": "", "district": "Warmińsko-Mazurskie"}, {"id": 53, "name": "Bartoszyce", "name_ru": "Bartoszyce", "tz": "", "district": "Warmińsko-Mazurskie"}, {"id": 54, "name": "Sidlice", "name_ru": "Sidlice", "tz": "", "district": "Pomorskie"}, {"id": 55, "name": "Chojnow", "name_ru": "Chojnów", "tz": "", "district": "Dolnośląskie"}, {"id": 56, "name": "Kalisz", "name_ru": "Kalisz", "tz": "", "district": "Wielkopolskie"}, {"id": 57, "name": "Legnica", "name_ru": "Legnica", "tz": "", "district": "Dolnośląskie"}, {"id": 58, "name": "Wloclawek", "name_ru": "Włocławek", "tz": "", "district": "Kujawsko-Pomorskie"}, {"id": 59, "name": "Jaworzno", "name_ru": "Jaworzno", "tz": "", "district": "Śląskie"}, {"id": 60, "name": "Grudziadz", "name_ru": "Grudziądz", "tz": "", "district": "Kujawsko-Pomorskie"}, {"id": 61, "name": "Jelenia Gora", "name_ru": "Jelenia Góra", "tz": "", "district": "Dolnośląskie"}, {"id": 62, "name": "Siedlce", "name_ru": "Siedlce", "tz": "", "district": "Mazowieckie"}, {"id": 63, "name": "Myslowice", "name_ru": "Mysłowice", "tz": "", "district": "Śląskie"}, {"id": 64, "name": "Piotrkow Trybunalski", "name_ru": "Piotrków Trybunalski", "tz": "", "district": "Łódzkie"}, {"id": 65, "name": "Konin", "name_ru": "Konin", "tz": "", "district": "Wielkopolskie"}, {"id": 66, "name": "Ostrowiec Swietokrzyski", "name_ru": "Ostrowiec Świętokrzyski", "tz": "", "district": "Świętokrzyskie"}, {"id": 67, "name": "Suwalki", "name_ru": "Suwałki", "tz": "", "district": "Podlaskie"}, {"id": 68, "name": "Gniezno", "name_ru": "Gniezno", "tz": "", "district": "Wielkopolskie"}, {"id": 69, "name": "Stargard Szczecinski", "name_ru": "Stargard Szczeciński", "tz": "", "district": "Zachodniopomorskie"}, {"id": 70, "name": "Glogow", "name_ru": "Głogów", "tz": "", "district": "Dolnośląskie"}, {"id": 71, "name": "Przemysl", "name_ru": "Przemyśl", "tz": "", "district": "Podkarpackie"}, {"id": 72, "name": "Pabianice", "name_ru": "Pabianice", "tz": "", "district": "Łódzkie"}, {"id": 73, "name": "Leszno", "name_ru": "Leszno", "tz": "", "district": "Wielkopolskie"}, {"id": 74, "name": "Chelm", "name_ru": "Chełm", "tz": "", "district": "Lubelskie"}, {"id": 75, "name": "Lomza", "name_ru": "Łomża", "tz": "", "district": "Podlaskie"}, {"id": 76, "name": "Tarnowskie Gory", "name_ru": "Tarnowskie Góry", "tz": "", "district": "Śląskie"}, {"id": 77, "name": "Mielec", "name_ru": "Mielec", "tz": "", "district": "Podkarpackie"}, {"id": 78, "name": "Belchatow", "name_ru": "Bełchatów", "tz": "", "district": "Łódzkie"}, {"id": 79, "name": "Bedzin", "name_ru": "Będzin", "tz": "", "district": "Śląskie"}, {"id": 80, "name": "Biala Podlaska", "name_ru": "Biała Podlaska", "tz": "", "district": "Lubelskie"}, {"id": 81, "name": "Ostroleka", "name_ru": "Ostrołęka", "tz": "", "district": "Mazowieckie"}, {"id": 82, "name": "Pulawy", "name_ru": "Puławy", "tz": "", "district": "Lubelskie"}, {"id": 83, "name": "Starogard Gdanski", "name_ru": "Starogard Gdański", "tz": "", "district": "Pomorskie"}, {"id": 84, "name": "Starachowice", "name_ru": "Starachowice", "tz": "", "district": "Świętokrzyskie"}, {"id": 85, "name": "Rumia", "name_ru": "Rumia", "tz": "", "district": "Pomorskie"}, {"id": 86, "name": "Kolobrzeg", "name_ru": "Kołobrzeg", "tz": "", "district": "Zachodniopomorskie"}, {"id": 87, "name": "Tarnobrzeg", "name_ru": "Tarnobrzeg", "tz": "", "district": "Podkarpackie"}, {"id": 88, "name": "Skierniewice", "name_ru": "Skierniewice", "tz": "", "district": "Łódzkie"}, {"id": 89, "name": "Kutno", "name_ru": "Kutno", "tz": "", "district": "Łódzkie"}, {"id": 90, "name": "Nysa", "name_ru": "Nysa", "tz": "", "district": "Opolskie"}, {"id": 91, "name": "Debica", "name_ru": "Dębica", "tz": "", "district": "Podkarpackie"}, {"id": 92, "name": "Otwock", "name_ru": "Otwock", "tz": "", "district": "Mazowieckie"}, {"id": 93, "name": "Ciechanow", "name_ru": "Ciechanów", "tz": "", "district": "Mazowieckie"}, {"id": 94, "name": "Sieradz", "name_ru": "Sieradz", "tz": "", "district": "Łódzkie"}, {"id": 95, "name": "Mikolow", "name_ru": "Mikołów", "tz": "", "district": "Śląskie"}, {"id": 96, "name": "Kwidzyn", "name_ru": "Kwidzyn", "tz": "", "district": "Pomorskie"}, {"id": 97, "name": "Chojnice", "name_ru": "Chojnice", "tz": "", "district": "Pomorskie"}, {"id": 98, "name": "Swinoujscie", "name_ru": "Świnoujście", "tz": "", "district": "Zachodniopomorskie"}, {"id": 99, "name": "Nowa Sol", "name_ru": "Nowa Sól", "tz": "", "district": "Lubuskie"}, {"id": 100, "name": "Boleslawiec", "name_ru": "Bolesławiec", "tz": "", "district": "Dolnośląskie"}, {"id": 101, "name": "Oswiecim", "name_ru": "Oświęcim", "tz": "", "district": "Małopolskie"}, {"id": 102, "name": "Zary", "name_ru": "Żary", "tz": "", "district": "Lubuskie"}, {"id": 103, "name": "Jaroslaw", "name_ru": "Jarosław", "tz": "", "district": "Podkarpackie"}, {"id": 104, "name": "Chrzanow", "name_ru": "Chrzanów", "tz": "", "district": "Małopolskie"}, {"id": 105, "name": "Lebork", "name_ru": "Lębork", "tz": "", "district": "Pomorskie"}, {"id": 106, "name": "Jaslo", "name_ru": "Jasło", "tz": "", "district": "Podkarpackie"}, {"id": 107, "name": "Cieszyn", "name_ru": "Cieszyn", "tz": "", "district": "Śląskie"}, {"id": 108, "name": "Krasnik", "name_ru": "Kraśnik", "tz": "", "district": "Lubelskie"}, {"id": 109, "name": "Ilawa", "name_ru": "Iława", "tz": "", "district": "Warmińsko-Mazurskie"}, {"id": 110, "name": "Dzierzoniow", "name_ru": "Dzierżoniów", "tz": "", "district": "Dolnośląskie"}, {"id": 111, "name": "Olawa", "name_ru": "Oława", "tz": "", "district": "Dolnośląskie"}, {"id": 112, "name": "Nowy Targ", "name_ru": "Nowy Targ", "tz": "", "district": "Małopolskie"}, {"id": 113, "name": "Police", "name_ru": "Police", "tz": "", "district": "Zachodniopomorskie"}, {"id": 114, "name": "Zgorzelec", "name_ru": "Zgorzelec", "tz": "", "district": "Dolnośląskie"}, {"id": 115, "name": "Grodzisk Mazowiecki", "name_ru": "Grodzisk Mazowiecki", "tz": "", "district": "Mazowieckie"}, {"id": 116, "name": "Lowicz", "name_ru": "Łowicz", "tz": "", "district": "Łódzkie"}, {"id": 117, "name": "Bielsk Podlaski", "name_ru": "Bielsk Podlaski", "tz": "", "district": "Podlaskie"}, {"id": 118, "name": "Lukow", "name_ru": "Łuków", "tz": "", "district": "Lubelskie"}, {"id": 119, "name": "Bochnia", "name_ru": "Bochnia", "tz": "", "district": "Małopolskie"}, {"id": 120, "name": "Bielawa", "name_ru": "Bielawa", "tz": "", "district": "Dolnośląskie"}, {"id": 121, "name": "Mlawa", "name_ru": "Mława", "tz": "", "district": "Mazowieckie"}, {"id": 122, "name": "Augustow", "name_ru": "Augustów", "tz": "", "district": "Podlaskie"}, {"id": 123, "name": "Brodnica", "name_ru": "Brodnica", "tz": "", "district": "Kujawsko-Pomorskie"}, {"id": 124, "name": "Lubon", "name_ru": "Luboń", "tz": "", "district": "Wielkopolskie"}, {"id": 125, "name": "Krotoszyn", "name_ru": "Krotoszyn", "tz": "", "district": "Wielkopolskie"}, {"id": 126, "name": "Bilgoraj", "name_ru": "Biłgoraj", "tz": "", "district": "Lubelskie"}, {"id": 127, "name": "Gorlice", "name_ru": "Gorlice", "tz": "", "district": "Małopolskie"}, {"id": 128, "name": "Klodzko", "name_ru": "Kłodzko", "tz": "", "district": "Dolnośląskie"}, {"id": 129, "name": "Zakopane", "name_ru": "Zakopane", "tz": "", "district": "Małopolskie"}, {"id": 130, "name": "Brzozow", "name_ru": "Brzozów", "tz": "", "district": "Podkarpackie"}, {"id": 131, "name": "Jarocin", "name_ru": "Jarocin", "tz": "", "district": "Wielkopolskie"}, {"id": 132, "name": "Kluczbork", "name_ru": "Kluczbork", "tz": "", "district": "Opolskie"}, {"id": 133, "name": "Swiecie", "name_ru": "Świecie", "tz": "", "district": "Kujawsko-Pomorskie"}, {"id": 134, "name": "Wagrowiec", "name_ru": "Wągrowiec", "tz": "", "district": "Wielkopolskie"}, {"id": 135, "name": "Walcz", "name_ru": "Wałcz", "tz": "", "district": "Zachodniopomorskie"}, {"id": 136, "name": "Skawina", "name_ru": "Skawina", "tz": "", "district": "Małopolskie"}, {"id": 137, "name": "Koscierzyna", "name_ru": "Kościerzyna", "tz": "", "district": "Pomorskie"}, {"id": 138, "name": "Bialogard", "name_ru": "Białogard", "tz": "", "district": "Zachodniopomorskie"}, {"id": 139, "name": "Sandomierz", "name_ru": "Sandomierz", "tz": "", "district": "Świętokrzyskie"}, {"id": 140, "name": "Bierun Stary", "name_ru": "Bieruń Stary", "tz": "", "district": "Śląskie"}, {"id": 141, "name": "Konstancin-Jeziorna", "name_ru": "Konstancin-Jeziorna", "tz": "", "district": "Mazowieckie"}, {"id": 142, "name": "Jawor", "name_ru": "Jawor", "tz": "", "district": "Dolnośląskie"}, {"id": 143, "name": "Ostrow Mazowiecka", "name_ru": "Ostrów Mazowiecka", "tz": "", "district": "Mazowieckie"}, {"id": 144, "name": "Lubartow", "name_ru": "Lubartów", "tz": "", "district": "Lubelskie"}, {"id": 145, "name": "Kolo", "name_ru": "Koło", "tz": "", "district": "Wielkopolskie"}, {"id": 146, "name": "Grajewo", "name_ru": "Grajewo", "tz": "", "district": "Podlaskie"}, {"id": 147, "name": "Dzialdowo", "name_ru": "Działdowo", "tz": "", "district": "Warmińsko-Mazurskie"}, {"id": 148, "name": "Mragowo", "name_ru": "Mrągowo", "tz": "", "district": "Warmińsko-Mazurskie"}, {"id": 149, "name": "Goleniow", "name_ru": "Goleniów", "tz": "", "district": "Zachodniopomorskie"}, {"id": 150, "name": "Swiedbodzin", "name_ru": "Świedbodzin", "tz": "", "district": "Lubuskie"}, {"id": 151, "name": "Leczna", "name_ru": "Łęczna", "tz": "", "district": "Lubelskie"}, {"id": 152, "name": "Laziska Gorne", "name_ru": "Łaziska Górne", "tz": "", "district": "Śląskie"}, {"id": 153, "name": "Opoczno", "name_ru": "Opoczno", "tz": "", "district": "Łódzkie"}, {"id": 154, "name": "Wieliczka", "name_ru": "Wieliczka", "tz": "", "district": "Małopolskie"}, {"id": 155, "name": "Chelmno", "name_ru": "Chełmno", "tz": "", "district": "Kujawsko-Pomorskie"}, {"id": 156, "name": "Hajnowka", "name_ru": "Hajnówka", "tz": "", "district": "Podlaskie"}, {"id": 157, "name": "Prudnik", "name_ru": "Prudnik", "tz": "", "district": "Opolskie"}, {"id": 158, "name": "Gryfino", "name_ru": "Gryfino", "tz": "", "district": "Zachodniopomorskie"}, {"id": 159, "name": "Aleksandrow Lodzki", "name_ru": "Aleksandrów Łódzki", "tz": "", "district": "Łódzkie"}, {"id": 160, "name": "Chodziez", "name_ru": "Chodzież", "tz": "", "district": "Wielkopolskie"}, {"id": 161, "name": "Pleszew", "name_ru": "Pleszew", "tz": "", "district": "Wielkopolskie"}, {"id": 162, "name": "Gostyn", "name_ru": "Gostyń", "tz": "", "district": "Wielkopolskie"}, {"id": 163, "name": "Kety", "name_ru": "Kęty", "tz": "", "district": "Małopolskie"}, {"id": 164, "name": "Deblin", "name_ru": "Dęblin", "tz": "", "district": "Lubelskie"}, {"id": 165, "name": "Giszowiec", "name_ru": "Giszowiec", "tz": "", "district": "Śląskie"}, {"id": 166, "name": "Naklo nad Notecia", "name_ru": "Nakło nad Notecią", "tz": "", "district": "Kujawsko-Pomorskie"}, {"id": 167, "name": "Jasien", "name_ru": "Jasien", "tz": "", "district": "Pomorskie"}, {"id": 168, "name": "Lancut", "name_ru": "Łańcut", "tz": "", "district": "Podkarpackie"}, {"id": 169, "name": "Krasnystaw", "name_ru": "Krasnystaw", "tz": "", "district": "Lubelskie"}, {"id": 170, "name": "Pultusk", "name_ru": "Pułtusk", "tz": "", "district": "Mazowieckie"}, {"id": 171, "name": "Gostynin", "name_ru": "Gostynin", "tz": "", "district": "Mazowieckie"}, {"id": 172, "name": "Rawa Mazowiecka", "name_ru": "Rawa Mazowiecka", "tz": "", "district": "Łódzkie"}, {"id": 173, "name": "Miedzyrzecz", "name_ru": "Międzyrzecz", "tz": "", "district": "Lubuskie"}, {"id": 174, "name": "Kostrzyn nad Odra", "name_ru": "Kostrzyn nad Odrą", "tz": "", "district": "Lubuskie"}, {"id": 175, "name": "Kobylka", "name_ru": "Kobyłka", "tz": "", "district": "Mazowieckie"}, {"id": 176, "name": "Garwolin", "name_ru": "Garwolin", "tz": "", "district": "Mazowieckie"}, {"id": 177, "name": "Braniewo", "name_ru": "Braniewo", "tz": "", "district": "Warmińsko-Mazurskie"}, {"id": 178, "name": "Lask", "name_ru": "Łask", "tz": "", "district": "Łódzkie"}, {"id": 179, "name": "Rypin", "name_ru": "Rypin", "tz": "", "district": "Kujawsko-Pomorskie"}, {"id": 180, "name": "Oborniki", "name_ru": "Oborniki", "tz": "", "district": "Wielkopolskie"}, {"id": 181, "name": "Miedzyrzec Podlaski", "name_ru": "Międzyrzec Podlaski", "tz": "", "district": "Lubelskie"}, {"id": 182, "name": "Zlotoryja", "name_ru": "Złotoryja", "tz": "", "district": "Dolnośląskie"}, {"id": 183, "name": "Milanowek", "name_ru": "Milanówek", "tz": "", "district": "Mazowieckie"}, {"id": 184, "name": "Ustka", "name_ru": "Ustka", "tz": "", "district": "Pomorskie"}, {"id": 185, "name": "Leczyca", "name_ru": "Łęczyca", "tz": "", "district": "Łódzkie"}, {"id": 186, "name": "Radzionkow Nowy", "name_ru": "Radzionków Nowy", "tz": "", "district": "Śląskie"}, {"id": 187, "name": "Kozienice", "name_ru": "Kozienice", "tz": "", "district": "Mazowieckie"}, {"id": 188, "name": "Brzesko", "name_ru": "Brzesko", "tz": "", "district": "Małopolskie"}, {"id": 189, "name": "Gubin", "name_ru": "Gubin", "tz": "", "district": "Lubuskie"}, {"id": 190, "name": "Bytow", "name_ru": "Bytów", "tz": "", "district": "Pomorskie"}, {"id": 191, "name": "Osowa", "name_ru": "Osowa", "tz": "", "district": "Pomorskie"}, {"id": 192, "name": "Grojec", "name_ru": "Grójec", "tz": "", "district": "Mazowieckie"}, {"id": 193, "name": "Krapkowice", "name_ru": "Krapkowice", "tz": "", "district": "Opolskie"}, {"id": 194, "name": "Strzegom", "name_ru": "Strzegom", "tz": "", "district": "Dolnośląskie"}, {"id": 195, "name": "Chelmza", "name_ru": "Chełmża", "tz": "", "district": "Kujawsko-Pomorskie"}, {"id": 196, "name": "Gryfice", "name_ru": "Gryfice", "tz": "", "district": "Zachodniopomorskie"}, {"id": 197, "name": "Olecko", "name_ru": "Olecko", "tz": "", "district": "Warmińsko-Mazurskie"}, {"id": 198, "name": "Przeworsk", "name_ru": "Przeworsk", "tz": "", "district": "Podkarpackie"}, {"id": 199, "name": "Ustron", "name_ru": "Ustroń", "tz": "", "district": "Śląskie"}, {"id": 200, "name": "Swidwin", "name_ru": "Świdwin", "tz": "", "district": "Zachodniopomorskie"}, {"id": 201, "name": "Jedrzejow", "name_ru": "Jędrzejów", "tz": "", "district": "Świętokrzyskie"}, {"id": 202, "name": "Siemiatycze", "name_ru": "Siemiatycze", "tz": "", "district": "Podlaskie"}, {"id": 203, "name": "Limanowa", "name_ru": "Limanowa", "tz": "", "district": "Małopolskie"}, {"id": 204, "name": "Jelcz-Laskowice", "name_ru": "Jelcz-Laskowice", "tz": "", "district": "Dolnośląskie"}, {"id": 205, "name": "Glucholazy", "name_ru": "Głuchołazy", "tz": "", "district": "Opolskie"}, {"id": 206, "name": "Wladyslawowo", "name_ru": "Władysławowo", "tz": "", "district": "Pomorskie"}, {"id": 207, "name": "Choszczno", "name_ru": "Choszczno", "tz": "", "district": "Zachodniopomorskie"}, {"id": 208, "name": "Czluchow", "name_ru": "Człuchów", "tz": "", "district": "Pomorskie"}, {"id": 209, "name": "Grodzisk Wielkopolski", "name_ru": "Grodzisk Wielkopolski", "tz": "", "district": "Wielkopolskie"}, {"id": 210, "name": "Zabkowice Slaskie", "name_ru": "Ząbkowice Śląskie", "tz": "", "district": "Dolnośląskie"}, {"id": 211, "name": "Wschowa", "name_ru": "Wschowa", "tz": "", "district": "Lubuskie"}, {"id": 212, "name": "Darlowo", "name_ru": "Darłowo", "tz": "", "district": "Zachodniopomorskie"}, {"id": 213, "name": "Lubsko", "name_ru": "Lubsko", "tz": "", "district": "Lubuskie"}, {"id": 214, "name": "Golub-Dobrzyn", "name_ru": "Golub-Dobrzyń", "tz": "", "district": "Kujawsko-Pomorskie"}, {"id": 215, "name": "Aleksandrow Kujawski", "name_ru": "Aleksandrów Kujawski", "tz": "", "district": "Kujawsko-Pomorskie"}, {"id": 216, "name": "Wlodawa", "name_ru": "Włodawa", "tz": "", "district": "Lubelskie"}, {"id": 217, "name": "Goldap", "name_ru": "Gołdap", "tz": "", "district": "Warmińsko-Mazurskie"}, {"id": 218, "name": "Glubczyce", "name_ru": "Głubczyce", "tz": "", "district": "Opolskie"}, {"id": 219, "name": "Wolsztyn", "name_ru": "Wolsztyn", "tz": "", "district": "Wielkopolskie"}, {"id": 220, "name": "Nidzica", "name_ru": "Nidzica", "tz": "", "district": "Warmińsko-Mazurskie"}, {"id": 221, "name": "Trzebnica", "name_ru": "Trzebnica", "tz": "", "district": "Dolnośląskie"}, {"id": 222, "name": "Brzeg Dolny", "name_ru": "Brzeg Dolny", "tz": "", "district": "Dolnośląskie"}, {"id": 223, "name": "Brzeziny", "name_ru": "Brzeziny", "tz": "", "district": "Łódzkie"}, {"id": 224, "name": "Brwinow", "name_ru": "Brwinów", "tz": "", "district": "Mazowieckie"}, {"id": 225, "name": "Lubaczow", "name_ru": "Lubaczów", "tz": "", "district": "Podkarpackie"}, {"id": 226, "name": "Pyrzyce", "name_ru": "Pyrzyce", "tz": "", "district": "Zachodniopomorskie"}, {"id": 227, "name": "Brzeszcze", "name_ru": "Brzeszcze", "tz": "", "district": "Małopolskie"}, {"id": 228, "name": "Niepolomice", "name_ru": "Niepołomice", "tz": "", "district": "Małopolskie"}, {"id": 229, "name": "Suchanino", "name_ru": "Suchanino", "tz": "", "district": "Pomorskie"}, {"id": 230, "name": "Janow Lubelski", "name_ru": "Janów Lubelski", "tz": "", "district": "Lubelskie"}, {"id": 231, "name": "Nowe Miasto Lubawskie", "name_ru": "Nowe Miasto Lubawskie", "tz": "", "district": "Warmińsko-Mazurskie"}, {"id": 232, "name": "Gora", "name_ru": "Góra", "tz": "", "district": "Dolnośląskie"}, {"id": 233, "name": "Drawsko Pomorskie", "name_ru": "Drawsko Pomorskie", "tz": "", "district": "Zachodniopomorskie"}, {"id": 234, "name": "Krynica", "name_ru": "Krynica", "tz": "", "district": "Małopolskie"}, {"id": 235, "name": "Ciechocinek", "name_ru": "Ciechocinek", "tz": "", "district": "Kujawsko-Pomorskie"}, {"id": 236, "name": "Krosno Odrzanskie", "name_ru": "Krosno Odrzańskie", "tz": "", "district": "Lubuskie"}, {"id": 237, "name": "Wegorzewo", "name_ru": "Węgorzewo", "tz": "", "district": "Warmińsko-Mazurskie"}, {"id": 238, "name": "Miastko", "name_ru": "Miastko", "tz": "", "district": "Pomorskie"}, {"id": 239, "name": "Wisla", "name_ru": "Wisła", "tz": "", "district": "Śląskie"}, {"id": 240, "name": "Warka", "name_ru": "Warka", "tz": "", "district": "Mazowieckie"}, {"id": 241, "name": "Mysliborz", "name_ru": "Myślibórz", "tz": "", "district": "Zachodniopomorskie"}, {"id": 242, "name": "Kowary", "name_ru": "Kowary", "tz": "", "district": "Dolnośląskie"}, {"id": 243, "name": "Krzeszowice", "name_ru": "Krzeszowice", "tz": "", "district": "Małopolskie"}, {"id": 244, "name": "Koronowo", "name_ru": "Koronowo", "tz": "", "district": "Kujawsko-Pomorskie"}, {"id": 245, "name": "Kolno", "name_ru": "Kolno", "tz": "", "district": "Podlaskie"}, {"id": 246, "name": "Biskupiec", "name_ru": "Biskupiec", "tz": "", "district": "Warmińsko-Mazurskie"}, {"id": 247, "name": "Kokoszki", "name_ru": "Kokoszki", "tz": "", "district": "Pomorskie"}, {"id": 248, "name": "Ozimek", "name_ru": "Ozimek", "tz": "", "district": "Opolskie"}, {"id": 249, "name": "Stary Sacz", "name_ru": "Stary Sącz", "tz": "", "district": "Małopolskie"}, {"id": 250, "name": "Lwowek Slaski", "name_ru": "Lwówek Śląski", "tz": "", "district": "Dolnośląskie"}, {"id": 251, "name": "Lidzbark", "name_ru": "Lidzbark", "tz": "", "district": "Warmińsko-Mazurskie"}, {"id": 252, "name": "Grodek Nad Dunajcem", "name_ru": "Gródek Nad Dunajcem", "tz": "", "district": "Małopolskie"}, {"id": 253, "name": "Ziebice", "name_ru": "Ziębice", "tz": "", "district": "Dolnośląskie"}, {"id": 254, "name": "Zychlin", "name_ru": "Żychlin", "tz": "", "district": "Łódzkie"}, {"id": 255, "name": "Polaniec", "name_ru": "Połaniec", "tz": "", "district": "Świętokrzyskie"}, {"id": 256, "name": "Kamien Pomorski", "name_ru": "Kamień Pomorski", "tz": "", "district": "Zachodniopomorskie"}, {"id": 257, "name": "Kolbuszowa", "name_ru": "Kolbuszowa", "tz": "", "district": "Podkarpackie"}, {"id": 258, "name": "Koscielisko", "name_ru": "Kościelisko", "tz": "", "district": "Małopolskie"}, {"id": 259, "name": "Oborniki Slaskie", "name_ru": "Oborniki Śląskie", "tz": "", "district": "Dolnośląskie"}, {"id": 260, "name": "Bretowo", "name_ru": "Brętowo", "tz": "", "district": "Pomorskie"}, {"id": 261, "name": "Prabuty", "name_ru": "Prabuty", "tz": "", "district": "Pomorskie"}, {"id": 262, "name": "Trzemeszno", "name_ru": "Trzemeszno", "tz": "", "district": "Wielkopolskie"}, {"id": 263, "name": "Reszel", "name_ru": "Reszel", "tz": "", "district": "Warmińsko-Mazurskie"}, {"id": 264, "name": "Zbaszyn", "name_ru": "Zbąszyń", "tz": "", "district": "Wielkopolskie"}, {"id": 265, "name": "Sedziszow Malopolski", "name_ru": "Sędziszów Małopolski", "tz": "", "district": "Podkarpackie"}, {"id": 266, "name": "Belzyce", "name_ru": "Bełżyce", "tz": "", "district": "Lubelskie"}, {"id": 267, "name": "Sobotka", "name_ru": "Sobótka", "tz": "", "district": "Dolnośląskie"}, {"id": 268, "name": "Pilawa Gorna", "name_ru": "Piława Górna", "tz": "", "district": "Dolnośląskie"}, {"id": 269, "name": "Kornik", "name_ru": "Kórnik", "tz": "", "district": "Wielkopolskie"}, {"id": 270, "name": "Gniew", "name_ru": "Gniew", "tz": "", "district": "Pomorskie"}, {"id": 271, "name": "Gluszyca", "name_ru": "Głuszyca", "tz": "", "district": "Dolnośląskie"}, {"id": 272, "name": "Szklarska Poreba", "name_ru": "Szklarska Poręba", "tz": "", "district": "Dolnośląskie"}, {"id": 273, "name": "Gryfow Slaski", "name_ru": "Gryfów Śląski", "tz": "", "district": "Dolnośląskie"}, {"id": 274, "name": "Zmigrod", "name_ru": "Żmigród", "tz": "", "district": "Dolnośląskie"}, {"id": 275, "name": "Gilowice", "name_ru": "Gilowice", "tz": "", "district": "Śląskie"}, {"id": 276, "name": "Gogolin", "name_ru": "Gogolin", "tz": "", "district": "Opolskie"}, {"id": 277, "name": "Mszczonow", "name_ru": "Mszczonów", "tz": "", "district": "Mazowieckie"}, {"id": 278, "name": "Grybow", "name_ru": "Grybów", "tz": "", "district": "Małopolskie"}, {"id": 279, "name": "Matarnia", "name_ru": "Matarnia", "tz": "", "district": "Pomorskie"}, {"id": 280, "name": "Jedlicze", "name_ru": "Jedlicze", "tz": "", "district": "Podkarpackie"}, {"id": 281, "name": "Dabrowa Bialostocka", "name_ru": "Dąbrowa Białostocka", "tz": "", "district": "Podlaskie"}, {"id": 282, "name": "Kazimierza Wielka", "name_ru": "Kazimierza Wielka", "tz": "", "district": "Świętokrzyskie"}, {"id": 283, "name": "Szczawno-Zdroj", "name_ru": "Szczawno-Zdrój", "tz": "", "district": "Dolnośląskie"}, {"id": 284, "name": "Susz", "name_ru": "Susz", "tz": "", "district": "Warmińsko-Mazurskie"}, {"id": 285, "name": "Smigiel", "name_ru": "Śmigiel", "tz": "", "district": "Wielkopolskie"}, {"id": 286, "name": "Dzierzgon", "name_ru": "Dzierzgoń", "tz": "", "district": "Pomorskie"}, {"id": 287, "name": "Glogowek", "name_ru": "Głogówek", "tz": "", "district": "Opolskie"}, {"id": 288, "name": "Jaworzyna Slaska", "name_ru": "Jaworzyna Śląska", "tz": "", "district": "Dolnośląskie"}, {"id": 289, "name": "Zolynia", "name_ru": "Żołynia", "tz": "", "district": "Podkarpackie"}, {"id": 290, "name": "Odolanow", "name_ru": "Odolanów", "tz": "", "district": "Wielkopolskie"}, {"id": 291, "name": "Bierutow", "name_ru": "Bierutów", "tz": "", "district": "Dolnośląskie"}]