[{"id": 1, "name": "San Juan", "name_ru": "San Juan", "tz": "", "district": "Puerto Rico"}, {"id": 2, "name": "Bayamon", "name_ru": "Bayamón", "tz": "", "district": "Puerto Rico"}, {"id": 3, "name": "Carolina", "name_ru": "Carolina", "tz": "", "district": "Puerto Rico"}, {"id": 4, "name": "Ponce", "name_ru": "Ponce", "tz": "", "district": "Puerto Rico"}, {"id": 5, "name": "Caguas", "name_ru": "Caguas", "tz": "", "district": "Puerto Rico"}, {"id": 6, "name": "Guaynabo", "name_ru": "Guaynabo", "tz": "", "district": "Puerto Rico"}, {"id": 7, "name": "Trujillo Alto", "name_ru": "Trujillo Alto", "tz": "", "district": "Puerto Rico"}, {"id": 8, "name": "Levittown", "name_ru": "Levittown", "tz": "", "district": "Puerto Rico"}, {"id": 9, "name": "Guayama", "name_ru": "Guayama", "tz": "", "district": "Puerto Rico"}, {"id": 10, "name": "Yauco", "name_ru": "Yauco", "tz": "", "district": "Puerto Rico"}, {"id": 11, "name": "Cayey", "name_ru": "Cayey", "tz": "", "district": "Puerto Rico"}, {"id": 12, "name": "Manati", "name_ru": "Manatí", "tz": "", "district": "Puerto Rico"}, {"id": 13, "name": "Rio Grande", "name_ru": "Río Grande", "tz": "", "district": "Puerto Rico"}, {"id": 14, "name": "Coamo", "name_ru": "Coamo", "tz": "", "district": "Puerto Rico"}, {"id": 15, "name": "Pajaros", "name_ru": "Pájaros", "tz": "", "district": "Puerto Rico"}, {"id": 16, "name": "Sabana Grande", "name_ru": "Sabana Grande", "tz": "", "district": "Puerto Rico"}, {"id": 17, "name": "Juncos", "name_ru": "Juncos", "tz": "", "district": "Puerto Rico"}, {"id": 18, "name": "Luquillo", "name_ru": "Luquillo", "tz": "", "district": "Puerto Rico"}, {"id": 19, "name": "Gurabo", "name_ru": "Gurabo", "tz": "", "district": "Puerto Rico"}, {"id": 20, "name": "Sabana Seca", "name_ru": "Sabana Seca", "tz": "", "district": "Puerto Rico"}, {"id": 21, "name": "San Lorenzo", "name_ru": "San Lorenzo", "tz": "", "district": "Puerto Rico"}, {"id": 22, "name": "Yabucoa", "name_ru": "Yabucoa", "tz": "", "district": "Puerto Rico"}, {"id": 23, "name": "San Isidro", "name_ru": "San Isidro", "tz": "", "district": "Puerto Rico"}, {"id": 24, "name": "Las Piedras", "name_ru": "Las Piedras", "tz": "", "district": "Puerto Rico"}, {"id": 25, "name": "Puerto Real", "name_ru": "Puerto Real", "tz": "", "district": "Puerto Rico"}, {"id": 26, "name": "Arroyo", "name_ru": "Arroyo", "tz": "", "district": "Puerto Rico"}, {"id": 27, "name": "Cidra", "name_ru": "Cidra", "tz": "", "district": "Puerto Rico"}, {"id": 28, "name": "Anasco", "name_ru": "Añasco", "tz": "", "district": "Puerto Rico"}, {"id": 29, "name": "Santa Isabel", "name_ru": "Santa Isabel", "tz": "", "district": "Puerto Rico"}, {"id": 30, "name": "Naguabo", "name_ru": "Naguabo", "tz": "", "district": "Puerto Rico"}, {"id": 31, "name": "Penuelas", "name_ru": "Peñuelas", "tz": "", "district": "Puerto Rico"}, {"id": 32, "name": "Salinas", "name_ru": "Salinas", "tz": "", "district": "Puerto Rico"}, {"id": 33, "name": "Mayaguez", "name_ru": "Mayagüez", "tz": "", "district": "Puerto Rico"}, {"id": 34, "name": "Arecibo", "name_ru": "Arecibo", "tz": "", "district": "Puerto Rico"}, {"id": 35, "name": "Fajardo", "name_ru": "Fajardo", "tz": "", "district": "Puerto Rico"}, {"id": 36, "name": "Catano", "name_ru": "Cataño", "tz": "", "district": "Puerto Rico"}, {"id": 37, "name": "Vega Baja", "name_ru": "Vega Baja", "tz": "", "district": "Puerto Rico"}, {"id": 38, "name": "Humacao", "name_ru": "Humacao", "tz": "", "district": "Puerto Rico"}, {"id": 39, "name": "Candelaria", "name_ru": "Candelaria", "tz": "", "district": "Puerto Rico"}, {"id": 40, "name": "Dorado", "name_ru": "Dorado", "tz": "", "district": "Puerto Rico"}, {"id": 41, "name": "Hormigueros", "name_ru": "Hormigueros", "tz": "", "district": "Puerto Rico"}, {"id": 42, "name": "San German", "name_ru": "San Germán", "tz": "", "district": "Puerto Rico"}, {"id": 43, "name": "Aguadilla", "name_ru": "Aguadilla", "tz": "", "district": "Puerto Rico"}, {"id": 44, "name": "Isabela", "name_ru": "Isabela", "tz": "", "district": "Puerto Rico"}, {"id": 45, "name": "Vega Alta", "name_ru": "Vega Alta", "tz": "", "district": "Puerto Rico"}, {"id": 46, "name": "Corozal", "name_ru": "Corozal", "tz": "", "district": "Puerto Rico"}, {"id": 47, "name": "Cabo Rojo", "name_ru": "Cabo Rojo", "tz": "", "district": "Puerto Rico"}, {"id": 48, "name": "San Sebastian", "name_ru": "San Sebastián", "tz": "", "district": "Puerto Rico"}, {"id": 49, "name": "Aibonito", "name_ru": "Aibonito", "tz": "", "district": "Puerto Rico"}, {"id": 50, "name": "San Antonio", "name_ru": "San Antonio", "tz": "", "district": "Puerto Rico"}, {"id": 51, "name": "Canovanas", "name_ru": "Canóvanas", "tz": "", "district": "Puerto Rico"}, {"id": 52, "name": "Utuado", "name_ru": "Utuado", "tz": "", "district": "Puerto Rico"}, {"id": 53, "name": "Guanica", "name_ru": "Guánica", "tz": "", "district": "Puerto Rico"}, {"id": 54, "name": "Juana Diaz", "name_ru": "Juana Díaz", "tz": "", "district": "Puerto Rico"}, {"id": 55, "name": "Ceiba", "name_ru": "Ceiba", "tz": "", "district": "Puerto Rico"}, {"id": 56, "name": "Coco", "name_ru": "Coco", "tz": "", "district": "Puerto Rico"}]