[{"id": 1, "name": "Asuncion", "name_ru": "Asunción", "tz": "", "district": "Asunción"}, {"id": 2, "name": "Ciudad del Este", "name_ru": "Ciudad del Este", "tz": "", "district": "Alto Paraná"}, {"id": 3, "name": "San Lorenzo", "name_ru": "San Lorenzo", "tz": "", "district": "Central"}, {"id": 4, "name": "Pedro Juan Caballero", "name_ru": "Pedro Juan Caballero", "tz": "", "district": "Amambay"}, {"id": 5, "name": "Coronel Oviedo", "name_ru": "Coronel Oviedo", "tz": "", "district": "Caaguazú"}, {"id": 6, "name": "San Antonio", "name_ru": "San Antonio", "tz": "", "district": "Central"}, {"id": 7, "name": "Encarnacion", "name_ru": "Encarnación", "tz": "", "district": "Itapúa"}, {"id": 8, "name": "Aregua", "name_ru": "Areguá", "tz": "", "district": "Central"}, {"id": 9, "name": "Concepcion", "name_ru": "Concepción", "tz": "", "district": "Concepción"}, {"id": 10, "name": "Villarrica", "name_ru": "Villarrica", "tz": "", "district": "Guairá"}, {"id": 11, "name": "Salto del Guaira", "name_ru": "Salto del Guairá", "tz": "", "district": "Canindeyú"}, {"id": 12, "name": "San Pedro de Ycuamandiyu", "name_ru": "San Pedro de Ycuamandiyú", "tz": "", "district": "San Pedro"}, {"id": 13, "name": "Pilar", "name_ru": "Pilar", "tz": "", "district": "Ñeembucú"}, {"id": 14, "name": "Caacupe", "name_ru": "Caacupé", "tz": "", "district": "Cordillera"}, {"id": 15, "name": "Paraguari", "name_ru": "Paraguarí", "tz": "", "district": "Paraguarí"}, {"id": 16, "name": "Filadelfia", "name_ru": "Filadelfia", "tz": "", "district": "Boquerón"}, {"id": 17, "name": "Villa Hayes", "name_ru": "Villa Hayes", "tz": "", "district": "Presidente Hayes"}, {"id": 18, "name": "San Juan Bautista", "name_ru": "San Juan Bautista", "tz": "", "district": "Misiones"}, {"id": 19, "name": "Caazapa", "name_ru": "Caazapá", "tz": "", "district": "Caazapá"}, {"id": 20, "name": "Fuerte Olimpo", "name_ru": "Fuerte Olimpo", "tz": "", "district": "Alto Paraguay"}, {"id": 21, "name": "Ita", "name_ru": "Itá", "tz": "", "district": "Central"}, {"id": 22, "name": "San Ignacio", "name_ru": "San Ignacio", "tz": "", "district": "Misiones"}, {"id": 23, "name": "Ypane", "name_ru": "Ypané", "tz": "", "district": "Central"}, {"id": 24, "name": "Yaguaron", "name_ru": "Yaguarón", "tz": "", "district": "Paraguarí"}, {"id": 25, "name": "Ypacarai", "name_ru": "Ypacaraí", "tz": "", "district": "Central"}, {"id": 26, "name": "Tobati", "name_ru": "Tobatí", "tz": "", "district": "Cordillera"}, {"id": 27, "name": "Estancia Pozo Colorado", "name_ru": "Estancia Pozo Colorado", "tz": "", "district": "Presidente Hayes"}, {"id": 28, "name": "Bella Vista", "name_ru": "Bella Vista", "tz": "", "district": "Amambay"}, {"id": 29, "name": "Horqueta", "name_ru": "Horqueta", "tz": "", "district": "Concepción"}, {"id": 30, "name": "Coronel Bogado", "name_ru": "Coronel Bogado", "tz": "", "district": "Itapúa"}, {"id": 31, "name": "Belen", "name_ru": "Belén", "tz": "", "district": "Concepción"}, {"id": 32, "name": "Hohenau", "name_ru": "Hohenau", "tz": "", "district": "Itapúa"}, {"id": 33, "name": "Villa del Rosario", "name_ru": "Villa del Rosario", "tz": "", "district": "San Pedro"}, {"id": 34, "name": "Puerto Casado", "name_ru": "Puerto Casado", "tz": "", "district": "Alto Paraguay"}, {"id": 35, "name": "Arroyos y Esteros", "name_ru": "Arroyos y Esteros", "tz": "", "district": "Cordillera"}, {"id": 36, "name": "Abai", "name_ru": "Abaí", "tz": "", "district": "Caazapá"}, {"id": 37, "name": "Villa Ygatimi", "name_ru": "Villa Ygatimí", "tz": "", "district": "Canindeyú"}, {"id": 38, "name": "Mariscal Jose Felix Estigarribia", "name_ru": "Mariscal José Félix Estigarribia", "tz": "", "district": "Boquerón"}, {"id": 39, "name": "Pozo Colorado", "name_ru": "Pozo Colorado", "tz": "", "district": "Presidente Hayes"}, {"id": 40, "name": "Nacunday", "name_ru": "Ñacunday", "tz": "", "district": "Alto Paraná"}, {"id": 41, "name": "Capitan Pablo Lagerenza", "name_ru": "Capitán Pablo Lagerenza", "tz": "", "district": "Alto Paraguay"}, {"id": 42, "name": "General Eugenio A. Garay", "name_ru": "General Eugenio A. Garay", "tz": "", "district": "Boquerón"}, {"id": 43, "name": "Ypejhu", "name_ru": "Ypejhú", "tz": "", "district": "Canindeyú"}, {"id": 44, "name": "Puerto Pinasco", "name_ru": "Puerto Pinasco", "tz": "", "district": "Presidente Hayes"}]