[{"id": 1, "name": "Bucharest", "name_ru": "Bucharest", "tz": "", "district": "Bucureşti"}, {"id": 2, "name": "Cluj-Napoca", "name_ru": "Cluj-Napoca", "tz": "", "district": "Cluj"}, {"id": 3, "name": "Timisoara", "name_ru": "Timişoara", "tz": "", "district": "Timiş"}, {"id": 4, "name": "Iasi", "name_ru": "Iaşi", "tz": "", "district": "Iaşi"}, {"id": 5, "name": "Brasov", "name_ru": "Braşov", "tz": "", "district": "Braşov"}, {"id": 6, "name": "Constanta", "name_ru": "Constanţa", "tz": "", "district": "Constanţa"}, {"id": 7, "name": "Craiova", "name_ru": "Craiova", "tz": "", "district": "Dolj"}, {"id": 8, "name": "Galati", "name_ru": "Galaţi", "tz": "", "district": "Galaţi"}, {"id": 9, "name": "Ploiesti", "name_ru": "Ploieşti", "tz": "", "district": "Prahova"}, {"id": 10, "name": "Oradea", "name_ru": "Oradea", "tz": "", "district": "Bihor"}, {"id": 11, "name": "Braila", "name_ru": "Brăila", "tz": "", "district": "Brăila"}, {"id": 12, "name": "Arad", "name_ru": "Arad", "tz": "", "district": "Arad"}, {"id": 13, "name": "Pitesti", "name_ru": "Piteşti", "tz": "", "district": "Argeş"}, {"id": 14, "name": "Sibiu", "name_ru": "Sibiu", "tz": "", "district": "Sibiu"}, {"id": 15, "name": "Bacau", "name_ru": "Bacău", "tz": "", "district": "Bacău"}, {"id": 16, "name": "Targu-Mures", "name_ru": "Târgu-Mureş", "tz": "", "district": "Mureş"}, {"id": 17, "name": "Baia Mare", "name_ru": "Baia Mare", "tz": "", "district": "Maramureş"}, {"id": 18, "name": "Buzau", "name_ru": "Buzău", "tz": "", "district": "Buzău"}, {"id": 19, "name": "Botosani", "name_ru": "Botoşani", "tz": "", "district": "Botoşani"}, {"id": 20, "name": "Satu Mare", "name_ru": "Satu Mare", "tz": "", "district": "Satu Mare"}, {"id": 21, "name": "Ramnicu Valcea", "name_ru": "Râmnicu Vâlcea", "tz": "", "district": "Vâlcea"}, {"id": 22, "name": "Drobeta-Turnu Severin", "name_ru": "Drobeta-Turnu Severin", "tz": "", "district": "Mehedinţi"}, {"id": 23, "name": "Suceava", "name_ru": "Suceava", "tz": "", "district": "Suceava"}, {"id": 24, "name": "Piatra Neamt", "name_ru": "Piatra Neamţ", "tz": "", "district": "Neamţ"}, {"id": 25, "name": "Resita", "name_ru": "Reşiţa", "tz": "", "district": "Caraş-Severin"}, {"id": 26, "name": "Targu Jiu", "name_ru": "Târgu Jiu", "tz": "", "district": "Gorj"}, {"id": 27, "name": "Targoviste", "name_ru": "Târgovişte", "tz": "", "district": "Dâmboviţa"}, {"id": 28, "name": "Focsani", "name_ru": "Focşani", "tz": "", "district": "Vrancea"}, {"id": 29, "name": "Bistrita", "name_ru": "Bistriţa", "tz": "", "district": "Bistriţa-Năsăud"}, {"id": 30, "name": "Tulcea", "name_ru": "Tulcea", "tz": "", "district": "Tulcea"}, {"id": 31, "name": "Slatina", "name_ru": "Slatina", "tz": "", "district": "Olt"}, {"id": 32, "name": "Calarasi", "name_ru": "Călăraşi", "tz": "", "district": "Călăraşi"}, {"id": 33, "name": "Alba Iulia", "name_ru": "Alba Iulia", "tz": "", "district": "Alba"}, {"id": 34, "name": "Giurgiu", "name_ru": "Giurgiu", "tz": "", "district": "Giurgiu"}, {"id": 35, "name": "Hunedoara", "name_ru": "Hunedoara", "tz": "", "district": "Hunedoara"}, {"id": 36, "name": "Barlad", "name_ru": "Bârlad", "tz": "", "district": "Vaslui"}, {"id": 37, "name": "Zalau", "name_ru": "Zalău", "tz": "", "district": "Sălaj"}, {"id": 38, "name": "Sfantu-Gheorghe", "name_ru": "Sfântu-Gheorghe", "tz": "", "district": "Covasna"}, {"id": 39, "name": "Vaslui", "name_ru": "Vaslui", "tz": "", "district": "Vaslui"}, {"id": 40, "name": "Slobozia", "name_ru": "Slobozia", "tz": "", "district": "Ialomiţa"}, {"id": 41, "name": "Alexandria", "name_ru": "Alexandria", "tz": "", "district": "Teleorman"}, {"id": 42, "name": "Miercurea-Ciuc", "name_ru": "Miercurea-Ciuc", "tz": "", "district": "Harghita"}, {"id": 43, "name": "Oltenita", "name_ru": "Olteniţa", "tz": "", "district": "Călăraşi"}, {"id": 44, "name": "Rosu", "name_ru": "Roşu", "tz": "", "district": "Bucureşti"}, {"id": 45, "name": "Modelu", "name_ru": "Modelu", "tz": "", "district": "Călăraşi"}, {"id": 46, "name": "Curcani", "name_ru": "Curcani", "tz": "", "district": "Călăraşi"}, {"id": 47, "name": "Roseti", "name_ru": "Roseţi", "tz": "", "district": "Călăraşi"}, {"id": 48, "name": "Chirnogi", "name_ru": "Chirnogi", "tz": "", "district": "Călăraşi"}, {"id": 49, "name": "Fundeni", "name_ru": "Fundeni", "tz": "", "district": "Călăraşi"}, {"id": 50, "name": "Lunca Cetatuii", "name_ru": "Lunca Cetăţuii", "tz": "", "district": "Iaşi"}, {"id": 51, "name": "Dragalina", "name_ru": "Dragalina", "tz": "", "district": "Călăraşi"}, {"id": 52, "name": "Dobroesti", "name_ru": "Dobroeşti", "tz": "", "district": "Ilfov"}, {"id": 53, "name": "Deva", "name_ru": "Deva", "tz": "", "district": "Hunedoara"}, {"id": 54, "name": "Roman", "name_ru": "Roman", "tz": "", "district": "Neamţ"}, {"id": 55, "name": "Turda", "name_ru": "Turda", "tz": "", "district": "Cluj"}, {"id": 56, "name": "Medias", "name_ru": "Mediaş", "tz": "", "district": "Sibiu"}, {"id": 57, "name": "Voluntari", "name_ru": "Voluntari", "tz": "", "district": "Bucureşti"}, {"id": 58, "name": "Lugoj", "name_ru": "Lugoj", "tz": "", "district": "Timiş"}, {"id": 59, "name": "Medgidia", "name_ru": "Medgidia", "tz": "", "district": "Constanţa"}, {"id": 60, "name": "Onesti", "name_ru": "Oneşti", "tz": "", "district": "Bacău"}, {"id": 61, "name": "Sighetu Marmatiei", "name_ru": "Sighetu Marmaţiei", "tz": "", "district": "Maramureş"}, {"id": 62, "name": "Petrosani", "name_ru": "Petroşani", "tz": "", "district": "Hunedoara"}, {"id": 63, "name": "Mangalia", "name_ru": "Mangalia", "tz": "", "district": "Constanţa"}, {"id": 64, "name": "Tecuci", "name_ru": "Tecuci", "tz": "", "district": "Galaţi"}, {"id": 65, "name": "Odorheiu Secuiesc", "name_ru": "Odorheiu Secuiesc", "tz": "", "district": "Harghita"}, {"id": 66, "name": "Ramnicu Sarat", "name_ru": "Râmnicu Sărat", "tz": "", "district": "Buzău"}, {"id": 67, "name": "Campina", "name_ru": "Câmpina", "tz": "", "district": "Prahova"}, {"id": 68, "name": "Pascani", "name_ru": "Paşcani", "tz": "", "district": "Iaşi"}, {"id": 69, "name": "Reghin", "name_ru": "Reghin", "tz": "", "district": "Mureş"}, {"id": 70, "name": "Dej", "name_ru": "Dej", "tz": "", "district": "Cluj"}, {"id": 71, "name": "Navodari", "name_ru": "Năvodari", "tz": "", "district": "Constanţa"}, {"id": 72, "name": "Mioveni", "name_ru": "Mioveni", "tz": "", "district": "Argeş"}, {"id": 73, "name": "Campulung", "name_ru": "Câmpulung", "tz": "", "district": "Argeş"}, {"id": 74, "name": "Fagaras", "name_ru": "Făgăraş", "tz": "", "district": "Braşov"}, {"id": 75, "name": "Caracal", "name_ru": "Caracal", "tz": "", "district": "Olt"}, {"id": 76, "name": "Sacele", "name_ru": "Săcele", "tz": "", "district": "Braşov"}, {"id": 77, "name": "Fetesti", "name_ru": "Feteşti", "tz": "", "district": "Ialomiţa"}, {"id": 78, "name": "Sighisoara", "name_ru": "Sighişoara", "tz": "", "district": "Mureş"}, {"id": 79, "name": "Curtea de Arges", "name_ru": "Curtea de Argeş", "tz": "", "district": "Argeş"}, {"id": 80, "name": "Borsa", "name_ru": "Borşa", "tz": "", "district": "Maramureş"}, {"id": 81, "name": "Rosiori de Vede", "name_ru": "Roşiori de Vede", "tz": "", "district": "Teleorman"}, {"id": 82, "name": "Sebes", "name_ru": "Sebeş", "tz": "", "district": "Alba"}, {"id": 83, "name": "Husi", "name_ru": "Huşi", "tz": "", "district": "Vaslui"}, {"id": 84, "name": "Falticeni", "name_ru": "Fălticeni", "tz": "", "district": "Suceava"}, {"id": 85, "name": "Pantelimon", "name_ru": "Pantelimon", "tz": "", "district": "Ilfov"}, {"id": 86, "name": "Turnu Magurele", "name_ru": "Turnu Măgurele", "tz": "", "district": "Teleorman"}, {"id": 87, "name": "Caransebes", "name_ru": "Caransebeş", "tz": "", "district": "Caraş-Severin"}, {"id": 88, "name": "Dorohoi", "name_ru": "Dorohoi", "tz": "", "district": "Botoşani"}, {"id": 89, "name": "Radauti", "name_ru": "Rădăuţi", "tz": "", "district": "Suceava"}, {"id": 90, "name": "Vulcan", "name_ru": "Vulcan", "tz": "", "district": "Hunedoara"}, {"id": 91, "name": "Lupeni", "name_ru": "Lupeni", "tz": "", "district": "Hunedoara"}, {"id": 92, "name": "Zarnesti", "name_ru": "Zărneşti", "tz": "", "district": "Braşov"}, {"id": 93, "name": "Campia Turzii", "name_ru": "Câmpia Turzii", "tz": "", "district": "Cluj"}, {"id": 94, "name": "Aiud", "name_ru": "Aiud", "tz": "", "district": "Alba"}, {"id": 95, "name": "Petrila", "name_ru": "Petrila", "tz": "", "district": "Hunedoara"}, {"id": 96, "name": "Buftea", "name_ru": "Buftea", "tz": "", "district": "Ilfov"}, {"id": 97, "name": "Tarnaveni", "name_ru": "Târnăveni", "tz": "", "district": "Mureş"}, {"id": 98, "name": "Popesti-Leordeni", "name_ru": "Popeşti-Leordeni", "tz": "", "district": "Ilfov"}, {"id": 99, "name": "Moinesti", "name_ru": "Moineşti", "tz": "", "district": "Bacău"}, {"id": 100, "name": "Codlea", "name_ru": "Codlea", "tz": "", "district": "Braşov"}, {"id": 101, "name": "Gherla", "name_ru": "Gherla", "tz": "", "district": "Cluj"}, {"id": 102, "name": "Cugir", "name_ru": "Cugir", "tz": "", "district": "Alba"}, {"id": 103, "name": "Carei", "name_ru": "Carei", "tz": "", "district": "Satu Mare"}, {"id": 104, "name": "Blaj", "name_ru": "Blaj", "tz": "", "district": "Alba"}, {"id": 105, "name": "Scobinti", "name_ru": "Scobinţi", "tz": "", "district": "Iaşi"}, {"id": 106, "name": "Floresti", "name_ru": "Floreşti", "tz": "", "district": "Cluj"}, {"id": 107, "name": "Comanesti", "name_ru": "Comăneşti", "tz": "", "district": "Bacău"}, {"id": 108, "name": "Motru", "name_ru": "Motru", "tz": "", "district": "Gorj"}, {"id": 109, "name": "Moreni", "name_ru": "Moreni", "tz": "", "district": "Dâmboviţa"}, {"id": 110, "name": "Targu Neamt", "name_ru": "Târgu Neamţ", "tz": "", "district": "Neamţ"}, {"id": 111, "name": "Targu Secuiesc", "name_ru": "Târgu Secuiesc", "tz": "", "district": "Covasna"}, {"id": 112, "name": "Orastie", "name_ru": "Orăştie", "tz": "", "district": "Hunedoara"}, {"id": 113, "name": "Toflea", "name_ru": "Toflea", "tz": "", "district": "Galaţi"}, {"id": 114, "name": "Bals", "name_ru": "Balş", "tz": "", "district": "Olt"}, {"id": 115, "name": "Gheorgheni", "name_ru": "Gheorgheni", "tz": "", "district": "Harghita"}, {"id": 116, "name": "Dragasani", "name_ru": "Drăgăşani", "tz": "", "district": "Vâlcea"}, {"id": 117, "name": "Baicoi", "name_ru": "Băicoi", "tz": "", "district": "Prahova"}, {"id": 118, "name": "Salonta", "name_ru": "Salonta", "tz": "", "district": "Bihor"}, {"id": 119, "name": "Bailesti", "name_ru": "Băileşti", "tz": "", "district": "Dolj"}, {"id": 120, "name": "Calafat", "name_ru": "Calafat", "tz": "", "district": "Dolj"}, {"id": 121, "name": "Filiasi", "name_ru": "Filiaşi", "tz": "", "district": "Dolj"}, {"id": 122, "name": "Cernavoda", "name_ru": "Cernavodă", "tz": "", "district": "Ialomiţa"}, {"id": 123, "name": "Campulung Moldovenesc", "name_ru": "Câmpulung Moldovenesc", "tz": "", "district": "Suceava"}, {"id": 124, "name": "Corabia", "name_ru": "Corabia", "tz": "", "district": "Olt"}, {"id": 125, "name": "Adjud", "name_ru": "Adjud", "tz": "", "district": "Vrancea"}, {"id": 126, "name": "Breaza", "name_ru": "Breaza", "tz": "", "district": "Prahova"}, {"id": 127, "name": "Bragadiru", "name_ru": "Bragadiru", "tz": "", "district": "Ilfov"}, {"id": 128, "name": "Bocsa", "name_ru": "Bocşa", "tz": "", "district": "Caraş-Severin"}, {"id": 129, "name": "Marghita", "name_ru": "Marghita", "tz": "", "district": "Bihor"}, {"id": 130, "name": "Baia-Sprie", "name_ru": "Baia-Sprie", "tz": "", "district": "Maramureş"}, {"id": 131, "name": "Urziceni", "name_ru": "Urziceni", "tz": "", "district": "Ialomiţa"}, {"id": 132, "name": "Ludus", "name_ru": "Luduş", "tz": "", "district": "Mureş"}, {"id": 133, "name": "Chitila", "name_ru": "Chitila", "tz": "", "district": "Ilfov"}, {"id": 134, "name": "Rasnov", "name_ru": "Râşnov", "tz": "", "district": "Braşov"}, {"id": 135, "name": "Viseu de Sus", "name_ru": "Vişeu de Sus", "tz": "", "district": "Maramureş"}, {"id": 136, "name": "Buhusi", "name_ru": "Buhuşi", "tz": "", "district": "Bacău"}, {"id": 137, "name": "Brad", "name_ru": "Brad", "tz": "", "district": "Hunedoara"}, {"id": 138, "name": "Pucioasa", "name_ru": "Pucioasa", "tz": "", "district": "Dâmboviţa"}, {"id": 139, "name": "Vatra Dornei", "name_ru": "Vatra Dornei", "tz": "", "district": "Suceava"}, {"id": 140, "name": "Mizil", "name_ru": "Mizil", "tz": "", "district": "Prahova"}, {"id": 141, "name": "Cisnadie", "name_ru": "Cisnădie", "tz": "", "district": "Sibiu"}, {"id": 142, "name": "Otopeni", "name_ru": "Otopeni", "tz": "", "district": "Ilfov"}, {"id": 143, "name": "Zimnicea", "name_ru": "Zimnicea", "tz": "", "district": "Teleorman"}, {"id": 144, "name": "Ovidiu", "name_ru": "Ovidiu", "tz": "", "district": "Constanţa"}, {"id": 145, "name": "Toplita", "name_ru": "Topliţa", "tz": "", "district": "Harghita"}, {"id": 146, "name": "Gaesti", "name_ru": "Găeşti", "tz": "", "district": "Dâmboviţa"}, {"id": 147, "name": "Gura Humorului", "name_ru": "Gura Humorului", "tz": "", "district": "Suceava"}, {"id": 148, "name": "Jimbolia", "name_ru": "Jimbolia", "tz": "", "district": "Timiş"}, {"id": 149, "name": "Vicovu de Sus", "name_ru": "Vicovu de Sus", "tz": "", "district": "Suceava"}, {"id": 150, "name": "Ocna Mures", "name_ru": "Ocna Mureş", "tz": "", "district": "Alba"}, {"id": 151, "name": "Bolintin Vale", "name_ru": "Bolintin Vale", "tz": "", "district": "Giurgiu"}, {"id": 152, "name": "Avrig", "name_ru": "Avrig", "tz": "", "district": "Sibiu"}, {"id": 153, "name": "Pecica", "name_ru": "Pecica", "tz": "", "district": "Arad"}, {"id": 154, "name": "Jilava", "name_ru": "Jilava", "tz": "", "district": "Ilfov"}, {"id": 155, "name": "Simeria", "name_ru": "Simeria", "tz": "", "district": "Hunedoara"}, {"id": 156, "name": "Cumpana", "name_ru": "Cumpăna", "tz": "", "district": "Constanţa"}, {"id": 157, "name": "Valu lui Traian", "name_ru": "Valu lui Traian", "tz": "", "district": "Constanţa"}, {"id": 158, "name": "Moldova Noua", "name_ru": "Moldova Nouă", "tz": "", "district": "Caraş-Severin"}, {"id": 159, "name": "Sannicolau Mare", "name_ru": "Sânnicolau Mare", "tz": "", "district": "Timiş"}, {"id": 160, "name": "Darmanesti", "name_ru": "Dărmăneşti", "tz": "", "district": "Bacău"}, {"id": 161, "name": "Rovinari", "name_ru": "Rovinari", "tz": "", "district": "Gorj"}, {"id": 162, "name": "Valenii de Munte", "name_ru": "Vălenii de Munte", "tz": "", "district": "Prahova"}, {"id": 163, "name": "Dabuleni", "name_ru": "Dăbuleni", "tz": "", "district": "Dolj"}, {"id": 164, "name": "Comarnic", "name_ru": "Comarnic", "tz": "", "district": "Prahova"}, {"id": 165, "name": "Negresti-Oas", "name_ru": "Negreşti-Oaş", "tz": "", "district": "Satu Mare"}, {"id": 166, "name": "Scornicesti", "name_ru": "Scorniceşti", "tz": "", "district": "Olt"}, {"id": 167, "name": "Targu Lapus", "name_ru": "Târgu Lăpuş", "tz": "", "district": "Maramureş"}, {"id": 168, "name": "Matca", "name_ru": "Matca", "tz": "", "district": "Galaţi"}, {"id": 169, "name": "Videle", "name_ru": "Videle", "tz": "", "district": "Teleorman"}, {"id": 170, "name": "Sacueni", "name_ru": "Săcueni", "tz": "", "district": "Bihor"}, {"id": 171, "name": "Santana", "name_ru": "Sântana", "tz": "", "district": "Arad"}, {"id": 172, "name": "Targu Ocna", "name_ru": "Târgu Ocna", "tz": "", "district": "Bacău"}, {"id": 173, "name": "Boldesti-Scaeni", "name_ru": "Boldeşti-Scăeni", "tz": "", "district": "Prahova"}, {"id": 174, "name": "Oravita", "name_ru": "Oraviţa", "tz": "", "district": "Caraş-Severin"}, {"id": 175, "name": "Calan", "name_ru": "Călan", "tz": "", "district": "Hunedoara"}, {"id": 176, "name": "Magurele", "name_ru": "Măgurele", "tz": "", "district": "Ilfov"}, {"id": 177, "name": "Harlau", "name_ru": "Hârlău", "tz": "", "district": "Iaşi"}, {"id": 178, "name": "Targu Frumos", "name_ru": "Târgu Frumos", "tz": "", "district": "Iaşi"}, {"id": 179, "name": "Beius", "name_ru": "Beiuş", "tz": "", "district": "Bihor"}, {"id": 180, "name": "Draganesti-Olt", "name_ru": "Drăgăneşti-Olt", "tz": "", "district": "Olt"}, {"id": 181, "name": "Cristuru Secuiesc", "name_ru": "Cristuru Secuiesc", "tz": "", "district": "Harghita"}, {"id": 182, "name": "Beclean", "name_ru": "Beclean", "tz": "", "district": "Bistriţa-Năsăud"}, {"id": 183, "name": "Poiana Mare", "name_ru": "Poiana Mare", "tz": "", "district": "Dolj"}, {"id": 184, "name": "Marasesti", "name_ru": "Mărăşeşti", "tz": "", "district": "Vrancea"}, {"id": 185, "name": "Urlati", "name_ru": "Urlaţi", "tz": "", "district": "Prahova"}, {"id": 186, "name": "Jibou", "name_ru": "Jibou", "tz": "", "district": "Sălaj"}, {"id": 187, "name": "Orsova", "name_ru": "Orşova", "tz": "", "district": "Mehedinţi"}, {"id": 188, "name": "Otelu Rosu", "name_ru": "Oţelu Roşu", "tz": "", "district": "Caraş-Severin"}, {"id": 189, "name": "Strehaia", "name_ru": "Strehaia", "tz": "", "district": "Mehedinţi"}, {"id": 190, "name": "Sinaia", "name_ru": "Sinaia", "tz": "", "district": "Prahova"}, {"id": 191, "name": "Topoloveni", "name_ru": "Topoloveni", "tz": "", "district": "Argeş"}, {"id": 192, "name": "Costesti", "name_ru": "Costeşti", "tz": "", "district": "Argeş"}, {"id": 193, "name": "Sovata", "name_ru": "Sovata", "tz": "", "district": "Mureş"}, {"id": 194, "name": "Ianca", "name_ru": "Ianca", "tz": "", "district": "Brăila"}, {"id": 195, "name": "Dolhasca", "name_ru": "Dolhasca", "tz": "", "district": "Suceava"}, {"id": 196, "name": "Lipova", "name_ru": "Lipova", "tz": "", "district": "Arad"}, {"id": 197, "name": "Murfatlar", "name_ru": "Murfatlar", "tz": "", "district": "Constanţa"}, {"id": 198, "name": "Nehoiu", "name_ru": "Nehoiu", "tz": "", "district": "Buzău"}, {"id": 199, "name": "Flamanzi", "name_ru": "Flămânzi", "tz": "", "district": "Botoşani"}, {"id": 200, "name": "Alesd", "name_ru": "Aleşd", "tz": "", "district": "Bihor"}, {"id": 201, "name": "Pechea", "name_ru": "Pechea", "tz": "", "district": "Galaţi"}, {"id": 202, "name": "Covasna", "name_ru": "Covasna", "tz": "", "district": "Covasna"}, {"id": 203, "name": "Poienile de sub Munte", "name_ru": "Poienile de sub Munte", "tz": "", "district": "Maramureş"}, {"id": 204, "name": "Valea lui Mihai", "name_ru": "Valea lui Mihai", "tz": "", "district": "Bihor"}, {"id": 205, "name": "Darabani", "name_ru": "Darabani", "tz": "", "district": "Botoşani"}, {"id": 206, "name": "Titu", "name_ru": "Titu", "tz": "", "district": "Dâmboviţa"}, {"id": 207, "name": "Hateg", "name_ru": "Haţeg", "tz": "", "district": "Hunedoara"}, {"id": 208, "name": "Nasaud", "name_ru": "Năsăud", "tz": "", "district": "Bistriţa-Năsăud"}, {"id": 209, "name": "Podu Iloaiei", "name_ru": "Podu Iloaiei", "tz": "", "district": "Iaşi"}, {"id": 210, "name": "Sangeorz-Bai", "name_ru": "Sângeorz-Băi", "tz": "", "district": "Bistriţa-Năsăud"}, {"id": 211, "name": "Liteni", "name_ru": "Liteni", "tz": "", "district": "Suceava"}, {"id": 212, "name": "Harsova", "name_ru": "Hârşova", "tz": "", "district": "Constanţa"}, {"id": 213, "name": "Odobesti", "name_ru": "Odobeşti", "tz": "", "district": "Vrancea"}, {"id": 214, "name": "Huedin", "name_ru": "Huedin", "tz": "", "district": "Cluj"}, {"id": 215, "name": "Ineu", "name_ru": "Ineu", "tz": "", "district": "Arad"}, {"id": 216, "name": "Salcea", "name_ru": "Salcea", "tz": "", "district": "Suceava"}, {"id": 217, "name": "Sangeorgiu de Mures", "name_ru": "Sângeorgiu de Mureş", "tz": "", "district": "Mureş"}, {"id": 218, "name": "Seini", "name_ru": "Seini", "tz": "", "district": "Maramureş"}, {"id": 219, "name": "Borcea", "name_ru": "Borcea", "tz": "", "district": "Călăraşi"}, {"id": 220, "name": "Babadag", "name_ru": "Babadag", "tz": "", "district": "Tulcea"}, {"id": 221, "name": "Busteni", "name_ru": "Buşteni", "tz": "", "district": "Prahova"}, {"id": 222, "name": "Uricani", "name_ru": "Uricani", "tz": "", "district": "Hunedoara"}, {"id": 223, "name": "Sabaoani", "name_ru": "Săbăoani", "tz": "", "district": "Neamţ"}, {"id": 224, "name": "Bumbesti-Jiu", "name_ru": "Bumbeşti-Jiu", "tz": "", "district": "Gorj"}, {"id": 225, "name": "Agnita", "name_ru": "Agnita", "tz": "", "district": "Sibiu"}, {"id": 226, "name": "Iernut", "name_ru": "Iernut", "tz": "", "district": "Mureş"}, {"id": 227, "name": "Roznov", "name_ru": "Roznov", "tz": "", "district": "Neamţ"}, {"id": 228, "name": "Baraolt", "name_ru": "Baraolt", "tz": "", "district": "Covasna"}, {"id": 229, "name": "Tasnad", "name_ru": "Tăşnad", "tz": "", "district": "Satu Mare"}, {"id": 230, "name": "Babeni", "name_ru": "Băbeni", "tz": "", "district": "Vâlcea"}, {"id": 231, "name": "Bicaz", "name_ru": "Bicaz", "tz": "", "district": "Neamţ"}, {"id": 232, "name": "Negresti", "name_ru": "Negreşti", "tz": "", "district": "Vaslui"}, {"id": 233, "name": "Macin", "name_ru": "Măcin", "tz": "", "district": "Tulcea"}, {"id": 234, "name": "Tomesti", "name_ru": "Tomeşti", "tz": "", "district": "Iaşi"}, {"id": 235, "name": "Recas", "name_ru": "Recaş", "tz": "", "district": "Timiş"}, {"id": 236, "name": "Prim Decembrie", "name_ru": "Prim Decembrie", "tz": "", "district": "Ilfov"}, {"id": 237, "name": "Dancu", "name_ru": "Dancu", "tz": "", "district": "Iaşi"}, {"id": 238, "name": "Domnesti", "name_ru": "Domneşti", "tz": "", "district": "Ilfov"}, {"id": 239, "name": "Siret", "name_ru": "Siret", "tz": "", "district": "Suceava"}, {"id": 240, "name": "Targu Carbunesti", "name_ru": "Târgu Cărbuneşti", "tz": "", "district": "Gorj"}, {"id": 241, "name": "Chisineu Cris", "name_ru": "Chişineu Criş", "tz": "", "district": "Arad"}, {"id": 242, "name": "Mihailesti", "name_ru": "Mihăileşti", "tz": "", "district": "Giurgiu"}, {"id": 243, "name": "Mogosoaia", "name_ru": "Mogoşoaia", "tz": "", "district": "Ilfov"}, {"id": 244, "name": "Dumbravita", "name_ru": "Dumbrăviţa", "tz": "", "district": "Timiş"}, {"id": 245, "name": "Fieni", "name_ru": "Fieni", "tz": "", "district": "Dâmboviţa"}, {"id": 246, "name": "Budesti", "name_ru": "Budeşti", "tz": "", "district": "Călăraşi"}, {"id": 247, "name": "Vlahita", "name_ru": "Vlăhiţa", "tz": "", "district": "Harghita"}, {"id": 248, "name": "Campeni", "name_ru": "Câmpeni", "tz": "", "district": "Alba"}, {"id": 249, "name": "Calimanesti", "name_ru": "Călimăneşti", "tz": "", "district": "Vâlcea"}, {"id": 250, "name": "Intorsura Buzaului", "name_ru": "Întorsura Buzăului", "tz": "", "district": "Covasna"}, {"id": 251, "name": "Curtici", "name_ru": "Curtici", "tz": "", "district": "Arad"}, {"id": 252, "name": "Branesti", "name_ru": "Brăneşti", "tz": "", "district": "Ilfov"}, {"id": 253, "name": "Anina", "name_ru": "Anina", "tz": "", "district": "Caraş-Severin"}, {"id": 254, "name": "Dumbraveni", "name_ru": "Dumbrăveni", "tz": "", "district": "Sibiu"}, {"id": 255, "name": "Zlatna", "name_ru": "Zlatna", "tz": "", "district": "Alba"}, {"id": 256, "name": "Nadlac", "name_ru": "Nădlac", "tz": "", "district": "Arad"}, {"id": 257, "name": "Techirghiol", "name_ru": "Techirghiol", "tz": "", "district": "Constanţa"}, {"id": 258, "name": "Amara", "name_ru": "Amara", "tz": "", "district": "Ialomiţa"}, {"id": 259, "name": "Victoria", "name_ru": "Victoria", "tz": "", "district": "Braşov"}, {"id": 260, "name": "Patarlagele", "name_ru": "Pătârlagele", "tz": "", "district": "Buzău"}, {"id": 261, "name": "Ulmeni", "name_ru": "Ulmeni", "tz": "", "district": "Maramureş"}, {"id": 262, "name": "Turceni", "name_ru": "Turceni", "tz": "", "district": "Gorj"}, {"id": 263, "name": "Pogoanele", "name_ru": "Pogoanele", "tz": "", "district": "Buzău"}, {"id": 264, "name": "Cehu Silvaniei", "name_ru": "Cehu Silvaniei", "tz": "", "district": "Sălaj"}, {"id": 265, "name": "Tautii Magherus", "name_ru": "Tăuţii Măgheruş", "tz": "", "district": "Maramureş"}, {"id": 266, "name": "Cajvana", "name_ru": "Cajvana", "tz": "", "district": "Suceava"}, {"id": 267, "name": "Murgeni", "name_ru": "Murgeni", "tz": "", "district": "Vaslui"}, {"id": 268, "name": "Fundulea", "name_ru": "Fundulea", "tz": "", "district": "Călăraşi"}, {"id": 269, "name": "Saveni", "name_ru": "Săveni", "tz": "", "district": "Botoşani"}, {"id": 270, "name": "Buzias", "name_ru": "Buziaş", "tz": "", "district": "Timiş"}, {"id": 271, "name": "Segarcea", "name_ru": "Segarcea", "tz": "", "district": "Dolj"}, {"id": 272, "name": "Tismana", "name_ru": "Tismana", "tz": "", "district": "Gorj"}, {"id": 273, "name": "Ungheni", "name_ru": "Ungheni", "tz": "", "district": "Mureş"}, {"id": 274, "name": "Pancota", "name_ru": "Pâncota", "tz": "", "district": "Arad"}, {"id": 275, "name": "Sarmasu", "name_ru": "Sărmaşu", "tz": "", "district": "Mureş"}, {"id": 276, "name": "Racari", "name_ru": "Răcari", "tz": "", "district": "Dâmboviţa"}, {"id": 277, "name": "Talmaciu", "name_ru": "Tălmaciu", "tz": "", "district": "Sibiu"}, {"id": 278, "name": "Teius", "name_ru": "Teiuş", "tz": "", "district": "Alba"}, {"id": 279, "name": "Livada", "name_ru": "Livada", "tz": "", "district": "Satu Mare"}, {"id": 280, "name": "Faget", "name_ru": "Făget", "tz": "", "district": "Timiş"}, {"id": 281, "name": "Cornetu", "name_ru": "Cornetu", "tz": "", "district": "Ilfov"}, {"id": 282, "name": "Lehliu-Gara", "name_ru": "Lehliu-Gară", "tz": "", "district": "Călăraşi"}, {"id": 283, "name": "Insuratei", "name_ru": "Însurăţei", "tz": "", "district": "Brăila"}, {"id": 284, "name": "Balotesti", "name_ru": "Baloteşti", "tz": "", "district": "Ilfov"}, {"id": 285, "name": "Deta", "name_ru": "Deta", "tz": "", "district": "Timiş"}, {"id": 286, "name": "Piatra Olt", "name_ru": "Piatra Olt", "tz": "", "district": "Olt"}, {"id": 287, "name": "Bujor", "name_ru": "Bujor", "tz": "", "district": "Galaţi"}, {"id": 288, "name": "Horezu", "name_ru": "Horezu", "tz": "", "district": "Vâlcea"}, {"id": 289, "name": "Ardud", "name_ru": "Ardud", "tz": "", "district": "Satu Mare"}, {"id": 290, "name": "Berceni", "name_ru": "Berceni", "tz": "", "district": "Ilfov"}, {"id": 291, "name": "Savinesti", "name_ru": "Săvineşti", "tz": "", "district": "Neamţ"}, {"id": 292, "name": "Slanic", "name_ru": "Slănic", "tz": "", "district": "Prahova"}, {"id": 293, "name": "Balan", "name_ru": "Bălan", "tz": "", "district": "Harghita"}, {"id": 294, "name": "Sebis", "name_ru": "Sebiş", "tz": "", "district": "Arad"}, {"id": 295, "name": "Brezoi", "name_ru": "Brezoi", "tz": "", "district": "Vâlcea"}, {"id": 296, "name": "Frasin", "name_ru": "Frasin", "tz": "", "district": "Suceava"}, {"id": 297, "name": "Gataia", "name_ru": "Gătaia", "tz": "", "district": "Timiş"}, {"id": 298, "name": "Glina", "name_ru": "Glina", "tz": "", "district": "Ilfov"}, {"id": 299, "name": "Potcoava", "name_ru": "Potcoava", "tz": "", "district": "Olt"}, {"id": 300, "name": "Sancraiu de Mures", "name_ru": "Sâncraiu de Mureş", "tz": "", "district": "Mureş"}, {"id": 301, "name": "Miercurea Nirajului", "name_ru": "Miercurea Nirajului", "tz": "", "district": "Mureş"}, {"id": 302, "name": "Copsa Mica", "name_ru": "Copşa Mică", "tz": "", "district": "Sibiu"}, {"id": 303, "name": "Brosteni", "name_ru": "Broşteni", "tz": "", "district": "Suceava"}, {"id": 304, "name": "Novaci-Straini", "name_ru": "Novaci-Străini", "tz": "", "district": "Gorj"}, {"id": 305, "name": "Saliste", "name_ru": "Sălişte", "tz": "", "district": "Sibiu"}, {"id": 306, "name": "Baia de Arama", "name_ru": "Baia de Aramă", "tz": "", "district": "Mehedinţi"}, {"id": 307, "name": "Ciacova", "name_ru": "Ciacova", "tz": "", "district": "Timiş"}, {"id": 308, "name": "Vanju-Mare", "name_ru": "Vânju-Mare", "tz": "", "district": "Mehedinţi"}, {"id": 309, "name": "Rupea", "name_ru": "Rupea", "tz": "", "district": "Braşov"}, {"id": 310, "name": "Geoagiu", "name_ru": "Geoagiu", "tz": "", "district": "Hunedoara"}, {"id": 311, "name": "Abrud", "name_ru": "Abrud", "tz": "", "district": "Alba"}, {"id": 312, "name": "Tunari", "name_ru": "Tunari", "tz": "", "district": "Ilfov"}, {"id": 313, "name": "Sangeorgiu de Padure", "name_ru": "Sângeorgiu de Pădure", "tz": "", "district": "Mureş"}, {"id": 314, "name": "Milisauti", "name_ru": "Milişăuţi", "tz": "", "district": "Suceava"}, {"id": 315, "name": "Negru Voda", "name_ru": "Negru Vodă", "tz": "", "district": "Constanţa"}, {"id": 316, "name": "Ostrov", "name_ru": "Ostrov", "tz": "", "district": "Constanţa"}, {"id": 317, "name": "Isaccea", "name_ru": "Isaccea", "tz": "", "district": "Tulcea"}, {"id": 318, "name": "Baile Herculane", "name_ru": "Băile Herculane", "tz": "", "district": "Caraş-Severin"}, {"id": 319, "name": "Moisei", "name_ru": "Moisei", "tz": "", "district": "Maramureş"}, {"id": 320, "name": "Liesti", "name_ru": "Lieşti", "tz": "", "district": "Galaţi"}, {"id": 321, "name": "Marginea", "name_ru": "Marginea", "tz": "", "district": "Suceava"}, {"id": 322, "name": "Mihail Kogalniceanu", "name_ru": "Mihail Kogălniceanu", "tz": "", "district": "Constanţa"}, {"id": 323, "name": "Afumati", "name_ru": "Afumaţi", "tz": "", "district": "Ilfov"}, {"id": 324, "name": "Lumina", "name_ru": "Lumina", "tz": "", "district": "Constanţa"}, {"id": 325, "name": "Dumbraveni", "name_ru": "Dumbrăveni", "tz": "", "district": "Suceava"}, {"id": 326, "name": "Tuzla", "name_ru": "Tuzla", "tz": "", "district": "Constanţa"}, {"id": 327, "name": "Sadova", "name_ru": "Sadova", "tz": "", "district": "Dolj"}, {"id": 328, "name": "Diosig", "name_ru": "Diosig", "tz": "", "district": "Bihor"}, {"id": 329, "name": "Gilau", "name_ru": "Gilău", "tz": "", "district": "Cluj"}, {"id": 330, "name": "Cobadin", "name_ru": "Cobadin", "tz": "", "district": "Constanţa"}, {"id": 331, "name": "Vladimirescu", "name_ru": "Vladimirescu", "tz": "", "district": "Arad"}, {"id": 332, "name": "Bosanci", "name_ru": "Bosanci", "tz": "", "district": "Suceava"}, {"id": 333, "name": "Peretu", "name_ru": "Peretu", "tz": "", "district": "Teleorman"}, {"id": 334, "name": "Cudalbi", "name_ru": "Cudalbi", "tz": "", "district": "Galaţi"}, {"id": 335, "name": "Strejnicu", "name_ru": "Strejnicu", "tz": "", "district": "Prahova"}, {"id": 336, "name": "Remetea", "name_ru": "Remetea", "tz": "", "district": "Harghita"}, {"id": 337, "name": "Baciu", "name_ru": "Baciu", "tz": "", "district": "Cluj"}, {"id": 338, "name": "Sandominic", "name_ru": "Sândominic", "tz": "", "district": "Harghita"}, {"id": 339, "name": "Apahida", "name_ru": "Apahida", "tz": "", "district": "Cluj"}, {"id": 340, "name": "Vicovu de Jos", "name_ru": "Vicovu de Jos", "tz": "", "district": "Suceava"}, {"id": 341, "name": "Barbulesti", "name_ru": "Bărbuleşti", "tz": "", "district": "Ialomiţa"}, {"id": 342, "name": "Plosca", "name_ru": "Plosca", "tz": "", "district": "Teleorman"}, {"id": 343, "name": "Feldru", "name_ru": "Feldru", "tz": "", "district": "Bistriţa-Năsăud"}, {"id": 344, "name": "Peris", "name_ru": "Periş", "tz": "", "district": "Ilfov"}, {"id": 345, "name": "Giroc", "name_ru": "Giroc", "tz": "", "district": "Timiş"}, {"id": 346, "name": "Macea", "name_ru": "Macea", "tz": "", "district": "Arad"}, {"id": 347, "name": "Ruscova", "name_ru": "Ruscova", "tz": "", "district": "Maramureş"}, {"id": 348, "name": "Oituz", "name_ru": "Oituz", "tz": "", "district": "Bacău"}, {"id": 349, "name": "Rucar", "name_ru": "Rucăr", "tz": "", "district": "Argeş"}, {"id": 350, "name": "Rodna", "name_ru": "Rodna", "tz": "", "district": "Bistriţa-Năsăud"}, {"id": 351, "name": "Gugesti", "name_ru": "Gugeşti", "tz": "", "district": "Vrancea"}, {"id": 352, "name": "Motatei", "name_ru": "Moţăţei", "tz": "", "district": "Dolj"}, {"id": 353, "name": "Prejmer", "name_ru": "Prejmer", "tz": "", "district": "Braşov"}, {"id": 354, "name": "Homocea", "name_ru": "Homocea", "tz": "", "district": "Vrancea"}, {"id": 355, "name": "Maieru", "name_ru": "Măieru", "tz": "", "district": "Bistriţa-Năsăud"}, {"id": 356, "name": "Arbore", "name_ru": "Arbore", "tz": "", "district": "Suceava"}, {"id": 357, "name": "Baia", "name_ru": "Baia", "tz": "", "district": "Suceava"}, {"id": 358, "name": "Giarmata", "name_ru": "Giarmata", "tz": "", "district": "Timiş"}, {"id": 359, "name": "Tufesti", "name_ru": "Tufeşti", "tz": "", "district": "Brăila"}, {"id": 360, "name": "Corund", "name_ru": "Corund", "tz": "", "district": "Harghita"}, {"id": 361, "name": "Horodnicu de Sus", "name_ru": "Horodnicu de Sus", "tz": "", "district": "Suceava"}, {"id": 362, "name": "Straja", "name_ru": "Straja", "tz": "", "district": "Suceava"}, {"id": 363, "name": "Greci", "name_ru": "Greci", "tz": "", "district": "Tulcea"}, {"id": 364, "name": "Tudora", "name_ru": "Tudora", "tz": "", "district": "Botoşani"}, {"id": 365, "name": "Raducaneni", "name_ru": "Răducăneni", "tz": "", "district": "Iaşi"}, {"id": 366, "name": "Rasinari", "name_ru": "Răşinari", "tz": "", "district": "Sibiu"}, {"id": 367, "name": "Paunesti", "name_ru": "Păuneşti", "tz": "", "district": "Vrancea"}]