[{"id": 1, "name": "Belgrade", "name_ru": "Belgrade", "tz": "", "district": "Beograd"}, {"id": 2, "name": "Novi Sad", "name_ru": "Novi Sad", "tz": "", "district": "Novi Sad"}, {"id": 3, "name": "Nis", "name_ru": "Niš", "tz": "", "district": "Niš"}, {"id": 4, "name": "Zemun", "name_ru": "Zemun", "tz": "", "district": "Beograd"}, {"id": 5, "name": "Kragujevac", "name_ru": "Kragujevac", "tz": "", "district": "Kragujevac"}, {"id": 6, "name": "Valjevo", "name_ru": "Valjevo", "tz": "", "district": "Valjevo"}, {"id": 7, "name": "Loznica", "name_ru": "Loznica", "tz": "", "district": "Loznica"}, {"id": 8, "name": "Zrenjanin", "name_ru": "Zrenjanin", "tz": "", "district": "Zrenjanin"}, {"id": 9, "name": "Pancevo", "name_ru": "Pančevo", "tz": "", "district": "Pančevo"}, {"id": 10, "name": "Cacak", "name_ru": "Čačak", "tz": "", "district": "Čačak"}, {"id": 11, "name": "Novi Pazar", "name_ru": "Novi Pazar", "tz": "", "district": "Novi Pazar"}, {"id": 12, "name": "Kraljevo", "name_ru": "Kraljevo", "tz": "", "district": "Kraljevo"}, {"id": 13, "name": "Leskovac", "name_ru": "Leskovac", "tz": "", "district": "Leskovac"}, {"id": 14, "name": "Uzice", "name_ru": "Užice", "tz": "", "district": "Užice"}, {"id": 15, "name": "Krusevac", "name_ru": "Kruševac", "tz": "", "district": "Kruševac"}, {"id": 16, "name": "Vranje", "name_ru": "Vranje", "tz": "", "district": "Vranje"}, {"id": 17, "name": "Sombor", "name_ru": "Sombor", "tz": "", "district": "Sombor"}, {"id": 18, "name": "Kikinda", "name_ru": "Kikinda", "tz": "", "district": "Kikinda"}, {"id": 19, "name": "Prijepolje", "name_ru": "Prijepolje", "tz": "", "district": "Prijepolje"}, {"id": 20, "name": "Vrsac", "name_ru": "Vršac", "tz": "", "district": "Vršac"}, {"id": 21, "name": "Bor", "name_ru": "Bor", "tz": "", "district": "Bor"}, {"id": 22, "name": "Subotica", "name_ru": "Subotica", "tz": "", "district": "Subotica"}, {"id": 23, "name": "Backa Palanka", "name_ru": "Bačka Palanka", "tz": "", "district": "Bačka Palanka"}, {"id": 24, "name": "Bajina Basta", "name_ru": "Bajina Bašta", "tz": "", "district": "Bajina Bašta"}, {"id": 25, "name": "Vrbas", "name_ru": "Vrbas", "tz": "", "district": "Vrbas"}, {"id": 26, "name": "Cuprija", "name_ru": "Ćuprija", "tz": "", "district": "Ćuprija"}, {"id": 27, "name": "Senta", "name_ru": "Senta", "tz": "", "district": "Senta"}, {"id": 28, "name": "Trstenik", "name_ru": "Trstenik", "tz": "", "district": "Trstenik"}, {"id": 29, "name": "Backa Topola", "name_ru": "Bačka Topola", "tz": "", "district": "Bačka Topola"}, {"id": 30, "name": "Sjenica", "name_ru": "Sjenica", "tz": "", "district": "Sjenica"}, {"id": 31, "name": "Bela Crkva", "name_ru": "Bela Crkva", "tz": "", "district": "Bela Crkva"}, {"id": 32, "name": "Ada", "name_ru": "Ada", "tz": "", "district": "Ada"}, {"id": 33, "name": "Vrnjacka Banja", "name_ru": "Vrnjačka Banja", "tz": "", "district": "Vrnjačka Banja"}, {"id": 34, "name": "Kanjiza", "name_ru": "Kanjiža", "tz": "", "district": "Kanjiža"}, {"id": 35, "name": "Zabalj", "name_ru": "Žabalj", "tz": "", "district": "Žabalj"}, {"id": 36, "name": "Odzaci", "name_ru": "Odžaci", "tz": "", "district": "Odžaci"}, {"id": 37, "name": "Sremski Karlovci", "name_ru": "Sremski Karlovci", "tz": "", "district": "Sremski Karlovci"}, {"id": 38, "name": "Beocin", "name_ru": "Beočin", "tz": "", "district": "Beočin"}, {"id": 39, "name": "Sokobanja", "name_ru": "Sokobanja", "tz": "", "district": "Sokobanja"}, {"id": 40, "name": "Lapovo", "name_ru": "Lapovo", "tz": "", "district": "Lapovo"}, {"id": 41, "name": "Kovacica", "name_ru": "Kovačica", "tz": "", "district": "Kovačica"}, {"id": 42, "name": "Bogatic", "name_ru": "Bogatić", "tz": "", "district": "Bogatić"}, {"id": 43, "name": "Backi Petrovac", "name_ru": "Bački Petrovac", "tz": "", "district": "Bački Petrovac"}, {"id": 44, "name": "Bac", "name_ru": "Bač", "tz": "", "district": "Bač"}, {"id": 45, "name": "Irig", "name_ru": "Irig", "tz": "", "district": "Irig"}, {"id": 46, "name": "Coka", "name_ru": "Čoka", "tz": "", "district": "Čoka"}, {"id": 47, "name": "Tutin", "name_ru": "Tutin", "tz": "", "district": "Tutin"}, {"id": 48, "name": "Alibunar", "name_ru": "Alibunar", "tz": "", "district": "Alibunar"}, {"id": 49, "name": "Arandelovac", "name_ru": "Aranđelovac", "tz": "", "district": "Aranđelovac"}, {"id": 50, "name": "Ivanjica", "name_ru": "Ivanjica", "tz": "", "district": "Ivanjica"}, {"id": 51, "name": "Priboj", "name_ru": "Priboj", "tz": "", "district": "Priboj"}, {"id": 52, "name": "Jagodina", "name_ru": "Jagodina", "tz": "", "district": "Jagodina"}, {"id": 53, "name": "Sabac", "name_ru": "Šabac", "tz": "", "district": "Šabac"}, {"id": 54, "name": "Smederevo", "name_ru": "Smederevo", "tz": "", "district": "Smederevo"}, {"id": 55, "name": "Arilje", "name_ru": "Arilje", "tz": "", "district": "Arilje"}, {"id": 56, "name": "Vladicin Han", "name_ru": "Vladičin Han", "tz": "", "district": "Vladičin Han"}, {"id": 57, "name": "Nova Varos", "name_ru": "Nova Varoš", "tz": "", "district": "Nova Varoš"}, {"id": 58, "name": "Kursumlija", "name_ru": "Kuršumlija", "tz": "", "district": "Kuršumlija"}, {"id": 59, "name": "Aleksandrovac", "name_ru": "Aleksandrovac", "tz": "", "district": "Aleksandrovac"}, {"id": 60, "name": "Gornji Milanovac", "name_ru": "Gornji Milanovac", "tz": "", "district": "Gornji Milanovac"}, {"id": 61, "name": "Svrljig", "name_ru": "Svrljig", "tz": "", "district": "Svrljig"}, {"id": 62, "name": "Raska", "name_ru": "Raška", "tz": "", "district": "Raška"}, {"id": 63, "name": "Pirot", "name_ru": "Pirot", "tz": "", "district": "Pirot"}, {"id": 64, "name": "Prokuplje", "name_ru": "Prokuplje", "tz": "", "district": "Prokuplje"}, {"id": 65, "name": "Brus", "name_ru": "Brus", "tz": "", "district": "Brus"}, {"id": 66, "name": "Surdulica", "name_ru": "Surdulica", "tz": "", "district": "Surdulica"}, {"id": 67, "name": "Ub", "name_ru": "Ub", "tz": "", "district": "Ub"}, {"id": 68, "name": "Lucani", "name_ru": "Lučani", "tz": "", "district": "Lučani"}, {"id": 69, "name": "Pozega", "name_ru": "Požega", "tz": "", "district": "Požega"}, {"id": 70, "name": "Smederevska Palanka", "name_ru": "Smederevska Palanka", "tz": "", "district": "Smederevska Palanka"}, {"id": 71, "name": "Babusnica", "name_ru": "Babušnica", "tz": "", "district": "Babušnica"}, {"id": 72, "name": "Vlasotince", "name_ru": "Vlasotince", "tz": "", "district": "Vlasotince"}, {"id": 73, "name": "Ljubovija", "name_ru": "Ljubovija", "tz": "", "district": "Ljubovija"}, {"id": 74, "name": "Lajkovac", "name_ru": "Lajkovac", "tz": "", "district": "Lajkovac"}, {"id": 75, "name": "Kosjeric", "name_ru": "Kosjerić", "tz": "", "district": "Kosjerić"}, {"id": 76, "name": "Mionica", "name_ru": "Mionica", "tz": "", "district": "Mionica"}, {"id": 77, "name": "Bela Palanka", "name_ru": "Bela Palanka", "tz": "", "district": "Bela Palanka"}, {"id": 78, "name": "Sremska Mitrovica", "name_ru": "Sremska Mitrovica", "tz": "", "district": "Sremska Mitrovica"}, {"id": 79, "name": "Pozarevac", "name_ru": "Požarevac", "tz": "", "district": "Požarevac"}, {"id": 80, "name": "Krupanj", "name_ru": "Krupanj", "tz": "", "district": "Krupanj"}, {"id": 81, "name": "Knjazevac", "name_ru": "Knjaževac", "tz": "", "district": "Knjaževac"}, {"id": 82, "name": "Zajecar", "name_ru": "Zaječar", "tz": "", "district": "Zaječar"}, {"id": 83, "name": "Paracin", "name_ru": "Paraćin", "tz": "", "district": "Paraćin"}, {"id": 84, "name": "Lebane", "name_ru": "Lebane", "tz": "", "district": "Lebane"}, {"id": 85, "name": "Raca", "name_ru": "Rača", "tz": "", "district": "Rača"}, {"id": 86, "name": "Aleksinac", "name_ru": "Aleksinac", "tz": "", "district": "Aleksinac"}, {"id": 87, "name": "Osecina", "name_ru": "Osečina", "tz": "", "district": "Osečina"}, {"id": 88, "name": "Despotovac", "name_ru": "Despotovac", "tz": "", "district": "Despotovac"}, {"id": 89, "name": "Cajetina", "name_ru": "Čajetina", "tz": "", "district": "Čajetina"}, {"id": 90, "name": "Ljig", "name_ru": "Ljig", "tz": "", "district": "Ljig"}, {"id": 91, "name": "Indija", "name_ru": "Inđija", "tz": "", "district": "Inđija"}, {"id": 92, "name": "Varvarin", "name_ru": "Varvarin", "tz": "", "district": "Varvarin"}, {"id": 93, "name": "Crna Trava", "name_ru": "Crna Trava", "tz": "", "district": "Crna Trava"}, {"id": 94, "name": "Mali Zvornik", "name_ru": "Mali Zvornik", "tz": "", "district": "Mali Zvornik"}, {"id": 95, "name": "Blace", "name_ru": "Blace", "tz": "", "district": "Blace"}, {"id": 96, "name": "Ruma", "name_ru": "Ruma", "tz": "", "district": "Ruma"}, {"id": 97, "name": "Doljevac", "name_ru": "Doljevac", "tz": "", "district": "Doljevac"}, {"id": 98, "name": "Batocina", "name_ru": "Batočina", "tz": "", "district": "Batočina"}, {"id": 99, "name": "Negotin", "name_ru": "Negotin", "tz": "", "district": "Negotin"}, {"id": 100, "name": "Veliko Gradiste", "name_ru": "Veliko Gradište", "tz": "", "district": "Veliko Gradište"}, {"id": 101, "name": "Dimitrovgrad", "name_ru": "Dimitrovgrad", "tz": "", "district": "Dimitrovgrad"}, {"id": 102, "name": "Velika Plana", "name_ru": "Velika Plana", "tz": "", "district": "Velika Plana"}, {"id": 103, "name": "Petrovac na Mlavi", "name_ru": "Petrovac na Mlavi", "tz": "", "district": "Petrovac na Mlavi"}, {"id": 104, "name": "Svilajnac", "name_ru": "Svilajnac", "tz": "", "district": "Svilajnac"}, {"id": 105, "name": "Boljevac", "name_ru": "Boljevac", "tz": "", "district": "Boljevac"}, {"id": 106, "name": "Kladovo", "name_ru": "Kladovo", "tz": "", "district": "Kladovo"}, {"id": 107, "name": "Stara Pazova", "name_ru": "Stara Pazova", "tz": "", "district": "Stara Pazova"}, {"id": 108, "name": "Sid", "name_ru": "Šid", "tz": "", "district": "Šid"}, {"id": 109, "name": "Bojnik", "name_ru": "Bojnik", "tz": "", "district": "Bojnik"}, {"id": 110, "name": "Topola", "name_ru": "Topola", "tz": "", "district": "Topola"}, {"id": 111, "name": "Merosina", "name_ru": "Merošina", "tz": "", "district": "Merošina"}, {"id": 112, "name": "Temerin", "name_ru": "Temerin", "tz": "", "district": "Temerin"}, {"id": 113, "name": "Kula", "name_ru": "Kula", "tz": "", "district": "Kula"}, {"id": 114, "name": "Apatin", "name_ru": "Apatin", "tz": "", "district": "Apatin"}, {"id": 115, "name": "Zitorada", "name_ru": "Žitorađa", "tz": "", "district": "Žitorađa"}, {"id": 116, "name": "Kovin", "name_ru": "Kovin", "tz": "", "district": "Kovin"}, {"id": 117, "name": "Koceljeva", "name_ru": "Koceljeva", "tz": "", "district": "Koceljeva"}, {"id": 118, "name": "Gadzin Han", "name_ru": "Gadžin Han", "tz": "", "district": "Gadžin Han"}, {"id": 119, "name": "Cicevac", "name_ru": "Ćićevac", "tz": "", "district": "Ćićevac"}, {"id": 120, "name": "Pecinci", "name_ru": "Pećinci", "tz": "", "district": "Pećinci"}, {"id": 121, "name": "Bosilegrad", "name_ru": "Bosilegrad", "tz": "", "district": "Bosilegrad"}, {"id": 122, "name": "Vladimirci", "name_ru": "Vladimirci", "tz": "", "district": "Vladimirci"}, {"id": 123, "name": "Razanj", "name_ru": "Ražanj", "tz": "", "district": "Ražanj"}, {"id": 124, "name": "Kucevo", "name_ru": "Kučevo", "tz": "", "district": "Kučevo"}, {"id": 125, "name": "Plandiste", "name_ru": "Plandište", "tz": "", "district": "Plandište"}, {"id": 126, "name": "Medveda", "name_ru": "Medveđa", "tz": "", "district": "Medveđa"}, {"id": 127, "name": "Becej", "name_ru": "Bečej", "tz": "", "district": "Bečej"}, {"id": 128, "name": "Opovo", "name_ru": "Opovo", "tz": "", "district": "Opovo"}, {"id": 129, "name": "Rekovac", "name_ru": "Rekovac", "tz": "", "district": "Rekovac"}, {"id": 130, "name": "Knic", "name_ru": "Knić", "tz": "", "district": "Knić"}, {"id": 131, "name": "Titel", "name_ru": "Titel", "tz": "", "district": "Titel"}, {"id": 132, "name": "Secanj", "name_ru": "Sečanj", "tz": "", "district": "Sečanj"}, {"id": 133, "name": "Zabari", "name_ru": "Žabari", "tz": "", "district": "Žabari"}, {"id": 134, "name": "Malo Crnice", "name_ru": "Malo Crniće", "tz": "", "district": "Malo Crniće"}, {"id": 135, "name": "Srbobran", "name_ru": "Srbobran", "tz": "", "district": "Srbobran"}, {"id": 136, "name": "Mali Idos", "name_ru": "Mali Iđoš", "tz": "", "district": "Mali Iđoš"}, {"id": 137, "name": "Zitiste", "name_ru": "Žitište", "tz": "", "district": "Žitište"}, {"id": 138, "name": "Novi Knezevac", "name_ru": "Novi Kneževac", "tz": "", "district": "Novi Kneževac"}, {"id": 139, "name": "Novi Becej", "name_ru": "Novi Bečej", "tz": "", "district": "Novi Bečej"}, {"id": 140, "name": "Golubac", "name_ru": "Golubac", "tz": "", "district": "Golubac"}, {"id": 141, "name": "Nova Crnja", "name_ru": "Nova Crnja", "tz": "", "district": "Nova Crnja"}, {"id": 142, "name": "Majdanpek", "name_ru": "Majdanpek", "tz": "", "district": "Majdanpek"}, {"id": 143, "name": "Trgoviste", "name_ru": "Trgovište", "tz": "", "district": "Trgovište"}, {"id": 144, "name": "Zagubica", "name_ru": "Žagubica", "tz": "", "district": "Žagubica"}, {"id": 145, "name": "Presevo", "name_ru": "Preševo", "tz": "", "district": "Preševo"}, {"id": 146, "name": "Bujanovac", "name_ru": "Bujanovac", "tz": "", "district": "Bujanovac"}, {"id": 147, "name": "Batajnica", "name_ru": "Batajnica", "tz": "", "district": "Beograd"}, {"id": 148, "name": "Melenci", "name_ru": "Melenci", "tz": "", "district": "Srednje Banatski Okrug"}, {"id": 149, "name": "Horgos", "name_ru": "Horgoš", "tz": "", "district": "Severno Banatski Okrug"}, {"id": 150, "name": "Banatski Karlovac", "name_ru": "Banatski Karlovac", "tz": "", "district": "Južno Banatski Okrug"}, {"id": 151, "name": "Debeljaca", "name_ru": "Debeljača", "tz": "", "district": "Južno Banatski Okrug"}, {"id": 152, "name": "Stara Moravica", "name_ru": "Stara Moravica", "tz": "", "district": "Severno Bački Okrug"}]