[{"id": 1, "name": "Ishimbay", "name_ru": "Ишимбай", "tz": "Asia/Yekaterinburg", "district": "Республика Башкортостан"}, {"id": 2, "name": "Kumertau", "name_ru": "Кумертау", "tz": "Asia/Yekaterinburg", "district": "Республика Башкортостан"}, {"id": 3, "name": "Mezhgorye", "name_ru": "Межгорье", "tz": "Asia/Yekaterinburg", "district": "Республика Башкортостан"}, {"id": 4, "name": "Meleuz", "name_ru": "Мелеуз", "tz": "Asia/Yekaterinburg", "district": "Республика Башкортостан"}, {"id": 5, "name": "Neftekamsk", "name_ru": "Нефтекамск", "tz": "Asia/Yekaterinburg", "district": "Республика Башкортостан"}, {"id": 6, "name": "Oktyabrsky", "name_ru": "Октябрьский", "tz": "Asia/Yekaterinburg", "district": "Республика Башкортостан"}, {"id": 7, "name": "Salavat", "name_ru": "Салават", "tz": "Asia/Yekaterinburg", "district": "Республика Башкортостан"}, {"id": 8, "name": "Sibay", "name_ru": "Сибай", "tz": "Asia/Yekaterinburg", "district": "Республика Башкортостан"}, {"id": 9, "name": "Sterlitamak", "name_ru": "Стерлитамак", "tz": "Asia/Yekaterinburg", "district": "Республика Башкортостан"}, {"id": 10, "name": "Tuymazy", "name_ru": "Туймазы", "tz": "Asia/Yekaterinburg", "district": "Республика Башкортостан"}, {"id": 11, "name": "Ufa", "name_ru": "Уфа", "tz": "Asia/Yekaterinburg", "district": "Республика Башкортостан"}, {"id": 12, "name": "Uchaly", "name_ru": "Учалы", "tz": "Asia/Yekaterinburg", "district": "Республика Башкортостан"}, {"id": 13, "name": "Yanaul", "name_ru": "Янаул", "tz": "Asia/Yekaterinburg", "district": "Республика Башкортостан"}, {"id": 14, "name": "Babushkin", "name_ru": "Бабушкин", "tz": "Asia/Irkutsk", "district": "Республика Бурятия"}, {"id": 15, "name": "Gusinoozyorsk", "name_ru": "Гусиноозёрск", "tz": "Asia/Irkutsk", "district": "Республика Бурятия"}, {"id": 16, "name": "Zakamensk", "name_ru": "Закаменск", "tz": "Asia/Irkutsk", "district": "Республика Бурятия"}, {"id": 17, "name": "Kyakhta", "name_ru": "Кяхта", "tz": "Asia/Irkutsk", "district": "Республика Бурятия"}, {"id": 18, "name": "Severobaykalsk", "name_ru": "Северобайкальск", "tz": "Asia/Irkutsk", "district": "Республика Бурятия"}, {"id": 19, "name": "Ulan-Ude", "name_ru": "Улан-Удэ", "tz": "Asia/Irkutsk", "district": "Республика Бурятия"}, {"id": 20, "name": "Gorno-Altaysk", "name_ru": "Горно-Алтайск", "tz": "Asia/Krasnoyarsk", "district": "Республика Алтай"}, {"id": 21, "name": "Maykop", "name_ru": "Майкоп", "tz": "Europe/Moscow", "district": "Республика Адыгея"}, {"id": 22, "name": "Adygeysk", "name_ru": "Адыгейск", "tz": "Europe/Moscow", "district": "Республика Адыгея"}, {"id": 23, "name": "Agidel", "name_ru": "Агидель", "tz": "Asia/Yekaterinburg", "district": "Республика Башкортостан"}, {"id": 24, "name": "Baymak", "name_ru": "Баймак", "tz": "Asia/Yekaterinburg", "district": "Республика Башкортостан"}, {"id": 25, "name": "Belebey", "name_ru": "Белебей", "tz": "Asia/Yekaterinburg", "district": "Республика Башкортостан"}, {"id": 26, "name": "Beloretsk", "name_ru": "Белорецк", "tz": "Asia/Yekaterinburg", "district": "Республика Башкортостан"}, {"id": 27, "name": "Birsk", "name_ru": "Бирск", "tz": "Asia/Yekaterinburg", "district": "Республика Башкортостан"}, {"id": 28, "name": "Blagoveshchensk", "name_ru": "Благовещенск", "tz": "Asia/Yekaterinburg", "district": "Республика Башкортостан"}, {"id": 29, "name": "Davlekanovo", "name_ru": "Давлеканово", "tz": "Asia/Yekaterinburg", "district": "Республика Башкортостан"}, {"id": 30, "name": "Dyurtyuli", "name_ru": "Дюртюли", "tz": "Asia/Yekaterinburg", "district": "Республика Башкортостан"}, {"id": 31, "name": "Buynaksk", "name_ru": "Буйнакск", "tz": "Europe/Moscow", "district": "Республика Дагестан"}, {"id": 32, "name": "Dagestanskiye Ogni", "name_ru": "Дагестанские Огни", "tz": "Europe/Moscow", "district": "Республика Дагестан"}, {"id": 33, "name": "Derbent", "name_ru": "Дербент", "tz": "Europe/Moscow", "district": "Республика Дагестан"}, {"id": 34, "name": "Izberbash", "name_ru": "Избербаш", "tz": "Europe/Moscow", "district": "Республика Дагестан"}, {"id": 35, "name": "Kaspiysk", "name_ru": "Каспийск", "tz": "Europe/Moscow", "district": "Республика Дагестан"}, {"id": 36, "name": "Kizilyurt", "name_ru": "Кизилюрт", "tz": "Europe/Moscow", "district": "Республика Дагестан"}, {"id": 37, "name": "Kizlyar", "name_ru": "Кизляр", "tz": "Europe/Moscow", "district": "Республика Дагестан"}, {"id": 38, "name": "Makhachkala", "name_ru": "Махачкала", "tz": "Europe/Moscow", "district": "Республика Дагестан"}, {"id": 39, "name": "Khasavyurt", "name_ru": "Хасавюрт", "tz": "Europe/Moscow", "district": "Республика Дагестан"}, {"id": 40, "name": "Yuzhno-Sukhokumsk", "name_ru": "Южно-Сухокумск", "tz": "Europe/Moscow", "district": "Республика Дагестан"}, {"id": 41, "name": "Karabulak", "name_ru": "Карабулак", "tz": "Europe/Moscow", "district": "Республика Ингушетия"}, {"id": 42, "name": "Magas", "name_ru": "Магас", "tz": "Europe/Moscow", "district": "Республика Ингушетия"}, {"id": 43, "name": "Malgobek", "name_ru": "Малгобек", "tz": "Europe/Moscow", "district": "Республика Ингушетия"}, {"id": 44, "name": "Nazran", "name_ru": "Назрань", "tz": "Europe/Moscow", "district": "Республика Ингушетия"}, {"id": 45, "name": "Sunzha", "name_ru": "Сунжа", "tz": "Europe/Moscow", "district": "Республика Ингушетия"}, {"id": 46, "name": "Baksan", "name_ru": "Баксан", "tz": "Europe/Moscow", "district": "Кабардино-Балкарская Республика"}, {"id": 47, "name": "Maysky", "name_ru": "Майский", "tz": "Europe/Moscow", "district": "Кабардино-Балкарская Республика"}, {"id": 48, "name": "Nalchik", "name_ru": "Нальчик", "tz": "Europe/Moscow", "district": "Кабардино-Балкарская Республика"}, {"id": 49, "name": "Nartkala", "name_ru": "Нарткала", "tz": "Europe/Moscow", "district": "Кабардино-Балкарская Республика"}, {"id": 50, "name": "Prokhladny", "name_ru": "Прохладный", "tz": "Europe/Moscow", "district": "Кабардино-Балкарская Республика"}, {"id": 51, "name": "Terek", "name_ru": "Терек", "tz": "Europe/Moscow", "district": "Кабардино-Балкарская Республика"}, {"id": 52, "name": "Tyrnyauz", "name_ru": "Тырныауз", "tz": "Europe/Moscow", "district": "Кабардино-Балкарская Республика"}, {"id": 53, "name": "Chegem", "name_ru": "Чегем", "tz": "Europe/Moscow", "district": "Кабардино-Балкарская Республика"}, {"id": 54, "name": "Elista", "name_ru": "Элиста", "tz": "Europe/Moscow", "district": "Республика Калмыкия"}, {"id": 55, "name": "Lagan", "name_ru": "Лагань", "tz": "Europe/Moscow", "district": "Республика Калмыкия"}, {"id": 56, "name": "Gorodovikovsk", "name_ru": "Городовиковск", "tz": "Europe/Moscow", "district": "Республика Калмыкия"}, {"id": 57, "name": "Karachayevsk", "name_ru": "Карачаевск", "tz": "Europe/Moscow", "district": "Карачаево-Черкесская Республика"}, {"id": 58, "name": "Teberda", "name_ru": "Теберда", "tz": "Europe/Moscow", "district": "Карачаево-Черкесская Республика"}, {"id": 59, "name": "Ust-Dzheguta", "name_ru": "Усть-Джегута", "tz": "Europe/Moscow", "district": "Карачаево-Черкесская Республика"}, {"id": 60, "name": "Cherkessk", "name_ru": "Черкесск", "tz": "Europe/Moscow", "district": "Карачаево-Черкесская Республика"}, {"id": 61, "name": "Petrozavodsk", "name_ru": "Петрозаводск", "tz": "Europe/Moscow", "district": "Республика Карелия"}, {"id": 62, "name": "Kondopoga", "name_ru": "Кондопога", "tz": "Europe/Moscow", "district": "Республика Карелия"}, {"id": 63, "name": "Segezha", "name_ru": "Сегежа", "tz": "Europe/Moscow", "district": "Республика Карелия"}, {"id": 64, "name": "Kostomuksha", "name_ru": "Костомукша", "tz": "Europe/Moscow", "district": "Республика Карелия"}, {"id": 65, "name": "Sortavala", "name_ru": "Сортавала", "tz": "Europe/Moscow", "district": "Республика Карелия"}, {"id": 66, "name": "Medvezhyegorsk", "name_ru": "Медвежьегорск", "tz": "Europe/Moscow", "district": "Республика Карелия"}, {"id": 67, "name": "Kem", "name_ru": "Кемь", "tz": "Europe/Moscow", "district": "Республика Карелия"}, {"id": 68, "name": "Pitkyaranta", "name_ru": "Питкяранта", "tz": "Europe/Moscow", "district": "Республика Карелия"}, {"id": 69, "name": "Belomorsk", "name_ru": "Беломорск", "tz": "Europe/Moscow", "district": "Республика Карелия"}, {"id": 70, "name": "Suoyarvi", "name_ru": "Суоярви", "tz": "Europe/Moscow", "district": "Республика Карелия"}, {"id": 71, "name": "Pudozh", "name_ru": "Пудож", "tz": "Europe/Moscow", "district": "Республика Карелия"}, {"id": 72, "name": "Olonets", "name_ru": "Олонец", "tz": "Europe/Moscow", "district": "Республика Карелия"}, {"id": 73, "name": "Lakhdenpokhya", "name_ru": "Лахденпохья", "tz": "Europe/Moscow", "district": "Республика Карелия"}, {"id": 74, "name": "Syktyvkar", "name_ru": "Сыктывкар", "tz": "Europe/Moscow", "district": "Республика Коми"}, {"id": 75, "name": "Ukhta", "name_ru": "Ухта", "tz": "Europe/Moscow", "district": "Республика Коми"}, {"id": 76, "name": "Vorkuta", "name_ru": "Воркута", "tz": "Europe/Moscow", "district": "Республика Коми"}, {"id": 77, "name": "Pechora", "name_ru": "Печора", "tz": "Europe/Moscow", "district": "Республика Коми"}, {"id": 78, "name": "Usinsk", "name_ru": "Усинск", "tz": "Europe/Moscow", "district": "Республика Коми"}, {"id": 79, "name": "Inta", "name_ru": "Инта", "tz": "Europe/Moscow", "district": "Республика Коми"}, {"id": 80, "name": "Sosnogorsk", "name_ru": "Сосногорск", "tz": "Europe/Moscow", "district": "Республика Коми"}, {"id": 81, "name": "Krasnoslobodsk", "name_ru": "Краснослободск", "tz": "Europe/Moscow", "district": "Республика Мордовия"}, {"id": 82, "name": "Ardatov", "name_ru": "Ардатов", "tz": "Europe/Moscow", "district": "Республика Мордовия"}, {"id": 83, "name": "Insar", "name_ru": "Инсар", "tz": "Europe/Moscow", "district": "Республика Мордовия"}, {"id": 84, "name": "Temnikov", "name_ru": "Темников", "tz": "Europe/Moscow", "district": "Республика Мордовия"}, {"id": 85, "name": "Aldan", "name_ru": "Алдан", "tz": "Asia/Yakutsk", "district": "Республика Саха /Якутия/"}, {"id": 86, "name": "Verkhoyansk", "name_ru": "Верхоянск", "tz": "Asia/Vladivostok", "district": "Республика Саха /Якутия/"}, {"id": 87, "name": "Vilyuysk", "name_ru": "Вилюйск", "tz": "Asia/Yakutsk", "district": "Республика Саха /Якутия/"}, {"id": 88, "name": "Lensk", "name_ru": "Ленск", "tz": "Asia/Yakutsk", "district": "Республика Саха /Якутия/"}, {"id": 89, "name": "Mirny", "name_ru": "Мирный", "tz": "Asia/Yakutsk", "district": "Республика Саха /Якутия/"}, {"id": 90, "name": "Neryungri", "name_ru": "Нерюнгри", "tz": "Asia/Yakutsk", "district": "Республика Саха /Якутия/"}, {"id": 91, "name": "Nyurba", "name_ru": "Нюрба", "tz": "Asia/Yakutsk", "district": "Республика Саха /Якутия/"}, {"id": 92, "name": "Olyokminsk", "name_ru": "Олёкминск", "tz": "Asia/Yakutsk", "district": "Республика Саха /Якутия/"}, {"id": 93, "name": "Pokrovsk", "name_ru": "Покровск", "tz": "Asia/Yakutsk", "district": "Республика Саха /Якутия/"}, {"id": 94, "name": "Srednekolymsk", "name_ru": "Среднеколымск", "tz": "Asia/Magadan", "district": "Республика Саха /Якутия/"}, {"id": 95, "name": "Tommot", "name_ru": "Томмот", "tz": "Asia/Yakutsk", "district": "Республика Саха /Якутия/"}, {"id": 96, "name": "Udachny", "name_ru": "Удачный", "tz": "Asia/Yakutsk", "district": "Республика Саха /Якутия/"}, {"id": 97, "name": "Yakutsk", "name_ru": "Якутск", "tz": "Asia/Yakutsk", "district": "Республика Саха /Якутия/"}, {"id": 98, "name": "Alagir", "name_ru": "Алагир", "tz": "Europe/Moscow", "district": "Республика Северная Осетия - Алания"}, {"id": 99, "name": "Ardon", "name_ru": "Ардон", "tz": "Europe/Moscow", "district": "Республика Северная Осетия - Алания"}, {"id": 100, "name": "Beslan", "name_ru": "Беслан", "tz": "Europe/Moscow", "district": "Республика Северная Осетия - Алания"}, {"id": 101, "name": "Yemva", "name_ru": "Емва", "tz": "Europe/Moscow", "district": "Республика Коми"}, {"id": 102, "name": "Vuktyl", "name_ru": "Вуктыл", "tz": "Europe/Moscow", "district": "Республика Коми"}, {"id": 103, "name": "Mikun", "name_ru": "Микунь", "tz": "Europe/Moscow", "district": "Республика Коми"}, {"id": 104, "name": "Yoshkar-Ola", "name_ru": "Йошкар-Ола", "tz": "Europe/Moscow", "district": "Республика Марий Эл"}, {"id": 105, "name": "Volzhsk", "name_ru": "Волжск", "tz": "Europe/Moscow", "district": "Республика Марий Эл"}, {"id": 106, "name": "Kozmodemyansk", "name_ru": "Козьмодемьянск", "tz": "Europe/Moscow", "district": "Республика Марий Эл"}, {"id": 107, "name": "Zvenigovo", "name_ru": "Звенигово", "tz": "Europe/Moscow", "district": "Республика Марий Эл"}, {"id": 108, "name": "Saransk", "name_ru": "Саранск", "tz": "Europe/Moscow", "district": "Республика Мордовия"}, {"id": 109, "name": "Ruzayevka", "name_ru": "Рузаевка", "tz": "Europe/Moscow", "district": "Республика Мордовия"}, {"id": 110, "name": "Kovylkino", "name_ru": "Ковылкино", "tz": "Europe/Moscow", "district": "Республика Мордовия"}, {"id": 111, "name": "Vladikavkaz", "name_ru": "Владикавказ", "tz": "Europe/Moscow", "district": "Республика Северная Осетия - Алания"}, {"id": 112, "name": "Digora", "name_ru": "Дигора", "tz": "Europe/Moscow", "district": "Республика Северная Осетия - Алания"}, {"id": 113, "name": "Mozdok", "name_ru": "Моздок", "tz": "Europe/Moscow", "district": "Республика Северная Осетия - Алания"}, {"id": 114, "name": "Agryz", "name_ru": "Агрыз", "tz": "Europe/Moscow", "district": "Республика Татарстан"}, {"id": 115, "name": "Aznakayevo", "name_ru": "Азнакаево", "tz": "Europe/Moscow", "district": "Республика Татарстан"}, {"id": 116, "name": "Almetyevsk", "name_ru": "Альметьевск", "tz": "Europe/Moscow", "district": "Республика Татарстан"}, {"id": 117, "name": "Arsk", "name_ru": "Арск", "tz": "Europe/Moscow", "district": "Республика Татарстан"}, {"id": 118, "name": "Bavly", "name_ru": "Бавлы", "tz": "Europe/Moscow", "district": "Республика Татарстан"}, {"id": 119, "name": "Bolgar", "name_ru": "Болгар", "tz": "Europe/Moscow", "district": "Республика Татарстан"}, {"id": 120, "name": "Bugulma", "name_ru": "Бугульма", "tz": "Europe/Moscow", "district": "Республика Татарстан"}, {"id": 121, "name": "Buinsk", "name_ru": "Буинск", "tz": "Europe/Moscow", "district": "Республика Татарстан"}, {"id": 122, "name": "Yelabuga", "name_ru": "Елабуга", "tz": "Europe/Moscow", "district": "Республика Татарстан"}, {"id": 123, "name": "Zainsk", "name_ru": "Заинск", "tz": "Europe/Moscow", "district": "Республика Татарстан"}, {"id": 124, "name": "Zelenodolsk", "name_ru": "Зеленодольск", "tz": "Europe/Moscow", "district": "Республика Татарстан"}, {"id": 125, "name": "Innopolis", "name_ru": "Иннополис", "tz": "Europe/Moscow", "district": "Республика Татарстан"}, {"id": 126, "name": "Kazan", "name_ru": "Казань", "tz": "Europe/Moscow", "district": "Республика Татарстан"}, {"id": 127, "name": "Kukmor", "name_ru": "Кукмор", "tz": "Europe/Moscow", "district": "Республика Татарстан"}, {"id": 128, "name": "Laishevo", "name_ru": "Лаишево", "tz": "Europe/Moscow", "district": "Республика Татарстан"}, {"id": 129, "name": "Leninogorsk", "name_ru": "Лениногорск", "tz": "Europe/Moscow", "district": "Республика Татарстан"}, {"id": 130, "name": "Mamadysh", "name_ru": "Мамадыш", "tz": "Europe/Moscow", "district": "Республика Татарстан"}, {"id": 131, "name": "Chadan", "name_ru": "Чадан", "tz": "Asia/Krasnoyarsk", "district": "Республика Тыва"}, {"id": 132, "name": "Shagonar", "name_ru": "Шагонар", "tz": "Asia/Krasnoyarsk", "district": "Республика Тыва"}, {"id": 133, "name": "Izhevsk", "name_ru": "Ижевск", "tz": "Europe/Samara", "district": "Удмуртская Республика"}, {"id": 134, "name": "Sarapul", "name_ru": "Сарапул", "tz": "Europe/Samara", "district": "Удмуртская Республика"}, {"id": 135, "name": "Votkinsk", "name_ru": "Воткинск", "tz": "Europe/Samara", "district": "Удмуртская Республика"}, {"id": 136, "name": "Glazov", "name_ru": "Глазов", "tz": "Europe/Samara", "district": "Удмуртская Республика"}, {"id": 137, "name": "Mozhga", "name_ru": "Можга", "tz": "Europe/Samara", "district": "Удмуртская Республика"}, {"id": 138, "name": "Kambarka", "name_ru": "Камбарка", "tz": "Europe/Samara", "district": "Удмуртская Республика"}, {"id": 139, "name": "Abaza", "name_ru": "Абаза", "tz": "Asia/Krasnoyarsk", "district": "Республика Хакасия"}, {"id": 140, "name": "Abakan", "name_ru": "Абакан", "tz": "Asia/Krasnoyarsk", "district": "Республика Хакасия"}, {"id": 141, "name": "Sayanogorsk", "name_ru": "Саяногорск", "tz": "Asia/Krasnoyarsk", "district": "Республика Хакасия"}, {"id": 142, "name": "Sorsk", "name_ru": "Сорск", "tz": "Asia/Krasnoyarsk", "district": "Республика Хакасия"}, {"id": 143, "name": "Chernogorsk", "name_ru": "Черногорск", "tz": "Asia/Krasnoyarsk", "district": "Республика Хакасия"}, {"id": 144, "name": "Cheboksary", "name_ru": "Чебоксары", "tz": "Europe/Moscow", "district": "Чувашская Республика"}, {"id": 145, "name": "Novocheboksarsk", "name_ru": "Новочебоксарск", "tz": "Europe/Moscow", "district": "Чувашская Республика"}, {"id": 146, "name": "Kanash", "name_ru": "Канаш", "tz": "Europe/Moscow", "district": "Чувашская Республика"}, {"id": 147, "name": "Alatyr", "name_ru": "Алатырь", "tz": "Europe/Moscow", "district": "Чувашская Республика"}, {"id": 148, "name": "Shumerlya", "name_ru": "Шумерля", "tz": "Europe/Moscow", "district": "Чувашская Республика"}, {"id": 149, "name": "Tsivilsk", "name_ru": "Цивильск", "tz": "Europe/Moscow", "district": "Чувашская Республика"}, {"id": 150, "name": "Kozlovka", "name_ru": "Козловка", "tz": "Europe/Moscow", "district": "Чувашская Республика"}, {"id": 151, "name": "Mendeleyevsk", "name_ru": "Менделеевск", "tz": "Europe/Moscow", "district": "Республика Татарстан"}, {"id": 152, "name": "Menzelinsk", "name_ru": "Мензелинск", "tz": "Europe/Moscow", "district": "Республика Татарстан"}, {"id": 153, "name": "Naberezhnye Chelny", "name_ru": "Набережные Челны", "tz": "Europe/Moscow", "district": "Республика Татарстан"}, {"id": 154, "name": "Nizhnekamsk", "name_ru": "Нижнекамск", "tz": "Europe/Moscow", "district": "Республика Татарстан"}, {"id": 155, "name": "Nurlat", "name_ru": "Нурлат", "tz": "Europe/Moscow", "district": "Республика Татарстан"}, {"id": 156, "name": "Tetyushi", "name_ru": "Тетюши", "tz": "Europe/Moscow", "district": "Республика Татарстан"}, {"id": 157, "name": "Chistopol", "name_ru": "Чистополь", "tz": "Europe/Moscow", "district": "Республика Татарстан"}, {"id": 158, "name": "Ak-Dovurak", "name_ru": "Ак-Довурак", "tz": "Asia/Krasnoyarsk", "district": "Республика Тыва"}, {"id": 159, "name": "Kyzyl", "name_ru": "Кызыл", "tz": "Asia/Krasnoyarsk", "district": "Республика Тыва"}, {"id": 160, "name": "Turan", "name_ru": "Туран", "tz": "Asia/Krasnoyarsk", "district": "Республика Тыва"}, {"id": 161, "name": "Yadrin", "name_ru": "Ядрин", "tz": "Europe/Moscow", "district": "Чувашская Республика"}, {"id": 162, "name": "Mariinsky Posad", "name_ru": "Мариинский Посад", "tz": "Europe/Moscow", "district": "Чувашская Республика"}, {"id": 163, "name": "Aleysk", "name_ru": "Алейск", "tz": "Asia/Krasnoyarsk", "district": "Алтайский край"}, {"id": 164, "name": "Barnaul", "name_ru": "Барнаул", "tz": "Asia/Krasnoyarsk", "district": "Алтайский край"}, {"id": 165, "name": "Belokurikha", "name_ru": "Белокуриха", "tz": "Asia/Krasnoyarsk", "district": "Алтайский край"}, {"id": 166, "name": "Biysk", "name_ru": "Бийск", "tz": "Asia/Krasnoyarsk", "district": "Алтайский край"}, {"id": 167, "name": "Gornyak", "name_ru": "Горняк", "tz": "Asia/Krasnoyarsk", "district": "Алтайский край"}, {"id": 168, "name": "Zarinsk", "name_ru": "Заринск", "tz": "Asia/Krasnoyarsk", "district": "Алтайский край"}, {"id": 169, "name": "Zmeinogorsk", "name_ru": "Змеиногорск", "tz": "Asia/Krasnoyarsk", "district": "Алтайский край"}, {"id": 170, "name": "Kamen-na-Obi", "name_ru": "Камень-на-Оби", "tz": "Asia/Krasnoyarsk", "district": "Алтайский край"}, {"id": 171, "name": "Novoaltaysk", "name_ru": "Новоалтайск", "tz": "Asia/Krasnoyarsk", "district": "Алтайский край"}, {"id": 172, "name": "Rubtsovsk", "name_ru": "Рубцовск", "tz": "Asia/Krasnoyarsk", "district": "Алтайский край"}, {"id": 173, "name": "Slavgorod", "name_ru": "Славгород", "tz": "Asia/Krasnoyarsk", "district": "Алтайский край"}, {"id": 174, "name": "Yarovoye", "name_ru": "Яровое", "tz": "Asia/Krasnoyarsk", "district": "Алтайский край"}, {"id": 175, "name": "Krasnodar", "name_ru": "Краснодар", "tz": "Europe/Moscow", "district": "Краснодарский край"}, {"id": 176, "name": "Sochi", "name_ru": "Сочи", "tz": "Europe/Moscow", "district": "Краснодарский край"}, {"id": 177, "name": "Novorossiysk", "name_ru": "Новороссийск", "tz": "Europe/Moscow", "district": "Краснодарский край"}, {"id": 178, "name": "Armavir", "name_ru": "Армавир", "tz": "Europe/Moscow", "district": "Краснодарский край"}, {"id": 179, "name": "Yeysk", "name_ru": "Ейск", "tz": "Europe/Moscow", "district": "Краснодарский край"}, {"id": 180, "name": "Kropotkin", "name_ru": "Кропоткин", "tz": "Europe/Moscow", "district": "Краснодарский край"}, {"id": 181, "name": "Slavyansk-na-Kubani", "name_ru": "Славянск-на-Кубани", "tz": "Europe/Moscow", "district": "Краснодарский край"}, {"id": 182, "name": "Tuapse", "name_ru": "Туапсе", "tz": "Europe/Moscow", "district": "Краснодарский край"}, {"id": 183, "name": "Labinsk", "name_ru": "Лабинск", "tz": "Europe/Moscow", "district": "Краснодарский край"}, {"id": 184, "name": "Anapa", "name_ru": "Анапа", "tz": "Europe/Moscow", "district": "Краснодарский край"}, {"id": 185, "name": "Tikhoretsk", "name_ru": "Тихорецк", "tz": "Europe/Moscow", "district": "Краснодарский край"}, {"id": 186, "name": "Krymsk", "name_ru": "Крымск", "tz": "Europe/Moscow", "district": "Краснодарский край"}, {"id": 187, "name": "Gelendzhik", "name_ru": "Геленджик", "tz": "Europe/Moscow", "district": "Краснодарский край"}, {"id": 188, "name": "Timashevsk", "name_ru": "Тимашёвск", "tz": "Europe/Moscow", "district": "Краснодарский край"}, {"id": 189, "name": "Belorechensk", "name_ru": "Белореченск", "tz": "Europe/Moscow", "district": "Краснодарский край"}, {"id": 190, "name": "Kurganinsk", "name_ru": "Курганинск", "tz": "Europe/Moscow", "district": "Краснодарский край"}, {"id": 191, "name": "Ust-Labinsk", "name_ru": "Усть-Лабинск", "tz": "Europe/Moscow", "district": "Краснодарский край"}, {"id": 192, "name": "Korenovsk", "name_ru": "Кореновск", "tz": "Europe/Moscow", "district": "Краснодарский край"}, {"id": 193, "name": "Apsheronsk", "name_ru": "Апшеронск", "tz": "Europe/Moscow", "district": "Краснодарский край"}, {"id": 194, "name": "Temryuk", "name_ru": "Темрюк", "tz": "Europe/Moscow", "district": "Краснодарский край"}, {"id": 195, "name": "Abinsk", "name_ru": "Абинск", "tz": "Europe/Moscow", "district": "Краснодарский край"}, {"id": 196, "name": "Gulkevichi", "name_ru": "Гулькевичи", "tz": "Europe/Moscow", "district": "Краснодарский край"}, {"id": 197, "name": "Novokubansk", "name_ru": "Новокубанск", "tz": "Europe/Moscow", "district": "Краснодарский край"}, {"id": 198, "name": "Primorsko-Akhtarsk", "name_ru": "Приморско-Ахтарск", "tz": "Europe/Moscow", "district": "Краснодарский край"}, {"id": 199, "name": "Goryachy Klyuch", "name_ru": "Горячий Ключ", "tz": "Europe/Moscow", "district": "Краснодарский край"}, {"id": 200, "name": "Khadyzhensk", "name_ru": "Хадыженск", "tz": "Europe/Moscow", "district": "Краснодарский край"}, {"id": 201, "name": "Artyomovsk", "name_ru": "Артёмовск", "tz": "Asia/Krasnoyarsk", "district": "Красноярский край"}, {"id": 202, "name": "Achinsk", "name_ru": "Ачинск", "tz": "Asia/Krasnoyarsk", "district": "Красноярский край"}, {"id": 203, "name": "Bogotol", "name_ru": "Боготол", "tz": "Asia/Krasnoyarsk", "district": "Красноярский край"}, {"id": 204, "name": "Borodino", "name_ru": "Бородино", "tz": "Asia/Krasnoyarsk", "district": "Красноярский край"}, {"id": 205, "name": "Divnogorsk", "name_ru": "Дивногорск", "tz": "Asia/Krasnoyarsk", "district": "Красноярский край"}, {"id": 206, "name": "Dudinka", "name_ru": "Дудинка", "tz": "Asia/Krasnoyarsk", "district": "Красноярский край"}, {"id": 207, "name": "Yeniseysk", "name_ru": "Енисейск", "tz": "Asia/Krasnoyarsk", "district": "Красноярский край"}, {"id": 208, "name": "Zheleznogorsk", "name_ru": "Железногорск", "tz": "Asia/Krasnoyarsk", "district": "Красноярский край"}, {"id": 209, "name": "Zaozyorny", "name_ru": "Заозёрный", "tz": "Asia/Krasnoyarsk", "district": "Красноярский край"}, {"id": 210, "name": "Zelenogorsk", "name_ru": "Зеленогорск", "tz": "Asia/Krasnoyarsk", "district": "Красноярский край"}, {"id": 211, "name": "Igarka", "name_ru": "Игарка", "tz": "Asia/Krasnoyarsk", "district": "Красноярский край"}, {"id": 212, "name": "Ilansky", "name_ru": "Иланский", "tz": "Asia/Krasnoyarsk", "district": "Красноярский край"}, {"id": 213, "name": "Kansk", "name_ru": "Канск", "tz": "Asia/Krasnoyarsk", "district": "Красноярский край"}, {"id": 214, "name": "Kodinsk", "name_ru": "Кодинск", "tz": "Asia/Krasnoyarsk", "district": "Красноярский край"}, {"id": 215, "name": "Krasnoyarsk", "name_ru": "Красноярск", "tz": "Asia/Krasnoyarsk", "district": "Красноярский край"}, {"id": 216, "name": "Lesosibirsk", "name_ru": "Лесосибирск", "tz": "Asia/Krasnoyarsk", "district": "Красноярский край"}, {"id": 217, "name": "Minusinsk", "name_ru": "Минусинск", "tz": "Asia/Krasnoyarsk", "district": "Красноярский край"}, {"id": 218, "name": "Nazarovo", "name_ru": "Назарово", "tz": "Asia/Krasnoyarsk", "district": "Красноярский край"}, {"id": 219, "name": "Norilsk", "name_ru": "Норильск", "tz": "Asia/Krasnoyarsk", "district": "Красноярский край"}, {"id": 220, "name": "Sosnovoborsk", "name_ru": "Сосновоборск", "tz": "Asia/Krasnoyarsk", "district": "Красноярский край"}, {"id": 221, "name": "Nakhodka", "name_ru": "Находка", "tz": "Asia/Vladivostok", "district": "Приморский край"}, {"id": 222, "name": "Partizansk", "name_ru": "Партизанск", "tz": "Asia/Vladivostok", "district": "Приморский край"}, {"id": 223, "name": "Spassk-Dalny", "name_ru": "Спасск-Дальний", "tz": "Asia/Vladivostok", "district": "Приморский край"}, {"id": 224, "name": "Ussuriysk", "name_ru": "Уссурийск", "tz": "Asia/Vladivostok", "district": "Приморский край"}, {"id": 225, "name": "Fokino", "name_ru": "Фокино", "tz": "Asia/Vladivostok", "district": "Приморский край"}, {"id": 226, "name": "Stavropol", "name_ru": "Ставрополь", "tz": "Europe/Moscow", "district": "Ставропольский край"}, {"id": 227, "name": "Pyatigorsk", "name_ru": "Пятигорск", "tz": "Europe/Moscow", "district": "Ставропольский край"}, {"id": 228, "name": "Kislovodsk", "name_ru": "Кисловодск", "tz": "Europe/Moscow", "district": "Ставропольский край"}, {"id": 229, "name": "Nevinnomyssk", "name_ru": "Невинномысск", "tz": "Europe/Moscow", "district": "Ставропольский край"}, {"id": 230, "name": "Yessentuki", "name_ru": "Ессентуки", "tz": "Europe/Moscow", "district": "Ставропольский край"}, {"id": 231, "name": "Mineralnye Vody", "name_ru": "Минеральные Воды", "tz": "Europe/Moscow", "district": "Ставропольский край"}, {"id": 232, "name": "Mikhaylovsk", "name_ru": "Михайловск", "tz": "Europe/Moscow", "district": "Ставропольский край"}, {"id": 233, "name": "Georgiyevsk", "name_ru": "Георгиевск", "tz": "Europe/Moscow", "district": "Ставропольский край"}, {"id": 234, "name": "Budyonnovsk", "name_ru": "Будённовск", "tz": "Europe/Moscow", "district": "Ставропольский край"}, {"id": 235, "name": "Izobilny", "name_ru": "Изобильный", "tz": "Europe/Moscow", "district": "Ставропольский край"}, {"id": 236, "name": "Svetlograd", "name_ru": "Светлоград", "tz": "Europe/Moscow", "district": "Ставропольский край"}, {"id": 237, "name": "Zelenokumsk", "name_ru": "Зеленокумск", "tz": "Europe/Moscow", "district": "Ставропольский край"}, {"id": 238, "name": "Blagodarny", "name_ru": "Благодарный", "tz": "Europe/Moscow", "district": "Ставропольский край"}, {"id": 239, "name": "Neftekumsk", "name_ru": "Нефтекумск", "tz": "Europe/Moscow", "district": "Ставропольский край"}, {"id": 240, "name": "Novoalexandrovsk", "name_ru": "Новоалександровск", "tz": "Europe/Moscow", "district": "Ставропольский край"}, {"id": 241, "name": "Uzhur", "name_ru": "Ужур", "tz": "Asia/Krasnoyarsk", "district": "Красноярский край"}, {"id": 242, "name": "Uyar", "name_ru": "Уяр", "tz": "Asia/Krasnoyarsk", "district": "Красноярский край"}, {"id": 243, "name": "Sharypovo", "name_ru": "Шарыпово", "tz": "Asia/Krasnoyarsk", "district": "Красноярский край"}, {"id": 244, "name": "Vladivostok", "name_ru": "Владивосток", "tz": "Asia/Vladivostok", "district": "Приморский край"}, {"id": 245, "name": "Arsenyev", "name_ru": "Арсеньев", "tz": "Asia/Vladivostok", "district": "Приморский край"}, {"id": 246, "name": "Artyom", "name_ru": "Артём", "tz": "Asia/Vladivostok", "district": "Приморский край"}, {"id": 247, "name": "Bolshoy Kamen", "name_ru": "Большой Камень", "tz": "Asia/Vladivostok", "district": "Приморский край"}, {"id": 248, "name": "Dalnegorsk", "name_ru": "Дальнегорск", "tz": "Asia/Vladivostok", "district": "Приморский край"}, {"id": 249, "name": "Dalnerechensk", "name_ru": "Дальнереченск", "tz": "Asia/Vladivostok", "district": "Приморский край"}, {"id": 250, "name": "Lesozavodsk", "name_ru": "Лесозаводск", "tz": "Asia/Vladivostok", "district": "Приморский край"}, {"id": 251, "name": "Novopavlovsk", "name_ru": "Новопавловск", "tz": "Europe/Moscow", "district": "Ставропольский край"}, {"id": 252, "name": "Ipatovo", "name_ru": "Ипатово", "tz": "Europe/Moscow", "district": "Ставропольский край"}, {"id": 253, "name": "Zheleznovodsk", "name_ru": "Железноводск", "tz": "Europe/Moscow", "district": "Ставропольский край"}, {"id": 254, "name": "Lermontov", "name_ru": "Лермонтов", "tz": "Europe/Moscow", "district": "Ставропольский край"}, {"id": 255, "name": "Khabarovsk", "name_ru": "Хабаровск", "tz": "Asia/Vladivostok", "district": "Хабаровский край"}, {"id": 256, "name": "Amursk", "name_ru": "Амурск", "tz": "Asia/Vladivostok", "district": "Хабаровский край"}, {"id": 257, "name": "Bikin", "name_ru": "Бикин", "tz": "Asia/Vladivostok", "district": "Хабаровский край"}, {"id": 258, "name": "Vyazemsky", "name_ru": "Вяземский", "tz": "Asia/Vladivostok", "district": "Хабаровский край"}, {"id": 259, "name": "Komsomolsk-on-Amur", "name_ru": "Комсомольск-на-Амуре", "tz": "Asia/Vladivostok", "district": "Хабаровский край"}, {"id": 260, "name": "Nikolayevsk-on-Amur", "name_ru": "Николаевск-на-Амуре", "tz": "Asia/Vladivostok", "district": "Хабаровский край"}, {"id": 261, "name": "Sovetskaya Gavan", "name_ru": "Советская Гавань", "tz": "Asia/Vladivostok", "district": "Хабаровский край"}, {"id": 262, "name": "Belogorsk", "name_ru": "Белогорск", "tz": "Asia/Yakutsk", "district": "Амурская область"}, {"id": 263, "name": "Blagoveshchensk", "name_ru": "Благовещенск", "tz": "Asia/Yakutsk", "district": "Амурская область"}, {"id": 264, "name": "Zavitinsk", "name_ru": "Завитинск", "tz": "Asia/Yakutsk", "district": "Амурская область"}, {"id": 265, "name": "Zeya", "name_ru": "Зея", "tz": "Asia/Yakutsk", "district": "Амурская область"}, {"id": 266, "name": "Raychikhinsk", "name_ru": "Райчихинск", "tz": "Asia/Yakutsk", "district": "Амурская область"}, {"id": 267, "name": "Svobodny", "name_ru": "Свободный", "tz": "Asia/Yakutsk", "district": "Амурская область"}, {"id": 268, "name": "Skovorodino", "name_ru": "Сковородино", "tz": "Asia/Yakutsk", "district": "Амурская область"}, {"id": 269, "name": "Tynda", "name_ru": "Тында", "tz": "Asia/Yakutsk", "district": "Амурская область"}, {"id": 270, "name": "Tsiolkovsky", "name_ru": "Циолковский", "tz": "Asia/Yakutsk", "district": "Амурская область"}, {"id": 271, "name": "Shimanovsk", "name_ru": "Шимановск", "tz": "Asia/Yakutsk", "district": "Амурская область"}, {"id": 272, "name": "Arkhangelsk", "name_ru": "Архангельск", "tz": "Europe/Moscow", "district": "Архангельская область"}, {"id": 273, "name": "Severodvinsk", "name_ru": "Северодвинск", "tz": "Europe/Moscow", "district": "Архангельская область"}, {"id": 274, "name": "Kotlas", "name_ru": "Котлас", "tz": "Europe/Moscow", "district": "Архангельская область"}, {"id": 275, "name": "Novodvinsk", "name_ru": "Новодвинск", "tz": "Europe/Moscow", "district": "Архангельская область"}, {"id": 276, "name": "Koryazhma", "name_ru": "Коряжма", "tz": "Europe/Moscow", "district": "Архангельская область"}, {"id": 277, "name": "Velsk", "name_ru": "Вельск", "tz": "Europe/Moscow", "district": "Архангельская область"}, {"id": 278, "name": "Nyandoma", "name_ru": "Няндома", "tz": "Europe/Moscow", "district": "Архангельская область"}, {"id": 279, "name": "Onega", "name_ru": "Онега", "tz": "Europe/Moscow", "district": "Архангельская область"}, {"id": 280, "name": "Kargopol", "name_ru": "Каргополь", "tz": "Europe/Moscow", "district": "Архангельская область"}, {"id": 281, "name": "Shenkursk", "name_ru": "Шенкурск", "tz": "Europe/Moscow", "district": "Архангельская область"}, {"id": 282, "name": "Mezen", "name_ru": "Мезень", "tz": "Europe/Moscow", "district": "Архангельская область"}, {"id": 283, "name": "Mirny", "name_ru": "Мирный", "tz": "Europe/Moscow", "district": "Архангельская область"}, {"id": 284, "name": "Solvychegodsk", "name_ru": "Сольвычегодск", "tz": "Europe/Moscow", "district": "Архангельская область"}, {"id": 285, "name": "Astrakhan", "name_ru": "Астрахань", "tz": "Europe/Samara", "district": "Астраханская область"}, {"id": 286, "name": "Akhtubinsk", "name_ru": "Ахтубинск", "tz": "Europe/Samara", "district": "Астраханская область"}, {"id": 287, "name": "Znamensk", "name_ru": "Знаменск", "tz": "Europe/Samara", "district": "Астраханская область"}, {"id": 288, "name": "Kharabali", "name_ru": "Харабали", "tz": "Europe/Samara", "district": "Астраханская область"}, {"id": 289, "name": "Kamyzyak", "name_ru": "Камызяк", "tz": "Europe/Samara", "district": "Астраханская область"}, {"id": 290, "name": "Narimanov", "name_ru": "Нариманов", "tz": "Europe/Samara", "district": "Астраханская область"}, {"id": 291, "name": "Belgorod", "name_ru": "Белгород", "tz": "Europe/Moscow", "district": "Белгородская область"}, {"id": 292, "name": "Stary Oskol", "name_ru": "Старый Оскол", "tz": "Europe/Moscow", "district": "Белгородская область"}, {"id": 293, "name": "Gubkin", "name_ru": "Губкин", "tz": "Europe/Moscow", "district": "Белгородская область"}, {"id": 294, "name": "Shebekino", "name_ru": "Шебекино", "tz": "Europe/Moscow", "district": "Белгородская область"}, {"id": 295, "name": "Alexeyevka", "name_ru": "Алексеевка", "tz": "Europe/Moscow", "district": "Белгородская область"}, {"id": 296, "name": "Valuyki", "name_ru": "Валуйки", "tz": "Europe/Moscow", "district": "Белгородская область"}, {"id": 297, "name": "Stroitel", "name_ru": "Строитель", "tz": "Europe/Moscow", "district": "Белгородская область"}, {"id": 298, "name": "Novy Oskol", "name_ru": "Новый Оскол", "tz": "Europe/Moscow", "district": "Белгородская область"}, {"id": 299, "name": "Biryuch", "name_ru": "Бирюч", "tz": "Europe/Moscow", "district": "Белгородская область"}, {"id": 300, "name": "Grayvoron", "name_ru": "Грайворон", "tz": "Europe/Moscow", "district": "Белгородская область"}, {"id": 301, "name": "Pochep", "name_ru": "Почеп", "tz": "Europe/Moscow", "district": "Брянская область"}, {"id": 302, "name": "Trubchevsk", "name_ru": "Трубчевск", "tz": "Europe/Moscow", "district": "Брянская область"}, {"id": 303, "name": "Fokino", "name_ru": "Фокино", "tz": "Europe/Moscow", "district": "Брянская область"}, {"id": 304, "name": "Surazh", "name_ru": "Сураж", "tz": "Europe/Moscow", "district": "Брянская область"}, {"id": 305, "name": "Mglin", "name_ru": "Мглин", "tz": "Europe/Moscow", "district": "Брянская область"}, {"id": 306, "name": "Sevsk", "name_ru": "Севск", "tz": "Europe/Moscow", "district": "Брянская область"}, {"id": 307, "name": "Zlynka", "name_ru": "Злынка", "tz": "Europe/Moscow", "district": "Брянская область"}, {"id": 308, "name": "Vladimir", "name_ru": "Владимир", "tz": "Europe/Moscow", "district": "Владимирская область"}, {"id": 309, "name": "Kovrov", "name_ru": "Ковров", "tz": "Europe/Moscow", "district": "Владимирская область"}, {"id": 310, "name": "Murom", "name_ru": "Муром", "tz": "Europe/Moscow", "district": "Владимирская область"}, {"id": 311, "name": "Alexandrov", "name_ru": "Александров", "tz": "Europe/Moscow", "district": "Владимирская область"}, {"id": 312, "name": "Gus-Khrustalny", "name_ru": "Гусь-Хрустальный", "tz": "Europe/Moscow", "district": "Владимирская область"}, {"id": 313, "name": "Kolchugino", "name_ru": "Кольчугино", "tz": "Europe/Moscow", "district": "Владимирская область"}, {"id": 314, "name": "Vyazniki", "name_ru": "Вязники", "tz": "Europe/Moscow", "district": "Владимирская область"}, {"id": 315, "name": "Kirzhach", "name_ru": "Киржач", "tz": "Europe/Moscow", "district": "Владимирская область"}, {"id": 316, "name": "Yuryev-Polsky", "name_ru": "Юрьев-Польский", "tz": "Europe/Moscow", "district": "Владимирская область"}, {"id": 317, "name": "Sobinka", "name_ru": "Собинка", "tz": "Europe/Moscow", "district": "Владимирская область"}, {"id": 318, "name": "Raduzhny", "name_ru": "Радужный", "tz": "Europe/Moscow", "district": "Владимирская область"}, {"id": 319, "name": "Pokrov", "name_ru": "Покров", "tz": "Europe/Moscow", "district": "Владимирская область"}, {"id": 320, "name": "Lakinsk", "name_ru": "Лакинск", "tz": "Europe/Moscow", "district": "Владимирская область"}, {"id": 321, "name": "Korocha", "name_ru": "Короча", "tz": "Europe/Moscow", "district": "Белгородская область"}, {"id": 322, "name": "Bryansk", "name_ru": "Брянск", "tz": "Europe/Moscow", "district": "Брянская область"}, {"id": 323, "name": "Klintsy", "name_ru": "Клинцы", "tz": "Europe/Moscow", "district": "Брянская область"}, {"id": 324, "name": "Novozybkov", "name_ru": "Новозыбков", "tz": "Europe/Moscow", "district": "Брянская область"}, {"id": 325, "name": "Dyatkovo", "name_ru": "Дятьково", "tz": "Europe/Moscow", "district": "Брянская область"}, {"id": 326, "name": "Unecha", "name_ru": "Унеча", "tz": "Europe/Moscow", "district": "Брянская область"}, {"id": 327, "name": "Karachev", "name_ru": "Карачев", "tz": "Europe/Moscow", "district": "Брянская область"}, {"id": 328, "name": "Starodub", "name_ru": "Стародуб", "tz": "Europe/Moscow", "district": "Брянская область"}, {"id": 329, "name": "Zhukovka", "name_ru": "Жуковка", "tz": "Europe/Moscow", "district": "Брянская область"}, {"id": 330, "name": "Seltso", "name_ru": "Сельцо", "tz": "Europe/Moscow", "district": "Брянская область"}, {"id": 331, "name": "Melenki", "name_ru": "Меленки", "tz": "Europe/Moscow", "district": "Владимирская область"}, {"id": 332, "name": "Karabanovo", "name_ru": "Карабаново", "tz": "Europe/Moscow", "district": "Владимирская область"}, {"id": 333, "name": "Petushki", "name_ru": "Петушки", "tz": "Europe/Moscow", "district": "Владимирская область"}, {"id": 334, "name": "Strunino", "name_ru": "Струнино", "tz": "Europe/Moscow", "district": "Владимирская область"}, {"id": 335, "name": "Gorokhovets", "name_ru": "Гороховец", "tz": "Europe/Moscow", "district": "Владимирская область"}, {"id": 336, "name": "Kameshkovo", "name_ru": "Камешково", "tz": "Europe/Moscow", "district": "Владимирская область"}, {"id": 337, "name": "Sudogda", "name_ru": "Судогда", "tz": "Europe/Moscow", "district": "Владимирская область"}, {"id": 338, "name": "Suzdal", "name_ru": "Суздаль", "tz": "Europe/Moscow", "district": "Владимирская область"}, {"id": 339, "name": "Kosteryovo", "name_ru": "Костерёво", "tz": "Europe/Moscow", "district": "Владимирская область"}, {"id": 340, "name": "Kurlovo", "name_ru": "Курлово", "tz": "Europe/Moscow", "district": "Владимирская область"}, {"id": 341, "name": "Volgograd", "name_ru": "Волгоград", "tz": "Europe/Moscow", "district": "Волгоградская область"}, {"id": 342, "name": "Volzhsky", "name_ru": "Волжский", "tz": "Europe/Moscow", "district": "Волгоградская область"}, {"id": 343, "name": "Dubovka", "name_ru": "Дубовка", "tz": "Europe/Moscow", "district": "Волгоградская область"}, {"id": 344, "name": "Zhirnovsk", "name_ru": "Жирновск", "tz": "Europe/Moscow", "district": "Волгоградская область"}, {"id": 345, "name": "Kalach-na-Donu", "name_ru": "Калач-на-Дону", "tz": "Europe/Moscow", "district": "Волгоградская область"}, {"id": 346, "name": "Kamyshin", "name_ru": "Камышин", "tz": "Europe/Moscow", "district": "Волгоградская область"}, {"id": 347, "name": "Krasnoslobodsk", "name_ru": "Краснослободск", "tz": "Europe/Moscow", "district": "Волгоградская область"}, {"id": 348, "name": "Kotelnikovo", "name_ru": "Котельниково", "tz": "Europe/Moscow", "district": "Волгоградская область"}, {"id": 349, "name": "Kotovo", "name_ru": "Котово", "tz": "Europe/Moscow", "district": "Волгоградская область"}, {"id": 350, "name": "Leninsk", "name_ru": "Ленинск", "tz": "Europe/Moscow", "district": "Волгоградская область"}, {"id": 351, "name": "Mikhaylovka", "name_ru": "Михайловка", "tz": "Europe/Moscow", "district": "Волгоградская область"}, {"id": 352, "name": "Nikolayevsk", "name_ru": "Николаевск", "tz": "Europe/Moscow", "district": "Волгоградская область"}, {"id": 353, "name": "Novoanninsky", "name_ru": "Новоаннинский", "tz": "Europe/Moscow", "district": "Волгоградская область"}, {"id": 354, "name": "Pallasovka", "name_ru": "Палласовка", "tz": "Europe/Moscow", "district": "Волгоградская область"}, {"id": 355, "name": "Petrov Val", "name_ru": "Петров Вал", "tz": "Europe/Moscow", "district": "Волгоградская область"}, {"id": 356, "name": "Serafimovich", "name_ru": "Серафимович", "tz": "Europe/Moscow", "district": "Волгоградская область"}, {"id": 357, "name": "Surovikino", "name_ru": "Суровикино", "tz": "Europe/Moscow", "district": "Волгоградская область"}, {"id": 358, "name": "Uryupinsk", "name_ru": "Урюпинск", "tz": "Europe/Moscow", "district": "Волгоградская область"}, {"id": 359, "name": "Frolovo", "name_ru": "Фролово", "tz": "Europe/Moscow", "district": "Волгоградская область"}, {"id": 360, "name": "Babayevo", "name_ru": "Бабаево", "tz": "Europe/Moscow", "district": "Вологодская область"}, {"id": 361, "name": "Belozersk", "name_ru": "Белозерск", "tz": "Europe/Moscow", "district": "Вологодская область"}, {"id": 362, "name": "Veliky Ustyug", "name_ru": "Великий Устюг", "tz": "Europe/Moscow", "district": "Вологодская область"}, {"id": 363, "name": "Vologda", "name_ru": "Вологда", "tz": "Europe/Moscow", "district": "Вологодская область"}, {"id": 364, "name": "Vytegra", "name_ru": "Вытегра", "tz": "Europe/Moscow", "district": "Вологодская область"}, {"id": 365, "name": "Gryazovets", "name_ru": "Грязовец", "tz": "Europe/Moscow", "district": "Вологодская область"}, {"id": 366, "name": "Kadnikov", "name_ru": "Кадников", "tz": "Europe/Moscow", "district": "Вологодская область"}, {"id": 367, "name": "Kirillov", "name_ru": "Кириллов", "tz": "Europe/Moscow", "district": "Вологодская область"}, {"id": 368, "name": "Krasavino", "name_ru": "Красавино", "tz": "Europe/Moscow", "district": "Вологодская область"}, {"id": 369, "name": "Nikolsk", "name_ru": "Никольск", "tz": "Europe/Moscow", "district": "Вологодская область"}, {"id": 370, "name": "Sokol", "name_ru": "Сокол", "tz": "Europe/Moscow", "district": "Вологодская область"}, {"id": 371, "name": "Totma", "name_ru": "Тотьма", "tz": "Europe/Moscow", "district": "Вологодская область"}, {"id": 372, "name": "Ustyuzhna", "name_ru": "Устюжна", "tz": "Europe/Moscow", "district": "Вологодская область"}, {"id": 373, "name": "Kharovsk", "name_ru": "Харовск", "tz": "Europe/Moscow", "district": "Вологодская область"}, {"id": 374, "name": "Cherepovets", "name_ru": "Череповец", "tz": "Europe/Moscow", "district": "Вологодская область"}, {"id": 375, "name": "Voronezh", "name_ru": "Воронеж", "tz": "Europe/Moscow", "district": "Воронежская область"}, {"id": 376, "name": "Borisoglebsk", "name_ru": "Борисоглебск", "tz": "Europe/Moscow", "district": "Воронежская область"}, {"id": 377, "name": "Rossosh", "name_ru": "Россошь", "tz": "Europe/Moscow", "district": "Воронежская область"}, {"id": 378, "name": "Liski", "name_ru": "Лиски", "tz": "Europe/Moscow", "district": "Воронежская область"}, {"id": 379, "name": "Ostrogozhsk", "name_ru": "Острогожск", "tz": "Europe/Moscow", "district": "Воронежская область"}, {"id": 380, "name": "Novovoronezh", "name_ru": "Нововоронеж", "tz": "Europe/Moscow", "district": "Воронежская область"}, {"id": 381, "name": "Buturlinovka", "name_ru": "Бутурлиновка", "tz": "Europe/Moscow", "district": "Воронежская область"}, {"id": 382, "name": "Semiluki", "name_ru": "Семилуки", "tz": "Europe/Moscow", "district": "Воронежская область"}, {"id": 383, "name": "Pavlovsk", "name_ru": "Павловск", "tz": "Europe/Moscow", "district": "Воронежская область"}, {"id": 384, "name": "Kalach", "name_ru": "Калач", "tz": "Europe/Moscow", "district": "Воронежская область"}, {"id": 385, "name": "Bobrov", "name_ru": "Бобров", "tz": "Europe/Moscow", "district": "Воронежская область"}, {"id": 386, "name": "Povorino", "name_ru": "Поворино", "tz": "Europe/Moscow", "district": "Воронежская область"}, {"id": 387, "name": "Boguchar", "name_ru": "Богучар", "tz": "Europe/Moscow", "district": "Воронежская область"}, {"id": 388, "name": "Ertil", "name_ru": "Эртиль", "tz": "Europe/Moscow", "district": "Воронежская область"}, {"id": 389, "name": "Novokhopyorsk", "name_ru": "Новохопёрск", "tz": "Europe/Moscow", "district": "Воронежская область"}, {"id": 390, "name": "Ivanovo", "name_ru": "Иваново", "tz": "Europe/Moscow", "district": "Ивановская область"}, {"id": 391, "name": "Kineshma", "name_ru": "Кинешма", "tz": "Europe/Moscow", "district": "Ивановская область"}, {"id": 392, "name": "Shuya", "name_ru": "Шуя", "tz": "Europe/Moscow", "district": "Ивановская область"}, {"id": 393, "name": "Vichuga", "name_ru": "Вичуга", "tz": "Europe/Moscow", "district": "Ивановская область"}, {"id": 394, "name": "Furmanov", "name_ru": "Фурманов", "tz": "Europe/Moscow", "district": "Ивановская область"}, {"id": 395, "name": "Teykovo", "name_ru": "Тейково", "tz": "Europe/Moscow", "district": "Ивановская область"}, {"id": 396, "name": "Kokhma", "name_ru": "Кохма", "tz": "Europe/Moscow", "district": "Ивановская область"}, {"id": 397, "name": "Rodniki", "name_ru": "Родники", "tz": "Europe/Moscow", "district": "Ивановская область"}, {"id": 398, "name": "Privolzhsk", "name_ru": "Приволжск", "tz": "Europe/Moscow", "district": "Ивановская область"}, {"id": 399, "name": "Yuzha", "name_ru": "Южа", "tz": "Europe/Moscow", "district": "Ивановская область"}, {"id": 400, "name": "Zavolzhsk", "name_ru": "Заволжск", "tz": "Europe/Moscow", "district": "Ивановская область"}, {"id": 401, "name": "Navoloki", "name_ru": "Наволоки", "tz": "Europe/Moscow", "district": "Ивановская область"}, {"id": 402, "name": "Yuryevets", "name_ru": "Юрьевец", "tz": "Europe/Moscow", "district": "Ивановская область"}, {"id": 403, "name": "Komsomolsk", "name_ru": "Комсомольск", "tz": "Europe/Moscow", "district": "Ивановская область"}, {"id": 404, "name": "Puchezh", "name_ru": "Пучеж", "tz": "Europe/Moscow", "district": "Ивановская область"}, {"id": 405, "name": "Gavrilov Posad", "name_ru": "Гаврилов Посад", "tz": "Europe/Moscow", "district": "Ивановская область"}, {"id": 406, "name": "Plyos", "name_ru": "Плёс", "tz": "Europe/Moscow", "district": "Ивановская область"}, {"id": 407, "name": "Irkutsk", "name_ru": "Иркутск", "tz": "Asia/Irkutsk", "district": "Иркутская область"}, {"id": 408, "name": "Alzamay", "name_ru": "Алзамай", "tz": "Asia/Irkutsk", "district": "Иркутская область"}, {"id": 409, "name": "Angarsk", "name_ru": "Ангарск", "tz": "Asia/Irkutsk", "district": "Иркутская область"}, {"id": 410, "name": "Baykalsk", "name_ru": "Байкальск", "tz": "Asia/Irkutsk", "district": "Иркутская область"}, {"id": 411, "name": "Biryusinsk", "name_ru": "Бирюсинск", "tz": "Asia/Irkutsk", "district": "Иркутская область"}, {"id": 412, "name": "Bodaybo", "name_ru": "Бодайбо", "tz": "Asia/Irkutsk", "district": "Иркутская область"}, {"id": 413, "name": "Bratsk", "name_ru": "Братск", "tz": "Asia/Irkutsk", "district": "Иркутская область"}, {"id": 414, "name": "Vikhorevka", "name_ru": "Вихоревка", "tz": "Asia/Irkutsk", "district": "Иркутская область"}, {"id": 415, "name": "Zheleznogorsk-Ilimsky", "name_ru": "Железногорск-Илимский", "tz": "Asia/Irkutsk", "district": "Иркутская область"}, {"id": 416, "name": "Zima", "name_ru": "Зима", "tz": "Asia/Irkutsk", "district": "Иркутская область"}, {"id": 417, "name": "Kirensk", "name_ru": "Киренск", "tz": "Asia/Irkutsk", "district": "Иркутская область"}, {"id": 418, "name": "Nizhneudinsk", "name_ru": "Нижнеудинск", "tz": "Asia/Irkutsk", "district": "Иркутская область"}, {"id": 419, "name": "Sayansk", "name_ru": "Саянск", "tz": "Asia/Irkutsk", "district": "Иркутская область"}, {"id": 420, "name": "Svirsk", "name_ru": "Свирск", "tz": "Asia/Irkutsk", "district": "Иркутская область"}, {"id": 421, "name": "Slyudyanka", "name_ru": "Слюдянка", "tz": "Asia/Irkutsk", "district": "Иркутская область"}, {"id": 422, "name": "Tayshet", "name_ru": "Тайшет", "tz": "Asia/Irkutsk", "district": "Иркутская область"}, {"id": 423, "name": "Tulun", "name_ru": "Тулун", "tz": "Asia/Irkutsk", "district": "Иркутская область"}, {"id": 424, "name": "Usolye-Sibirskoye", "name_ru": "Усолье-Сибирское", "tz": "Asia/Irkutsk", "district": "Иркутская область"}, {"id": 425, "name": "Ust-Ilimsk", "name_ru": "Усть-Илимск", "tz": "Asia/Irkutsk", "district": "Иркутская область"}, {"id": 426, "name": "Ust-Kut", "name_ru": "Усть-Кут", "tz": "Asia/Irkutsk", "district": "Иркутская область"}, {"id": 427, "name": "Cheremkhovo", "name_ru": "Черемхово", "tz": "Asia/Irkutsk", "district": "Иркутская область"}, {"id": 428, "name": "Shelekhov", "name_ru": "Шелехов", "tz": "Asia/Irkutsk", "district": "Иркутская область"}, {"id": 429, "name": "Bagrationovsk", "name_ru": "Багратионовск", "tz": "Europe/Kaliningrad", "district": "Калининградская область"}, {"id": 430, "name": "Baltiysk", "name_ru": "Балтийск", "tz": "Europe/Kaliningrad", "district": "Калининградская область"}, {"id": 431, "name": "Gvardeysk", "name_ru": "Гвардейск", "tz": "Europe/Kaliningrad", "district": "Калининградская область"}, {"id": 432, "name": "Guryevsk", "name_ru": "Гурьевск", "tz": "Europe/Kaliningrad", "district": "Калининградская область"}, {"id": 433, "name": "Gusev", "name_ru": "Гусев", "tz": "Europe/Kaliningrad", "district": "Калининградская область"}, {"id": 434, "name": "Zelenogradsk", "name_ru": "Зеленоградск", "tz": "Europe/Kaliningrad", "district": "Калининградская область"}, {"id": 435, "name": "Kaliningrad", "name_ru": "Калининград", "tz": "Europe/Kaliningrad", "district": "Калининградская область"}, {"id": 436, "name": "Krasnoznamensk", "name_ru": "Краснознаменск", "tz": "Europe/Kaliningrad", "district": "Калининградская область"}, {"id": 437, "name": "Ladushkin", "name_ru": "Ладушкин", "tz": "Europe/Kaliningrad", "district": "Калининградская область"}, {"id": 438, "name": "Mamonovo", "name_ru": "Мамоново", "tz": "Europe/Kaliningrad", "district": "Калининградская область"}, {"id": 439, "name": "Neman", "name_ru": "Неман", "tz": "Europe/Kaliningrad", "district": "Калининградская область"}, {"id": 440, "name": "Nesterov", "name_ru": "Нестеров", "tz": "Europe/Kaliningrad", "district": "Калининградская область"}, {"id": 441, "name": "Ozyorsk", "name_ru": "Озёрск", "tz": "Europe/Kaliningrad", "district": "Калининградская область"}, {"id": 442, "name": "Pionersky", "name_ru": "Пионерский", "tz": "Europe/Kaliningrad", "district": "Калининградская область"}, {"id": 443, "name": "Polessk", "name_ru": "Полесск", "tz": "Europe/Kaliningrad", "district": "Калининградская область"}, {"id": 444, "name": "Pravdinsk", "name_ru": "Правдинск", "tz": "Europe/Kaliningrad", "district": "Калининградская область"}, {"id": 445, "name": "Primorsk", "name_ru": "Приморск", "tz": "Europe/Kaliningrad", "district": "Калининградская область"}, {"id": 446, "name": "Svetlogorsk", "name_ru": "Светлогорск", "tz": "Europe/Kaliningrad", "district": "Калининградская область"}, {"id": 447, "name": "Svetly", "name_ru": "Светлый", "tz": "Europe/Kaliningrad", "district": "Калининградская область"}, {"id": 448, "name": "Slavsk", "name_ru": "Славск", "tz": "Europe/Kaliningrad", "district": "Калининградская область"}, {"id": 449, "name": "Sovetsk", "name_ru": "Советск", "tz": "Europe/Kaliningrad", "district": "Калининградская область"}, {"id": 450, "name": "Chernyakhovsk", "name_ru": "Черняховск", "tz": "Europe/Kaliningrad", "district": "Калининградская область"}, {"id": 451, "name": "Kaluga", "name_ru": "Калуга", "tz": "Europe/Moscow", "district": "Калужская область"}, {"id": 452, "name": "Obninsk", "name_ru": "Обнинск", "tz": "Europe/Moscow", "district": "Калужская область"}, {"id": 453, "name": "Lyudinovo", "name_ru": "Людиново", "tz": "Europe/Moscow", "district": "Калужская область"}, {"id": 454, "name": "Kirov", "name_ru": "Киров", "tz": "Europe/Moscow", "district": "Калужская область"}, {"id": 455, "name": "Maloyaroslavets", "name_ru": "Малоярославец", "tz": "Europe/Moscow", "district": "Калужская область"}, {"id": 456, "name": "Balabanovo", "name_ru": "Балабаново", "tz": "Europe/Moscow", "district": "Калужская область"}, {"id": 457, "name": "Kozelsk", "name_ru": "Козельск", "tz": "Europe/Moscow", "district": "Калужская область"}, {"id": 458, "name": "Kondrovo", "name_ru": "Кондрово", "tz": "Europe/Moscow", "district": "Калужская область"}, {"id": 459, "name": "Sukhinichi", "name_ru": "Сухиничи", "tz": "Europe/Moscow", "district": "Калужская область"}, {"id": 460, "name": "Borovsk", "name_ru": "Боровск", "tz": "Europe/Moscow", "district": "Калужская область"}, {"id": 461, "name": "Sosensky", "name_ru": "Сосенский", "tz": "Europe/Moscow", "district": "Калужская область"}, {"id": 462, "name": "Zhukov", "name_ru": "Жуков", "tz": "Europe/Moscow", "district": "Калужская область"}, {"id": 463, "name": "Kremyonki", "name_ru": "Кремёнки", "tz": "Europe/Moscow", "district": "Калужская область"}, {"id": 464, "name": "Yermolino", "name_ru": "Ермолино", "tz": "Europe/Moscow", "district": "Калужская область"}, {"id": 465, "name": "Tarusa", "name_ru": "Таруса", "tz": "Europe/Moscow", "district": "Калужская область"}, {"id": 466, "name": "Belousovo", "name_ru": "Белоусово", "tz": "Europe/Moscow", "district": "Калужская область"}, {"id": 467, "name": "Medyn", "name_ru": "Медынь", "tz": "Europe/Moscow", "district": "Калужская область"}, {"id": 468, "name": "Yukhnov", "name_ru": "Юхнов", "tz": "Europe/Moscow", "district": "Калужская область"}, {"id": 469, "name": "Zhizdra", "name_ru": "Жиздра", "tz": "Europe/Moscow", "district": "Калужская область"}, {"id": 470, "name": "Spas-Demensk", "name_ru": "Спас-Деменск", "tz": "Europe/Moscow", "district": "Калужская область"}, {"id": 471, "name": "Mosalsk", "name_ru": "Мосальск", "tz": "Europe/Moscow", "district": "Калужская область"}, {"id": 472, "name": "Meshchovsk", "name_ru": "Мещовск", "tz": "Europe/Moscow", "district": "Калужская область"}, {"id": 473, "name": "Vilyuchinsk", "name_ru": "Вилючинск", "tz": "Asia/Kamchatka", "district": "Камчатский край"}, {"id": 474, "name": "Yelizovo", "name_ru": "Елизово", "tz": "Asia/Kamchatka", "district": "Камчатский край"}, {"id": 475, "name": "Petropavlovsk-Kamchatsky", "name_ru": "Петропавловск-Камчатский", "tz": "Asia/Kamchatka", "district": "Камчатский край"}, {"id": 476, "name": "Anzhero-Sudzhensk", "name_ru": "Анжеро-Судженск", "tz": "Asia/Krasnoyarsk", "district": "Кемеровская область - Кузбасс"}, {"id": 477, "name": "Belovo", "name_ru": "Белово", "tz": "Asia/Krasnoyarsk", "district": "Кемеровская область - Кузбасс"}, {"id": 478, "name": "Berezovsky", "name_ru": "Берёзовский", "tz": "Asia/Krasnoyarsk", "district": "Кемеровская область - Кузбасс"}, {"id": 479, "name": "Kaltan", "name_ru": "Калтан", "tz": "Asia/Krasnoyarsk", "district": "Кемеровская область - Кузбасс"}, {"id": 480, "name": "Guryevsk", "name_ru": "Гурьевск", "tz": "Asia/Krasnoyarsk", "district": "Кемеровская область - Кузбасс"}, {"id": 481, "name": "Kemerovo", "name_ru": "Кемерово", "tz": "Asia/Krasnoyarsk", "district": "Кемеровская область - Кузбасс"}, {"id": 482, "name": "Kiselyovsk", "name_ru": "Киселёвск", "tz": "Asia/Krasnoyarsk", "district": "Кемеровская область - Кузбасс"}, {"id": 483, "name": "Leninsk-Kuznetsky", "name_ru": "Ленинск-Кузнецкий", "tz": "Asia/Krasnoyarsk", "district": "Кемеровская область - Кузбасс"}, {"id": 484, "name": "Mariinsk", "name_ru": "Мариинск", "tz": "Asia/Krasnoyarsk", "district": "Кемеровская область - Кузбасс"}, {"id": 485, "name": "Mezhdurechensk", "name_ru": "Междуреченск", "tz": "Asia/Krasnoyarsk", "district": "Кемеровская область - Кузбасс"}, {"id": 486, "name": "Myski", "name_ru": "Мыски", "tz": "Asia/Krasnoyarsk", "district": "Кемеровская область - Кузбасс"}, {"id": 487, "name": "Novokuznetsk", "name_ru": "Новокузнецк", "tz": "Asia/Krasnoyarsk", "district": "Кемеровская область - Кузбасс"}, {"id": 488, "name": "Osinniki", "name_ru": "Осинники", "tz": "Asia/Krasnoyarsk", "district": "Кемеровская область - Кузбасс"}, {"id": 489, "name": "Polysayevo", "name_ru": "Полысаево", "tz": "Asia/Krasnoyarsk", "district": "Кемеровская область - Кузбасс"}, {"id": 490, "name": "Prokopyevsk", "name_ru": "Прокопьевск", "tz": "Asia/Krasnoyarsk", "district": "Кемеровская область - Кузбасс"}, {"id": 491, "name": "Salair", "name_ru": "Салаир", "tz": "Asia/Krasnoyarsk", "district": "Кемеровская область - Кузбасс"}, {"id": 492, "name": "Tayga", "name_ru": "Тайга", "tz": "Asia/Krasnoyarsk", "district": "Кемеровская область - Кузбасс"}, {"id": 493, "name": "Tashtagol", "name_ru": "Таштагол", "tz": "Asia/Krasnoyarsk", "district": "Кемеровская область - Кузбасс"}, {"id": 494, "name": "Topki", "name_ru": "Топки", "tz": "Asia/Krasnoyarsk", "district": "Кемеровская область - Кузбасс"}, {"id": 495, "name": "Yurga", "name_ru": "Юрга", "tz": "Asia/Krasnoyarsk", "district": "Кемеровская область - Кузбасс"}, {"id": 496, "name": "Kirov", "name_ru": "Киров", "tz": "Europe/Moscow", "district": "Кировская область"}, {"id": 497, "name": "Kirovo-Chepetsk", "name_ru": "Кирово-Чепецк", "tz": "Europe/Moscow", "district": "Кировская область"}, {"id": 498, "name": "Vyatskiye Polyany", "name_ru": "Вятские Поляны", "tz": "Europe/Moscow", "district": "Кировская область"}, {"id": 499, "name": "Slobodskoy", "name_ru": "Слободской", "tz": "Europe/Moscow", "district": "Кировская область"}, {"id": 500, "name": "Kotelnich", "name_ru": "Котельнич", "tz": "Europe/Moscow", "district": "Кировская область"}, {"id": 501, "name": "Omutninsk", "name_ru": "Омутнинск", "tz": "Europe/Moscow", "district": "Кировская область"}, {"id": 502, "name": "Yaransk", "name_ru": "Яранск", "tz": "Europe/Moscow", "district": "Кировская область"}, {"id": 503, "name": "Sovetsk", "name_ru": "Советск", "tz": "Europe/Moscow", "district": "Кировская область"}, {"id": 504, "name": "Sosnovka", "name_ru": "Сосновка", "tz": "Europe/Moscow", "district": "Кировская область"}, {"id": 505, "name": "Belaya Kholunitsa", "name_ru": "Белая Холуница", "tz": "Europe/Moscow", "district": "Кировская область"}, {"id": 506, "name": "Zuyevka", "name_ru": "Зуевка", "tz": "Europe/Moscow", "district": "Кировская область"}, {"id": 507, "name": "Luza", "name_ru": "Луза", "tz": "Europe/Moscow", "district": "Кировская область"}, {"id": 508, "name": "Kirs", "name_ru": "Кирс", "tz": "Europe/Moscow", "district": "Кировская область"}, {"id": 509, "name": "Urzhum", "name_ru": "Уржум", "tz": "Europe/Moscow", "district": "Кировская область"}, {"id": 510, "name": "Nolinsk", "name_ru": "Нолинск", "tz": "Europe/Moscow", "district": "Кировская область"}, {"id": 511, "name": "Malmyzh", "name_ru": "Малмыж", "tz": "Europe/Moscow", "district": "Кировская область"}, {"id": 512, "name": "Orlov", "name_ru": "Орлов", "tz": "Europe/Moscow", "district": "Кировская область"}, {"id": 513, "name": "Murashi", "name_ru": "Мураши", "tz": "Europe/Moscow", "district": "Кировская область"}, {"id": 514, "name": "Kostroma", "name_ru": "Кострома", "tz": "Europe/Moscow", "district": "Костромская область"}, {"id": 515, "name": "Buy", "name_ru": "Буй", "tz": "Europe/Moscow", "district": "Костромская область"}, {"id": 516, "name": "Sharya", "name_ru": "Шарья", "tz": "Europe/Moscow", "district": "Костромская область"}, {"id": 517, "name": "Nerekhta", "name_ru": "Нерехта", "tz": "Europe/Moscow", "district": "Костромская область"}, {"id": 518, "name": "Manturovo", "name_ru": "Мантурово", "tz": "Europe/Moscow", "district": "Костромская область"}, {"id": 519, "name": "Volgorechensk", "name_ru": "Волгореченск", "tz": "Europe/Moscow", "district": "Костромская область"}, {"id": 520, "name": "Galich", "name_ru": "Галич", "tz": "Europe/Moscow", "district": "Костромская область"}, {"id": 521, "name": "Neya", "name_ru": "Нея", "tz": "Europe/Moscow", "district": "Костромская область"}, {"id": 522, "name": "Makaryev", "name_ru": "Макарьев", "tz": "Europe/Moscow", "district": "Костромская область"}, {"id": 523, "name": "Soligalich", "name_ru": "Солигалич", "tz": "Europe/Moscow", "district": "Костромская область"}, {"id": 524, "name": "Chukhloma", "name_ru": "Чухлома", "tz": "Europe/Moscow", "district": "Костромская область"}, {"id": 525, "name": "Kologriv", "name_ru": "Кологрив", "tz": "Europe/Moscow", "district": "Костромская область"}, {"id": 526, "name": "Kurgan", "name_ru": "Курган", "tz": "Asia/Yekaterinburg", "district": "Курганская область"}, {"id": 527, "name": "Dalmatovo", "name_ru": "Далматово", "tz": "Asia/Yekaterinburg", "district": "Курганская область"}, {"id": 528, "name": "Kataysk", "name_ru": "Катайск", "tz": "Asia/Yekaterinburg", "district": "Курганская область"}, {"id": 529, "name": "Kurtamysh", "name_ru": "Куртамыш", "tz": "Asia/Yekaterinburg", "district": "Курганская область"}, {"id": 530, "name": "Makushino", "name_ru": "Макушино", "tz": "Asia/Yekaterinburg", "district": "Курганская область"}, {"id": 531, "name": "Petukhovo", "name_ru": "Петухово", "tz": "Asia/Yekaterinburg", "district": "Курганская область"}, {"id": 532, "name": "Shadrinsk", "name_ru": "Шадринск", "tz": "Asia/Yekaterinburg", "district": "Курганская область"}, {"id": 533, "name": "Shumikha", "name_ru": "Шумиха", "tz": "Asia/Yekaterinburg", "district": "Курганская область"}, {"id": 534, "name": "Shchuchye", "name_ru": "Щучье", "tz": "Asia/Yekaterinburg", "district": "Курганская область"}, {"id": 535, "name": "Kursk", "name_ru": "Курск", "tz": "Europe/Moscow", "district": "Курская область"}, {"id": 536, "name": "Dmitriyev", "name_ru": "Дмитриев", "tz": "Europe/Moscow", "district": "Курская область"}, {"id": 537, "name": "Zheleznogorsk", "name_ru": "Железногорск", "tz": "Europe/Moscow", "district": "Курская область"}, {"id": 538, "name": "Kurchatov", "name_ru": "Курчатов", "tz": "Europe/Moscow", "district": "Курская область"}, {"id": 539, "name": "Lgov", "name_ru": "Льгов", "tz": "Europe/Moscow", "district": "Курская область"}, {"id": 540, "name": "Oboyan", "name_ru": "Обоянь", "tz": "Europe/Moscow", "district": "Курская область"}, {"id": 541, "name": "Rylsk", "name_ru": "Рыльск", "tz": "Europe/Moscow", "district": "Курская область"}, {"id": 542, "name": "Sudzha", "name_ru": "Суджа", "tz": "Europe/Moscow", "district": "Курская область"}, {"id": 543, "name": "Fatezh", "name_ru": "Фатеж", "tz": "Europe/Moscow", "district": "Курская область"}, {"id": 544, "name": "Shchigry", "name_ru": "Щигры", "tz": "Europe/Moscow", "district": "Курская область"}, {"id": 545, "name": "Boksitogorsk", "name_ru": "Бокситогорск", "tz": "Europe/Moscow", "district": "Ленинградская область"}, {"id": 546, "name": "Vsevolozhsk", "name_ru": "Всеволожск", "tz": "Europe/Moscow", "district": "Ленинградская область"}, {"id": 547, "name": "Volosovo", "name_ru": "Волосово", "tz": "Europe/Moscow", "district": "Ленинградская область"}, {"id": 548, "name": "Volkhov", "name_ru": "Волхов", "tz": "Europe/Moscow", "district": "Ленинградская область"}, {"id": 549, "name": "Vyborg", "name_ru": "Выборг", "tz": "Europe/Moscow", "district": "Ленинградская область"}, {"id": 550, "name": "Vysotsk", "name_ru": "Высоцк", "tz": "Europe/Moscow", "district": "Ленинградская область"}, {"id": 551, "name": "Gatchina", "name_ru": "Гатчина", "tz": "Europe/Moscow", "district": "Ленинградская область"}, {"id": 552, "name": "Ivangorod", "name_ru": "Ивангород", "tz": "Europe/Moscow", "district": "Ленинградская область"}, {"id": 553, "name": "Kamennogorsk", "name_ru": "Каменногорск", "tz": "Europe/Moscow", "district": "Ленинградская область"}, {"id": 554, "name": "Kingisepp", "name_ru": "Кингисепп", "tz": "Europe/Moscow", "district": "Ленинградская область"}, {"id": 555, "name": "Kirishi", "name_ru": "Кириши", "tz": "Europe/Moscow", "district": "Ленинградская область"}, {"id": 556, "name": "Kirovsk", "name_ru": "Кировск", "tz": "Europe/Moscow", "district": "Ленинградская область"}, {"id": 557, "name": "Kommunar", "name_ru": "Коммунар", "tz": "Europe/Moscow", "district": "Ленинградская область"}, {"id": 558, "name": "Koltushi", "name_ru": "Колтуши", "tz": "Europe/Moscow", "district": "Ленинградская область"}, {"id": 559, "name": "Kudrovo", "name_ru": "Кудрово", "tz": "Europe/Moscow", "district": "Ленинградская область"}, {"id": 560, "name": "Lodeynoye Pole", "name_ru": "Лодейное Поле", "tz": "Europe/Moscow", "district": "Ленинградская область"}, {"id": 561, "name": "Luga", "name_ru": "Луга", "tz": "Europe/Moscow", "district": "Ленинградская область"}, {"id": 562, "name": "Lyuban", "name_ru": "Любань", "tz": "Europe/Moscow", "district": "Ленинградская область"}, {"id": 563, "name": "Murino", "name_ru": "Мурино", "tz": "Europe/Moscow", "district": "Ленинградская область"}, {"id": 564, "name": "Nikolskoye", "name_ru": "Никольское", "tz": "Europe/Moscow", "district": "Ленинградская область"}, {"id": 565, "name": "Novaya Ladoga", "name_ru": "Новая Ладога", "tz": "Europe/Moscow", "district": "Ленинградская область"}, {"id": 566, "name": "Otradnoye", "name_ru": "Отрадное", "tz": "Europe/Moscow", "district": "Ленинградская область"}, {"id": 567, "name": "Pikalyovo", "name_ru": "Пикалёво", "tz": "Europe/Moscow", "district": "Ленинградская область"}, {"id": 568, "name": "Podporozhye", "name_ru": "Подпорожье", "tz": "Europe/Moscow", "district": "Ленинградская область"}, {"id": 569, "name": "Primorsk", "name_ru": "Приморск", "tz": "Europe/Moscow", "district": "Ленинградская область"}, {"id": 570, "name": "Priozersk", "name_ru": "Приозерск", "tz": "Europe/Moscow", "district": "Ленинградская область"}, {"id": 571, "name": "Saint Petersburg", "name_ru": "Санкт-Петербург", "tz": "Europe/Moscow", "district": "Санкт-Петербург"}, {"id": 572, "name": "Svetogorsk", "name_ru": "Светогорск", "tz": "Europe/Moscow", "district": "Ленинградская область"}, {"id": 573, "name": "Sertolovo", "name_ru": "Сертолово", "tz": "Europe/Moscow", "district": "Ленинградская область"}, {"id": 574, "name": "Slantsy", "name_ru": "Сланцы", "tz": "Europe/Moscow", "district": "Ленинградская область"}, {"id": 575, "name": "Sosnovy Bor", "name_ru": "Сосновый Бор", "tz": "Europe/Moscow", "district": "Ленинградская область"}, {"id": 576, "name": "Syasstroy", "name_ru": "Сясьстрой", "tz": "Europe/Moscow", "district": "Ленинградская область"}, {"id": 577, "name": "Tikhvin", "name_ru": "Тихвин", "tz": "Europe/Moscow", "district": "Ленинградская область"}, {"id": 578, "name": "Tosno", "name_ru": "Тосно", "tz": "Europe/Moscow", "district": "Ленинградская область"}, {"id": 579, "name": "Shlisselburg", "name_ru": "Шлиссельбург", "tz": "Europe/Moscow", "district": "Ленинградская область"}, {"id": 580, "name": "Lipetsk", "name_ru": "Липецк", "tz": "Europe/Moscow", "district": "Липецкая область"}, {"id": 581, "name": "Yelets", "name_ru": "Елец", "tz": "Europe/Moscow", "district": "Липецкая область"}, {"id": 582, "name": "Gryazi", "name_ru": "Грязи", "tz": "Europe/Moscow", "district": "Липецкая область"}, {"id": 583, "name": "Lebedyan", "name_ru": "Лебедянь", "tz": "Europe/Moscow", "district": "Липецкая область"}, {"id": 584, "name": "Dankov", "name_ru": "Данков", "tz": "Europe/Moscow", "district": "Липецкая область"}, {"id": 585, "name": "Usman", "name_ru": "Усмань", "tz": "Europe/Moscow", "district": "Липецкая область"}, {"id": 586, "name": "Chaplygin", "name_ru": "Чаплыгин", "tz": "Europe/Moscow", "district": "Липецкая область"}, {"id": 587, "name": "Zadonsk", "name_ru": "Задонск", "tz": "Europe/Moscow", "district": "Липецкая область"}, {"id": 588, "name": "Magadan", "name_ru": "Магадан", "tz": "Asia/Magadan", "district": "Магаданская область"}, {"id": 589, "name": "Susuman", "name_ru": "Сусуман", "tz": "Asia/Magadan", "district": "Магаданская область"}, {"id": 590, "name": "Moscow", "name_ru": "Москва", "tz": "Europe/Moscow", "district": "Москва"}, {"id": 591, "name": "Aprelevka", "name_ru": "Апрелевка", "tz": "Europe/Moscow", "district": "Московская область"}, {"id": 592, "name": "Balashikha", "name_ru": "Балашиха", "tz": "Europe/Moscow", "district": "Московская область"}, {"id": 593, "name": "Beloozyorsky", "name_ru": "Белоозёрский", "tz": "Europe/Moscow", "district": "Московская область"}, {"id": 594, "name": "Bronnitsy", "name_ru": "Бронницы", "tz": "Europe/Moscow", "district": "Московская область"}, {"id": 595, "name": "Vereya", "name_ru": "Верея", "tz": "Europe/Moscow", "district": "Московская область"}, {"id": 596, "name": "Vidnoye", "name_ru": "Видное", "tz": "Europe/Moscow", "district": "Московская область"}, {"id": 597, "name": "Volokolamsk", "name_ru": "Волоколамск", "tz": "Europe/Moscow", "district": "Московская область"}, {"id": 598, "name": "Voskresensk", "name_ru": "Воскресенск", "tz": "Europe/Moscow", "district": "Московская область"}, {"id": 599, "name": "Vysokovsk", "name_ru": "Высоковск", "tz": "Europe/Moscow", "district": "Московская область"}, {"id": 600, "name": "Golitsyno", "name_ru": "Голицыно", "tz": "Europe/Moscow", "district": "Московская область"}, {"id": 601, "name": "Dedovsk", "name_ru": "Дедовск", "tz": "Europe/Moscow", "district": "Московская область"}, {"id": 602, "name": "Dzerzhinsky", "name_ru": "Дзержинский", "tz": "Europe/Moscow", "district": "Московская область"}, {"id": 603, "name": "Dmitrov", "name_ru": "Дмитров", "tz": "Europe/Moscow", "district": "Московская область"}, {"id": 604, "name": "Dolgoprudny", "name_ru": "Долгопрудный", "tz": "Europe/Moscow", "district": "Московская область"}, {"id": 605, "name": "Domodedovo", "name_ru": "Домодедово", "tz": "Europe/Moscow", "district": "Московская область"}, {"id": 606, "name": "Drezna", "name_ru": "Дрезна", "tz": "Europe/Moscow", "district": "Московская область"}, {"id": 607, "name": "Dubna", "name_ru": "Дубна", "tz": "Europe/Moscow", "district": "Московская область"}, {"id": 608, "name": "Yegoryevsk", "name_ru": "Егорьевск", "tz": "Europe/Moscow", "district": "Московская область"}, {"id": 609, "name": "Zhukovsky", "name_ru": "Жуковский", "tz": "Europe/Moscow", "district": "Московская область"}, {"id": 610, "name": "Zaraysk", "name_ru": "Зарайск", "tz": "Europe/Moscow", "district": "Московская область"}, {"id": 611, "name": "Zvenigorod", "name_ru": "Звенигород", "tz": "Europe/Moscow", "district": "Московская область"}, {"id": 612, "name": "Ivanteyevka", "name_ru": "Ивантеевка", "tz": "Europe/Moscow", "district": "Московская область"}, {"id": 613, "name": "Istra", "name_ru": "Истра", "tz": "Europe/Moscow", "district": "Московская область"}, {"id": 614, "name": "Kashira", "name_ru": "Кашира", "tz": "Europe/Moscow", "district": "Московская область"}, {"id": 615, "name": "Klin", "name_ru": "Клин", "tz": "Europe/Moscow", "district": "Московская область"}, {"id": 616, "name": "Kolomna", "name_ru": "Коломна", "tz": "Europe/Moscow", "district": "Московская область"}, {"id": 617, "name": "Korolyov", "name_ru": "Королёв", "tz": "Europe/Moscow", "district": "Московская область"}, {"id": 618, "name": "Kotelniki", "name_ru": "Котельники", "tz": "Europe/Moscow", "district": "Московская область"}, {"id": 619, "name": "Krasnoarmeysk", "name_ru": "Красноармейск", "tz": "Europe/Moscow", "district": "Московская область"}, {"id": 620, "name": "Krasnogorsk", "name_ru": "Красногорск", "tz": "Europe/Moscow", "district": "Московская область"}, {"id": 621, "name": "Krasnozavodsk", "name_ru": "Краснозаводск", "tz": "Europe/Moscow", "district": "Московская область"}, {"id": 622, "name": "Krasnoznamensk", "name_ru": "Краснознаменск", "tz": "Europe/Moscow", "district": "Московская область"}, {"id": 623, "name": "Kubinka", "name_ru": "Кубинка", "tz": "Europe/Moscow", "district": "Московская область"}, {"id": 624, "name": "Kurovskoye", "name_ru": "Куровское", "tz": "Europe/Moscow", "district": "Московская область"}, {"id": 625, "name": "Likino-Dulyovo", "name_ru": "Ликино-Дулёво", "tz": "Europe/Moscow", "district": "Московская область"}, {"id": 626, "name": "Lobnya", "name_ru": "Лобня", "tz": "Europe/Moscow", "district": "Московская область"}, {"id": 627, "name": "Losino-Petrovsky", "name_ru": "Лосино-Петровский", "tz": "Europe/Moscow", "district": "Московская область"}, {"id": 628, "name": "Lukhovitsy", "name_ru": "Луховицы", "tz": "Europe/Moscow", "district": "Московская область"}, {"id": 629, "name": "Lytkarino", "name_ru": "Лыткарино", "tz": "Europe/Moscow", "district": "Московская область"}, {"id": 630, "name": "Lyubertsy", "name_ru": "Люберцы", "tz": "Europe/Moscow", "district": "Московская область"}, {"id": 631, "name": "Mozhaysk", "name_ru": "Можайск", "tz": "Europe/Moscow", "district": "Московская область"}, {"id": 632, "name": "Mytishchi", "name_ru": "Мытищи", "tz": "Europe/Moscow", "district": "Московская область"}, {"id": 633, "name": "Naro-Fominsk", "name_ru": "Наро-Фоминск", "tz": "Europe/Moscow", "district": "Московская область"}, {"id": 634, "name": "Noginsk", "name_ru": "Ногинск", "tz": "Europe/Moscow", "district": "Московская область"}, {"id": 635, "name": "Odintsovo", "name_ru": "Одинцово", "tz": "Europe/Moscow", "district": "Московская область"}, {"id": 636, "name": "Ozyory", "name_ru": "Озёры", "tz": "Europe/Moscow", "district": "Московская область"}, {"id": 637, "name": "Orekhovo-Zuyevo", "name_ru": "Орехово-Зуево", "tz": "Europe/Moscow", "district": "Московская область"}, {"id": 638, "name": "Pavlovsky Posad", "name_ru": "Павловский Посад", "tz": "Europe/Moscow", "district": "Московская область"}, {"id": 639, "name": "Peresvet", "name_ru": "Пересвет", "tz": "Europe/Moscow", "district": "Московская область"}, {"id": 640, "name": "Podolsk", "name_ru": "Подольск", "tz": "Europe/Moscow", "district": "Московская область"}, {"id": 641, "name": "Protvino", "name_ru": "Протвино", "tz": "Europe/Moscow", "district": "Московская область"}, {"id": 642, "name": "Pushkino", "name_ru": "Пушкино", "tz": "Europe/Moscow", "district": "Московская область"}, {"id": 643, "name": "Pushchino", "name_ru": "Пущино", "tz": "Europe/Moscow", "district": "Московская область"}, {"id": 644, "name": "Ramenskoye", "name_ru": "Раменское", "tz": "Europe/Moscow", "district": "Московская область"}, {"id": 645, "name": "Reutov", "name_ru": "Реутов", "tz": "Europe/Moscow", "district": "Московская область"}, {"id": 646, "name": "Roshal", "name_ru": "Рошаль", "tz": "Europe/Moscow", "district": "Московская область"}, {"id": 647, "name": "Ruza", "name_ru": "Руза", "tz": "Europe/Moscow", "district": "Московская область"}, {"id": 648, "name": "Sergiyev Posad", "name_ru": "Сергиев Посад", "tz": "Europe/Moscow", "district": "Московская область"}, {"id": 649, "name": "Serpukhov", "name_ru": "Серпухов", "tz": "Europe/Moscow", "district": "Московская область"}, {"id": 650, "name": "Solnechnogorsk", "name_ru": "Солнечногорск", "tz": "Europe/Moscow", "district": "Московская область"}, {"id": 651, "name": "Staraya Kupavna", "name_ru": "Старая Купавна", "tz": "Europe/Moscow", "district": "Московская область"}, {"id": 652, "name": "Stupino", "name_ru": "Ступино", "tz": "Europe/Moscow", "district": "Московская область"}, {"id": 653, "name": "Taldom", "name_ru": "Талдом", "tz": "Europe/Moscow", "district": "Московская область"}, {"id": 654, "name": "Fryazino", "name_ru": "Фрязино", "tz": "Europe/Moscow", "district": "Московская область"}, {"id": 655, "name": "Khimki", "name_ru": "Химки", "tz": "Europe/Moscow", "district": "Московская область"}, {"id": 656, "name": "Khotkovo", "name_ru": "Хотьково", "tz": "Europe/Moscow", "district": "Московская область"}, {"id": 657, "name": "Chernogolovka", "name_ru": "Черноголовка", "tz": "Europe/Moscow", "district": "Московская область"}, {"id": 658, "name": "Chekhov", "name_ru": "Чехов", "tz": "Europe/Moscow", "district": "Московская область"}, {"id": 659, "name": "Shatura", "name_ru": "Шатура", "tz": "Europe/Moscow", "district": "Московская область"}, {"id": 660, "name": "Shchyolkovo", "name_ru": "Щёлково", "tz": "Europe/Moscow", "district": "Московская область"}, {"id": 661, "name": "Elektrogorsk", "name_ru": "Электрогорск", "tz": "Europe/Moscow", "district": "Московская область"}, {"id": 662, "name": "Elektrostal", "name_ru": "Электросталь", "tz": "Europe/Moscow", "district": "Московская область"}, {"id": 663, "name": "Elektrougli", "name_ru": "Электроугли", "tz": "Europe/Moscow", "district": "Московская область"}, {"id": 664, "name": "Yakhroma", "name_ru": "Яхрома", "tz": "Europe/Moscow", "district": "Московская область"}, {"id": 665, "name": "Apatity", "name_ru": "Апатиты", "tz": "Europe/Moscow", "district": "Мурманская область"}, {"id": 666, "name": "Gadzhiyevo", "name_ru": "Гаджиево", "tz": "Europe/Moscow", "district": "Мурманская область"}, {"id": 667, "name": "Zaozyorsk", "name_ru": "Заозёрск", "tz": "Europe/Moscow", "district": "Мурманская область"}, {"id": 668, "name": "Zapolyarny", "name_ru": "Заполярный", "tz": "Europe/Moscow", "district": "Мурманская область"}, {"id": 669, "name": "Kandalaksha", "name_ru": "Кандалакша", "tz": "Europe/Moscow", "district": "Мурманская область"}, {"id": 670, "name": "Kirovsk", "name_ru": "Кировск", "tz": "Europe/Moscow", "district": "Мурманская область"}, {"id": 671, "name": "Kovdor", "name_ru": "Ковдор", "tz": "Europe/Moscow", "district": "Мурманская область"}, {"id": 672, "name": "Kola", "name_ru": "Кола", "tz": "Europe/Moscow", "district": "Мурманская область"}, {"id": 673, "name": "Monchegorsk", "name_ru": "Мончегорск", "tz": "Europe/Moscow", "district": "Мурманская область"}, {"id": 674, "name": "Murmansk", "name_ru": "Мурманск", "tz": "Europe/Moscow", "district": "Мурманская область"}, {"id": 675, "name": "Olenegorsk", "name_ru": "Оленегорск", "tz": "Europe/Moscow", "district": "Мурманская область"}, {"id": 676, "name": "Ostrovnoy", "name_ru": "Островной", "tz": "Europe/Moscow", "district": "Мурманская область"}, {"id": 677, "name": "Polyarnye Zori", "name_ru": "Полярные Зори", "tz": "Europe/Moscow", "district": "Мурманская область"}, {"id": 678, "name": "Polyarny", "name_ru": "Полярный", "tz": "Europe/Moscow", "district": "Мурманская область"}, {"id": 679, "name": "Severomorsk", "name_ru": "Североморск", "tz": "Europe/Moscow", "district": "Мурманская область"}, {"id": 680, "name": "Zavolzhye", "name_ru": "Заволжье", "tz": "Europe/Moscow", "district": "Нижегородская область"}, {"id": 681, "name": "Bogorodsk", "name_ru": "Богородск", "tz": "Europe/Moscow", "district": "Нижегородская область"}, {"id": 682, "name": "Kulebaki", "name_ru": "Кулебаки", "tz": "Europe/Moscow", "district": "Нижегородская область"}, {"id": 683, "name": "Gorodets", "name_ru": "Городец", "tz": "Europe/Moscow", "district": "Нижегородская область"}, {"id": 684, "name": "Semyonov", "name_ru": "Семёнов", "tz": "Europe/Moscow", "district": "Нижегородская область"}, {"id": 685, "name": "Lyskovo", "name_ru": "Лысково", "tz": "Europe/Moscow", "district": "Нижегородская область"}, {"id": 686, "name": "Sergach", "name_ru": "Сергач", "tz": "Europe/Moscow", "district": "Нижегородская область"}, {"id": 687, "name": "Shakhunya", "name_ru": "Шахунья", "tz": "Europe/Moscow", "district": "Нижегородская область"}, {"id": 688, "name": "Navashino", "name_ru": "Навашино", "tz": "Europe/Moscow", "district": "Нижегородская область"}, {"id": 689, "name": "Lukoyanov", "name_ru": "Лукоянов", "tz": "Europe/Moscow", "district": "Нижегородская область"}, {"id": 690, "name": "Pervomaysk", "name_ru": "Первомайск", "tz": "Europe/Moscow", "district": "Нижегородская область"}, {"id": 691, "name": "Chkalovsk", "name_ru": "Чкаловск", "tz": "Europe/Moscow", "district": "Нижегородская область"}, {"id": 692, "name": "Uren", "name_ru": "Урень", "tz": "Europe/Moscow", "district": "Нижегородская область"}, {"id": 693, "name": "Vorsma", "name_ru": "Ворсма", "tz": "Europe/Moscow", "district": "Нижегородская область"}, {"id": 694, "name": "Volodarsk", "name_ru": "Володарск", "tz": "Europe/Moscow", "district": "Нижегородская область"}, {"id": 695, "name": "Perevoz", "name_ru": "Перевоз", "tz": "Europe/Moscow", "district": "Нижегородская область"}, {"id": 696, "name": "Vetluga", "name_ru": "Ветлуга", "tz": "Europe/Moscow", "district": "Нижегородская область"}, {"id": 697, "name": "Knyaginino", "name_ru": "Княгинино", "tz": "Europe/Moscow", "district": "Нижегородская область"}, {"id": 698, "name": "Gorbatov", "name_ru": "Горбатов", "tz": "Europe/Moscow", "district": "Нижегородская область"}, {"id": 699, "name": "Veliky Novgorod", "name_ru": "Великий Новгород", "tz": "Europe/Moscow", "district": "Новгородская область"}, {"id": 700, "name": "Snezhnogorsk", "name_ru": "Снежногорск", "tz": "Europe/Moscow", "district": "Мурманская область"}, {"id": 701, "name": "Nizhny Novgorod", "name_ru": "Нижний Новгород", "tz": "Europe/Moscow", "district": "Нижегородская область"}, {"id": 702, "name": "Dzerzhinsk", "name_ru": "Дзержинск", "tz": "Europe/Moscow", "district": "Нижегородская область"}, {"id": 703, "name": "Arzamas", "name_ru": "Арзамас", "tz": "Europe/Moscow", "district": "Нижегородская область"}, {"id": 704, "name": "Sarov", "name_ru": "Саров", "tz": "Europe/Moscow", "district": "Нижегородская область"}, {"id": 705, "name": "Bor", "name_ru": "Бор", "tz": "Europe/Moscow", "district": "Нижегородская область"}, {"id": 706, "name": "Kstovo", "name_ru": "Кстово", "tz": "Europe/Moscow", "district": "Нижегородская область"}, {"id": 707, "name": "Pavlovo", "name_ru": "Павлово", "tz": "Europe/Moscow", "district": "Нижегородская область"}, {"id": 708, "name": "Vyksa", "name_ru": "Выкса", "tz": "Europe/Moscow", "district": "Нижегородская область"}, {"id": 709, "name": "Balakhna", "name_ru": "Балахна", "tz": "Europe/Moscow", "district": "Нижегородская область"}, {"id": 710, "name": "Borovichi", "name_ru": "Боровичи", "tz": "Europe/Moscow", "district": "Новгородская область"}, {"id": 711, "name": "Staraya Russa", "name_ru": "Старая Русса", "tz": "Europe/Moscow", "district": "Новгородская область"}, {"id": 712, "name": "Pestovo", "name_ru": "Пестово", "tz": "Europe/Moscow", "district": "Новгородская область"}, {"id": 713, "name": "Valday", "name_ru": "Валдай", "tz": "Europe/Moscow", "district": "Новгородская область"}, {"id": 714, "name": "Chudovo", "name_ru": "Чудово", "tz": "Europe/Moscow", "district": "Новгородская область"}, {"id": 715, "name": "Malaya Vishera", "name_ru": "Малая Вишера", "tz": "Europe/Moscow", "district": "Новгородская область"}, {"id": 716, "name": "Okulovka", "name_ru": "Окуловка", "tz": "Europe/Moscow", "district": "Новгородская область"}, {"id": 717, "name": "Soltsy", "name_ru": "Сольцы", "tz": "Europe/Moscow", "district": "Новгородская область"}, {"id": 718, "name": "Kholm", "name_ru": "Холм", "tz": "Europe/Moscow", "district": "Новгородская область"}, {"id": 719, "name": "Novosibirsk", "name_ru": "Новосибирск", "tz": "Asia/Krasnoyarsk", "district": "Новосибирская область"}, {"id": 720, "name": "Barabinsk", "name_ru": "Барабинск", "tz": "Asia/Krasnoyarsk", "district": "Новосибирская область"}, {"id": 721, "name": "Berdsk", "name_ru": "Бердск", "tz": "Asia/Krasnoyarsk", "district": "Новосибирская область"}, {"id": 722, "name": "Bolotnoye", "name_ru": "Болотное", "tz": "Asia/Krasnoyarsk", "district": "Новосибирская область"}, {"id": 723, "name": "Iskitim", "name_ru": "Искитим", "tz": "Asia/Krasnoyarsk", "district": "Новосибирская область"}, {"id": 724, "name": "Karasuk", "name_ru": "Карасук", "tz": "Asia/Krasnoyarsk", "district": "Новосибирская область"}, {"id": 725, "name": "Kargat", "name_ru": "Каргат", "tz": "Asia/Krasnoyarsk", "district": "Новосибирская область"}, {"id": 726, "name": "Kuybyshev", "name_ru": "Куйбышев", "tz": "Asia/Krasnoyarsk", "district": "Новосибирская область"}, {"id": 727, "name": "Kupino", "name_ru": "Купино", "tz": "Asia/Krasnoyarsk", "district": "Новосибирская область"}, {"id": 728, "name": "Ob", "name_ru": "Обь", "tz": "Asia/Krasnoyarsk", "district": "Новосибирская область"}, {"id": 729, "name": "Tatarsk", "name_ru": "Татарск", "tz": "Asia/Krasnoyarsk", "district": "Новосибирская область"}, {"id": 730, "name": "Toguchin", "name_ru": "Тогучин", "tz": "Asia/Krasnoyarsk", "district": "Новосибирская область"}, {"id": 731, "name": "Cherepanovo", "name_ru": "Черепаново", "tz": "Asia/Krasnoyarsk", "district": "Новосибирская область"}, {"id": 732, "name": "Chulym", "name_ru": "Чулым", "tz": "Asia/Krasnoyarsk", "district": "Новосибирская область"}, {"id": 733, "name": "Omsk", "name_ru": "Омск", "tz": "Asia/Omsk", "district": "Омская область"}, {"id": 734, "name": "Isilkul", "name_ru": "Исилькуль", "tz": "Asia/Omsk", "district": "Омская область"}, {"id": 735, "name": "Kalachinsk", "name_ru": "Калачинск", "tz": "Asia/Omsk", "district": "Омская область"}, {"id": 736, "name": "Nazyvayevsk", "name_ru": "Называевск", "tz": "Asia/Omsk", "district": "Омская область"}, {"id": 737, "name": "Tara", "name_ru": "Тара", "tz": "Asia/Omsk", "district": "Омская область"}, {"id": 738, "name": "Tyukalinsk", "name_ru": "Тюкалинск", "tz": "Asia/Omsk", "district": "Омская область"}, {"id": 739, "name": "Orenburg", "name_ru": "Оренбург", "tz": "Asia/Yekaterinburg", "district": "Оренбургская область"}, {"id": 740, "name": "Orsk", "name_ru": "Орск", "tz": "Asia/Yekaterinburg", "district": "Оренбургская область"}, {"id": 741, "name": "Novotroitsk", "name_ru": "Новотроицк", "tz": "Asia/Yekaterinburg", "district": "Оренбургская область"}, {"id": 742, "name": "Buzuluk", "name_ru": "Бузулук", "tz": "Asia/Yekaterinburg", "district": "Оренбургская область"}, {"id": 743, "name": "Buguruslan", "name_ru": "Бугуруслан", "tz": "Asia/Yekaterinburg", "district": "Оренбургская область"}, {"id": 744, "name": "Sorochinsk", "name_ru": "Сорочинск", "tz": "Asia/Yekaterinburg", "district": "Оренбургская область"}, {"id": 745, "name": "Sol-Iletsk", "name_ru": "Соль-Илецк", "tz": "Asia/Yekaterinburg", "district": "Оренбургская область"}, {"id": 746, "name": "Gay", "name_ru": "Гай", "tz": "Asia/Yekaterinburg", "district": "Оренбургская область"}, {"id": 747, "name": "Mednogorsk", "name_ru": "Медногорск", "tz": "Asia/Yekaterinburg", "district": "Оренбургская область"}, {"id": 748, "name": "Kuvandyk", "name_ru": "Кувандык", "tz": "Asia/Yekaterinburg", "district": "Оренбургская область"}, {"id": 749, "name": "Abdulino", "name_ru": "Абдулино", "tz": "Asia/Yekaterinburg", "district": "Оренбургская область"}, {"id": 750, "name": "Yasny", "name_ru": "Ясный", "tz": "Asia/Yekaterinburg", "district": "Оренбургская область"}, {"id": 751, "name": "Oryol", "name_ru": "Орёл", "tz": "Europe/Moscow", "district": "Орловская область"}, {"id": 752, "name": "Livny", "name_ru": "Ливны", "tz": "Europe/Moscow", "district": "Орловская область"}, {"id": 753, "name": "Mtsensk", "name_ru": "Мценск", "tz": "Europe/Moscow", "district": "Орловская область"}, {"id": 754, "name": "Bolkhov", "name_ru": "Болхов", "tz": "Europe/Moscow", "district": "Орловская область"}, {"id": 755, "name": "Dmitrovsk", "name_ru": "Дмитровск", "tz": "Europe/Moscow", "district": "Орловская область"}, {"id": 756, "name": "Novosil", "name_ru": "Новосиль", "tz": "Europe/Moscow", "district": "Орловская область"}, {"id": 757, "name": "Maloarkhangelsk", "name_ru": "Малоархангельск", "tz": "Europe/Moscow", "district": "Орловская область"}, {"id": 758, "name": "Belinsky", "name_ru": "Белинский", "tz": "Europe/Moscow", "district": "Пензенская область"}, {"id": 759, "name": "Gorodishche", "name_ru": "Городище", "tz": "Europe/Moscow", "district": "Пензенская область"}, {"id": 760, "name": "Zarechny", "name_ru": "Заречный", "tz": "Europe/Moscow", "district": "Пензенская область"}, {"id": 761, "name": "Kamenka", "name_ru": "Каменка", "tz": "Europe/Moscow", "district": "Пензенская область"}, {"id": 762, "name": "Kuznetsk", "name_ru": "Кузнецк", "tz": "Europe/Moscow", "district": "Пензенская область"}, {"id": 763, "name": "Nizhny Lomov", "name_ru": "Нижний Ломов", "tz": "Europe/Moscow", "district": "Пензенская область"}, {"id": 764, "name": "Nikolsk", "name_ru": "Никольск", "tz": "Europe/Moscow", "district": "Пензенская область"}, {"id": 765, "name": "Penza", "name_ru": "Пенза", "tz": "Europe/Moscow", "district": "Пензенская область"}, {"id": 766, "name": "Serdobsk", "name_ru": "Сердобск", "tz": "Europe/Moscow", "district": "Пензенская область"}, {"id": 767, "name": "Spassk", "name_ru": "Спасск", "tz": "Europe/Moscow", "district": "Пензенская область"}, {"id": 768, "name": "Sursk", "name_ru": "Сурск", "tz": "Europe/Moscow", "district": "Пензенская область"}, {"id": 769, "name": "Perm", "name_ru": "Пермь", "tz": "Asia/Yekaterinburg", "district": "Пермский край"}, {"id": 770, "name": "Berezniki", "name_ru": "Березники", "tz": "Asia/Yekaterinburg", "district": "Пермский край"}, {"id": 771, "name": "Solikamsk", "name_ru": "Соликамск", "tz": "Asia/Yekaterinburg", "district": "Пермский край"}, {"id": 772, "name": "Chaykovsky", "name_ru": "Чайковский", "tz": "Asia/Yekaterinburg", "district": "Пермский край"}, {"id": 773, "name": "Kungur", "name_ru": "Кунгур", "tz": "Asia/Yekaterinburg", "district": "Пермский край"}, {"id": 774, "name": "Lysva", "name_ru": "Лысьва", "tz": "Asia/Yekaterinburg", "district": "Пермский край"}, {"id": 775, "name": "Krasnokamsk", "name_ru": "Краснокамск", "tz": "Asia/Yekaterinburg", "district": "Пермский край"}, {"id": 776, "name": "Chusovoy", "name_ru": "Чусовой", "tz": "Asia/Yekaterinburg", "district": "Пермский край"}, {"id": 777, "name": "Dobryanka", "name_ru": "Добрянка", "tz": "Asia/Yekaterinburg", "district": "Пермский край"}, {"id": 778, "name": "Chernushka", "name_ru": "Чернушка", "tz": "Asia/Yekaterinburg", "district": "Пермский край"}, {"id": 779, "name": "Kudymkar", "name_ru": "Кудымкар", "tz": "Asia/Yekaterinburg", "district": "Пермский край"}, {"id": 780, "name": "Gubakha", "name_ru": "Губаха", "tz": "Asia/Yekaterinburg", "district": "Пермский край"}, {"id": 781, "name": "Vereshchagino", "name_ru": "Верещагино", "tz": "Asia/Yekaterinburg", "district": "Пермский край"}, {"id": 782, "name": "Osa", "name_ru": "Оса", "tz": "Asia/Yekaterinburg", "district": "Пермский край"}, {"id": 783, "name": "Nytva", "name_ru": "Нытва", "tz": "Asia/Yekaterinburg", "district": "Пермский край"}, {"id": 784, "name": "Kizel", "name_ru": "Кизел", "tz": "Asia/Yekaterinburg", "district": "Пермский край"}, {"id": 785, "name": "Krasnovishersk", "name_ru": "Красновишерск", "tz": "Asia/Yekaterinburg", "district": "Пермский край"}, {"id": 786, "name": "Ochyor", "name_ru": "Очёр", "tz": "Asia/Yekaterinburg", "district": "Пермский край"}, {"id": 787, "name": "Alexandrovsk", "name_ru": "Александровск", "tz": "Asia/Yekaterinburg", "district": "Пермский край"}, {"id": 788, "name": "Gornozavodsk", "name_ru": "Горнозаводск", "tz": "Asia/Yekaterinburg", "district": "Пермский край"}, {"id": 789, "name": "Gremyachinsk", "name_ru": "Гремячинск", "tz": "Asia/Yekaterinburg", "district": "Пермский край"}, {"id": 790, "name": "Okhansk", "name_ru": "Оханск", "tz": "Asia/Yekaterinburg", "district": "Пермский край"}, {"id": 791, "name": "Usolye", "name_ru": "Усолье", "tz": "Asia/Yekaterinburg", "district": "Пермский край"}, {"id": 792, "name": "Cherdyn", "name_ru": "Чердынь", "tz": "Asia/Yekaterinburg", "district": "Пермский край"}, {"id": 793, "name": "Chyormoz", "name_ru": "Чёрмоз", "tz": "Asia/Yekaterinburg", "district": "Пермский край"}, {"id": 794, "name": "Velikiye Luki", "name_ru": "Великие Луки", "tz": "Europe/Moscow", "district": "Псковская область"}, {"id": 795, "name": "Gdov", "name_ru": "Гдов", "tz": "Europe/Moscow", "district": "Псковская область"}, {"id": 796, "name": "Dno", "name_ru": "Дно", "tz": "Europe/Moscow", "district": "Псковская область"}, {"id": 797, "name": "Nevel", "name_ru": "Невель", "tz": "Europe/Moscow", "district": "Псковская область"}, {"id": 798, "name": "Novorzhev", "name_ru": "Новоржев", "tz": "Europe/Moscow", "district": "Псковская область"}, {"id": 799, "name": "Novosokolniki", "name_ru": "Новосокольники", "tz": "Europe/Moscow", "district": "Псковская область"}, {"id": 800, "name": "Opochka", "name_ru": "Опочка", "tz": "Europe/Moscow", "district": "Псковская область"}, {"id": 801, "name": "Ostrov", "name_ru": "Остров", "tz": "Europe/Moscow", "district": "Псковская область"}, {"id": 802, "name": "Pechory", "name_ru": "Печоры", "tz": "Europe/Moscow", "district": "Псковская область"}, {"id": 803, "name": "Porkhov", "name_ru": "Порхов", "tz": "Europe/Moscow", "district": "Псковская область"}, {"id": 804, "name": "Pskov", "name_ru": "Псков", "tz": "Europe/Moscow", "district": "Псковская область"}, {"id": 805, "name": "Pustoshka", "name_ru": "Пустошка", "tz": "Europe/Moscow", "district": "Псковская область"}, {"id": 806, "name": "Pytalovo", "name_ru": "Пыталово", "tz": "Europe/Moscow", "district": "Псковская область"}, {"id": 807, "name": "Sebezh", "name_ru": "Себеж", "tz": "Europe/Moscow", "district": "Псковская область"}, {"id": 808, "name": "Rostov-on-Don", "name_ru": "Ростов-на-Дону", "tz": "Europe/Moscow", "district": "Ростовская область"}, {"id": 809, "name": "Taganrog", "name_ru": "Таганрог", "tz": "Europe/Moscow", "district": "Ростовская область"}, {"id": 810, "name": "Shakhty", "name_ru": "Шахты", "tz": "Europe/Moscow", "district": "Ростовская область"}, {"id": 811, "name": "Volgodonsk", "name_ru": "Волгодонск", "tz": "Europe/Moscow", "district": "Ростовская область"}, {"id": 812, "name": "Novocherkassk", "name_ru": "Новочеркасск", "tz": "Europe/Moscow", "district": "Ростовская область"}, {"id": 813, "name": "Bataysk", "name_ru": "Батайск", "tz": "Europe/Moscow", "district": "Ростовская область"}, {"id": 814, "name": "Novoshakhtinsk", "name_ru": "Новошахтинск", "tz": "Europe/Moscow", "district": "Ростовская область"}, {"id": 815, "name": "Kamensk-Shakhtinsky", "name_ru": "Каменск-Шахтинский", "tz": "Europe/Moscow", "district": "Ростовская область"}, {"id": 816, "name": "Azov", "name_ru": "Азов", "tz": "Europe/Moscow", "district": "Ростовская область"}, {"id": 817, "name": "Gukovo", "name_ru": "Гуково", "tz": "Europe/Moscow", "district": "Ростовская область"}, {"id": 818, "name": "Salsk", "name_ru": "Сальск", "tz": "Europe/Moscow", "district": "Ростовская область"}, {"id": 819, "name": "Donetsk", "name_ru": "Донецк", "tz": "Europe/Moscow", "district": "Ростовская область"}, {"id": 820, "name": "Tsimlyansk", "name_ru": "Цимлянск", "tz": "Europe/Moscow", "district": "Ростовская область"}, {"id": 821, "name": "Ryazan", "name_ru": "Рязань", "tz": "Europe/Moscow", "district": "Рязанская область"}, {"id": 822, "name": "Kasimov", "name_ru": "Касимов", "tz": "Europe/Moscow", "district": "Рязанская область"}, {"id": 823, "name": "Skopin", "name_ru": "Скопин", "tz": "Europe/Moscow", "district": "Рязанская область"}, {"id": 824, "name": "Sasovo", "name_ru": "Сасово", "tz": "Europe/Moscow", "district": "Рязанская область"}, {"id": 825, "name": "Ryazhsk", "name_ru": "Ряжск", "tz": "Europe/Moscow", "district": "Рязанская область"}, {"id": 826, "name": "Novomichurinsk", "name_ru": "Новомичуринск", "tz": "Europe/Moscow", "district": "Рязанская область"}, {"id": 827, "name": "Rybnoye", "name_ru": "Рыбное", "tz": "Europe/Moscow", "district": "Рязанская область"}, {"id": 828, "name": "Korablino", "name_ru": "Кораблино", "tz": "Europe/Moscow", "district": "Рязанская область"}, {"id": 829, "name": "Mikhaylov", "name_ru": "Михайлов", "tz": "Europe/Moscow", "district": "Рязанская область"}, {"id": 830, "name": "Spassk-Ryazansky", "name_ru": "Спасск-Рязанский", "tz": "Europe/Moscow", "district": "Рязанская область"}, {"id": 831, "name": "Shatsk", "name_ru": "Шацк", "tz": "Europe/Moscow", "district": "Рязанская область"}, {"id": 832, "name": "Spas-Klepiki", "name_ru": "Спас-Клепики", "tz": "Europe/Moscow", "district": "Рязанская область"}, {"id": 833, "name": "Samara", "name_ru": "Самара", "tz": "Europe/Samara", "district": "Самарская область"}, {"id": 834, "name": "Tolyatti", "name_ru": "Тольятти", "tz": "Europe/Samara", "district": "Самарская область"}, {"id": 835, "name": "Syzran", "name_ru": "Сызрань", "tz": "Europe/Samara", "district": "Самарская область"}, {"id": 836, "name": "Novokuybyshevsk", "name_ru": "Новокуйбышевск", "tz": "Europe/Samara", "district": "Самарская область"}, {"id": 837, "name": "Chapayevsk", "name_ru": "Чапаевск", "tz": "Europe/Samara", "district": "Самарская область"}, {"id": 838, "name": "Zhigulyovsk", "name_ru": "Жигулёвск", "tz": "Europe/Samara", "district": "Самарская область"}, {"id": 839, "name": "Otradny", "name_ru": "Отрадный", "tz": "Europe/Samara", "district": "Самарская область"}, {"id": 840, "name": "Belaya Kalitva", "name_ru": "Белая Калитва", "tz": "Europe/Moscow", "district": "Ростовская область"}, {"id": 841, "name": "Aksay", "name_ru": "Аксай", "tz": "Europe/Moscow", "district": "Ростовская область"}, {"id": 842, "name": "Krasny Sulin", "name_ru": "Красный Сулин", "tz": "Europe/Moscow", "district": "Ростовская область"}, {"id": 843, "name": "Millerovo", "name_ru": "Миллерово", "tz": "Europe/Moscow", "district": "Ростовская область"}, {"id": 844, "name": "Morozovsk", "name_ru": "Морозовск", "tz": "Europe/Moscow", "district": "Ростовская область"}, {"id": 845, "name": "Zernograd", "name_ru": "Зерноград", "tz": "Europe/Moscow", "district": "Ростовская область"}, {"id": 846, "name": "Semikarakorsk", "name_ru": "Семикаракорск", "tz": "Europe/Moscow", "district": "Ростовская область"}, {"id": 847, "name": "Zverevo", "name_ru": "Зверево", "tz": "Europe/Moscow", "district": "Ростовская область"}, {"id": 848, "name": "Proletarsk", "name_ru": "Пролетарск", "tz": "Europe/Moscow", "district": "Ростовская область"}, {"id": 849, "name": "Konstantinovsk", "name_ru": "Константиновск", "tz": "Europe/Moscow", "district": "Ростовская область"}, {"id": 850, "name": "Kinel", "name_ru": "Кинель", "tz": "Europe/Samara", "district": "Самарская область"}, {"id": 851, "name": "Pokhvistnevo", "name_ru": "Похвистнево", "tz": "Europe/Samara", "district": "Самарская область"}, {"id": 852, "name": "Oktyabrsk", "name_ru": "Октябрьск", "tz": "Europe/Samara", "district": "Самарская область"}, {"id": 853, "name": "Neftegorsk", "name_ru": "Нефтегорск", "tz": "Europe/Samara", "district": "Самарская область"}, {"id": 854, "name": "Saratov", "name_ru": "Саратов", "tz": "Europe/Samara", "district": "Саратовская область"}, {"id": 855, "name": "Engels", "name_ru": "Энгельс", "tz": "Europe/Samara", "district": "Саратовская область"}, {"id": 856, "name": "Balakovo", "name_ru": "Балаково", "tz": "Europe/Samara", "district": "Саратовская область"}, {"id": 857, "name": "Balashov", "name_ru": "Балашов", "tz": "Europe/Samara", "district": "Саратовская область"}, {"id": 858, "name": "Volsk", "name_ru": "Вольск", "tz": "Europe/Samara", "district": "Саратовская область"}, {"id": 859, "name": "Pugachyov", "name_ru": "Пугачёв", "tz": "Europe/Samara", "district": "Саратовская область"}, {"id": 860, "name": "Rtishchevo", "name_ru": "Ртищево", "tz": "Europe/Samara", "district": "Саратовская область"}, {"id": 861, "name": "Marks", "name_ru": "Маркс", "tz": "Europe/Samara", "district": "Саратовская область"}, {"id": 862, "name": "Petrovsk", "name_ru": "Петровск", "tz": "Europe/Samara", "district": "Саратовская область"}, {"id": 863, "name": "Atkarsk", "name_ru": "Аткарск", "tz": "Europe/Samara", "district": "Саратовская область"}, {"id": 864, "name": "Krasnoarmeysk", "name_ru": "Красноармейск", "tz": "Europe/Samara", "district": "Саратовская область"}, {"id": 865, "name": "Yershov", "name_ru": "Ершов", "tz": "Europe/Samara", "district": "Саратовская область"}, {"id": 866, "name": "Novouzensk", "name_ru": "Новоузенск", "tz": "Europe/Samara", "district": "Саратовская область"}, {"id": 867, "name": "Kalininsk", "name_ru": "Калининск", "tz": "Europe/Samara", "district": "Саратовская область"}, {"id": 868, "name": "Krasny Kut", "name_ru": "Красный Кут", "tz": "Europe/Samara", "district": "Саратовская область"}, {"id": 869, "name": "Khvalynsk", "name_ru": "Хвалынск", "tz": "Europe/Samara", "district": "Саратовская область"}, {"id": 870, "name": "Arkadak", "name_ru": "Аркадак", "tz": "Europe/Samara", "district": "Саратовская область"}, {"id": 871, "name": "Shikhany", "name_ru": "Шиханы", "tz": "Europe/Samara", "district": "Саратовская область"}, {"id": 872, "name": "Alexandrovsk-Sakhalinsky", "name_ru": "Александровск-Сахалинский", "tz": "Asia/Magadan", "district": "Сахалинская область"}, {"id": 873, "name": "Aniva", "name_ru": "Анива", "tz": "Asia/Magadan", "district": "Сахалинская область"}, {"id": 874, "name": "Dolinsk", "name_ru": "Долинск", "tz": "Asia/Magadan", "district": "Сахалинская область"}, {"id": 875, "name": "Korsakov", "name_ru": "Корсаков", "tz": "Asia/Magadan", "district": "Сахалинская область"}, {"id": 876, "name": "Kurilsk", "name_ru": "Курильск", "tz": "Asia/Magadan", "district": "Сахалинская область"}, {"id": 877, "name": "Makarov", "name_ru": "Макаров", "tz": "Asia/Magadan", "district": "Сахалинская область"}, {"id": 878, "name": "Nevelsk", "name_ru": "Невельск", "tz": "Asia/Magadan", "district": "Сахалинская область"}, {"id": 879, "name": "Okha", "name_ru": "Оха", "tz": "Asia/Magadan", "district": "Сахалинская область"}, {"id": 880, "name": "Poronaysk", "name_ru": "Поронайск", "tz": "Asia/Magadan", "district": "Сахалинская область"}, {"id": 881, "name": "Severo-Kurilsk", "name_ru": "Северо-Курильск", "tz": "Asia/Magadan", "district": "Сахалинская область"}, {"id": 882, "name": "Tomari", "name_ru": "Томари", "tz": "Asia/Magadan", "district": "Сахалинская область"}, {"id": 883, "name": "Uglegorsk", "name_ru": "Углегорск", "tz": "Asia/Magadan", "district": "Сахалинская область"}, {"id": 884, "name": "Kholmsk", "name_ru": "Холмск", "tz": "Asia/Magadan", "district": "Сахалинская область"}, {"id": 885, "name": "Yuzhno-Sakhalinsk", "name_ru": "Южно-Сахалинск", "tz": "Asia/Magadan", "district": "Сахалинская область"}, {"id": 886, "name": "Yekaterinburg", "name_ru": "Екатеринбург", "tz": "Asia/Yekaterinburg", "district": "Свердловская область"}, {"id": 887, "name": "Alapayevsk", "name_ru": "Алапаевск", "tz": "Asia/Yekaterinburg", "district": "Свердловская область"}, {"id": 888, "name": "Aramil", "name_ru": "Арамиль", "tz": "Asia/Yekaterinburg", "district": "Свердловская область"}, {"id": 889, "name": "Artyomovsky", "name_ru": "Артёмовский", "tz": "Asia/Yekaterinburg", "district": "Свердловская область"}, {"id": 890, "name": "Asbest", "name_ru": "Асбест", "tz": "Asia/Yekaterinburg", "district": "Свердловская область"}, {"id": 891, "name": "Berezovsky", "name_ru": "Берёзовский", "tz": "Asia/Yekaterinburg", "district": "Свердловская область"}, {"id": 892, "name": "Bogdanovich", "name_ru": "Богданович", "tz": "Asia/Yekaterinburg", "district": "Свердловская область"}, {"id": 893, "name": "Verkhny Tagil", "name_ru": "Верхний Тагил", "tz": "Asia/Yekaterinburg", "district": "Свердловская область"}, {"id": 894, "name": "Verkhnyaya Pyshma", "name_ru": "Верхняя Пышма", "tz": "Asia/Yekaterinburg", "district": "Свердловская область"}, {"id": 895, "name": "Verkhnyaya Salda", "name_ru": "Верхняя Салда", "tz": "Asia/Yekaterinburg", "district": "Свердловская область"}, {"id": 896, "name": "Verkhnyaya Tura", "name_ru": "Верхняя Тура", "tz": "Asia/Yekaterinburg", "district": "Свердловская область"}, {"id": 897, "name": "Verkhoturye", "name_ru": "Верхотурье", "tz": "Asia/Yekaterinburg", "district": "Свердловская область"}, {"id": 898, "name": "Volchansk", "name_ru": "Волчанск", "tz": "Asia/Yekaterinburg", "district": "Свердловская область"}, {"id": 899, "name": "Degtyarsk", "name_ru": "Дегтярск", "tz": "Asia/Yekaterinburg", "district": "Свердловская область"}, {"id": 900, "name": "Zarechny", "name_ru": "Заречный", "tz": "Asia/Yekaterinburg", "district": "Свердловская область"}, {"id": 901, "name": "Ivdel", "name_ru": "Ивдель", "tz": "Asia/Yekaterinburg", "district": "Свердловская область"}, {"id": 902, "name": "Irbit", "name_ru": "Ирбит", "tz": "Asia/Yekaterinburg", "district": "Свердловская область"}, {"id": 903, "name": "Kamensk-Uralsky", "name_ru": "Каменск-Уральский", "tz": "Asia/Yekaterinburg", "district": "Свердловская область"}, {"id": 904, "name": "Kamyshlov", "name_ru": "Камышлов", "tz": "Asia/Yekaterinburg", "district": "Свердловская область"}, {"id": 905, "name": "Karpinsk", "name_ru": "Карпинск", "tz": "Asia/Yekaterinburg", "district": "Свердловская область"}, {"id": 906, "name": "Kachkanar", "name_ru": "Качканар", "tz": "Asia/Yekaterinburg", "district": "Свердловская область"}, {"id": 907, "name": "Kirovgrad", "name_ru": "Кировград", "tz": "Asia/Yekaterinburg", "district": "Свердловская область"}, {"id": 908, "name": "Krasnoturyinsk", "name_ru": "Краснотурьинск", "tz": "Asia/Yekaterinburg", "district": "Свердловская область"}, {"id": 909, "name": "Krasnouralsk", "name_ru": "Красноуральск", "tz": "Asia/Yekaterinburg", "district": "Свердловская область"}, {"id": 910, "name": "Krasnoufimsk", "name_ru": "Красноуфимск", "tz": "Asia/Yekaterinburg", "district": "Свердловская область"}, {"id": 911, "name": "Kushva", "name_ru": "Кушва", "tz": "Asia/Yekaterinburg", "district": "Свердловская область"}, {"id": 912, "name": "Lesnoy", "name_ru": "Лесной", "tz": "Asia/Yekaterinburg", "district": "Свердловская область"}, {"id": 913, "name": "Mikhaylovsk", "name_ru": "Михайловск", "tz": "Asia/Yekaterinburg", "district": "Свердловская область"}, {"id": 914, "name": "Nevyansk", "name_ru": "Невьянск", "tz": "Asia/Yekaterinburg", "district": "Свердловская область"}, {"id": 915, "name": "Nizhniye Sergi", "name_ru": "Нижние Серги", "tz": "Asia/Yekaterinburg", "district": "Свердловская область"}, {"id": 916, "name": "Nizhny Tagil", "name_ru": "Нижний Тагил", "tz": "Asia/Yekaterinburg", "district": "Свердловская область"}, {"id": 917, "name": "Nizhnyaya Salda", "name_ru": "Нижняя Салда", "tz": "Asia/Yekaterinburg", "district": "Свердловская область"}, {"id": 918, "name": "Nizhnyaya Tura", "name_ru": "Нижняя Тура", "tz": "Asia/Yekaterinburg", "district": "Свердловская область"}, {"id": 919, "name": "Novaya Lyalya", "name_ru": "Новая Ляля", "tz": "Asia/Yekaterinburg", "district": "Свердловская область"}, {"id": 920, "name": "Novouralsk", "name_ru": "Новоуральск", "tz": "Asia/Yekaterinburg", "district": "Свердловская область"}, {"id": 921, "name": "Pervouralsk", "name_ru": "Первоуральск", "tz": "Asia/Yekaterinburg", "district": "Свердловская область"}, {"id": 922, "name": "Polevskoy", "name_ru": "Полевской", "tz": "Asia/Yekaterinburg", "district": "Свердловская область"}, {"id": 923, "name": "Revda", "name_ru": "Ревда", "tz": "Asia/Yekaterinburg", "district": "Свердловская область"}, {"id": 924, "name": "Rezh", "name_ru": "Реж", "tz": "Asia/Yekaterinburg", "district": "Свердловская область"}, {"id": 925, "name": "Severouralsk", "name_ru": "Североуральск", "tz": "Asia/Yekaterinburg", "district": "Свердловская область"}, {"id": 926, "name": "Serov", "name_ru": "Серов", "tz": "Asia/Yekaterinburg", "district": "Свердловская область"}, {"id": 927, "name": "Sredneuralsk", "name_ru": "Среднеуральск", "tz": "Asia/Yekaterinburg", "district": "Свердловская область"}, {"id": 928, "name": "Sukhoy Log", "name_ru": "Сухой Лог", "tz": "Asia/Yekaterinburg", "district": "Свердловская область"}, {"id": 929, "name": "Sysert", "name_ru": "Сысерть", "tz": "Asia/Yekaterinburg", "district": "Свердловская область"}, {"id": 930, "name": "Tavda", "name_ru": "Тавда", "tz": "Asia/Yekaterinburg", "district": "Свердловская область"}, {"id": 931, "name": "Talitsa", "name_ru": "Талица", "tz": "Asia/Yekaterinburg", "district": "Свердловская область"}, {"id": 932, "name": "Turinsk", "name_ru": "Туринск", "tz": "Asia/Yekaterinburg", "district": "Свердловская область"}, {"id": 933, "name": "Smolensk", "name_ru": "Смоленск", "tz": "Europe/Moscow", "district": "Смоленская область"}, {"id": 934, "name": "Vyazma", "name_ru": "Вязьма", "tz": "Europe/Moscow", "district": "Смоленская область"}, {"id": 935, "name": "Roslavl", "name_ru": "Рославль", "tz": "Europe/Moscow", "district": "Смоленская область"}, {"id": 936, "name": "Yartsevo", "name_ru": "Ярцево", "tz": "Europe/Moscow", "district": "Смоленская область"}, {"id": 937, "name": "Safonovo", "name_ru": "Сафоново", "tz": "Europe/Moscow", "district": "Смоленская область"}, {"id": 938, "name": "Gagarin", "name_ru": "Гагарин", "tz": "Europe/Moscow", "district": "Смоленская область"}, {"id": 939, "name": "Desnogorsk", "name_ru": "Десногорск", "tz": "Europe/Moscow", "district": "Смоленская область"}, {"id": 940, "name": "Dorogobuzh", "name_ru": "Дорогобуж", "tz": "Europe/Moscow", "district": "Смоленская область"}, {"id": 941, "name": "Yelnya", "name_ru": "Ельня", "tz": "Europe/Moscow", "district": "Смоленская область"}, {"id": 942, "name": "Rudnya", "name_ru": "Рудня", "tz": "Europe/Moscow", "district": "Смоленская область"}, {"id": 943, "name": "Pochinok", "name_ru": "Починок", "tz": "Europe/Moscow", "district": "Смоленская область"}, {"id": 944, "name": "Sychyovka", "name_ru": "Сычёвка", "tz": "Europe/Moscow", "district": "Смоленская область"}, {"id": 945, "name": "Velizh", "name_ru": "Велиж", "tz": "Europe/Moscow", "district": "Смоленская область"}, {"id": 946, "name": "Demidov", "name_ru": "Демидов", "tz": "Europe/Moscow", "district": "Смоленская область"}, {"id": 947, "name": "Dukhovshchina", "name_ru": "Духовщина", "tz": "Europe/Moscow", "district": "Смоленская область"}, {"id": 948, "name": "Tambov", "name_ru": "Тамбов", "tz": "Europe/Moscow", "district": "Тамбовская область"}, {"id": 949, "name": "Michurinsk", "name_ru": "Мичуринск", "tz": "Europe/Moscow", "district": "Тамбовская область"}, {"id": 950, "name": "Rasskazovo", "name_ru": "Рассказово", "tz": "Europe/Moscow", "district": "Тамбовская область"}, {"id": 951, "name": "Morshansk", "name_ru": "Моршанск", "tz": "Europe/Moscow", "district": "Тамбовская область"}, {"id": 952, "name": "Kotovsk", "name_ru": "Котовск", "tz": "Europe/Moscow", "district": "Тамбовская область"}, {"id": 953, "name": "Uvarovo", "name_ru": "Уварово", "tz": "Europe/Moscow", "district": "Тамбовская область"}, {"id": 954, "name": "Kirsanov", "name_ru": "Кирсанов", "tz": "Europe/Moscow", "district": "Тамбовская область"}, {"id": 955, "name": "Zherdevka", "name_ru": "Жердевка", "tz": "Europe/Moscow", "district": "Тамбовская область"}, {"id": 956, "name": "Tver", "name_ru": "Тверь", "tz": "Europe/Moscow", "district": "Тверская область"}, {"id": 957, "name": "Rzhev", "name_ru": "Ржев", "tz": "Europe/Moscow", "district": "Тверская область"}, {"id": 958, "name": "Vyshny Volochyok", "name_ru": "Вышний Волочёк", "tz": "Europe/Moscow", "district": "Тверская область"}, {"id": 959, "name": "Kimry", "name_ru": "Кимры", "tz": "Europe/Moscow", "district": "Тверская область"}, {"id": 960, "name": "Torzhok", "name_ru": "Торжок", "tz": "Europe/Moscow", "district": "Тверская область"}, {"id": 961, "name": "Konakovo", "name_ru": "Конаково", "tz": "Europe/Moscow", "district": "Тверская область"}, {"id": 962, "name": "Udomlya", "name_ru": "Удомля", "tz": "Europe/Moscow", "district": "Тверская область"}, {"id": 963, "name": "Bezhetsk", "name_ru": "Бежецк", "tz": "Europe/Moscow", "district": "Тверская область"}, {"id": 964, "name": "Bologoye", "name_ru": "Бологое", "tz": "Europe/Moscow", "district": "Тверская область"}, {"id": 965, "name": "Nelidovo", "name_ru": "Нелидово", "tz": "Europe/Moscow", "district": "Тверская область"}, {"id": 966, "name": "Ostashkov", "name_ru": "Осташков", "tz": "Europe/Moscow", "district": "Тверская область"}, {"id": 967, "name": "Kashin", "name_ru": "Кашин", "tz": "Europe/Moscow", "district": "Тверская область"}, {"id": 968, "name": "Kalyazin", "name_ru": "Калязин", "tz": "Europe/Moscow", "district": "Тверская область"}, {"id": 969, "name": "Toropets", "name_ru": "Торопец", "tz": "Europe/Moscow", "district": "Тверская область"}, {"id": 970, "name": "Likhoslavl", "name_ru": "Лихославль", "tz": "Europe/Moscow", "district": "Тверская область"}, {"id": 971, "name": "Kuvshinovo", "name_ru": "Кувшиново", "tz": "Europe/Moscow", "district": "Тверская область"}, {"id": 972, "name": "Zapadnaya Dvina", "name_ru": "Западная Двина", "tz": "Europe/Moscow", "district": "Тверская область"}, {"id": 973, "name": "Staritsa", "name_ru": "Старица", "tz": "Europe/Moscow", "district": "Тверская область"}, {"id": 974, "name": "Andreapol", "name_ru": "Андреаполь", "tz": "Europe/Moscow", "district": "Тверская область"}, {"id": 975, "name": "Vesyegonsk", "name_ru": "Весьегонск", "tz": "Europe/Moscow", "district": "Тверская область"}, {"id": 976, "name": "Zubtsov", "name_ru": "Зубцов", "tz": "Europe/Moscow", "district": "Тверская область"}, {"id": 977, "name": "Krasny Kholm", "name_ru": "Красный Холм", "tz": "Europe/Moscow", "district": "Тверская область"}, {"id": 978, "name": "Bely", "name_ru": "Белый", "tz": "Europe/Moscow", "district": "Тверская область"}, {"id": 979, "name": "Tomsk", "name_ru": "Томск", "tz": "Asia/Krasnoyarsk", "district": "Томская область"}, {"id": 980, "name": "Asino", "name_ru": "Асино", "tz": "Asia/Krasnoyarsk", "district": "Томская область"}, {"id": 981, "name": "Kedrovy", "name_ru": "Кедровый", "tz": "Asia/Krasnoyarsk", "district": "Томская область"}, {"id": 982, "name": "Kolpashevo", "name_ru": "Колпашево", "tz": "Asia/Krasnoyarsk", "district": "Томская область"}, {"id": 983, "name": "Seversk", "name_ru": "Северск", "tz": "Asia/Krasnoyarsk", "district": "Томская область"}, {"id": 984, "name": "Strezhevoy", "name_ru": "Стрежевой", "tz": "Asia/Krasnoyarsk", "district": "Томская область"}, {"id": 985, "name": "Tula", "name_ru": "Тула", "tz": "Europe/Moscow", "district": "Тульская область"}, {"id": 986, "name": "Novomoskovsk", "name_ru": "Новомосковск", "tz": "Europe/Moscow", "district": "Тульская область"}, {"id": 987, "name": "Donskoy", "name_ru": "Донской", "tz": "Europe/Moscow", "district": "Тульская область"}, {"id": 988, "name": "Aleksin", "name_ru": "Алексин", "tz": "Europe/Moscow", "district": "Тульская область"}, {"id": 989, "name": "Shchyokino", "name_ru": "Щёкино", "tz": "Europe/Moscow", "district": "Тульская область"}, {"id": 990, "name": "Uzlovaya", "name_ru": "Узловая", "tz": "Europe/Moscow", "district": "Тульская область"}, {"id": 991, "name": "Yefremov", "name_ru": "Ефремов", "tz": "Europe/Moscow", "district": "Тульская область"}, {"id": 992, "name": "Bogoroditsk", "name_ru": "Богородицк", "tz": "Europe/Moscow", "district": "Тульская область"}, {"id": 993, "name": "Kimovsk", "name_ru": "Кимовск", "tz": "Europe/Moscow", "district": "Тульская область"}, {"id": 994, "name": "Kireyevsk", "name_ru": "Киреевск", "tz": "Europe/Moscow", "district": "Тульская область"}, {"id": 995, "name": "Suvorov", "name_ru": "Суворов", "tz": "Europe/Moscow", "district": "Тульская область"}, {"id": 996, "name": "Yasnogorsk", "name_ru": "Ясногорск", "tz": "Europe/Moscow", "district": "Тульская область"}, {"id": 997, "name": "Plavsk", "name_ru": "Плавск", "tz": "Europe/Moscow", "district": "Тульская область"}, {"id": 998, "name": "Venyov", "name_ru": "Венёв", "tz": "Europe/Moscow", "district": "Тульская область"}, {"id": 999, "name": "Belyov", "name_ru": "Белёв", "tz": "Europe/Moscow", "district": "Тульская область"}, {"id": 1000, "name": "Bolokhovo", "name_ru": "Болохово", "tz": "Europe/Moscow", "district": "Тульская область"}, {"id": 1001, "name": "Lipki", "name_ru": "Липки", "tz": "Europe/Moscow", "district": "Тульская область"}, {"id": 1002, "name": "Sovetsk", "name_ru": "Советск", "tz": "Europe/Moscow", "district": "Тульская область"}, {"id": 1003, "name": "Chekalin", "name_ru": "Чекалин", "tz": "Europe/Moscow", "district": "Тульская область"}, {"id": 1004, "name": "Zavodoukovsk", "name_ru": "Заводоуковск", "tz": "Asia/Yekaterinburg", "district": "Тюменская область"}, {"id": 1005, "name": "Ishim", "name_ru": "Ишим", "tz": "Asia/Yekaterinburg", "district": "Тюменская область"}, {"id": 1006, "name": "Tobolsk", "name_ru": "Тобольск", "tz": "Asia/Yekaterinburg", "district": "Тюменская область"}, {"id": 1007, "name": "Tyumen", "name_ru": "Тюмень", "tz": "Asia/Yekaterinburg", "district": "Тюменская область"}, {"id": 1008, "name": "Yalutorovsk", "name_ru": "Ялуторовск", "tz": "Asia/Yekaterinburg", "district": "Тюменская область"}, {"id": 1009, "name": "Ulyanovsk", "name_ru": "Ульяновск", "tz": "Europe/Samara", "district": "Ульяновская область"}, {"id": 1010, "name": "Dimitrovgrad", "name_ru": "Димитровград", "tz": "Europe/Samara", "district": "Ульяновская область"}, {"id": 1011, "name": "Inza", "name_ru": "Инза", "tz": "Europe/Samara", "district": "Ульяновская область"}, {"id": 1012, "name": "Barysh", "name_ru": "Барыш", "tz": "Europe/Samara", "district": "Ульяновская область"}, {"id": 1013, "name": "Novoulyanovsk", "name_ru": "Новоульяновск", "tz": "Europe/Samara", "district": "Ульяновская область"}, {"id": 1014, "name": "Sengiley", "name_ru": "Сенгилей", "tz": "Europe/Samara", "district": "Ульяновская область"}, {"id": 1015, "name": "Asha", "name_ru": "Аша", "tz": "Asia/Yekaterinburg", "district": "Челябинская область"}, {"id": 1016, "name": "Bakal", "name_ru": "Бакал", "tz": "Asia/Yekaterinburg", "district": "Челябинская область"}, {"id": 1017, "name": "Verkhneuralsk", "name_ru": "Верхнеуральск", "tz": "Asia/Yekaterinburg", "district": "Челябинская область"}, {"id": 1018, "name": "Verkhny Ufaley", "name_ru": "Верхний Уфалей", "tz": "Asia/Yekaterinburg", "district": "Челябинская область"}, {"id": 1019, "name": "Yemanzhelinsk", "name_ru": "Еманжелинск", "tz": "Asia/Yekaterinburg", "district": "Челябинская область"}, {"id": 1020, "name": "Zlatoust", "name_ru": "Златоуст", "tz": "Asia/Yekaterinburg", "district": "Челябинская область"}, {"id": 1021, "name": "Karabash", "name_ru": "Карабаш", "tz": "Asia/Yekaterinburg", "district": "Челябинская область"}, {"id": 1022, "name": "Kartaly", "name_ru": "Карталы", "tz": "Asia/Yekaterinburg", "district": "Челябинская область"}, {"id": 1023, "name": "Kasli", "name_ru": "Касли", "tz": "Asia/Yekaterinburg", "district": "Челябинская область"}, {"id": 1024, "name": "Katav-Ivanovsk", "name_ru": "Катав-Ивановск", "tz": "Asia/Yekaterinburg", "district": "Челябинская область"}, {"id": 1025, "name": "Kopeysk", "name_ru": "Копейск", "tz": "Asia/Yekaterinburg", "district": "Челябинская область"}, {"id": 1026, "name": "Korkino", "name_ru": "Коркино", "tz": "Asia/Yekaterinburg", "district": "Челябинская область"}, {"id": 1027, "name": "Kusa", "name_ru": "Куса", "tz": "Asia/Yekaterinburg", "district": "Челябинская область"}, {"id": 1028, "name": "Kyshtym", "name_ru": "Кыштым", "tz": "Asia/Yekaterinburg", "district": "Челябинская область"}, {"id": 1029, "name": "Magnitogorsk", "name_ru": "Магнитогорск", "tz": "Asia/Yekaterinburg", "district": "Челябинская область"}, {"id": 1030, "name": "Miass", "name_ru": "Миасс", "tz": "Asia/Yekaterinburg", "district": "Челябинская область"}, {"id": 1031, "name": "Minyar", "name_ru": "Миньяр", "tz": "Asia/Yekaterinburg", "district": "Челябинская область"}, {"id": 1032, "name": "Nyazepetrovsk", "name_ru": "Нязепетровск", "tz": "Asia/Yekaterinburg", "district": "Челябинская область"}, {"id": 1033, "name": "Ozyorsk", "name_ru": "Озёрск", "tz": "Asia/Yekaterinburg", "district": "Челябинская область"}, {"id": 1034, "name": "Plast", "name_ru": "Пласт", "tz": "Asia/Yekaterinburg", "district": "Челябинская область"}, {"id": 1035, "name": "Satka", "name_ru": "Сатка", "tz": "Asia/Yekaterinburg", "district": "Челябинская область"}, {"id": 1036, "name": "Sim", "name_ru": "Сим", "tz": "Asia/Yekaterinburg", "district": "Челябинская область"}, {"id": 1037, "name": "Snezhinsk", "name_ru": "Снежинск", "tz": "Asia/Yekaterinburg", "district": "Челябинская область"}, {"id": 1038, "name": "Troitsk", "name_ru": "Троицк", "tz": "Asia/Yekaterinburg", "district": "Челябинская область"}, {"id": 1039, "name": "Tryokhgorny", "name_ru": "Трёхгорный", "tz": "Asia/Yekaterinburg", "district": "Челябинская область"}, {"id": 1040, "name": "Ust-Katav", "name_ru": "Усть-Катав", "tz": "Asia/Yekaterinburg", "district": "Челябинская область"}, {"id": 1041, "name": "Chebarkul", "name_ru": "Чебаркуль", "tz": "Asia/Yekaterinburg", "district": "Челябинская область"}, {"id": 1042, "name": "Chelyabinsk", "name_ru": "Челябинск", "tz": "Asia/Yekaterinburg", "district": "Челябинская область"}, {"id": 1043, "name": "Yuzhnouralsk", "name_ru": "Южноуральск", "tz": "Asia/Yekaterinburg", "district": "Челябинская область"}, {"id": 1044, "name": "Yuryuzan", "name_ru": "Юрюзань", "tz": "Asia/Yekaterinburg", "district": "Челябинская область"}, {"id": 1045, "name": "Baley", "name_ru": "Балей", "tz": "Asia/Yakutsk", "district": "Забайкальский край"}, {"id": 1046, "name": "Borzya", "name_ru": "Борзя", "tz": "Asia/Yakutsk", "district": "Забайкальский край"}, {"id": 1047, "name": "Krasnokamensk", "name_ru": "Краснокаменск", "tz": "Asia/Yakutsk", "district": "Забайкальский край"}, {"id": 1048, "name": "Mogocha", "name_ru": "Могоча", "tz": "Asia/Yakutsk", "district": "Забайкальский край"}, {"id": 1049, "name": "Nerchinsk", "name_ru": "Нерчинск", "tz": "Asia/Yakutsk", "district": "Забайкальский край"}, {"id": 1050, "name": "Petrovsk-Zabaykalsky", "name_ru": "Петровск-Забайкальский", "tz": "Asia/Yakutsk", "district": "Забайкальский край"}, {"id": 1051, "name": "Sretensk", "name_ru": "Сретенск", "tz": "Asia/Yakutsk", "district": "Забайкальский край"}, {"id": 1052, "name": "Khilok", "name_ru": "Хилок", "tz": "Asia/Yakutsk", "district": "Забайкальский край"}, {"id": 1053, "name": "Chita", "name_ru": "Чита", "tz": "Asia/Yakutsk", "district": "Забайкальский край"}, {"id": 1054, "name": "Shilka", "name_ru": "Шилка", "tz": "Asia/Yakutsk", "district": "Забайкальский край"}, {"id": 1055, "name": "Yaroslavl", "name_ru": "Ярославль", "tz": "Europe/Moscow", "district": "Ярославская область"}, {"id": 1056, "name": "Rybinsk", "name_ru": "Рыбинск", "tz": "Europe/Moscow", "district": "Ярославская область"}, {"id": 1057, "name": "Pereslavl-Zalessky", "name_ru": "Переславль-Залесский", "tz": "Europe/Moscow", "district": "Ярославская область"}, {"id": 1058, "name": "Tutayev", "name_ru": "Тутаев", "tz": "Europe/Moscow", "district": "Ярославская область"}, {"id": 1059, "name": "Uglich", "name_ru": "Углич", "tz": "Europe/Moscow", "district": "Ярославская область"}, {"id": 1060, "name": "Rostov", "name_ru": "Ростов", "tz": "Europe/Moscow", "district": "Ярославская область"}, {"id": 1061, "name": "Gavrilov-Yam", "name_ru": "Гаврилов-Ям", "tz": "Europe/Moscow", "district": "Ярославская область"}, {"id": 1062, "name": "Danilov", "name_ru": "Данилов", "tz": "Europe/Moscow", "district": "Ярославская область"}, {"id": 1063, "name": "Poshekhonye", "name_ru": "Пошехонье", "tz": "Europe/Moscow", "district": "Ярославская область"}, {"id": 1064, "name": "Myshkin", "name_ru": "Мышкин", "tz": "Europe/Moscow", "district": "Ярославская область"}, {"id": 1065, "name": "Lyubim", "name_ru": "Любим", "tz": "Europe/Moscow", "district": "Ярославская область"}, {"id": 1066, "name": "Birobidzhan", "name_ru": "Биробиджан", "tz": "Asia/Vladivostok", "district": "Еврейская автономная область"}, {"id": 1067, "name": "Obluchye", "name_ru": "Облучье", "tz": "Asia/Vladivostok", "district": "Еврейская автономная область"}, {"id": 1068, "name": "Naryan-Mar", "name_ru": "Нарьян-Мар", "tz": "Europe/Moscow", "district": "Ненецкий автономный округ"}, {"id": 1069, "name": "Beloyarsky", "name_ru": "Белоярский", "tz": "Asia/Yekaterinburg", "district": "Ханты-Мансийский Автономный округ - Югра"}, {"id": 1070, "name": "Kogalym", "name_ru": "Когалым", "tz": "Asia/Yekaterinburg", "district": "Ханты-Мансийский Автономный округ - Югра"}, {"id": 1071, "name": "Langepas", "name_ru": "Лангепас", "tz": "Asia/Yekaterinburg", "district": "Ханты-Мансийский Автономный округ - Югра"}, {"id": 1072, "name": "Lyantor", "name_ru": "Лянтор", "tz": "Asia/Yekaterinburg", "district": "Ханты-Мансийский Автономный округ - Югра"}, {"id": 1073, "name": "Megion", "name_ru": "Мегион", "tz": "Asia/Yekaterinburg", "district": "Ханты-Мансийский Автономный округ - Югра"}, {"id": 1074, "name": "Nefteyugansk", "name_ru": "Нефтеюганск", "tz": "Asia/Yekaterinburg", "district": "Ханты-Мансийский Автономный округ - Югра"}, {"id": 1075, "name": "Nizhnevartovsk", "name_ru": "Нижневартовск", "tz": "Asia/Yekaterinburg", "district": "Ханты-Мансийский Автономный округ - Югра"}, {"id": 1076, "name": "Nyagan", "name_ru": "Нягань", "tz": "Asia/Yekaterinburg", "district": "Ханты-Мансийский Автономный округ - Югра"}, {"id": 1077, "name": "Pokachi", "name_ru": "Покачи", "tz": "Asia/Yekaterinburg", "district": "Ханты-Мансийский Автономный округ - Югра"}, {"id": 1078, "name": "Pyt-Yakh", "name_ru": "Пыть-Ях", "tz": "Asia/Yekaterinburg", "district": "Ханты-Мансийский Автономный округ - Югра"}, {"id": 1079, "name": "Sovetsky", "name_ru": "Советский", "tz": "Asia/Yekaterinburg", "district": "Ханты-Мансийский Автономный округ - Югра"}, {"id": 1080, "name": "Surgut", "name_ru": "Сургут", "tz": "Asia/Yekaterinburg", "district": "Ханты-Мансийский Автономный округ - Югра"}, {"id": 1081, "name": "Raduzhny", "name_ru": "Радужный", "tz": "Asia/Yekaterinburg", "district": "Ханты-Мансийский Автономный округ - Югра"}, {"id": 1082, "name": "Uray", "name_ru": "Урай", "tz": "Asia/Yekaterinburg", "district": "Ханты-Мансийский Автономный округ - Югра"}, {"id": 1083, "name": "Khanty-Mansiysk", "name_ru": "Ханты-Мансийск", "tz": "Asia/Yekaterinburg", "district": "Ханты-Мансийский Автономный округ - Югра"}, {"id": 1084, "name": "Yugorsk", "name_ru": "Югорск", "tz": "Asia/Yekaterinburg", "district": "Ханты-Мансийский Автономный округ - Югра"}, {"id": 1085, "name": "Anadyr", "name_ru": "Анадырь", "tz": "Asia/Kamchatka", "district": "Чукотский автономный округ"}, {"id": 1086, "name": "Bilibino", "name_ru": "Билибино", "tz": "Asia/Kamchatka", "district": "Чукотский автономный округ"}, {"id": 1087, "name": "Pevek", "name_ru": "Певек", "tz": "Asia/Kamchatka", "district": "Чукотский автономный округ"}, {"id": 1088, "name": "Gubkinsky", "name_ru": "Губкинский", "tz": "Asia/Yekaterinburg", "district": "Ямало-Ненецкий автономный округ"}, {"id": 1089, "name": "Labytnangi", "name_ru": "Лабытнанги", "tz": "Asia/Yekaterinburg", "district": "Ямало-Ненецкий автономный округ"}, {"id": 1090, "name": "Muravlenko", "name_ru": "Муравленко", "tz": "Asia/Yekaterinburg", "district": "Ямало-Ненецкий автономный округ"}, {"id": 1091, "name": "Nadym", "name_ru": "Надым", "tz": "Asia/Yekaterinburg", "district": "Ямало-Ненецкий автономный округ"}, {"id": 1092, "name": "Novy Urengoy", "name_ru": "Новый Уренгой", "tz": "Asia/Yekaterinburg", "district": "Ямало-Ненецкий автономный округ"}, {"id": 1093, "name": "Noyabrsk", "name_ru": "Ноябрьск", "tz": "Asia/Yekaterinburg", "district": "Ямало-Ненецкий автономный округ"}, {"id": 1094, "name": "Salekhard", "name_ru": "Салехард", "tz": "Asia/Yekaterinburg", "district": "Ямало-Ненецкий автономный округ"}, {"id": 1095, "name": "Tarko-Sale", "name_ru": "Тарко-Сале", "tz": "Asia/Yekaterinburg", "district": "Ямало-Ненецкий автономный округ"}, {"id": 1096, "name": "Argun", "name_ru": "Аргун", "tz": "Europe/Moscow", "district": "Чеченская Республика"}, {"id": 1097, "name": "Grozny", "name_ru": "Грозный", "tz": "Europe/Moscow", "district": "Чеченская Республика"}, {"id": 1098, "name": "Gudermes", "name_ru": "Гудермес", "tz": "Europe/Moscow", "district": "Чеченская Республика"}, {"id": 1099, "name": "Kurchaloy", "name_ru": "Курчалой", "tz": "Europe/Moscow", "district": "Чеченская Республика"}, {"id": 1100, "name": "Achkhoy-Martan", "name_ru": "Ачхой-Мартан", "tz": "Europe/Moscow", "district": "Чеченская Республика"}, {"id": 1101, "name": "Urus-Martan", "name_ru": "Урус-Мартан", "tz": "Europe/Moscow", "district": "Чеченская Республика"}, {"id": 1102, "name": "Shali", "name_ru": "Шали", "tz": "Europe/Moscow", "district": "Чеченская Республика"}]