[{"id": 1, "name": "Kigali", "name_ru": "Kigali", "tz": "", "district": "Kigali"}, {"id": 2, "name": "Nyanza", "name_ru": "Nyanza", "tz": "", "district": "Southern Province"}, {"id": 3, "name": "Gisenyi", "name_ru": "Gisenyi", "tz": "", "district": "Western Province"}, {"id": 4, "name": "Ruhengeri", "name_ru": "Ruhengeri", "tz": "", "district": "Northern Province"}, {"id": 5, "name": "Byumba", "name_ru": "Byumba", "tz": "", "district": "Northern Province"}, {"id": 6, "name": "Rwamagana", "name_ru": "Rwamagana", "tz": "", "district": "Eastern Province"}, {"id": 7, "name": "Kibuye", "name_ru": "Kibuye", "tz": "", "district": "Western Province"}, {"id": 8, "name": "Gitarama", "name_ru": "Gitarama", "tz": "", "district": "Southern Province"}, {"id": 9, "name": "Butare", "name_ru": "Butare", "tz": "", "district": "Southern Province"}, {"id": 10, "name": "Muhanga", "name_ru": "Muhanga", "tz": "", "district": "Southern Province"}, {"id": 11, "name": "Kabuga", "name_ru": "Kabuga", "tz": "", "district": "Kigali"}, {"id": 12, "name": "Cyangugu", "name_ru": "Cyangugu", "tz": "", "district": "Western Province"}, {"id": 13, "name": "Gikongoro", "name_ru": "Gikongoro", "tz": "", "district": "Southern Province"}, {"id": 14, "name": "Ruhango", "name_ru": "Ruhango", "tz": "", "district": "Southern Province"}, {"id": 15, "name": "Kibungo", "name_ru": "Kibungo", "tz": "", "district": "Eastern Province"}]