[{"id": 1, "name": "Riyadh", "name_ru": "Riyadh", "tz": "", "district": "Ar Riyāḑ"}, {"id": 2, "name": "Jeddah", "name_ru": "Jeddah", "tz": "", "district": "Makkah al Mukarramah"}, {"id": 3, "name": "Mecca", "name_ru": "Mecca", "tz": "", "district": "Makkah al Mukarramah"}, {"id": 4, "name": "Medina", "name_ru": "Medina", "tz": "", "district": "Al Madīnah al Munawwarah"}, {"id": 5, "name": "Ad Dammam", "name_ru": "Ad Dammām", "tz": "", "district": "Ash Sharqīyah"}, {"id": 6, "name": "Al Hufuf", "name_ru": "Al Hufūf", "tz": "", "district": "Ash Sharqīyah"}, {"id": 7, "name": "Al Hillah", "name_ru": "Al Ḩillah", "tz": "", "district": "Ar Riyāḑ"}, {"id": 8, "name": "At Ta'if", "name_ru": "Aţ Ţā’if", "tz": "", "district": "Makkah al Mukarramah"}, {"id": 9, "name": "Tabuk", "name_ru": "Tabūk", "tz": "", "district": "Tabūk"}, {"id": 10, "name": "Buraydah", "name_ru": "Buraydah", "tz": "", "district": "Al Qaşīm"}, {"id": 11, "name": "Ha'il", "name_ru": "Ḩā’il", "tz": "", "district": "Ḩā’il"}, {"id": 12, "name": "Al Qatif", "name_ru": "Al Qaţīf", "tz": "", "district": "Ash Sharqīyah"}, {"id": 13, "name": "Al Mubarraz", "name_ru": "Al Mubarraz", "tz": "", "district": "Ash Sharqīyah"}, {"id": 14, "name": "Al Kharj", "name_ru": "Al Kharj", "tz": "", "district": "Ar Riyāḑ"}, {"id": 15, "name": "Yanbu`", "name_ru": "Yanbu‘", "tz": "", "district": "Al Madīnah al Munawwarah"}, {"id": 16, "name": "Hafr al Batin", "name_ru": "Ḩafr al Bāţin", "tz": "", "district": "Ash Sharqīyah"}, {"id": 17, "name": "Al Jubayl", "name_ru": "Al Jubayl", "tz": "", "district": "Ash Sharqīyah"}, {"id": 18, "name": "Abha", "name_ru": "Abhā", "tz": "", "district": "‘Asīr"}, {"id": 19, "name": "Al Khubar", "name_ru": "Al Khubar", "tz": "", "district": "Ash Sharqīyah"}, {"id": 20, "name": "Sakaka", "name_ru": "Sakākā", "tz": "", "district": "Al Jawf"}, {"id": 21, "name": "Jazan", "name_ru": "Jāzān", "tz": "", "district": "Jāzān"}, {"id": 22, "name": "Najran", "name_ru": "Najrān", "tz": "", "district": "Najrān"}, {"id": 23, "name": "Arar", "name_ru": "Arar", "tz": "", "district": "Al Ḩudūd ash Shamālīyah"}, {"id": 24, "name": "Al Bahah", "name_ru": "Al Bāḩah", "tz": "", "district": "Al Bāḩah"}, {"id": 25, "name": "Khamis Mushayt", "name_ru": "Khamīs Mushayţ", "tz": "", "district": "‘Asīr"}, {"id": 26, "name": "Qal`at Bishah", "name_ru": "Qal‘at Bīshah", "tz": "", "district": "‘Asīr"}, {"id": 27, "name": "Rafha", "name_ru": "Rafḩā", "tz": "", "district": "Al Ḩudūd ash Shamālīyah"}, {"id": 28, "name": "Al Wajh", "name_ru": "Al Wajh", "tz": "", "district": "Tabūk"}, {"id": 29, "name": "Dhahran", "name_ru": "Dhahran", "tz": "", "district": "Ash Sharqīyah"}, {"id": 30, "name": "As Sulayyil", "name_ru": "As Sulayyil", "tz": "", "district": "Ar Riyāḑ"}, {"id": 31, "name": "Dawmat al Jandal", "name_ru": "Dawmat al Jandal", "tz": "", "district": "Al Jawf"}, {"id": 32, "name": "Ad Dir`iyah", "name_ru": "Ad Dir‘īyah", "tz": "", "district": "Ar Riyāḑ"}, {"id": 33, "name": "Al Hawiyah", "name_ru": "Al Ḩawīyah", "tz": "", "district": "Makkah al Mukarramah"}, {"id": 34, "name": "Al Majma`ah", "name_ru": "Al Majma‘ah", "tz": "", "district": "Ar Riyāḑ"}, {"id": 35, "name": "Duruma", "name_ru": "Ḑurumā", "tz": "", "district": "Ar Riyāḑ"}, {"id": 36, "name": "Layla", "name_ru": "Laylá", "tz": "", "district": "Ar Riyāḑ"}, {"id": 37, "name": "Turabah", "name_ru": "Turabah", "tz": "", "district": "Makkah al Mukarramah"}, {"id": 38, "name": "Al Qurayyat", "name_ru": "Al Qurayyāt", "tz": "", "district": "Al Jawf"}, {"id": 39, "name": "Al Quway`iyah", "name_ru": "Al Quway‘īyah", "tz": "", "district": "Ar Riyāḑ"}, {"id": 40, "name": "Al Qunfudhah", "name_ru": "Al Qunfudhah", "tz": "", "district": "Makkah al Mukarramah"}]