[{"id": 1, "name": "Khartoum", "name_ru": "Khartoum", "tz": "", "district": "Khartoum"}, {"id": 2, "name": "Omdurman", "name_ru": "Omdurman", "tz": "", "district": "Khartoum"}, {"id": 3, "name": "Khartoum North", "name_ru": "Khartoum North", "tz": "", "district": "Khartoum"}, {"id": 4, "name": "Port Sudan", "name_ru": "Port Sudan", "tz": "", "district": "Red Sea"}, {"id": 5, "name": "Kassala", "name_ru": "Kassala", "tz": "", "district": "Kassala"}, {"id": 6, "name": "Nyala", "name_ru": "Nyala", "tz": "", "district": "South Darfur"}, {"id": 7, "name": "El Obeid", "name_ru": "El Obeid", "tz": "", "district": "North Kordofan"}, {"id": 8, "name": "Gedaref", "name_ru": "Gedaref", "tz": "", "district": "Al Gedaref"}, {"id": 9, "name": "Kusti", "name_ru": "Kūstī", "tz": "", "district": "White Nile"}, {"id": 10, "name": "Wad Medani", "name_ru": "Wad Medani", "tz": "", "district": "Al Gazira"}, {"id": 11, "name": "El Fasher", "name_ru": "El Fasher", "tz": "", "district": "North Darfur"}, {"id": 12, "name": "Kurmuk", "name_ru": "Kurmuk", "tz": "", "district": "Blue Nile"}, {"id": 13, "name": "Shendi", "name_ru": "Shendi", "tz": "", "district": "River Nile"}, {"id": 14, "name": "Ed Damazin", "name_ru": "Ed Damazin", "tz": "", "district": "Blue Nile"}, {"id": 15, "name": "Kadugli", "name_ru": "Kadugli", "tz": "", "district": "South Kordofan"}, {"id": 16, "name": "El Geneina", "name_ru": "El Geneina", "tz": "", "district": "West Darfur"}, {"id": 17, "name": "Al Manaqil", "name_ru": "Al Manāqil", "tz": "", "district": "Al Gazira"}, {"id": 18, "name": "Atbara", "name_ru": "Atbara", "tz": "", "district": "River Nile"}, {"id": 19, "name": "Sannar", "name_ru": "Sannār", "tz": "", "district": "Sennar"}, {"id": 20, "name": "An Nuhud", "name_ru": "An Nuhūd", "tz": "", "district": "Western Kordofan"}, {"id": 21, "name": "EdDamer", "name_ru": "EdDamer", "tz": "", "district": "River Nile"}, {"id": 22, "name": "Dongola", "name_ru": "Dongola", "tz": "", "district": "Northern"}, {"id": 23, "name": "Rabak", "name_ru": "Rabak", "tz": "", "district": "White Nile"}, {"id": 24, "name": "Singa", "name_ru": "Singa", "tz": "", "district": "Sennar"}, {"id": 25, "name": "Ed Daein", "name_ru": "Ed Daein", "tz": "", "district": "East Darfur"}, {"id": 26, "name": "Zalingei", "name_ru": "Zalingei", "tz": "", "district": "Central Darfur"}, {"id": 27, "name": "El Fula", "name_ru": "El Fula", "tz": "", "district": "Western Kordofan"}, {"id": 28, "name": "Ad Diwem", "name_ru": "Ad Diwem", "tz": "", "district": "White Nile"}, {"id": 29, "name": "Tokar", "name_ru": "Tokār", "tz": "", "district": "Red Sea"}, {"id": 30, "name": "Umm Ruwaba", "name_ru": "Umm Ruwaba", "tz": "", "district": "North Kordofan"}, {"id": 31, "name": "Abu Hamad", "name_ru": "Abū Ḩamad", "tz": "", "district": "River Nile"}, {"id": 32, "name": "Berber", "name_ru": "Berber", "tz": "", "district": "River Nile"}, {"id": 33, "name": "Sawakin", "name_ru": "Sawākin", "tz": "", "district": "Red Sea"}, {"id": 34, "name": "Haya", "name_ru": "Haya", "tz": "", "district": "Red Sea"}, {"id": 35, "name": "Al Mijlad", "name_ru": "Al Mijlad", "tz": "", "district": "Western Kordofan"}, {"id": 36, "name": "Babanusah", "name_ru": "Babanūsah", "tz": "", "district": "Western Kordofan"}, {"id": 37, "name": "Wadi Halfa'", "name_ru": "Wādī Ḩalfā’", "tz": "", "district": "Northern"}, {"id": 38, "name": "Marawi", "name_ru": "Marawī", "tz": "", "district": "Northern"}, {"id": 39, "name": "Karmah an Nuzul", "name_ru": "Karmah an Nuzul", "tz": "", "district": "Northern"}]