[{"id": 1, "name": "Stockholm", "name_ru": "Stockholm", "tz": "", "district": "Stockholm"}, {"id": 2, "name": "Gothenburg", "name_ru": "Gothenburg", "tz": "", "district": "Västra Götaland"}, {"id": 3, "name": "Malmo", "name_ru": "Malmö", "tz": "", "district": "Skåne"}, {"id": 4, "name": "Uppsala", "name_ru": "Uppsala", "tz": "", "district": "Uppsala"}, {"id": 5, "name": "Uppsala", "name_ru": "Uppsala", "tz": "", "district": "Stockholm"}, {"id": 6, "name": "Vasteras", "name_ru": "Västerås", "tz": "", "district": "Västmanland"}, {"id": 7, "name": "Orebro", "name_ru": "Örebro", "tz": "", "district": "Örebro"}, {"id": 8, "name": "Linkoping", "name_ru": "Linköping", "tz": "", "district": "Östergötland"}, {"id": 9, "name": "Helsingborg", "name_ru": "Helsingborg", "tz": "", "district": "Skåne"}, {"id": 10, "name": "Jonkoping", "name_ru": "Jönköping", "tz": "", "district": "Jönköping"}, {"id": 11, "name": "Umea", "name_ru": "Umeå", "tz": "", "district": "Västerbotten"}, {"id": 12, "name": "Gavle", "name_ru": "Gävle", "tz": "", "district": "Gävleborg"}, {"id": 13, "name": "Karlstad", "name_ru": "Karlstad", "tz": "", "district": "Värmland"}, {"id": 14, "name": "Vaxjo", "name_ru": "Växjö", "tz": "", "district": "Kronoberg"}, {"id": 15, "name": "Halmstad", "name_ru": "Halmstad", "tz": "", "district": "Halland"}, {"id": 16, "name": "Lulea", "name_ru": "Luleå", "tz": "", "district": "Norrbotten"}, {"id": 17, "name": "Trollhattan", "name_ru": "Trollhättan", "tz": "", "district": "Västra Götaland"}, {"id": 18, "name": "Ostersund", "name_ru": "Östersund", "tz": "", "district": "Jämtland"}, {"id": 19, "name": "Kalmar", "name_ru": "Kalmar", "tz": "", "district": "Kalmar"}, {"id": 20, "name": "Falun", "name_ru": "Falun", "tz": "", "district": "Dalarna"}, {"id": 21, "name": "Karlskrona", "name_ru": "Karlskrona", "tz": "", "district": "Blekinge"}, {"id": 22, "name": "Nykoping", "name_ru": "Nyköping", "tz": "", "district": "Södermanland"}, {"id": 23, "name": "Visby", "name_ru": "Visby", "tz": "", "district": "Gotland"}, {"id": 24, "name": "Huskvarna", "name_ru": "Huskvarna", "tz": "", "district": "Jönköping"}, {"id": 25, "name": "Harnosand", "name_ru": "Härnösand", "tz": "", "district": "Västernorrland"}, {"id": 26, "name": "Norrkoping", "name_ru": "Norrköping", "tz": "", "district": "Östergötland"}, {"id": 27, "name": "Sundsvall", "name_ru": "Sundsvall", "tz": "", "district": "Västernorrland"}, {"id": 28, "name": "Boras", "name_ru": "Borås", "tz": "", "district": "Västra Götaland"}, {"id": 29, "name": "Skovde", "name_ru": "Skövde", "tz": "", "district": "Västra Götaland"}, {"id": 30, "name": "Borlange", "name_ru": "Borlänge", "tz": "", "district": "Dalarna"}, {"id": 31, "name": "Molndal", "name_ru": "Mölndal", "tz": "", "district": "Västra Götaland"}, {"id": 32, "name": "Kristianstad", "name_ru": "Kristianstad", "tz": "", "district": "Skåne"}, {"id": 33, "name": "Skelleftea", "name_ru": "Skellefteå", "tz": "", "district": "Västerbotten"}, {"id": 34, "name": "Ornskoldsvik", "name_ru": "Örnsköldsvik", "tz": "", "district": "Västernorrland"}, {"id": 35, "name": "Kiruna", "name_ru": "Kiruna", "tz": "", "district": "Norrbotten"}, {"id": 36, "name": "Vanersborg", "name_ru": "Vänersborg", "tz": "", "district": "Västra Götaland"}, {"id": 37, "name": "Hoganas", "name_ru": "Höganäs", "tz": "", "district": "Skåne"}, {"id": 38, "name": "Kinna", "name_ru": "Kinna", "tz": "", "district": "Västra Götaland"}, {"id": 39, "name": "Mariestad", "name_ru": "Mariestad", "tz": "", "district": "Västra Götaland"}, {"id": 40, "name": "Mjolby", "name_ru": "Mjölby", "tz": "", "district": "Östergötland"}, {"id": 41, "name": "Bollnas", "name_ru": "Bollnäs", "tz": "", "district": "Gävleborg"}, {"id": 42, "name": "Mora", "name_ru": "Mora", "tz": "", "district": "Dalarna"}, {"id": 43, "name": "Ulricehamn", "name_ru": "Ulricehamn", "tz": "", "district": "Västra Götaland"}, {"id": 44, "name": "Tibro", "name_ru": "Tibro", "tz": "", "district": "Västra Götaland"}, {"id": 45, "name": "Habo", "name_ru": "Habo", "tz": "", "district": "Jönköping"}, {"id": 46, "name": "Tidaholm", "name_ru": "Tidaholm", "tz": "", "district": "Västra Götaland"}, {"id": 47, "name": "Stromstad", "name_ru": "Strömstad", "tz": "", "district": "Västra Götaland"}, {"id": 48, "name": "Haparanda", "name_ru": "Haparanda", "tz": "", "district": "Norrbotten"}, {"id": 49, "name": "Hjo", "name_ru": "Hjo", "tz": "", "district": "Västra Götaland"}, {"id": 50, "name": "Kungsor", "name_ru": "Kungsör", "tz": "", "district": "Västmanland"}, {"id": 51, "name": "Vargarda", "name_ru": "Vårgårda", "tz": "", "district": "Västra Götaland"}, {"id": 52, "name": "Hjarup", "name_ru": "Hjärup", "tz": "", "district": "Skåne"}]