[{"id": 1, "name": "Ljubljana", "name_ru": "Ljubljana", "tz": "", "district": "Ljubljana"}, {"id": 2, "name": "Maribor", "name_ru": "Maribor", "tz": "", "district": "Maribor"}, {"id": 3, "name": "Celje", "name_ru": "Celje", "tz": "", "district": "Celje"}, {"id": 4, "name": "Kranj", "name_ru": "Kranj", "tz": "", "district": "Kranj"}, {"id": 5, "name": "Koper", "name_ru": "Koper", "tz": "", "district": "Koper"}, {"id": 6, "name": "Velenje", "name_ru": "Velenje", "tz": "", "district": "Velenje"}, {"id": 7, "name": "Novo Mesto", "name_ru": "Novo Mesto", "tz": "", "district": "Novo Mesto"}, {"id": 8, "name": "Ptuj", "name_ru": "Ptuj", "tz": "", "district": "Ptuj"}, {"id": 9, "name": "Kamnik", "name_ru": "Kamnik", "tz": "", "district": "Kamnik"}, {"id": 10, "name": "Jesenice", "name_ru": "Jesenice", "tz": "", "district": "Jesenice"}, {"id": 11, "name": "Domzale", "name_ru": "Domžale", "tz": "", "district": "Domžale"}, {"id": 12, "name": "Nova Gorica", "name_ru": "Nova Gorica", "tz": "", "district": "Nova Gorica"}, {"id": 13, "name": "Izola", "name_ru": "Izola", "tz": "", "district": "Izola"}, {"id": 14, "name": "Murska Sobota", "name_ru": "Murska Sobota", "tz": "", "district": "Murska Sobota"}, {"id": 15, "name": "Skofja Loka", "name_ru": "Škofja Loka", "tz": "", "district": "Škofja Loka"}, {"id": 16, "name": "Postojna", "name_ru": "Postojna", "tz": "", "district": "Postojna"}, {"id": 17, "name": "Vrhnika", "name_ru": "Vrhnika", "tz": "", "district": "Vrhnika"}, {"id": 18, "name": "Grosuplje", "name_ru": "Grosuplje", "tz": "", "district": "Grosuplje"}, {"id": 19, "name": "Kocevje", "name_ru": "Kočevje", "tz": "", "district": "Kočevje"}, {"id": 20, "name": "Krsko", "name_ru": "Krško", "tz": "", "district": "Krško"}, {"id": 21, "name": "Slovenska Bistrica", "name_ru": "Slovenska Bistrica", "tz": "", "district": "Slovenska Bistrica"}, {"id": 22, "name": "Litija", "name_ru": "Litija", "tz": "", "district": "Litija"}, {"id": 23, "name": "Ajdovscina", "name_ru": "Ajdovščina", "tz": "", "district": "Ajdovščina"}, {"id": 24, "name": "Ravne na Koroskem", "name_ru": "Ravne na Koroškem", "tz": "", "district": "Ravne na Koroškem"}, {"id": 25, "name": "Slovenj Gradec", "name_ru": "Slovenj Gradec", "tz": "", "district": "Slovenj Gradec"}, {"id": 26, "name": "Brezice", "name_ru": "Brežice", "tz": "", "district": "Brežice"}, {"id": 27, "name": "Sezana", "name_ru": "Sežana", "tz": "", "district": "Sežana"}, {"id": 28, "name": "Zagorje", "name_ru": "Zagorje", "tz": "", "district": "Zagorje ob Savi"}, {"id": 29, "name": "Crnomelj", "name_ru": "Črnomelj", "tz": "", "district": "Črnomelj"}, {"id": 30, "name": "Idrija", "name_ru": "Idrija", "tz": "", "district": "Idrija"}, {"id": 31, "name": "Prevalje", "name_ru": "Prevalje", "tz": "", "district": "Prevalje"}, {"id": 32, "name": "Hrastnik", "name_ru": "Hrastnik", "tz": "", "district": "Hrastnik"}, {"id": 33, "name": "Slovenske Konjice", "name_ru": "Slovenske Konjice", "tz": "", "district": "Slovenske Konjice"}, {"id": 34, "name": "Zalec", "name_ru": "Žalec", "tz": "", "district": "Žalec"}, {"id": 35, "name": "Sentjur", "name_ru": "Šentjur", "tz": "", "district": "Šentjur"}, {"id": 36, "name": "Bled", "name_ru": "Bled", "tz": "", "district": "Bled"}, {"id": 37, "name": "Sevnica", "name_ru": "Sevnica", "tz": "", "district": "Sevnica"}, {"id": 38, "name": "Dravograd", "name_ru": "Dravograd", "tz": "", "district": "Dravograd"}, {"id": 39, "name": "Ilirska Bistrica", "name_ru": "Ilirska Bistrica", "tz": "", "district": "Ilirska Bistrica"}, {"id": 40, "name": "Cerknica", "name_ru": "Cerknica", "tz": "", "district": "Cerknica"}, {"id": 41, "name": "Lasko", "name_ru": "Laško", "tz": "", "district": "Laško"}, {"id": 42, "name": "Ruse", "name_ru": "Ruše", "tz": "", "district": "Ruše"}, {"id": 43, "name": "Sempeter pri Gorici", "name_ru": "Šempeter pri Gorici", "tz": "", "district": "Šempeter-Vrtojba"}, {"id": 44, "name": "Ziri", "name_ru": "Žiri", "tz": "", "district": "Žiri"}, {"id": 45, "name": "Gornja Radgona", "name_ru": "Gornja Radgona", "tz": "", "district": "Gornja Radgona"}, {"id": 46, "name": "Trebnje", "name_ru": "Trebnje", "tz": "", "district": "Trebnje"}, {"id": 47, "name": "Piran", "name_ru": "Piran", "tz": "", "district": "Piran"}, {"id": 48, "name": "Ankaran", "name_ru": "Ankaran", "tz": "", "district": "Ankaran"}, {"id": 49, "name": "Lenart v Slovenskih Goricah", "name_ru": "Lenart v Slovenskih Goricah", "tz": "", "district": "Lenart"}, {"id": 50, "name": "Mezica", "name_ru": "Mežica", "tz": "", "district": "Mežica"}, {"id": 51, "name": "Metlika", "name_ru": "Metlika", "tz": "", "district": "Metlika"}, {"id": 52, "name": "Borovnica", "name_ru": "Borovnica", "tz": "", "district": "Borovnica"}, {"id": 53, "name": "Lendava", "name_ru": "Lendava", "tz": "", "district": "Lendava"}, {"id": 54, "name": "Vojnik", "name_ru": "Vojnik", "tz": "", "district": "Vojnik"}, {"id": 55, "name": "Radlje ob Dravi", "name_ru": "Radlje ob Dravi", "tz": "", "district": "Radlje ob Dravi"}, {"id": 56, "name": "Beltinci", "name_ru": "Beltinci", "tz": "", "district": "Beltinci"}, {"id": 57, "name": "Naklo", "name_ru": "Naklo", "tz": "", "district": "Naklo"}, {"id": 58, "name": "Sentjernej", "name_ru": "Šentjernej", "tz": "", "district": "Šentjernej"}, {"id": 59, "name": "Vipava", "name_ru": "Vipava", "tz": "", "district": "Vipava"}, {"id": 60, "name": "Radece", "name_ru": "Radeče", "tz": "", "district": "Radeče"}, {"id": 61, "name": "Ormoz", "name_ru": "Ormož", "tz": "", "district": "Ormož"}, {"id": 62, "name": "Vuzenica", "name_ru": "Vuzenica", "tz": "", "district": "Vuzenica"}, {"id": 63, "name": "Odranci", "name_ru": "Odranci", "tz": "", "district": "Odranci"}, {"id": 64, "name": "Bovec", "name_ru": "Bovec", "tz": "", "district": "Bovec"}, {"id": 65, "name": "Radovljica", "name_ru": "Radovljica", "tz": "", "district": "Radovljica"}, {"id": 66, "name": "Trbovlje", "name_ru": "Trbovlje", "tz": "", "district": "Trbovlje"}, {"id": 67, "name": "Ivancna Gorica", "name_ru": "Ivančna Gorica", "tz": "", "district": "Ivančna Gorica"}, {"id": 68, "name": "Kobarid", "name_ru": "Kobarid", "tz": "", "district": "Kobarid"}, {"id": 69, "name": "Smarje", "name_ru": "Šmarje", "tz": "", "district": "Šmarje pri Jelšah"}, {"id": 70, "name": "Store", "name_ru": "Štore", "tz": "", "district": "Štore"}, {"id": 71, "name": "Kostanjevica na Krki", "name_ru": "Kostanjevica na Krki", "tz": "", "district": "Kostanjevica na Krki"}, {"id": 72, "name": "Cerklje na Gorenjskem", "name_ru": "Cerklje na Gorenjskem", "tz": "", "district": "Cerklje na Gorenjskem"}, {"id": 73, "name": "Rogaska Slatina", "name_ru": "Rogaška Slatina", "tz": "", "district": "Rogaška Slatina"}, {"id": 74, "name": "Sostanj", "name_ru": "Šoštanj", "tz": "", "district": "Šoštanj"}, {"id": 75, "name": "Prebold", "name_ru": "Prebold", "tz": "", "district": "Prebold"}, {"id": 76, "name": "Miklavz na Dravskem Polju", "name_ru": "Miklavž na Dravskem Polju", "tz": "", "district": "Miklavž na Dravskem Polju"}, {"id": 77, "name": "Mozirje", "name_ru": "Mozirje", "tz": "", "district": "Mozirje"}, {"id": 78, "name": "Polzela", "name_ru": "Polzela", "tz": "", "district": "Polzela"}, {"id": 79, "name": "Medvode", "name_ru": "Medvode", "tz": "", "district": "Medvode"}, {"id": 80, "name": "Komenda", "name_ru": "Komenda", "tz": "", "district": "Komenda"}, {"id": 81, "name": "Brezovica", "name_ru": "Brezovica", "tz": "", "district": "Brezovica"}, {"id": 82, "name": "Smartno", "name_ru": "Šmartno", "tz": "", "district": "Šmartno pri Litiji"}, {"id": 83, "name": "Moravce", "name_ru": "Moravče", "tz": "", "district": "Moravče"}, {"id": 84, "name": "Skofljica", "name_ru": "Škofljica", "tz": "", "district": "Škofljica"}, {"id": 85, "name": "Poljcane", "name_ru": "Poljčane", "tz": "", "district": "Poljčane"}, {"id": 86, "name": "Menges", "name_ru": "Mengeš", "tz": "", "district": "Mengeš"}, {"id": 87, "name": "Tolmin", "name_ru": "Tolmin", "tz": "", "district": "Tolmin"}, {"id": 88, "name": "Gornji Petrovci", "name_ru": "Gornji Petrovci", "tz": "", "district": "Gornji Petrovci"}, {"id": 89, "name": "Preddvor", "name_ru": "Preddvor", "tz": "", "district": "Preddvor"}, {"id": 90, "name": "Nazarje", "name_ru": "Nazarje", "tz": "", "district": "Nazarje"}, {"id": 91, "name": "Zrece", "name_ru": "Zreče", "tz": "", "district": "Zreče"}, {"id": 92, "name": "Dragomer", "name_ru": "Dragomer", "tz": "", "district": "Log-Dragomer"}, {"id": 93, "name": "Miren", "name_ru": "Miren", "tz": "", "district": "Miren-Kostanjevica"}, {"id": 94, "name": "Radenci", "name_ru": "Radenci", "tz": "", "district": "Radenci"}, {"id": 95, "name": "Spodnji Duplek", "name_ru": "Spodnji Duplek", "tz": "", "district": "Duplek"}, {"id": 96, "name": "Kanal", "name_ru": "Kanal", "tz": "", "district": "Kanal"}, {"id": 97, "name": "Tisina", "name_ru": "Tišina", "tz": "", "district": "Tišina"}, {"id": 98, "name": "Muta", "name_ru": "Muta", "tz": "", "district": "Muta"}, {"id": 99, "name": "Selnica ob Dravi", "name_ru": "Selnica ob Dravi", "tz": "", "district": "Selnica ob Dravi"}, {"id": 100, "name": "Spodnje Hoce", "name_ru": "Spodnje Hoče", "tz": "", "district": "Hoče-Slivnica"}, {"id": 101, "name": "Sentrupert", "name_ru": "Šentrupert", "tz": "", "district": "Šentrupert"}, {"id": 102, "name": "Ljutomer", "name_ru": "Ljutomer", "tz": "", "district": "Ljutomer"}, {"id": 103, "name": "Stari Trg", "name_ru": "Stari Trg", "tz": "", "district": "Loška Dolina"}, {"id": 104, "name": "Race", "name_ru": "Rače", "tz": "", "district": "Rače-Fram"}, {"id": 105, "name": "Sencur", "name_ru": "Šenčur", "tz": "", "district": "Šenčur"}, {"id": 106, "name": "Oplotnica", "name_ru": "Oplotnica", "tz": "", "district": "Oplotnica"}, {"id": 107, "name": "Smartno", "name_ru": "Šmartno", "tz": "", "district": "Šmartno ob Paki"}, {"id": 108, "name": "Mirna", "name_ru": "Mirna", "tz": "", "district": "Mirna"}, {"id": 109, "name": "Bistrica ob Sotli", "name_ru": "Bistrica ob Sotli", "tz": "", "district": "Bistrica ob Sotli"}, {"id": 110, "name": "Vitanje", "name_ru": "Vitanje", "tz": "", "district": "Vitanje"}, {"id": 111, "name": "Rogatec", "name_ru": "Rogatec", "tz": "", "district": "Rogatec"}, {"id": 112, "name": "Horjul", "name_ru": "Horjul", "tz": "", "district": "Horjul"}, {"id": 113, "name": "Pivka", "name_ru": "Pivka", "tz": "", "district": "Pivka"}, {"id": 114, "name": "Braslovce", "name_ru": "Braslovče", "tz": "", "district": "Braslovče"}, {"id": 115, "name": "Dobrna", "name_ru": "Dobrna", "tz": "", "district": "Dobrna"}, {"id": 116, "name": "Pesnica", "name_ru": "Pesnica", "tz": "", "district": "Pesnica"}, {"id": 117, "name": "Gorisnica", "name_ru": "Gorišnica", "tz": "", "district": "Gorišnica"}, {"id": 118, "name": "Luce", "name_ru": "Luče", "tz": "", "district": "Luče"}, {"id": 119, "name": "Videm pri Ptuju", "name_ru": "Videm pri Ptuju", "tz": "", "district": "Videm"}, {"id": 120, "name": "Lovrenc na Pohorju", "name_ru": "Lovrenc na Pohorju", "tz": "", "district": "Lovrenc na Pohorju"}, {"id": 121, "name": "Logatec", "name_ru": "Logatec", "tz": "", "district": "Logatec"}, {"id": 122, "name": "Crna na Koroskem", "name_ru": "Črna na Koroškem", "tz": "", "district": "Črna na Koroškem"}, {"id": 123, "name": "Ribnica", "name_ru": "Ribnica", "tz": "", "district": "Ribnica"}, {"id": 124, "name": "Majsperk", "name_ru": "Majšperk", "tz": "", "district": "Majšperk"}, {"id": 125, "name": "Vransko", "name_ru": "Vransko", "tz": "", "district": "Vransko"}, {"id": 126, "name": "Sentilj", "name_ru": "Šentilj", "tz": "", "district": "Šentilj"}, {"id": 127, "name": "Trzin", "name_ru": "Trzin", "tz": "", "district": "Trzin"}, {"id": 128, "name": "Dobrovo", "name_ru": "Dobrovo", "tz": "", "district": "Brda"}, {"id": 129, "name": "Ig", "name_ru": "Ig", "tz": "", "district": "Ig"}, {"id": 130, "name": "Trzic", "name_ru": "Tržič", "tz": "", "district": "Tržič"}, {"id": 131, "name": "Recica", "name_ru": "Rečica", "tz": "", "district": "Rečica ob Savinji"}, {"id": 132, "name": "Dol", "name_ru": "Dol", "tz": "", "district": "Dol pri Ljubljani"}, {"id": 133, "name": "Gorenja Vas", "name_ru": "Gorenja Vas", "tz": "", "district": "Gorenja Vas-Poljane"}, {"id": 134, "name": "Dornava", "name_ru": "Dornava", "tz": "", "district": "Dornava"}, {"id": 135, "name": "Zelezniki", "name_ru": "Železniki", "tz": "", "district": "Železniki"}, {"id": 136, "name": "Lukovica", "name_ru": "Lukovica", "tz": "", "district": "Lukovica"}, {"id": 137, "name": "Turnisce", "name_ru": "Turnišče", "tz": "", "district": "Turnišče"}, {"id": 138, "name": "Cerkno", "name_ru": "Cerkno", "tz": "", "district": "Cerkno"}, {"id": 139, "name": "Smarjeske Toplice", "name_ru": "Šmarješke Toplice", "tz": "", "district": "Šmarješke Toplice"}, {"id": 140, "name": "Ljubno", "name_ru": "Ljubno", "tz": "", "district": "Ljubno"}, {"id": 141, "name": "Bohinjska Bistrica", "name_ru": "Bohinjska Bistrica", "tz": "", "district": "Bohinj"}, {"id": 142, "name": "Starse", "name_ru": "Starše", "tz": "", "district": "Starše"}, {"id": 143, "name": "Tabor", "name_ru": "Tabor", "tz": "", "district": "Tabor"}, {"id": 144, "name": "Kidricevo", "name_ru": "Kidričevo", "tz": "", "district": "Kidričevo"}, {"id": 145, "name": "Divaca", "name_ru": "Divača", "tz": "", "district": "Divača"}, {"id": 146, "name": "Sveti Jurij", "name_ru": "Sveti Jurij", "tz": "", "district": "Sveti Jurij ob Ščavnici"}, {"id": 147, "name": "Straza", "name_ru": "Straža", "tz": "", "district": "Straža"}, {"id": 148, "name": "Benedikt", "name_ru": "Benedikt", "tz": "", "district": "Benedikt"}, {"id": 149, "name": "Semic", "name_ru": "Semič", "tz": "", "district": "Semič"}, {"id": 150, "name": "Cirkulane", "name_ru": "Cirkulane", "tz": "", "district": "Cirkulane"}, {"id": 151, "name": "Vodice", "name_ru": "Vodice", "tz": "", "district": "Vodice"}, {"id": 152, "name": "Sveta Ana", "name_ru": "Sveta Ana", "tz": "", "district": "Sveta Ana"}, {"id": 153, "name": "Nova Vas", "name_ru": "Nova Vas", "tz": "", "district": "Bloke"}, {"id": 154, "name": "Zgornja Hajdina", "name_ru": "Zgornja Hajdina", "tz": "", "district": "Hajdina"}, {"id": 155, "name": "Mirna Pec", "name_ru": "Mirna Peč", "tz": "", "district": "Mirna Peč"}, {"id": 156, "name": "Sveta Trojica v Slovenskih Goricah", "name_ru": "Sveta Trojica v Slovenskih Goricah", "tz": "", "district": "Sveta Trojica v Slovenskih Goricah"}, {"id": 157, "name": "Zgornja Kungota", "name_ru": "Zgornja Kungota", "tz": "", "district": "Kungota"}, {"id": 158, "name": "Destrnik", "name_ru": "Destrnik", "tz": "", "district": "Destrnik"}, {"id": 159, "name": "Dobrova", "name_ru": "Dobrova", "tz": "", "district": "Dobrova-Polhov Gradec"}, {"id": 160, "name": "Makole", "name_ru": "Makole", "tz": "", "district": "Makole"}, {"id": 161, "name": "Markovci", "name_ru": "Markovci", "tz": "", "district": "Markovci"}, {"id": 162, "name": "Crensovci", "name_ru": "Črenšovci", "tz": "", "district": "Črenšovci"}, {"id": 163, "name": "Verzej", "name_ru": "Veržej", "tz": "", "district": "Veržej"}, {"id": 164, "name": "Velike Lasce", "name_ru": "Velike Lašče", "tz": "", "district": "Velike Lašče"}, {"id": 165, "name": "Krizevci", "name_ru": "Križevci", "tz": "", "district": "Križevci"}, {"id": 166, "name": "Razkrizje", "name_ru": "Razkrižje", "tz": "", "district": "Razkrižje"}, {"id": 167, "name": "Skocjan", "name_ru": "Škocjan", "tz": "", "district": "Škocjan"}, {"id": 168, "name": "Zuzemberk", "name_ru": "Žužemberk", "tz": "", "district": "Žužemberk"}, {"id": 169, "name": "Puconci", "name_ru": "Puconci", "tz": "", "district": "Puconci"}, {"id": 170, "name": "Videm", "name_ru": "Videm", "tz": "", "district": "Dobrepolje"}, {"id": 171, "name": "Zavrc", "name_ru": "Zavrč", "tz": "", "district": "Zavrč"}, {"id": 172, "name": "Velika Polana", "name_ru": "Velika Polana", "tz": "", "district": "Velika Polana"}, {"id": 173, "name": "Cankova", "name_ru": "Cankova", "tz": "", "district": "Cankova"}, {"id": 174, "name": "Komen", "name_ru": "Komen", "tz": "", "district": "Komen"}, {"id": 175, "name": "Apace", "name_ru": "Apače", "tz": "", "district": "Apače"}, {"id": 176, "name": "Kuzma", "name_ru": "Kuzma", "tz": "", "district": "Kuzma"}, {"id": 177, "name": "Gornji Grad", "name_ru": "Gornji Grad", "tz": "", "district": "Gornji Grad"}, {"id": 178, "name": "Cerkvenjak", "name_ru": "Cerkvenjak", "tz": "", "district": "Cerkvenjak"}, {"id": 179, "name": "Sredisce ob Dravi", "name_ru": "Središče ob Dravi", "tz": "", "district": "Središče ob Dravi"}, {"id": 180, "name": "Jursinci", "name_ru": "Juršinci", "tz": "", "district": "Juršinci"}, {"id": 181, "name": "Dolenjske Toplice", "name_ru": "Dolenjske Toplice", "tz": "", "district": "Dolenjske Toplice"}, {"id": 182, "name": "Kozje", "name_ru": "Kozje", "tz": "", "district": "Kozje"}, {"id": 183, "name": "Podcetrtek", "name_ru": "Podčetrtek", "tz": "", "district": "Podčetrtek"}, {"id": 184, "name": "Mokronog", "name_ru": "Mokronog", "tz": "", "district": "Mokronog-Trebelno"}, {"id": 185, "name": "Zgornje Gorje", "name_ru": "Zgornje Gorje", "tz": "", "district": "Gorje"}, {"id": 186, "name": "Rogasovci", "name_ru": "Rogašovci", "tz": "", "district": "Rogašovci"}, {"id": 187, "name": "Ribnica", "name_ru": "Ribnica", "tz": "", "district": "Ribnica na Pohorju"}, {"id": 188, "name": "Podlehnik", "name_ru": "Podlehnik", "tz": "", "district": "Podlehnik"}, {"id": 189, "name": "Sodrazica", "name_ru": "Sodražica", "tz": "", "district": "Sodražica"}, {"id": 190, "name": "Vitomarci", "name_ru": "Vitomarci", "tz": "", "district": "Sveti Andraž v Slovenskih Goricah"}, {"id": 191, "name": "Osilnica", "name_ru": "Osilnica", "tz": "", "district": "Osilnica"}, {"id": 192, "name": "Jurovski Dol", "name_ru": "Jurovski Dol", "tz": "", "district": "Sveti Jurij v Slovenskih Goricah"}, {"id": 193, "name": "Trnovska Vas", "name_ru": "Trnovska Vas", "tz": "", "district": "Trnovska Vas"}, {"id": 194, "name": "Moravske-Toplice", "name_ru": "Moravske-Toplice", "tz": "", "district": "Moravske Toplice"}, {"id": 195, "name": "Podvelka", "name_ru": "Podvelka", "tz": "", "district": "Podvelka"}, {"id": 196, "name": "Tomaz pri Ormozu", "name_ru": "Tomaž pri Ormožu", "tz": "", "district": "Sveti Tomaž"}, {"id": 197, "name": "Grad", "name_ru": "Grad", "tz": "", "district": "Grad"}, {"id": 198, "name": "Dobje", "name_ru": "Dobje", "tz": "", "district": "Dobje"}, {"id": 199, "name": "Dobrovnik", "name_ru": "Dobrovnik", "tz": "", "district": "Dobrovnik"}, {"id": 200, "name": "Mislinja", "name_ru": "Mislinja", "tz": "", "district": "Mislinja"}, {"id": 201, "name": "Hrib-Loski Potok", "name_ru": "Hrib-Loški Potok", "tz": "", "district": "Loški Potok"}, {"id": 202, "name": "Kobilje", "name_ru": "Kobilje", "tz": "", "district": "Kobilje"}, {"id": 203, "name": "Kranjska Gora", "name_ru": "Kranjska Gora", "tz": "", "district": "Kranjska Gora"}, {"id": 204, "name": "Zetale", "name_ru": "Žetale", "tz": "", "district": "Žetale"}, {"id": 205, "name": "Salovci", "name_ru": "Šalovci", "tz": "", "district": "Šalovci"}, {"id": 206, "name": "Solcava", "name_ru": "Solčava", "tz": "", "district": "Solčava"}, {"id": 207, "name": "Hodos", "name_ru": "Hodoš", "tz": "", "district": "Hodoš"}, {"id": 208, "name": "Kostel", "name_ru": "Kostel", "tz": "", "district": "Kostel"}, {"id": 209, "name": "Zgornje Jezersko", "name_ru": "Zgornje Jezersko", "tz": "", "district": "Jezersko"}]