[{"id": 1, "name": "Bratislava", "name_ru": "Bratislava", "tz": "", "district": "Bratislavský"}, {"id": 2, "name": "Kosice", "name_ru": "Košice", "tz": "", "district": "Košický"}, {"id": 3, "name": "Petrzalka", "name_ru": "Petržalka", "tz": "", "district": "Bratislavský"}, {"id": 4, "name": "Presov", "name_ru": "Prešov", "tz": "", "district": "Prešovský"}, {"id": 5, "name": "Zilina", "name_ru": "Žilina", "tz": "", "district": "Žilinský"}, {"id": 6, "name": "Banska Bystrica", "name_ru": "Banská Bystrica", "tz": "", "district": "Banskobystrický"}, {"id": 7, "name": "Nitra", "name_ru": "Nitra", "tz": "", "district": "Nitriansky"}, {"id": 8, "name": "Trnava", "name_ru": "Trnava", "tz": "", "district": "Trnavský"}, {"id": 9, "name": "Trencin", "name_ru": "Trenčín", "tz": "", "district": "Trenčiansky"}, {"id": 10, "name": "Martin", "name_ru": "Martin", "tz": "", "district": "Žilinský"}, {"id": 11, "name": "Poprad", "name_ru": "Poprad", "tz": "", "district": "Prešovský"}, {"id": 12, "name": "Prievidza", "name_ru": "Prievidza", "tz": "", "district": "Nitriansky"}, {"id": 13, "name": "Zvolen", "name_ru": "Zvolen", "tz": "", "district": "Banskobystrický"}, {"id": 14, "name": "Povazska Bystrica", "name_ru": "Považská Bystrica", "tz": "", "district": "Nitriansky"}, {"id": 15, "name": "Michalovce", "name_ru": "Michalovce", "tz": "", "district": "Košický"}, {"id": 16, "name": "Nove Zamky", "name_ru": "Nové Zámky", "tz": "", "district": "Nitriansky"}, {"id": 17, "name": "Spisska Nova Ves", "name_ru": "Spišská Nová Ves", "tz": "", "district": "Košický"}, {"id": 18, "name": "Humenne", "name_ru": "Humenné", "tz": "", "district": "Prešovský"}, {"id": 19, "name": "Komarno", "name_ru": "Komárno", "tz": "", "district": "Nitriansky"}, {"id": 20, "name": "Liptovsky Mikulas", "name_ru": "Liptovský Mikuláš", "tz": "", "district": "Žilinský"}, {"id": 21, "name": "Bardejov", "name_ru": "Bardejov", "tz": "", "district": "Prešovský"}, {"id": 22, "name": "Levice", "name_ru": "Levice", "tz": "", "district": "Nitriansky"}, {"id": 23, "name": "Lucenec", "name_ru": "Lučenec", "tz": "", "district": "Banskobystrický"}, {"id": 24, "name": "Piest'any", "name_ru": "Piešťany", "tz": "", "district": "Trnavský"}, {"id": 25, "name": "Ruzomberok", "name_ru": "Ružomberok", "tz": "", "district": "Žilinský"}, {"id": 26, "name": "Topol'cany", "name_ru": "Topoľčany", "tz": "", "district": "Nitriansky"}, {"id": 27, "name": "Pezinok", "name_ru": "Pezinok", "tz": "", "district": "Bratislavský"}, {"id": 28, "name": "Trebisov", "name_ru": "Trebišov", "tz": "", "district": "Košický"}, {"id": 29, "name": "Cadca", "name_ru": "Čadca", "tz": "", "district": "Žilinský"}, {"id": 30, "name": "Dubnica nad Vahom", "name_ru": "Dubnica nad Váhom", "tz": "", "district": "Nitriansky"}, {"id": 31, "name": "Rimavska Sobota", "name_ru": "Rimavská Sobota", "tz": "", "district": "Banskobystrický"}, {"id": 32, "name": "Partizanske", "name_ru": "Partizánske", "tz": "", "district": "Nitriansky"}, {"id": 33, "name": "Dunajska Streda", "name_ru": "Dunajská Streda", "tz": "", "district": "Trnavský"}, {"id": 34, "name": "Vranov nad Topl'ou", "name_ru": "Vranov nad Topľou", "tz": "", "district": "Prešovský"}, {"id": 35, "name": "Sal'a", "name_ru": "Šaľa", "tz": "", "district": "Nitriansky"}, {"id": 36, "name": "Hlohovec", "name_ru": "Hlohovec", "tz": "", "district": "Trnavský"}, {"id": 37, "name": "Brezno", "name_ru": "Brezno", "tz": "", "district": "Banskobystrický"}, {"id": 38, "name": "Senica", "name_ru": "Senica", "tz": "", "district": "Trnavský"}, {"id": 39, "name": "Nove Mesto nad Vahom", "name_ru": "Nové Mesto nad Váhom", "tz": "", "district": "Nitriansky"}, {"id": 40, "name": "Senec", "name_ru": "Senec", "tz": "", "district": "Bratislavský"}, {"id": 41, "name": "Snina", "name_ru": "Snina", "tz": "", "district": "Prešovský"}, {"id": 42, "name": "Ziar nad Hronom", "name_ru": "Žiar nad Hronom", "tz": "", "district": "Banskobystrický"}, {"id": 43, "name": "Malacky", "name_ru": "Malacky", "tz": "", "district": "Bratislavský"}, {"id": 44, "name": "Roznava", "name_ru": "Rožňava", "tz": "", "district": "Košický"}, {"id": 45, "name": "Dolny Kubin", "name_ru": "Dolný Kubín", "tz": "", "district": "Žilinský"}, {"id": 46, "name": "Banovce nad Bebravou", "name_ru": "Bánovce nad Bebravou", "tz": "", "district": "Nitriansky"}, {"id": 47, "name": "Puchov", "name_ru": "Púchov", "tz": "", "district": "Nitriansky"}, {"id": 48, "name": "Handlova", "name_ru": "Handlová", "tz": "", "district": "Nitriansky"}, {"id": 49, "name": "Kezmarok", "name_ru": "Kežmarok", "tz": "", "district": "Prešovský"}, {"id": 50, "name": "Stara L'ubovna", "name_ru": "Stará Ľubovňa", "tz": "", "district": "Prešovský"}, {"id": 51, "name": "Sered'", "name_ru": "Sered’", "tz": "", "district": "Trnavský"}, {"id": 52, "name": "Kysucke Nove Mesto", "name_ru": "Kysucké Nové Mesto", "tz": "", "district": "Žilinský"}, {"id": 53, "name": "Galanta", "name_ru": "Galanta", "tz": "", "district": "Trnavský"}, {"id": 54, "name": "Skalica", "name_ru": "Skalica", "tz": "", "district": "Trnavský"}, {"id": 55, "name": "Detva", "name_ru": "Detva", "tz": "", "district": "Banskobystrický"}, {"id": 56, "name": "Levoca", "name_ru": "Levoča", "tz": "", "district": "Prešovský"}, {"id": 57, "name": "Samorin", "name_ru": "Šamorín", "tz": "", "district": "Trnavský"}, {"id": 58, "name": "Sabinov", "name_ru": "Sabinov", "tz": "", "district": "Prešovský"}, {"id": 59, "name": "Vel'ky Krtis", "name_ru": "Veľký Krtíš", "tz": "", "district": "Banskobystrický"}, {"id": 60, "name": "Stupava", "name_ru": "Stupava", "tz": "", "district": "Bratislavský"}, {"id": 61, "name": "Revuca", "name_ru": "Revúca", "tz": "", "district": "Banskobystrický"}, {"id": 62, "name": "Nova Dubnica", "name_ru": "Nová Dubnica", "tz": "", "district": "Nitriansky"}, {"id": 63, "name": "Zlate Moravce", "name_ru": "Zlaté Moravce", "tz": "", "district": "Nitriansky"}, {"id": 64, "name": "Myjava", "name_ru": "Myjava", "tz": "", "district": "Nitriansky"}, {"id": 65, "name": "Moldava nad Bodvou", "name_ru": "Moldava nad Bodvou", "tz": "", "district": "Košický"}, {"id": 66, "name": "Svidnik", "name_ru": "Svidník", "tz": "", "district": "Prešovský"}, {"id": 67, "name": "Bytca", "name_ru": "Bytča", "tz": "", "district": "Žilinský"}, {"id": 68, "name": "Holic", "name_ru": "Holíč", "tz": "", "district": "Trnavský"}, {"id": 69, "name": "Fil'akovo", "name_ru": "Fiľakovo", "tz": "", "district": "Banskobystrický"}, {"id": 70, "name": "Sturovo", "name_ru": "Štúrovo", "tz": "", "district": "Nitriansky"}, {"id": 71, "name": "Stropkov", "name_ru": "Stropkov", "tz": "", "district": "Prešovský"}, {"id": 72, "name": "Kolarovo", "name_ru": "Kolárovo", "tz": "", "district": "Nitriansky"}, {"id": 73, "name": "Banska Stiavnica", "name_ru": "Banská Štiavnica", "tz": "", "district": "Banskobystrický"}, {"id": 74, "name": "Surany", "name_ru": "Šurany", "tz": "", "district": "Nitriansky"}, {"id": 75, "name": "Modra", "name_ru": "Modra", "tz": "", "district": "Bratislavský"}, {"id": 76, "name": "Tvrdosin", "name_ru": "Tvrdošín", "tz": "", "district": "Žilinský"}, {"id": 77, "name": "Svit", "name_ru": "Svit", "tz": "", "district": "Prešovský"}, {"id": 78, "name": "Vel'ke Kapusany", "name_ru": "Veľké Kapušany", "tz": "", "district": "Košický"}, {"id": 79, "name": "Krompachy", "name_ru": "Krompachy", "tz": "", "district": "Košický"}, {"id": 80, "name": "Bernolakovo", "name_ru": "Bernolákovo", "tz": "", "district": "Bratislavský"}, {"id": 81, "name": "Stara Tura", "name_ru": "Stará Turá", "tz": "", "district": "Nitriansky"}, {"id": 82, "name": "Vel'ky Meder", "name_ru": "Veľký Meder", "tz": "", "district": "Trnavský"}, {"id": 83, "name": "Vrable", "name_ru": "Vráble", "tz": "", "district": "Nitriansky"}, {"id": 84, "name": "Smizany", "name_ru": "Smižany", "tz": "", "district": "Košický"}, {"id": 85, "name": "Secovce", "name_ru": "Sečovce", "tz": "", "district": "Košický"}, {"id": 86, "name": "Vrutky", "name_ru": "Vrútky", "tz": "", "district": "Žilinský"}, {"id": 87, "name": "Namestovo", "name_ru": "Námestovo", "tz": "", "district": "Žilinský"}, {"id": 88, "name": "Krupina", "name_ru": "Krupina", "tz": "", "district": "Banskobystrický"}, {"id": 89, "name": "Liptovsky Hradok", "name_ru": "Liptovský Hrádok", "tz": "", "district": "Žilinský"}, {"id": 90, "name": "Kral'ovsky Chlmec", "name_ru": "Kráľovský Chlmec", "tz": "", "district": "Košický"}, {"id": 91, "name": "Turzovka", "name_ru": "Turzovka", "tz": "", "district": "Žilinský"}, {"id": 92, "name": "Hnust'a", "name_ru": "Hnúšťa", "tz": "", "district": "Banskobystrický"}, {"id": 93, "name": "Hrinova", "name_ru": "Hriňová", "tz": "", "district": "Banskobystrický"}, {"id": 94, "name": "Hurbanovo", "name_ru": "Hurbanovo", "tz": "", "district": "Nitriansky"}, {"id": 95, "name": "Sahy", "name_ru": "Šahy", "tz": "", "district": "Nitriansky"}, {"id": 96, "name": "Nova Bana", "name_ru": "Nová Baňa", "tz": "", "district": "Banskobystrický"}, {"id": 97, "name": "Ivanka pri Dunaji", "name_ru": "Ivanka pri Dunaji", "tz": "", "district": "Bratislavský"}, {"id": 98, "name": "Trstena", "name_ru": "Trstená", "tz": "", "district": "Žilinský"}, {"id": 99, "name": "Tornal'a", "name_ru": "Tornaľa", "tz": "", "district": "Banskobystrický"}, {"id": 100, "name": "Chorvatsky Grob", "name_ru": "Chorvátský Grob", "tz": "", "district": "Bratislavský"}, {"id": 101, "name": "Krasno nad Kysucou", "name_ru": "Krásno nad Kysucou", "tz": "", "district": "Žilinský"}, {"id": 102, "name": "Lipany", "name_ru": "Lipany", "tz": "", "district": "Prešovský"}, {"id": 103, "name": "Zeliezovce", "name_ru": "Želiezovce", "tz": "", "district": "Nitriansky"}, {"id": 104, "name": "Jarovnice", "name_ru": "Jarovnice", "tz": "", "district": "Prešovský"}, {"id": 105, "name": "Spisska Bela", "name_ru": "Spišská Belá", "tz": "", "district": "Prešovský"}, {"id": 106, "name": "Medzilaborce", "name_ru": "Medzilaborce", "tz": "", "district": "Prešovský"}, {"id": 107, "name": "Sobrance", "name_ru": "Sobrance", "tz": "", "district": "Košický"}, {"id": 108, "name": "Turcianske Teplice", "name_ru": "Turčianske Teplice", "tz": "", "district": "Žilinský"}, {"id": 109, "name": "Nemsova", "name_ru": "Nemšová", "tz": "", "district": "Nitriansky"}, {"id": 110, "name": "Zarnovica", "name_ru": "Žarnovica", "tz": "", "district": "Banskobystrický"}, {"id": 111, "name": "Cana", "name_ru": "Čaňa", "tz": "", "district": "Košický"}, {"id": 112, "name": "Vrbove", "name_ru": "Vrbové", "tz": "", "district": "Trnavský"}, {"id": 113, "name": "Gelnica", "name_ru": "Gelnica", "tz": "", "district": "Košický"}, {"id": 114, "name": "Svaty Jur", "name_ru": "Svätý Jur", "tz": "", "district": "Bratislavský"}, {"id": 115, "name": "Belusa", "name_ru": "Beluša", "tz": "", "district": "Nitriansky"}, {"id": 116, "name": "Rajec", "name_ru": "Rajec", "tz": "", "district": "Žilinský"}, {"id": 117, "name": "Poltar", "name_ru": "Poltár", "tz": "", "district": "Banskobystrický"}, {"id": 118, "name": "Oscadnica", "name_ru": "Oščadnica", "tz": "", "district": "Žilinský"}, {"id": 119, "name": "Dobsina", "name_ru": "Dobšiná", "tz": "", "district": "Košický"}, {"id": 120, "name": "Rovinka", "name_ru": "Rovinka", "tz": "", "district": "Bratislavský"}, {"id": 121, "name": "Slovensky Grob", "name_ru": "Slovenský Grob", "tz": "", "district": "Bratislavský"}, {"id": 122, "name": "Ilava", "name_ru": "Ilava", "tz": "", "district": "Nitriansky"}, {"id": 123, "name": "Rakova", "name_ru": "Raková", "tz": "", "district": "Žilinský"}, {"id": 124, "name": "Vel'ky Saris", "name_ru": "Veľký Šariš", "tz": "", "district": "Prešovský"}, {"id": 125, "name": "Zakamenne", "name_ru": "Zákamenné", "tz": "", "district": "Žilinský"}, {"id": 126, "name": "Lendak", "name_ru": "Lendak", "tz": "", "district": "Prešovský"}, {"id": 127, "name": "Gabcikovo", "name_ru": "Gabčíkovo", "tz": "", "district": "Trnavský"}, {"id": 128, "name": "Kremnica", "name_ru": "Kremnica", "tz": "", "district": "Banskobystrický"}, {"id": 129, "name": "Vel'ke Canikovce", "name_ru": "Veľké Čaníkovce", "tz": "", "district": "Bratislavský"}, {"id": 130, "name": "Sladkovicovo", "name_ru": "Sládkovičovo", "tz": "", "district": "Trnavský"}, {"id": 131, "name": "Skalite", "name_ru": "Skalité", "tz": "", "district": "Žilinský"}, {"id": 132, "name": "Tvrdosovce", "name_ru": "Tvrdošovce", "tz": "", "district": "Nitriansky"}, {"id": 133, "name": "Gbely", "name_ru": "Gbely", "tz": "", "district": "Trnavský"}, {"id": 134, "name": "Rabca", "name_ru": "Rabča", "tz": "", "district": "Žilinský"}, {"id": 135, "name": "Nesvady", "name_ru": "Nesvady", "tz": "", "district": "Nitriansky"}, {"id": 136, "name": "Cierny Balog", "name_ru": "Čierny Balog", "tz": "", "district": "Banskobystrický"}, {"id": 137, "name": "Dvory nad Zitavou", "name_ru": "Dvory nad Žitavou", "tz": "", "district": "Nitriansky"}]