[{"id": 1, "name": "Pikine", "name_ru": "Pikine", "tz": "", "district": "Dakar"}, {"id": 2, "name": "Dakar", "name_ru": "Dakar", "tz": "", "district": "Dakar"}, {"id": 3, "name": "Touba", "name_ru": "Touba", "tz": "", "district": "Diourbel"}, {"id": 4, "name": "Thies", "name_ru": "Thiès", "tz": "", "district": "Thiès"}, {"id": 5, "name": "Rufisque", "name_ru": "Rufisque", "tz": "", "district": "Dakar"}, {"id": 6, "name": "Ziguinchor", "name_ru": "Ziguinchor", "tz": "", "district": "Ziguinchor"}, {"id": 7, "name": "Saint-Louis", "name_ru": "Saint-Louis", "tz": "", "district": "Saint-Louis"}, {"id": 8, "name": "Kaolack", "name_ru": "Kaolack", "tz": "", "district": "Kaolack"}, {"id": 9, "name": "Diourbel", "name_ru": "Diourbel", "tz": "", "district": "Diourbel"}, {"id": 10, "name": "Louga", "name_ru": "Louga", "tz": "", "district": "Louga"}, {"id": 11, "name": "Tambacounda", "name_ru": "Tambacounda", "tz": "", "district": "Tambacounda"}, {"id": 12, "name": "Kolda", "name_ru": "Kolda", "tz": "", "district": "Kolda"}, {"id": 13, "name": "Fatick", "name_ru": "Fatick", "tz": "", "district": "Fatick"}, {"id": 14, "name": "Kedougou", "name_ru": "Kédougou", "tz": "", "district": "Kédougou"}, {"id": 15, "name": "Kaffrine", "name_ru": "Kaffrine", "tz": "", "district": "Kaffrine"}, {"id": 16, "name": "Sedhiou", "name_ru": "Sédhiou", "tz": "", "district": "Sédhiou"}, {"id": 17, "name": "Matam", "name_ru": "Matam", "tz": "", "district": "Matam"}, {"id": 18, "name": "Bignona", "name_ru": "Bignona", "tz": "", "district": "Ziguinchor"}, {"id": 19, "name": "Kobilo", "name_ru": "Kobilo", "tz": "", "district": "Matam"}, {"id": 20, "name": "Linguere", "name_ru": "Linguère", "tz": "", "district": "Louga"}, {"id": 21, "name": "Kanel", "name_ru": "Kanel", "tz": "", "district": "Matam"}, {"id": 22, "name": "Dodji", "name_ru": "Dodji", "tz": "", "district": "Louga"}]