[{"id": 1, "name": "Mogadishu", "name_ru": "Mogadishu", "tz": "", "district": "Banaadir"}, {"id": 2, "name": "Marka", "name_ru": "Marka", "tz": "", "district": "Shabeellaha Hoose"}, {"id": 3, "name": "Jamaame", "name_ru": "Jamaame", "tz": "", "district": "Jubbada Hoose"}, {"id": 4, "name": "Kismaayo", "name_ru": "Kismaayo", "tz": "", "district": "Jubbada Hoose"}, {"id": 5, "name": "Baidoa", "name_ru": "Baidoa", "tz": "", "district": "Bay"}, {"id": 6, "name": "Jawhar", "name_ru": "Jawhar", "tz": "", "district": "Shabeellaha Dhexe"}, {"id": 7, "name": "Beledweyne", "name_ru": "Beledweyne", "tz": "", "district": "Hiiraan"}, {"id": 8, "name": "Gaalkacyo", "name_ru": "Gaalkacyo", "tz": "", "district": "Mudug"}, {"id": 9, "name": "Boosaaso", "name_ru": "Boosaaso", "tz": "", "district": "Bari"}, {"id": 10, "name": "Garbahaarrey", "name_ru": "Garbahaarrey", "tz": "", "district": "Gedo"}, {"id": 11, "name": "Garoowe", "name_ru": "Garoowe", "tz": "", "district": "Nugaal"}, {"id": 12, "name": "Xuddur", "name_ru": "Xuddur", "tz": "", "district": "Bakool"}, {"id": 13, "name": "Bu'aale", "name_ru": "Buâ€™aale", "tz": "", "district": "Jubbada Dhexe"}, {"id": 14, "name": "Dhuusamarreeb", "name_ru": "Dhuusamarreeb", "tz": "", "district": "Galguduud"}, {"id": 15, "name": "Boorama", "name_ru": "Boorama", "tz": "", "district": "Awdal"}, {"id": 16, "name": "Hargeysa", "name_ru": "Hargeysa", "tz": "", "district": "Woqooyi Galbeed"}, {"id": 17, "name": "Burco", "name_ru": "Burco", "tz": "", "district": "Togdheer"}, {"id": 18, "name": "Laascaanood", "name_ru": "Laascaanood", "tz": "", "district": "Sool"}, {"id": 19, "name": "Ceerigaabo", "name_ru": "Ceerigaabo", "tz": "", "district": "Sanaag"}, {"id": 20, "name": "Luuq", "name_ru": "Luuq", "tz": "", "district": "Gedo"}, {"id": 21, "name": "Baraawe", "name_ru": "Baraawe", "tz": "", "district": "Shabeellaha Hoose"}, {"id": 22, "name": "Buurhakaba", "name_ru": "Buurhakaba", "tz": "", "district": "Bay"}, {"id": 23, "name": "Eyl", "name_ru": "Eyl", "tz": "", "district": "Nugaal"}, {"id": 24, "name": "Bandarbeyla", "name_ru": "Bandarbeyla", "tz": "", "district": "Bari"}, {"id": 25, "name": "Buur Gaabo", "name_ru": "Buur Gaabo", "tz": "", "district": "Jubbada Hoose"}, {"id": 26, "name": "Qardho", "name_ru": "Qardho", "tz": "", "district": "Bari"}, {"id": 27, "name": "Mereeg", "name_ru": "Mereeg", "tz": "", "district": "Galguduud"}, {"id": 28, "name": "Caluula", "name_ru": "Caluula", "tz": "", "district": "Bari"}, {"id": 29, "name": "Hurdiyo", "name_ru": "Hurdiyo", "tz": "", "district": "Bari"}]