[{"id": 1, "name": "Paramaribo", "name_ru": "Paramaribo", "tz": "", "district": "Paramaribo"}, {"id": 2, "name": "Nieuw Nickerie", "name_ru": "Nieuw Nickerie", "tz": "", "district": "Nickerie"}, {"id": 3, "name": "Brokopondo", "name_ru": "Brokopondo", "tz": "", "district": "Brokopondo"}, {"id": 4, "name": "Albina", "name_ru": "Albina", "tz": "", "district": "Marowijne"}, {"id": 5, "name": "Nieuw Amsterdam", "name_ru": "Nieuw Amsterdam", "tz": "", "district": "Commewijne"}, {"id": 6, "name": "Groningen", "name_ru": "Groningen", "tz": "", "district": "Saramacca"}, {"id": 7, "name": "Onverwacht", "name_ru": "Onverwacht", "tz": "", "district": "Para"}, {"id": 8, "name": "Totness", "name_ru": "Totness", "tz": "", "district": "Coronie"}, {"id": 9, "name": "Lelydorp", "name_ru": "Lelydorp", "tz": "", "district": "Wanica"}, {"id": 10, "name": "Cottica", "name_ru": "Cottica", "tz": "", "district": "Sipaliwini"}, {"id": 11, "name": "Moengo", "name_ru": "Moengo", "tz": "", "district": "Marowijne"}, {"id": 12, "name": "Tamanredjo", "name_ru": "Tamanredjo", "tz": "", "district": "Commewijne"}, {"id": 13, "name": "Domburg", "name_ru": "Domburg", "tz": "", "district": "Wanica"}, {"id": 14, "name": "Brownsweg", "name_ru": "Brownsweg", "tz": "", "district": "Brokopondo"}]