[{"id": 1, "name": "San Salvador", "name_ru": "San Salvador", "tz": "", "district": "San Salvador"}, {"id": 2, "name": "Usulutan", "name_ru": "Usulután", "tz": "", "district": "Usulután"}, {"id": 3, "name": "Santa Ana", "name_ru": "Santa Ana", "tz": "", "district": "Santa Ana"}, {"id": 4, "name": "San Miguel", "name_ru": "San Miguel", "tz": "", "district": "San Miguel"}, {"id": 5, "name": "Mejicanos", "name_ru": "Mejicanos", "tz": "", "district": "San Salvador"}, {"id": 6, "name": "Santa Tecla", "name_ru": "Santa Tecla", "tz": "", "district": "La Libertad"}, {"id": 7, "name": "Apopa", "name_ru": "Apopa", "tz": "", "district": "San Salvador"}, {"id": 8, "name": "Delgado", "name_ru": "Delgado", "tz": "", "district": "San Salvador"}, {"id": 9, "name": "Sonsonate", "name_ru": "Sonsonate", "tz": "", "district": "Sonsonate"}, {"id": 10, "name": "Ahuachapan", "name_ru": "Ahuachapán", "tz": "", "district": "Ahuachapán"}, {"id": 11, "name": "Zacatecoluca", "name_ru": "Zacatecoluca", "tz": "", "district": "La Paz"}, {"id": 12, "name": "Cuscatancingo", "name_ru": "Cuscatancingo", "tz": "", "district": "San Salvador"}, {"id": 13, "name": "San Vicente", "name_ru": "San Vicente", "tz": "", "district": "San Vicente"}, {"id": 14, "name": "Cojutepeque", "name_ru": "Cojutepeque", "tz": "", "district": "Cuscatlán"}, {"id": 15, "name": "Sonzacate", "name_ru": "Sonzacate", "tz": "", "district": "Sonsonate"}, {"id": 16, "name": "La Union", "name_ru": "La Unión", "tz": "", "district": "La Unión"}, {"id": 17, "name": "Chalatenango", "name_ru": "Chalatenango", "tz": "", "district": "Chalatenango"}, {"id": 18, "name": "Sensuntepeque", "name_ru": "Sensuntepeque", "tz": "", "district": "Cabañas"}, {"id": 19, "name": "San Francisco", "name_ru": "San Francisco", "tz": "", "district": "Morazán"}, {"id": 20, "name": "Colon", "name_ru": "Colón", "tz": "", "district": "La Libertad"}, {"id": 21, "name": "Acajutla", "name_ru": "Acajutla", "tz": "", "district": "Sonsonate"}, {"id": 22, "name": "Chalchuapa", "name_ru": "Chalchuapa", "tz": "", "district": "Santa Ana"}, {"id": 23, "name": "Quezaltepeque", "name_ru": "Quezaltepeque", "tz": "", "district": "La Libertad"}, {"id": 24, "name": "Nahuizalco", "name_ru": "Nahuizalco", "tz": "", "district": "Sonsonate"}, {"id": 25, "name": "Jiquilisco", "name_ru": "Jiquilisco", "tz": "", "district": "Usulután"}, {"id": 26, "name": "San Pedro Perulapan", "name_ru": "San Pedro Perulapán", "tz": "", "district": "Cuscatlán"}, {"id": 27, "name": "Panchimalco", "name_ru": "Panchimalco", "tz": "", "district": "San Salvador"}, {"id": 28, "name": "Ciudad Barrios", "name_ru": "Ciudad Barrios", "tz": "", "district": "San Miguel"}, {"id": 29, "name": "Santiago Nonualco", "name_ru": "Santiago Nonualco", "tz": "", "district": "La Paz"}, {"id": 30, "name": "Armenia", "name_ru": "Armenia", "tz": "", "district": "Sonsonate"}, {"id": 31, "name": "Atiquizaya", "name_ru": "Atiquizaya", "tz": "", "district": "Ahuachapán"}, {"id": 32, "name": "Tacuba", "name_ru": "Tacuba", "tz": "", "district": "Ahuachapán"}, {"id": 33, "name": "Juayua", "name_ru": "Juayúa", "tz": "", "district": "Sonsonate"}, {"id": 34, "name": "Guaymango", "name_ru": "Guaymango", "tz": "", "district": "Ahuachapán"}, {"id": 35, "name": "Puerto El Triunfo", "name_ru": "Puerto El Triunfo", "tz": "", "district": "Usulután"}, {"id": 36, "name": "Santiago de Maria", "name_ru": "Santiago de María", "tz": "", "district": "Usulután"}, {"id": 37, "name": "Concepcion de Ataco", "name_ru": "Concepción de Ataco", "tz": "", "district": "Ahuachapán"}, {"id": 38, "name": "San Alejo", "name_ru": "San Alejo", "tz": "", "district": "La Unión"}, {"id": 39, "name": "Anamoros", "name_ru": "Anamorós", "tz": "", "district": "La Unión"}, {"id": 40, "name": "Metapan", "name_ru": "Metapán", "tz": "", "district": "Santa Ana"}, {"id": 41, "name": "El Paisnal", "name_ru": "El Paisnal", "tz": "", "district": "San Salvador"}, {"id": 42, "name": "Tepecoyo", "name_ru": "Tepecoyo", "tz": "", "district": "La Libertad"}, {"id": 43, "name": "Cuisnahuat", "name_ru": "Cuisnahuat", "tz": "", "district": "Sonsonate"}, {"id": 44, "name": "Teotepeque", "name_ru": "Teotepeque", "tz": "", "district": "La Libertad"}, {"id": 45, "name": "Nueva Guadalupe", "name_ru": "Nueva Guadalupe", "tz": "", "district": "San Miguel"}, {"id": 46, "name": "Jocoro", "name_ru": "Jocoro", "tz": "", "district": "Morazán"}, {"id": 47, "name": "Caluco", "name_ru": "Caluco", "tz": "", "district": "Sonsonate"}, {"id": 48, "name": "Estanzuelas", "name_ru": "Estanzuelas", "tz": "", "district": "Usulután"}, {"id": 49, "name": "San Juan Talpa", "name_ru": "San Juan Talpa", "tz": "", "district": "La Paz"}, {"id": 50, "name": "El Porvenir", "name_ru": "El Porvenir", "tz": "", "district": "Santa Ana"}, {"id": 51, "name": "Agua Caliente", "name_ru": "Agua Caliente", "tz": "", "district": "Chalatenango"}, {"id": 52, "name": "El Divisadero", "name_ru": "El Divisadero", "tz": "", "district": "Morazán"}, {"id": 53, "name": "Santo Domingo de Guzman", "name_ru": "Santo Domingo de Guzmán", "tz": "", "district": "Sonsonate"}, {"id": 54, "name": "El Triunfo", "name_ru": "El Triunfo", "tz": "", "district": "Usulután"}, {"id": 55, "name": "San Gerardo", "name_ru": "San Gerardo", "tz": "", "district": "San Miguel"}]