[{"id": 1, "name": "Aleppo", "name_ru": "Aleppo", "tz": "", "district": "Ḩalab"}, {"id": 2, "name": "Damascus", "name_ru": "Damascus", "tz": "", "district": "Dimashq"}, {"id": 3, "name": "Homs", "name_ru": "Homs", "tz": "", "district": "Ḩimş"}, {"id": 4, "name": "Latakia", "name_ru": "Latakia", "tz": "", "district": "Al Lādhiqīyah"}, {"id": 5, "name": "Hamah", "name_ru": "Ḩamāh", "tz": "", "district": "Ḩamāh"}, {"id": 6, "name": "Ar Raqqah", "name_ru": "Ar Raqqah", "tz": "", "district": "Ar Raqqah"}, {"id": 7, "name": "Dayr az Zawr", "name_ru": "Dayr az Zawr", "tz": "", "district": "Dayr az Zawr"}, {"id": 8, "name": "Al Qamishli", "name_ru": "Al Qāmishlī", "tz": "", "district": "Al Ḩasakah"}, {"id": 9, "name": "Idlib", "name_ru": "Idlib", "tz": "", "district": "Idlib"}, {"id": 10, "name": "Dar`a", "name_ru": "Dar‘ā", "tz": "", "district": "Dar‘ā"}, {"id": 11, "name": "Jaramana", "name_ru": "Jaramānā", "tz": "", "district": "Rīf Dimashq"}, {"id": 12, "name": "Al Hasakah", "name_ru": "Al Ḩasakah", "tz": "", "district": "Al Ḩasakah"}, {"id": 13, "name": "Al Hajar al Aswad", "name_ru": "Al Ḩajar al Aswad", "tz": "", "district": "Rīf Dimashq"}, {"id": 14, "name": "Duma", "name_ru": "Dūmā", "tz": "", "district": "Rīf Dimashq"}, {"id": 15, "name": "As Salamiyah", "name_ru": "As Salamīyah", "tz": "", "district": "Ḩamāh"}, {"id": 16, "name": "As Safirah", "name_ru": "As Safīrah", "tz": "", "district": "Ḩalab"}, {"id": 17, "name": "Tartus", "name_ru": "Ţarţūs", "tz": "", "district": "Ţarţūs"}, {"id": 18, "name": "Darayya", "name_ru": "Dārayyā", "tz": "", "district": "Rīf Dimashq"}, {"id": 19, "name": "Ath Thawrah", "name_ru": "Ath Thawrah", "tz": "", "district": "Ar Raqqah"}, {"id": 20, "name": "As Suwayda'", "name_ru": "As Suwaydā’", "tz": "", "district": "As Suwaydā’"}, {"id": 21, "name": "Harasta", "name_ru": "Ḩarastā", "tz": "", "district": "Rīf Dimashq"}, {"id": 22, "name": "Al Qunaytirah", "name_ru": "Al Qunayţirah", "tz": "", "district": "Al Qunayţirah"}, {"id": 23, "name": "Ma`arrat an Nu`man", "name_ru": "Ma‘arrat an Nu‘mān", "tz": "", "district": "Idlib"}, {"id": 24, "name": "Manbij", "name_ru": "Manbij", "tz": "", "district": "Ḩalab"}, {"id": 25, "name": "Jablah", "name_ru": "Jablah", "tz": "", "district": "Al Lādhiqīyah"}, {"id": 26, "name": "Nawa", "name_ru": "Nawá", "tz": "", "district": "Dar‘ā"}, {"id": 27, "name": "At Tall", "name_ru": "At Tall", "tz": "", "district": "Rīf Dimashq"}, {"id": 28, "name": "Ar Rastan", "name_ru": "Ar Rastan", "tz": "", "district": "Ḩimş"}, {"id": 29, "name": "Khan Shaykhun", "name_ru": "Khān Shaykhūn", "tz": "", "district": "Idlib"}, {"id": 30, "name": "An Nabk", "name_ru": "An Nabk", "tz": "", "district": "Rīf Dimashq"}, {"id": 31, "name": "Albu Kamal", "name_ru": "Ālbū Kamāl", "tz": "", "district": "Dayr az Zawr"}, {"id": 32, "name": "Tadmur", "name_ru": "Tadmur", "tz": "", "district": "Ḩimş"}, {"id": 33, "name": "Al Mayadin", "name_ru": "Al Mayādīn", "tz": "", "district": "Dayr az Zawr"}, {"id": 34, "name": "`Amuda", "name_ru": "‘Āmūdā", "tz": "", "district": "Al Ḩasakah"}, {"id": 35, "name": "Yabrud", "name_ru": "Yabrūd", "tz": "", "district": "Rīf Dimashq"}, {"id": 36, "name": "Al Qusayr", "name_ru": "Al Quşayr", "tz": "", "district": "Ḩimş"}, {"id": 37, "name": "Tallbisah", "name_ru": "Tallbīsah", "tz": "", "district": "Ḩimş"}, {"id": 38, "name": "Jisr ash Shughur", "name_ru": "Jisr ash Shughūr", "tz": "", "district": "Idlib"}, {"id": 39, "name": "Baniyas", "name_ru": "Bāniyās", "tz": "", "district": "Ţarţūs"}, {"id": 40, "name": "Tadif", "name_ru": "Tādif", "tz": "", "district": "Ḩalab"}, {"id": 41, "name": "Saraqib", "name_ru": "Sarāqib", "tz": "", "district": "Idlib"}, {"id": 42, "name": "Jayrud", "name_ru": "Jayrūd", "tz": "", "district": "Rīf Dimashq"}, {"id": 43, "name": "Al Malikiyah", "name_ru": "Al Mālikīyah", "tz": "", "district": "Al Ḩasakah"}, {"id": 44, "name": "Hajin", "name_ru": "Hajīn", "tz": "", "district": "Dayr az Zawr"}, {"id": 45, "name": "Ma`arratmisrin", "name_ru": "Ma‘arratmişrīn", "tz": "", "district": "Idlib"}, {"id": 46, "name": "Al Qaryatayn", "name_ru": "Al Qaryatayn", "tz": "", "district": "Ḩimş"}, {"id": 47, "name": "Masyaf", "name_ru": "Maşyāf", "tz": "", "district": "Ḩamāh"}, {"id": 48, "name": "`Afrin", "name_ru": "‘Afrīn", "tz": "", "district": "Ḩalab"}, {"id": 49, "name": "Dayr Hafir", "name_ru": "Dayr Ḩāfir", "tz": "", "district": "Ḩalab"}, {"id": 50, "name": "Tallkalakh", "name_ru": "Tallkalakh", "tz": "", "district": "Ḩimş"}, {"id": 51, "name": "Qadsayya", "name_ru": "Qadsayyā", "tz": "", "district": "Rīf Dimashq"}, {"id": 52, "name": "Tall Salhab", "name_ru": "Tall Salḩab", "tz": "", "district": "Ḩamāh"}, {"id": 53, "name": "Tafas", "name_ru": "Ţafas", "tz": "", "district": "Dar‘ā"}, {"id": 54, "name": "Safita", "name_ru": "Şāfītā", "tz": "", "district": "Ţarţūs"}, {"id": 55, "name": "Jasim", "name_ru": "Jāsim", "tz": "", "district": "Dar‘ā"}, {"id": 56, "name": "I`zaz", "name_ru": "I‘zāz", "tz": "", "district": "Ḩalab"}, {"id": 57, "name": "Ra's al `Ayn", "name_ru": "Ra’s al ‘Ayn", "tz": "", "district": "Al Ḩasakah"}, {"id": 58, "name": "Suran", "name_ru": "Şūrān", "tz": "", "district": "Ḩamāh"}, {"id": 59, "name": "Tall Rif`at", "name_ru": "Tall Rif‘at", "tz": "", "district": "Ḩalab"}, {"id": 60, "name": "Az Zabadani", "name_ru": "Az Zabadānī", "tz": "", "district": "Rīf Dimashq"}, {"id": 61, "name": "As Sanamayn", "name_ru": "Aş Şanamayn", "tz": "", "district": "Dar‘ā"}, {"id": 62, "name": "Saydnaya", "name_ru": "Şaydnāyā", "tz": "", "district": "Rīf Dimashq"}, {"id": 63, "name": "Tayyibat al Imam", "name_ru": "Ţayyibat al Imām", "tz": "", "district": "Ḩamāh"}, {"id": 64, "name": "Salqin", "name_ru": "Salqīn", "tz": "", "district": "Idlib"}, {"id": 65, "name": "Qatana", "name_ru": "Qaţanā", "tz": "", "district": "Rīf Dimashq"}, {"id": 66, "name": "Binnish", "name_ru": "Binnish", "tz": "", "district": "Idlib"}, {"id": 67, "name": "Harim", "name_ru": "Ḩārim", "tz": "", "district": "Idlib"}, {"id": 68, "name": "`Adra", "name_ru": "‘Adrā", "tz": "", "district": "Rīf Dimashq"}, {"id": 69, "name": "Busra ash Sham", "name_ru": "Buşrá ash Shām", "tz": "", "district": "Dar‘ā"}, {"id": 70, "name": "Izra", "name_ru": "Izra", "tz": "", "district": "Dar‘ā"}, {"id": 71, "name": "Muhradah", "name_ru": "Muḩradah", "tz": "", "district": "Ḩamāh"}, {"id": 72, "name": "Tall `Aran", "name_ru": "Tall ‘Aran", "tz": "", "district": "Ḩalab"}, {"id": 73, "name": "As Suqaylibiyah", "name_ru": "As Suqaylibīyah", "tz": "", "district": "Ḩamāh"}, {"id": 74, "name": "Kafr Zayta", "name_ru": "Kafr Zaytā", "tz": "", "district": "Ḩamāh"}, {"id": 75, "name": "Shahba", "name_ru": "Shahbā", "tz": "", "district": "As Suwaydā’"}, {"id": 76, "name": "Al Lataminah", "name_ru": "Al Laţāminah", "tz": "", "district": "Ḩamāh"}, {"id": 77, "name": "Tasil", "name_ru": "Tasīl", "tz": "", "district": "Dar‘ā"}, {"id": 78, "name": "As Sukhnah", "name_ru": "As Sukhnah", "tz": "", "district": "Ḩimş"}, {"id": 79, "name": "Kafr Nubl", "name_ru": "Kafr Nubl", "tz": "", "district": "Idlib"}, {"id": 80, "name": "Salkhad", "name_ru": "Şalkhad", "tz": "", "district": "As Suwaydā’"}, {"id": 81, "name": "Sarmin", "name_ru": "Sarmīn", "tz": "", "district": "Idlib"}, {"id": 82, "name": "Tall Abyad", "name_ru": "Tall Abyaḑ", "tz": "", "district": "Ar Raqqah"}, {"id": 83, "name": "Jindayris", "name_ru": "Jindayris", "tz": "", "district": "Ḩalab"}, {"id": 84, "name": "Ad Duraykish", "name_ru": "Ad Duraykīsh", "tz": "", "district": "Ţarţūs"}, {"id": 85, "name": "Busra al Harir", "name_ru": "Buşrá al Ḩarīr", "tz": "", "district": "Dar‘ā"}, {"id": 86, "name": "Al Muzayrib", "name_ru": "Al Muzayrīb", "tz": "", "district": "Dar‘ā"}, {"id": 87, "name": "`Anadan", "name_ru": "‘Anadān", "tz": "", "district": "Ḩalab"}, {"id": 88, "name": "Ghabaghib", "name_ru": "Ghabāghib", "tz": "", "district": "Dar‘ā"}, {"id": 89, "name": "Jarabulus", "name_ru": "Jarābulus", "tz": "", "district": "Ḩalab"}, {"id": 90, "name": "Al Atarib", "name_ru": "Al Atārib", "tz": "", "district": "Ḩalab"}, {"id": 91, "name": "Al Musayfirah", "name_ru": "Al Musayfirah", "tz": "", "district": "Dar‘ā"}, {"id": 92, "name": "Armanaz", "name_ru": "Armanāz", "tz": "", "district": "Idlib"}, {"id": 93, "name": "Tayr Ma`lah", "name_ru": "Tayr Ma‘lah", "tz": "", "district": "Ḩimş"}, {"id": 94, "name": "Hish", "name_ru": "Ḩīsh", "tz": "", "district": "Idlib"}, {"id": 95, "name": "Taftanaz", "name_ru": "Taftanāz", "tz": "", "district": "Idlib"}, {"id": 96, "name": "Umm Walad", "name_ru": "Umm Walad", "tz": "", "district": "Dar‘ā"}, {"id": 97, "name": "Al Kafr", "name_ru": "Al Kafr", "tz": "", "district": "As Suwaydā’"}, {"id": 98, "name": "Al Mazra`ah", "name_ru": "Al Mazra‘ah", "tz": "", "district": "As Suwaydā’"}, {"id": 99, "name": "Killi", "name_ru": "Killī", "tz": "", "district": "Idlib"}, {"id": 100, "name": "Tall Tamr", "name_ru": "Tall Tamr", "tz": "", "district": "Al Ḩasakah"}, {"id": 101, "name": "Saham al Jawlan", "name_ru": "Saḩam al Jawlān", "tz": "", "district": "Dar‘ā"}, {"id": 102, "name": "`Ayn `Isa", "name_ru": "‘Ayn ‘Īsá", "tz": "", "district": "Ar Raqqah"}, {"id": 103, "name": "Nasib", "name_ru": "Naşīb", "tz": "", "district": "Dar‘ā"}, {"id": 104, "name": "Ihsim", "name_ru": "Iḩsim", "tz": "", "district": "Idlib"}, {"id": 105, "name": "Ra's al Khashufah", "name_ru": "Ra’s al Khashūfah", "tz": "", "district": "Ţarţūs"}, {"id": 106, "name": "Al Qutaylibiyah", "name_ru": "Al Quţaylibīyah", "tz": "", "district": "Al Lādhiqīyah"}, {"id": 107, "name": "Al Mulayhah al Gharbiyah", "name_ru": "Al Mulayḩah al Gharbīyah", "tz": "", "district": "Dar‘ā"}, {"id": 108, "name": "`Assal al Ward", "name_ru": "‘Assāl al Ward", "tz": "", "district": "Rīf Dimashq"}, {"id": 109, "name": "Dayr al Bukht", "name_ru": "Dayr al Bukht", "tz": "", "district": "Dar‘ā"}, {"id": 110, "name": "Darkush", "name_ru": "Darkūsh", "tz": "", "district": "Idlib"}, {"id": 111, "name": "Hisya'", "name_ru": "Ḩisyā’", "tz": "", "district": "Ḩimş"}, {"id": 112, "name": "Shaykh al Hadid", "name_ru": "Shaykh al Ḩadīd", "tz": "", "district": "Ḩalab"}]