[{"id": 1, "name": "N'Djamena", "name_ru": "N’Djamena", "tz": "", "district": "Ville de N’Djaména"}, {"id": 2, "name": "Moundou", "name_ru": "Moundou", "tz": "", "district": "Logone Occidental"}, {"id": 3, "name": "Sarh", "name_ru": "Sarh", "tz": "", "district": "Moyen-Chari"}, {"id": 4, "name": "Abeche", "name_ru": "Abéché", "tz": "", "district": "Ouaddaï"}, {"id": 5, "name": "Goz-Beida", "name_ru": "Goz-Beida", "tz": "", "district": "Sila"}, {"id": 6, "name": "Koumra", "name_ru": "Koumra", "tz": "", "district": "Mandoul"}, {"id": 7, "name": "Am-Timan", "name_ru": "Am-Timan", "tz": "", "district": "Salamat"}, {"id": 8, "name": "Doba", "name_ru": "Doba", "tz": "", "district": "Logone Oriental"}, {"id": 9, "name": "Bongor", "name_ru": "Bongor", "tz": "", "district": "Mayo-Kébbi Est"}, {"id": 10, "name": "Mongo", "name_ru": "Mongo", "tz": "", "district": "Guéra"}, {"id": 11, "name": "Ati", "name_ru": "Ati", "tz": "", "district": "Batha"}, {"id": 12, "name": "Lai", "name_ru": "Laï", "tz": "", "district": "Tandjilé"}, {"id": 13, "name": "Mao", "name_ru": "Mao", "tz": "", "district": "Kanem"}, {"id": 14, "name": "Moussoro", "name_ru": "Moussoro", "tz": "", "district": "Barh el Gazel"}, {"id": 15, "name": "Faya", "name_ru": "Faya", "tz": "", "district": "Borkou"}, {"id": 16, "name": "Bol", "name_ru": "Bol", "tz": "", "district": "Lac"}, {"id": 17, "name": "Biltine", "name_ru": "Biltine", "tz": "", "district": "Wadi Fira"}, {"id": 18, "name": "Massenya", "name_ru": "Massenya", "tz": "", "district": "Chari-Baguirmi"}, {"id": 19, "name": "Fada", "name_ru": "Fada", "tz": "", "district": "Ennedi-Ouest"}, {"id": 20, "name": "Pala", "name_ru": "Pala", "tz": "", "district": "Mayo-Kébbi Ouest"}, {"id": 21, "name": "Massakory", "name_ru": "Massakory", "tz": "", "district": "Hadjer-Lamis"}, {"id": 22, "name": "Amdjarass", "name_ru": "Amdjarass", "tz": "", "district": "Ennedi-Est"}, {"id": 23, "name": "Bardai", "name_ru": "Bardaï", "tz": "", "district": "Tibesti"}, {"id": 24, "name": "Kelo", "name_ru": "Kelo", "tz": "", "district": "Tandjilé"}, {"id": 25, "name": "Yao", "name_ru": "Yao", "tz": "", "district": "Batha"}, {"id": 26, "name": "Lere", "name_ru": "Léré", "tz": "", "district": "Mayo-Kébbi Ouest"}, {"id": 27, "name": "Fianga", "name_ru": "Fianga", "tz": "", "district": "Mayo-Kébbi Est"}, {"id": 28, "name": "Pala Oua", "name_ru": "Pala Oua", "tz": "", "district": "Mayo-Kébbi Ouest"}, {"id": 29, "name": "Oum Hadjer", "name_ru": "Oum Hadjer", "tz": "", "district": "Batha"}, {"id": 30, "name": "Zouar", "name_ru": "Zouar", "tz": "", "district": "Tibesti"}]