[{"id": 1, "name": "Bangkok", "name_ru": "Bangkok", "tz": "", "district": "Krung Thep Maha Nakhon"}, {"id": 2, "name": "Nonthaburi", "name_ru": "Nonthaburi", "tz": "", "district": "Nonthaburi"}, {"id": 3, "name": "Pak Kret", "name_ru": "Pak Kret", "tz": "", "district": "Nonthaburi"}, {"id": 4, "name": "Hat Yai", "name_ru": "Hat Yai", "tz": "", "district": "Songkhla"}, {"id": 5, "name": "Chiang Mai", "name_ru": "Chiang Mai", "tz": "", "district": "Chiang Mai"}, {"id": 6, "name": "Nakhon Ratchasima", "name_ru": "Nakhon Ratchasima", "tz": "", "district": "Nakhon Ratchasima"}, {"id": 7, "name": "Surat Thani", "name_ru": "Surat Thani", "tz": "", "district": "Surat Thani"}, {"id": 8, "name": "Udon Thani", "name_ru": "Udon Thani", "tz": "", "district": "Udon Thani"}, {"id": 9, "name": "Ban Bang Pu Mai", "name_ru": "Ban Bang Pu Mai", "tz": "", "district": "Samut Prakan"}, {"id": 10, "name": "Phatthaya", "name_ru": "Phatthaya", "tz": "", "district": "Chon Buri"}, {"id": 11, "name": "Khon Kaen", "name_ru": "Khon Kaen", "tz": "", "district": "Khon Kaen"}, {"id": 12, "name": "Ban Mangkon", "name_ru": "Ban Mangkon", "tz": "", "district": "Samut Prakan"}, {"id": 13, "name": "Nakhon Si Thammarat", "name_ru": "Nakhon Si Thammarat", "tz": "", "district": "Nakhon Si Thammarat"}, {"id": 14, "name": "Nakhon Sawan", "name_ru": "Nakhon Sawan", "tz": "", "district": "Nakhon Sawan"}, {"id": 15, "name": "Phuket", "name_ru": "Phuket", "tz": "", "district": "Phuket"}, {"id": 16, "name": "Ban Talat Rangsit", "name_ru": "Ban Talat Rangsit", "tz": "", "district": "Pathum Thani"}, {"id": 17, "name": "Nakhon Pathom", "name_ru": "Nakhon Pathom", "tz": "", "district": "Nakhon Pathom"}, {"id": 18, "name": "Ubon Ratchathani", "name_ru": "Ubon Ratchathani", "tz": "", "district": "Ubon Ratchathani"}, {"id": 19, "name": "Phitsanulok", "name_ru": "Phitsanulok", "tz": "", "district": "Phitsanulok"}, {"id": 20, "name": "Chiang Rai", "name_ru": "Chiang Rai", "tz": "", "district": "Chiang Rai"}, {"id": 21, "name": "Ban Suan", "name_ru": "Ban Suan", "tz": "", "district": "Chon Buri"}, {"id": 22, "name": "Samut Sakhon", "name_ru": "Samut Sakhon", "tz": "", "district": "Samut Sakhon"}, {"id": 23, "name": "Songkhla", "name_ru": "Songkhla", "tz": "", "district": "Songkhla"}, {"id": 24, "name": "Ban Rangsit", "name_ru": "Ban Rangsit", "tz": "", "district": "Pathum Thani"}, {"id": 25, "name": "Saraburi", "name_ru": "Saraburi", "tz": "", "district": "Sara Buri"}, {"id": 26, "name": "Rayong", "name_ru": "Rayong", "tz": "", "district": "Rayong"}, {"id": 27, "name": "Yala", "name_ru": "Yala", "tz": "", "district": "Yala"}, {"id": 28, "name": "Trang", "name_ru": "Trang", "tz": "", "district": "Trang"}, {"id": 29, "name": "Ban Bang Kaeo", "name_ru": "Ban Bang Kaeo", "tz": "", "district": "Samut Prakan"}, {"id": 30, "name": "Samut Prakan", "name_ru": "Samut Prakan", "tz": "", "district": "Samut Prakan"}, {"id": 31, "name": "Phra Nakhon Si Ayutthaya", "name_ru": "Phra Nakhon Si Ayutthaya", "tz": "", "district": "Phra Nakhon Si Ayutthaya"}, {"id": 32, "name": "Lampang", "name_ru": "Lampang", "tz": "", "district": "Lampang"}, {"id": 33, "name": "Muban Saeng Bua Thong", "name_ru": "Muban Saeng Bua Thong", "tz": "", "district": "Nonthaburi"}, {"id": 34, "name": "Prachuap Khiri Khan", "name_ru": "Prachuap Khiri Khan", "tz": "", "district": "Prachuap Khiri Khan"}, {"id": 35, "name": "Sakon Nakhon", "name_ru": "Sakon Nakhon", "tz": "", "district": "Sakon Nakhon"}, {"id": 36, "name": "Maha Sarakham", "name_ru": "Maha Sarakham", "tz": "", "district": "Maha Sarakham"}, {"id": 37, "name": "Bang Bua Thong", "name_ru": "Bang Bua Thong", "tz": "", "district": "Nonthaburi"}, {"id": 38, "name": "Nong Khai", "name_ru": "Nong Khai", "tz": "", "district": "Nong Khai"}, {"id": 39, "name": "Bang Kruai", "name_ru": "Bang Kruai", "tz": "", "district": "Nonthaburi"}, {"id": 40, "name": "Pattani", "name_ru": "Pattani", "tz": "", "district": "Pattani"}, {"id": 41, "name": "Ban Sai Ma Tai", "name_ru": "Ban Sai Ma Tai", "tz": "", "district": "Nonthaburi"}, {"id": 42, "name": "Si Sa Ket", "name_ru": "Si Sa Ket", "tz": "", "district": "Sisaket"}, {"id": 43, "name": "Narathiwat", "name_ru": "Narathiwat", "tz": "", "district": "Narathiwat"}, {"id": 44, "name": "Ban Na Pa", "name_ru": "Ban Na Pa", "tz": "", "district": "Chon Buri"}, {"id": 45, "name": "Chachoengsao", "name_ru": "Chachoengsao", "tz": "", "district": "Chachoengsao"}, {"id": 46, "name": "Samrong", "name_ru": "Samrong", "tz": "", "district": "Samut Prakan"}, {"id": 47, "name": "Surin", "name_ru": "Surin", "tz": "", "district": "Surin"}, {"id": 48, "name": "Chaiyaphum", "name_ru": "Chaiyaphum", "tz": "", "district": "Chaiyaphum"}, {"id": 49, "name": "Ratchaburi", "name_ru": "Ratchaburi", "tz": "", "district": "Ratchaburi"}, {"id": 50, "name": "Roi Et", "name_ru": "Roi Et", "tz": "", "district": "Roi Et"}, {"id": 51, "name": "Phatthalung", "name_ru": "Phatthalung", "tz": "", "district": "Phatthalung"}, {"id": 52, "name": "Ban Bang Krang", "name_ru": "Ban Bang Krang", "tz": "", "district": "Nonthaburi"}, {"id": 53, "name": "Ban Ang Sila", "name_ru": "Ban Ang Sila", "tz": "", "district": "Chon Buri"}, {"id": 54, "name": "Kalasin", "name_ru": "Kalasin", "tz": "", "district": "Kalasin"}, {"id": 55, "name": "Uttaradit", "name_ru": "Uttaradit", "tz": "", "district": "Uttaradit"}, {"id": 56, "name": "Chumphon", "name_ru": "Chumphon", "tz": "", "district": "Chumphon"}, {"id": 57, "name": "Mukdahan", "name_ru": "Mukdahan", "tz": "", "district": "Mukdahan"}, {"id": 58, "name": "Ban Bang Khu Wat", "name_ru": "Ban Bang Khu Wat", "tz": "", "district": "Pathum Thani"}, {"id": 59, "name": "Chon Buri", "name_ru": "Chon Buri", "tz": "", "district": "Chon Buri"}, {"id": 60, "name": "Krabi", "name_ru": "Krabi", "tz": "", "district": "Krabi"}, {"id": 61, "name": "Sai Mai", "name_ru": "Sai Mai", "tz": "", "district": "Krung Thep Maha Nakhon"}, {"id": 62, "name": "Kamphaeng Phet", "name_ru": "Kamphaeng Phet", "tz": "", "district": "Kamphaeng Phet"}, {"id": 63, "name": "Samut Songkhram", "name_ru": "Samut Songkhram", "tz": "", "district": "Samut Songkhram"}, {"id": 64, "name": "Buri Ram", "name_ru": "Buri Ram", "tz": "", "district": "Buriram"}, {"id": 65, "name": "Kathu", "name_ru": "Kathu", "tz": "", "district": "Phuket"}, {"id": 66, "name": "Ban Bang Phun", "name_ru": "Ban Bang Phun", "tz": "", "district": "Pathum Thani"}, {"id": 67, "name": "Nakhon Phanom", "name_ru": "Nakhon Phanom", "tz": "", "district": "Nakhon Phanom"}, {"id": 68, "name": "Suphan Buri", "name_ru": "Suphan Buri", "tz": "", "district": "Suphan Buri"}, {"id": 69, "name": "Bang Sao Thong", "name_ru": "Bang Sao Thong", "tz": "", "district": "Samut Prakan"}, {"id": 70, "name": "Krathum Baen", "name_ru": "Krathum Baen", "tz": "", "district": "Samut Sakhon"}, {"id": 71, "name": "Amnat Charoen", "name_ru": "Amnat Charoen", "tz": "", "district": "Amnat Charoen"}, {"id": 72, "name": "Kanchanaburi", "name_ru": "Kanchanaburi", "tz": "", "district": "Kanchanaburi"}, {"id": 73, "name": "Lop Buri", "name_ru": "Lop Buri", "tz": "", "district": "Lop Buri"}, {"id": 74, "name": "Chanthaburi", "name_ru": "Chanthaburi", "tz": "", "district": "Chanthaburi"}, {"id": 75, "name": "Satun", "name_ru": "Satun", "tz": "", "district": "Satun"}, {"id": 76, "name": "Phetchaburi", "name_ru": "Phetchaburi", "tz": "", "district": "Phetchaburi"}, {"id": 77, "name": "Phra Pradaeng", "name_ru": "Phra Pradaeng", "tz": "", "district": "Samut Prakan"}, {"id": 78, "name": "Phichit", "name_ru": "Phichit", "tz": "", "district": "Phichit"}, {"id": 79, "name": "Loei", "name_ru": "Loei", "tz": "", "district": "Loei"}, {"id": 80, "name": "Phetchabun", "name_ru": "Phetchabun", "tz": "", "district": "Phetchabun"}, {"id": 81, "name": "Nong Bua Lamphu", "name_ru": "Nong Bua Lamphu", "tz": "", "district": "Nong Bua Lamphu"}, {"id": 82, "name": "Nan", "name_ru": "Nan", "tz": "", "district": "Nan"}, {"id": 83, "name": "Yasothon", "name_ru": "Yasothon", "tz": "", "district": "Yasothon"}, {"id": 84, "name": "Ban Rawai", "name_ru": "Ban Rawai", "tz": "", "district": "Phuket"}, {"id": 85, "name": "Prachin Buri", "name_ru": "Prachin Buri", "tz": "", "district": "Prachin Buri"}, {"id": 86, "name": "Sing Buri", "name_ru": "Sing Buri", "tz": "", "district": "Sing Buri"}, {"id": 87, "name": "Sa Kaeo", "name_ru": "Sa Kaeo", "tz": "", "district": "Sa Kaeo"}, {"id": 88, "name": "Pathum Thani", "name_ru": "Pathum Thani", "tz": "", "district": "Pathum Thani"}, {"id": 89, "name": "Tak", "name_ru": "Tak", "tz": "", "district": "Tak"}, {"id": 90, "name": "Phayao", "name_ru": "Phayao", "tz": "", "district": "Phayao"}, {"id": 91, "name": "Phrae", "name_ru": "Phrae", "tz": "", "district": "Phrae"}, {"id": 92, "name": "Ranong", "name_ru": "Ranong", "tz": "", "district": "Ranong"}, {"id": 93, "name": "Nakhon Nayok", "name_ru": "Nakhon Nayok", "tz": "", "district": "Nakhon Nayok"}, {"id": 94, "name": "Sukhothai", "name_ru": "Sukhothai", "tz": "", "district": "Sukhothai"}, {"id": 95, "name": "Uthai Thani", "name_ru": "Uthai Thani", "tz": "", "district": "Uthai Thani"}, {"id": 96, "name": "Phra Samut Chedi", "name_ru": "Phra Samut Chedi", "tz": "", "district": "Samut Prakan"}, {"id": 97, "name": "Ban Bang Sai", "name_ru": "Ban Bang Sai", "tz": "", "district": "Chon Buri"}, {"id": 98, "name": "Ang Thong", "name_ru": "Ang Thong", "tz": "", "district": "Ang Thong"}, {"id": 99, "name": "Lamphun", "name_ru": "Lamphun", "tz": "", "district": "Lamphun"}, {"id": 100, "name": "Chai Nat", "name_ru": "Chai Nat", "tz": "", "district": "Chai Nat"}, {"id": 101, "name": "Trat", "name_ru": "Trat", "tz": "", "district": "Trat"}, {"id": 102, "name": "Phangnga", "name_ru": "Phangnga", "tz": "", "district": "Phangnga"}, {"id": 103, "name": "Mae Hong Son", "name_ru": "Mae Hong Son", "tz": "", "district": "Mae Hong Son"}, {"id": 104, "name": "Bueng Kan", "name_ru": "Bueng Kan", "tz": "", "district": "Bueng Kan"}, {"id": 105, "name": "Ko Samui", "name_ru": "Ko Samui", "tz": "", "district": "Surat Thani"}, {"id": 106, "name": "Hua Hin", "name_ru": "Hua Hin", "tz": "", "district": "Prachuap Khiri Khan"}, {"id": 107, "name": "Khlong Luang", "name_ru": "Khlong Luang", "tz": "", "district": "Pathum Thani"}, {"id": 108, "name": "Ban Plai Bua Phatthana", "name_ru": "Ban Plai Bua Phatthana", "tz": "", "district": "Pathum Thani"}, {"id": 109, "name": "Ban Bang Mae Nang", "name_ru": "Ban Bang Mae Nang", "tz": "", "district": "Nonthaburi"}, {"id": 110, "name": "Ban Pet", "name_ru": "Ban Pet", "tz": "", "district": "Khon Kaen"}, {"id": 111, "name": "Singhanakhon", "name_ru": "Singhanakhon", "tz": "", "district": "Songkhla"}, {"id": 112, "name": "Ban Wat Lak Hok", "name_ru": "Ban Wat Lak Hok", "tz": "", "district": "Ratchaburi"}, {"id": 113, "name": "Su-ngai Kolok", "name_ru": "Su-ngai Kolok", "tz": "", "district": "Narathiwat"}, {"id": 114, "name": "Ban Bang Khu Lat", "name_ru": "Ban Bang Khu Lat", "tz": "", "district": "Nonthaburi"}, {"id": 115, "name": "Ban Mueang Na Tai", "name_ru": "Ban Mueang Na Tai", "tz": "", "district": "Chiang Mai"}, {"id": 116, "name": "Pak Chong", "name_ru": "Pak Chong", "tz": "", "district": "Nakhon Ratchasima"}, {"id": 117, "name": "Cha-am", "name_ru": "Cha-am", "tz": "", "district": "Phetchaburi"}, {"id": 118, "name": "Phra Phutthabat", "name_ru": "Phra Phutthabat", "tz": "", "district": "Sara Buri"}, {"id": 119, "name": "Ban Pak Phun", "name_ru": "Ban Pak Phun", "tz": "", "district": "Nakhon Si Thammarat"}, {"id": 120, "name": "Chum Phae", "name_ru": "Chum Phae", "tz": "", "district": "Khon Kaen"}, {"id": 121, "name": "Mae Sot", "name_ru": "Mae Sot", "tz": "", "district": "Tak"}, {"id": 122, "name": "Thung Song", "name_ru": "Thung Song", "tz": "", "district": "Nakhon Si Thammarat"}, {"id": 123, "name": "Ban Phai", "name_ru": "Ban Phai", "tz": "", "district": "Khon Kaen"}, {"id": 124, "name": "Tha Yang", "name_ru": "Tha Yang", "tz": "", "district": "Phetchaburi"}, {"id": 125, "name": "Warin Chamrap", "name_ru": "Warin Chamrap", "tz": "", "district": "Ubon Ratchathani"}, {"id": 126, "name": "Ban Chang", "name_ru": "Ban Chang", "tz": "", "district": "Rayong"}, {"id": 127, "name": "Ban Phonla Krang", "name_ru": "Ban Phonla Krang", "tz": "", "district": "Nakhon Ratchasima"}, {"id": 128, "name": "Betong", "name_ru": "Betong", "tz": "", "district": "Yala"}, {"id": 129, "name": "Takhli", "name_ru": "Takhli", "tz": "", "district": "Nakhon Sawan"}, {"id": 130, "name": "Sattahip", "name_ru": "Sattahip", "tz": "", "district": "Chon Buri"}, {"id": 131, "name": "Ban Phru", "name_ru": "Ban Phru", "tz": "", "district": "Songkhla"}, {"id": 132, "name": "Si Racha", "name_ru": "Si Racha", "tz": "", "district": "Chon Buri"}, {"id": 133, "name": "Ban Bang Rin", "name_ru": "Ban Bang Rin", "tz": "", "district": "Ranong"}, {"id": 134, "name": "Wichian Buri", "name_ru": "Wichian Buri", "tz": "", "district": "Phetchabun"}, {"id": 135, "name": "Ban Piang Luang", "name_ru": "Ban Piang Luang", "tz": "", "district": "Chiang Mai"}, {"id": 136, "name": "Nang Rong", "name_ru": "Nang Rong", "tz": "", "district": "Buriram"}, {"id": 137, "name": "Wang Nam Yen", "name_ru": "Wang Nam Yen", "tz": "", "district": "Sa Kaeo"}, {"id": 138, "name": "Sadao", "name_ru": "Sadao", "tz": "", "district": "Songkhla"}, {"id": 139, "name": "Mae Sai", "name_ru": "Mae Sai", "tz": "", "district": "Chiang Rai"}, {"id": 140, "name": "Na Klang", "name_ru": "Na Klang", "tz": "", "district": "Nong Bua Lamphu"}, {"id": 141, "name": "Ban Tha Pha", "name_ru": "Ban Tha Pha", "tz": "", "district": "Ratchaburi"}, {"id": 142, "name": "Pak Phanang", "name_ru": "Pak Phanang", "tz": "", "district": "Nakhon Si Thammarat"}, {"id": 143, "name": "Ban Tha Kham", "name_ru": "Ban Tha Kham", "tz": "", "district": "Surat Thani"}, {"id": 144, "name": "Ban Na San", "name_ru": "Ban Na San", "tz": "", "district": "Surat Thani"}, {"id": 145, "name": "Ban Bueng", "name_ru": "Ban Bueng", "tz": "", "district": "Chon Buri"}, {"id": 146, "name": "Kantharalak", "name_ru": "Kantharalak", "tz": "", "district": "Sisaket"}, {"id": 147, "name": "Ban Mae Hia Nai", "name_ru": "Ban Mae Hia Nai", "tz": "", "district": "Chiang Mai"}, {"id": 148, "name": "Tak Bai", "name_ru": "Tak Bai", "tz": "", "district": "Narathiwat"}, {"id": 149, "name": "Ban Na Yang", "name_ru": "Ban Na Yang", "tz": "", "district": "Phetchaburi"}, {"id": 150, "name": "Ban Mai", "name_ru": "Ban Mai", "tz": "", "district": "Nakhon Ratchasima"}, {"id": 151, "name": "Sam Phran", "name_ru": "Sam Phran", "tz": "", "district": "Nakhon Pathom"}, {"id": 152, "name": "Tha Bo", "name_ru": "Tha Bo", "tz": "", "district": "Nong Khai"}, {"id": 153, "name": "Sikhio", "name_ru": "Sikhio", "tz": "", "district": "Nakhon Ratchasima"}, {"id": 154, "name": "San Kamphaeng", "name_ru": "San Kamphaeng", "tz": "", "district": "Chiang Mai"}, {"id": 155, "name": "Klaeng", "name_ru": "Klaeng", "tz": "", "district": "Rayong"}, {"id": 156, "name": "Ban Thum", "name_ru": "Ban Thum", "tz": "", "district": "Khon Kaen"}, {"id": 157, "name": "Ban Phe", "name_ru": "Ban Phe", "tz": "", "district": "Rayong"}, {"id": 158, "name": "Ban Pong", "name_ru": "Ban Pong", "tz": "", "district": "Ratchaburi"}, {"id": 159, "name": "Lam Luk Ka", "name_ru": "Lam Luk Ka", "tz": "", "district": "Pathum Thani"}, {"id": 160, "name": "Ban Song", "name_ru": "Ban Song", "tz": "", "district": "Surat Thani"}, {"id": 161, "name": "Rattaphum", "name_ru": "Rattaphum", "tz": "", "district": "Songkhla"}, {"id": 162, "name": "Sawankhalok", "name_ru": "Sawankhalok", "tz": "", "district": "Sukhothai"}, {"id": 163, "name": "Ban Cho Ho", "name_ru": "Ban Cho Ho", "tz": "", "district": "Nakhon Ratchasima"}, {"id": 164, "name": "Pran Buri", "name_ru": "Pran Buri", "tz": "", "district": "Prachuap Khiri Khan"}, {"id": 165, "name": "Ban Thung Tam Sao", "name_ru": "Ban Thung Tam Sao", "tz": "", "district": "Songkhla"}, {"id": 166, "name": "Ban Lam Narai", "name_ru": "Ban Lam Narai", "tz": "", "district": "Lop Buri"}, {"id": 167, "name": "Chai Prakan", "name_ru": "Chai Prakan", "tz": "", "district": "Chiang Mai"}, {"id": 168, "name": "Bang Phae", "name_ru": "Bang Phae", "tz": "", "district": "Ratchaburi"}, {"id": 169, "name": "Aranyaprathet", "name_ru": "Aranyaprathet", "tz": "", "district": "Sa Kaeo"}, {"id": 170, "name": "Ban Dung", "name_ru": "Ban Dung", "tz": "", "district": "Udon Thani"}, {"id": 171, "name": "Si Satchanalai", "name_ru": "Si Satchanalai", "tz": "", "district": "Sukhothai"}, {"id": 172, "name": "Ban Na Kham", "name_ru": "Ban Na Kham", "tz": "", "district": "Prachin Buri"}, {"id": 173, "name": "Khao Yoi", "name_ru": "Khao Yoi", "tz": "", "district": "Phetchaburi"}, {"id": 174, "name": "Ban Duea", "name_ru": "Ban Duea", "tz": "", "district": "Chaiyaphum"}, {"id": 175, "name": "Ban Bang Muang", "name_ru": "Ban Bang Muang", "tz": "", "district": "Nonthaburi"}, {"id": 176, "name": "Thoen", "name_ru": "Thoen", "tz": "", "district": "Lampang"}, {"id": 177, "name": "Ban Kaeng", "name_ru": "Ban Kaeng", "tz": "", "district": "Chaiyaphum"}, {"id": 178, "name": "Sai Buri", "name_ru": "Sai Buri", "tz": "", "district": "Pattani"}, {"id": 179, "name": "Det Udom", "name_ru": "Det Udom", "tz": "", "district": "Ubon Ratchathani"}, {"id": 180, "name": "Pak Thong Chai", "name_ru": "Pak Thong Chai", "tz": "", "district": "Nakhon Ratchasima"}, {"id": 181, "name": "Bua Yai", "name_ru": "Bua Yai", "tz": "", "district": "Nakhon Ratchasima"}, {"id": 182, "name": "Bang Racham", "name_ru": "Bang Racham", "tz": "", "district": "Sing Buri"}, {"id": 183, "name": "Taphan Hin", "name_ru": "Taphan Hin", "tz": "", "district": "Phichit"}, {"id": 184, "name": "Ban Tha Luang Lang", "name_ru": "Ban Tha Luang Lang", "tz": "", "district": "Chanthaburi"}, {"id": 185, "name": "Ban Mae Kaluang", "name_ru": "Ban Mae Kaluang", "tz": "", "district": "Phayao"}, {"id": 186, "name": "Ban Bung Kha", "name_ru": "Ban Bung Kha", "tz": "", "district": "Yasothon"}, {"id": 187, "name": "Dok Kham Tai", "name_ru": "Dok Kham Tai", "tz": "", "district": "Phayao"}, {"id": 188, "name": "Ban Chorakhe Samphan", "name_ru": "Ban Chorakhe Samphan", "tz": "", "district": "Suphan Buri"}, {"id": 189, "name": "Ban Bang Lamung", "name_ru": "Ban Bang Lamung", "tz": "", "district": "Chon Buri"}, {"id": 190, "name": "Song Phi Nong", "name_ru": "Song Phi Nong", "tz": "", "district": "Suphan Buri"}, {"id": 191, "name": "Ban Tat", "name_ru": "Ban Tat", "tz": "", "district": "Udon Thani"}, {"id": 192, "name": "Chaiyo", "name_ru": "Chaiyo", "tz": "", "district": "Ang Thong"}, {"id": 193, "name": "Ban Laem", "name_ru": "Ban Laem", "tz": "", "district": "Phetchaburi"}, {"id": 194, "name": "Kaeng Khoi", "name_ru": "Kaeng Khoi", "tz": "", "district": "Sara Buri"}, {"id": 195, "name": "Nong Khae", "name_ru": "Nong Khae", "tz": "", "district": "Sara Buri"}, {"id": 196, "name": "Ban Muang Ngam", "name_ru": "Ban Muang Ngam", "tz": "", "district": "Songkhla"}, {"id": 197, "name": "Ban Bang Non", "name_ru": "Ban Bang Non", "tz": "", "district": "Ranong"}, {"id": 198, "name": "Chok Chai", "name_ru": "Chok Chai", "tz": "", "district": "Nakhon Ratchasima"}, {"id": 199, "name": "Ban Tom Klang", "name_ru": "Ban Tom Klang", "tz": "", "district": "Phayao"}, {"id": 200, "name": "Kantang", "name_ru": "Kantang", "tz": "", "district": "Trang"}, {"id": 201, "name": "Rong Kwang", "name_ru": "Rong Kwang", "tz": "", "district": "Phrae"}, {"id": 202, "name": "Ban Bang Yai", "name_ru": "Ban Bang Yai", "tz": "", "district": "Nonthaburi"}, {"id": 203, "name": "Huai Yot", "name_ru": "Huai Yot", "tz": "", "district": "Trang"}, {"id": 204, "name": "Na Wa", "name_ru": "Na Wa", "tz": "", "district": "Nakhon Phanom"}, {"id": 205, "name": "Ban Bo Luang", "name_ru": "Ban Bo Luang", "tz": "", "district": "Chiang Mai"}, {"id": 206, "name": "Wang Saphung", "name_ru": "Wang Saphung", "tz": "", "district": "Loei"}, {"id": 207, "name": "Don Sak", "name_ru": "Don Sak", "tz": "", "district": "Surat Thani"}, {"id": 208, "name": "Nong Bua", "name_ru": "Nong Bua", "tz": "", "district": "Nakhon Sawan"}, {"id": 209, "name": "Ban Phan Don", "name_ru": "Ban Phan Don", "tz": "", "district": "Udon Thani"}, {"id": 210, "name": "Kuchinarai", "name_ru": "Kuchinarai", "tz": "", "district": "Kalasin"}, {"id": 211, "name": "Ban Wiang Phan", "name_ru": "Ban Wiang Phan", "tz": "", "district": "Chiang Rai"}, {"id": 212, "name": "Phon", "name_ru": "Phon", "tz": "", "district": "Khon Kaen"}, {"id": 213, "name": "Lom Sak", "name_ru": "Lom Sak", "tz": "", "district": "Phetchabun"}, {"id": 214, "name": "Ban Bang Toei", "name_ru": "Ban Bang Toei", "tz": "", "district": "Pathum Thani"}, {"id": 215, "name": "Den Chai", "name_ru": "Den Chai", "tz": "", "district": "Phrae"}, {"id": 216, "name": "Phanat Nikhom", "name_ru": "Phanat Nikhom", "tz": "", "district": "Chon Buri"}, {"id": 217, "name": "Satuek", "name_ru": "Satuek", "tz": "", "district": "Buriram"}, {"id": 218, "name": "Salaya", "name_ru": "Salaya", "tz": "", "district": "Nakhon Pathom"}, {"id": 219, "name": "Lang Suan", "name_ru": "Lang Suan", "tz": "", "district": "Chumphon"}, {"id": 220, "name": "Bang Ban", "name_ru": "Bang Ban", "tz": "", "district": "Phra Nakhon Si Ayutthaya"}, {"id": 221, "name": "Kaset Wisai", "name_ru": "Kaset Wisai", "tz": "", "district": "Roi Et"}, {"id": 222, "name": "Si Wilai", "name_ru": "Si Wilai", "tz": "", "district": "Bueng Kan"}, {"id": 223, "name": "Ban Bo Phlap", "name_ru": "Ban Bo Phlap", "tz": "", "district": "Nakhon Pathom"}, {"id": 224, "name": "Tha Chang", "name_ru": "Tha Chang", "tz": "", "district": "Surat Thani"}, {"id": 225, "name": "Fao Rai", "name_ru": "Fao Rai", "tz": "", "district": "Nong Khai"}, {"id": 226, "name": "Ban Yang Hom", "name_ru": "Ban Yang Hom", "tz": "", "district": "Chiang Rai"}, {"id": 227, "name": "Phibun Mangsahan", "name_ru": "Phibun Mangsahan", "tz": "", "district": "Ubon Ratchathani"}, {"id": 228, "name": "Phrai Bueng", "name_ru": "Phrai Bueng", "tz": "", "district": "Sisaket"}, {"id": 229, "name": "Khlung", "name_ru": "Khlung", "tz": "", "district": "Chanthaburi"}, {"id": 230, "name": "Pua", "name_ru": "Pua", "tz": "", "district": "Nan"}, {"id": 231, "name": "Sam Ko", "name_ru": "Sam Ko", "tz": "", "district": "Ang Thong"}, {"id": 232, "name": "Wang Sombun", "name_ru": "Wang Sombun", "tz": "", "district": "Sa Kaeo"}, {"id": 233, "name": "Ban Ko", "name_ru": "Ban Ko", "tz": "", "district": "Ratchaburi"}, {"id": 234, "name": "Ban Lueak", "name_ru": "Ban Lueak", "tz": "", "district": "Ratchaburi"}, {"id": 235, "name": "Ban Bang Phlap", "name_ru": "Ban Bang Phlap", "tz": "", "district": "Nonthaburi"}, {"id": 236, "name": "Ban Thung Khao Phuang", "name_ru": "Ban Thung Khao Phuang", "tz": "", "district": "Chiang Mai"}, {"id": 237, "name": "Prakhon Chai", "name_ru": "Prakhon Chai", "tz": "", "district": "Buriram"}, {"id": 238, "name": "Phai Sali", "name_ru": "Phai Sali", "tz": "", "district": "Nakhon Sawan"}, {"id": 239, "name": "Phon Charoen", "name_ru": "Phon Charoen", "tz": "", "district": "Bueng Kan"}, {"id": 240, "name": "Tha Muang", "name_ru": "Tha Muang", "tz": "", "district": "Kanchanaburi"}, {"id": 241, "name": "Ban Klang", "name_ru": "Ban Klang", "tz": "", "district": "Lamphun"}, {"id": 242, "name": "Kut Chap", "name_ru": "Kut Chap", "tz": "", "district": "Udon Thani"}, {"id": 243, "name": "Kranuan", "name_ru": "Kranuan", "tz": "", "district": "Khon Kaen"}, {"id": 244, "name": "Ban Bong Tai", "name_ru": "Ban Bong Tai", "tz": "", "district": "Sakon Nakhon"}, {"id": 245, "name": "Nong Ki", "name_ru": "Nong Ki", "tz": "", "district": "Buriram"}, {"id": 246, "name": "Phak Hai", "name_ru": "Phak Hai", "tz": "", "district": "Phra Nakhon Si Ayutthaya"}, {"id": 247, "name": "Sung Noen", "name_ru": "Sung Noen", "tz": "", "district": "Nakhon Ratchasima"}, {"id": 248, "name": "Ban Bu Sung", "name_ru": "Ban Bu Sung", "tz": "", "district": "Sisaket"}, {"id": 249, "name": "Kamalasai", "name_ru": "Kamalasai", "tz": "", "district": "Kalasin"}, {"id": 250, "name": "Tha Mai", "name_ru": "Tha Mai", "tz": "", "district": "Chanthaburi"}, {"id": 251, "name": "Mae Ai", "name_ru": "Mae Ai", "tz": "", "district": "Chiang Mai"}, {"id": 252, "name": "Non Sung", "name_ru": "Non Sung", "tz": "", "district": "Nakhon Ratchasima"}, {"id": 253, "name": "Nong Wua So", "name_ru": "Nong Wua So", "tz": "", "district": "Udon Thani"}, {"id": 254, "name": "Bueng Khong Long", "name_ru": "Bueng Khong Long", "tz": "", "district": "Bueng Kan"}, {"id": 255, "name": "Photharam", "name_ru": "Photharam", "tz": "", "district": "Ratchaburi"}, {"id": 256, "name": "Chom Thong", "name_ru": "Chom Thong", "tz": "", "district": "Chiang Mai"}, {"id": 257, "name": "Chiang Klang", "name_ru": "Chiang Klang", "tz": "", "district": "Nan"}, {"id": 258, "name": "Ban Krot", "name_ru": "Ban Krot", "tz": "", "district": "Phra Nakhon Si Ayutthaya"}, {"id": 259, "name": "Thap Khlo", "name_ru": "Thap Khlo", "tz": "", "district": "Phichit"}, {"id": 260, "name": "Wiang Sa", "name_ru": "Wiang Sa", "tz": "", "district": "Surat Thani"}, {"id": 261, "name": "Mae Rim", "name_ru": "Mae Rim", "tz": "", "district": "Chiang Mai"}, {"id": 262, "name": "Kanchanadit", "name_ru": "Kanchanadit", "tz": "", "district": "Surat Thani"}, {"id": 263, "name": "Bang Khla", "name_ru": "Bang Khla", "tz": "", "district": "Chachoengsao"}, {"id": 264, "name": "Ban Tha Phra", "name_ru": "Ban Tha Phra", "tz": "", "district": "Khon Kaen"}, {"id": 265, "name": "Nakhon Thai", "name_ru": "Nakhon Thai", "tz": "", "district": "Phitsanulok"}, {"id": 266, "name": "Nong Kung Si", "name_ru": "Nong Kung Si", "tz": "", "district": "Kalasin"}, {"id": 267, "name": "Suwannaphum", "name_ru": "Suwannaphum", "tz": "", "district": "Roi Et"}, {"id": 268, "name": "Pong Nam Ron", "name_ru": "Pong Nam Ron", "tz": "", "district": "Chanthaburi"}, {"id": 269, "name": "Kaeng Khro", "name_ru": "Kaeng Khro", "tz": "", "district": "Chaiyaphum"}, {"id": 270, "name": "Thung Sai", "name_ru": "Thung Sai", "tz": "", "district": "Kamphaeng Phet"}, {"id": 271, "name": "Kosum Phisai", "name_ru": "Kosum Phisai", "tz": "", "district": "Maha Sarakham"}, {"id": 272, "name": "Akat Amnuai", "name_ru": "Akat Amnuai", "tz": "", "district": "Sakon Nakhon"}, {"id": 273, "name": "Tha Luang", "name_ru": "Tha Luang", "tz": "", "district": "Lop Buri"}, {"id": 274, "name": "Pa Mok", "name_ru": "Pa Mok", "tz": "", "district": "Ang Thong"}, {"id": 275, "name": "Thap Than", "name_ru": "Thap Than", "tz": "", "district": "Uthai Thani"}, {"id": 276, "name": "Kui Buri", "name_ru": "Kui Buri", "tz": "", "district": "Prachuap Khiri Khan"}, {"id": 277, "name": "Takua Pa", "name_ru": "Takua Pa", "tz": "", "district": "Phangnga"}, {"id": 278, "name": "Ban Na", "name_ru": "Ban Na", "tz": "", "district": "Rayong"}, {"id": 279, "name": "Pa Sang", "name_ru": "Pa Sang", "tz": "", "district": "Lamphun"}, {"id": 280, "name": "Phimai", "name_ru": "Phimai", "tz": "", "district": "Nakhon Ratchasima"}, {"id": 281, "name": "Ban Ratchakrut", "name_ru": "Ban Ratchakrut", "tz": "", "district": "Ranong"}, {"id": 282, "name": "Yang Talat", "name_ru": "Yang Talat", "tz": "", "district": "Kalasin"}, {"id": 283, "name": "Nam Som", "name_ru": "Nam Som", "tz": "", "district": "Udon Thani"}, {"id": 284, "name": "Nakhon Chai Si", "name_ru": "Nakhon Chai Si", "tz": "", "district": "Nakhon Pathom"}, {"id": 285, "name": "Bang Len", "name_ru": "Bang Len", "tz": "", "district": "Nakhon Pathom"}, {"id": 286, "name": "Sawang Daen Din", "name_ru": "Sawang Daen Din", "tz": "", "district": "Sakon Nakhon"}, {"id": 287, "name": "Na Yung", "name_ru": "Na Yung", "tz": "", "district": "Udon Thani"}, {"id": 288, "name": "Bang Mun Nak", "name_ru": "Bang Mun Nak", "tz": "", "district": "Phichit"}, {"id": 289, "name": "Non Sang", "name_ru": "Non Sang", "tz": "", "district": "Nong Bua Lamphu"}, {"id": 290, "name": "Kumphawapi", "name_ru": "Kumphawapi", "tz": "", "district": "Udon Thani"}, {"id": 291, "name": "Tha Maka", "name_ru": "Tha Maka", "tz": "", "district": "Kanchanaburi"}, {"id": 292, "name": "U Thong", "name_ru": "U Thong", "tz": "", "district": "Suphan Buri"}, {"id": 293, "name": "Phayakkhaphum Phisai", "name_ru": "Phayakkhaphum Phisai", "tz": "", "district": "Maha Sarakham"}, {"id": 294, "name": "Khanu Woralaksaburi", "name_ru": "Khanu Woralaksaburi", "tz": "", "district": "Kamphaeng Phet"}, {"id": 295, "name": "Chaiwan", "name_ru": "Chaiwan", "tz": "", "district": "Udon Thani"}, {"id": 296, "name": "Ban Buak Khang", "name_ru": "Ban Buak Khang", "tz": "", "district": "Chiang Mai"}, {"id": 297, "name": "Chonnabot", "name_ru": "Chonnabot", "tz": "", "district": "Khon Kaen"}, {"id": 298, "name": "Ron Phibun", "name_ru": "Ron Phibun", "tz": "", "district": "Nakhon Si Thammarat"}, {"id": 299, "name": "Sawang Wirawong", "name_ru": "Sawang Wirawong", "tz": "", "district": "Ubon Ratchathani"}, {"id": 300, "name": "Dong Luang", "name_ru": "Dong Luang", "tz": "", "district": "Mukdahan"}, {"id": 301, "name": "Chumsaeng", "name_ru": "Chumsaeng", "tz": "", "district": "Nakhon Sawan"}, {"id": 302, "name": "Damnoen Saduak", "name_ru": "Damnoen Saduak", "tz": "", "district": "Ratchaburi"}, {"id": 303, "name": "Thung Saliam", "name_ru": "Thung Saliam", "tz": "", "district": "Sukhothai"}, {"id": 304, "name": "Khon Buri", "name_ru": "Khon Buri", "tz": "", "district": "Nakhon Ratchasima"}, {"id": 305, "name": "Soeng Sang", "name_ru": "Soeng Sang", "tz": "", "district": "Nakhon Ratchasima"}, {"id": 306, "name": "Ban Phue", "name_ru": "Ban Phue", "tz": "", "district": "Udon Thani"}, {"id": 307, "name": "Chaiya", "name_ru": "Chaiya", "tz": "", "district": "Surat Thani"}, {"id": 308, "name": "Bang Pa-in", "name_ru": "Bang Pa-in", "tz": "", "district": "Phra Nakhon Si Ayutthaya"}, {"id": 309, "name": "Ban Duea", "name_ru": "Ban Duea", "tz": "", "district": "Nong Khai"}, {"id": 310, "name": "Hang Dong", "name_ru": "Hang Dong", "tz": "", "district": "Chiang Mai"}, {"id": 311, "name": "Uthumphon Phisai", "name_ru": "Uthumphon Phisai", "tz": "", "district": "Sisaket"}, {"id": 312, "name": "Nong Phai", "name_ru": "Nong Phai", "tz": "", "district": "Phetchabun"}, {"id": 313, "name": "Phu Kradueng", "name_ru": "Phu Kradueng", "tz": "", "district": "Loei"}, {"id": 314, "name": "Ra-ngae", "name_ru": "Ra-ngae", "tz": "", "district": "Narathiwat"}, {"id": 315, "name": "Tha Ruea", "name_ru": "Tha Ruea", "tz": "", "district": "Phra Nakhon Si Ayutthaya"}, {"id": 316, "name": "Sa Bot", "name_ru": "Sa Bot", "tz": "", "district": "Lop Buri"}, {"id": 317, "name": "Na Chaluai", "name_ru": "Na Chaluai", "tz": "", "district": "Ubon Ratchathani"}, {"id": 318, "name": "Thung Fon", "name_ru": "Thung Fon", "tz": "", "district": "Udon Thani"}, {"id": 319, "name": "Si Chiang Mai", "name_ru": "Si Chiang Mai", "tz": "", "district": "Nong Khai"}, {"id": 320, "name": "Nakhon Luang", "name_ru": "Nakhon Luang", "tz": "", "district": "Phra Nakhon Si Ayutthaya"}, {"id": 321, "name": "Bamnet Narong", "name_ru": "Bamnet Narong", "tz": "", "district": "Chaiyaphum"}, {"id": 322, "name": "Bo Phloi", "name_ru": "Bo Phloi", "tz": "", "district": "Kanchanaburi"}, {"id": 323, "name": "Ko Pha-Ngan", "name_ru": "Ko Pha-Ngan", "tz": "", "district": "Surat Thani"}, {"id": 324, "name": "Ban Chan", "name_ru": "Ban Chan", "tz": "", "district": "Udon Thani"}, {"id": 325, "name": "Charoen Sin", "name_ru": "Charoen Sin", "tz": "", "district": "Sakon Nakhon"}, {"id": 326, "name": "Ban Haet", "name_ru": "Ban Haet", "tz": "", "district": "Khon Kaen"}, {"id": 327, "name": "Ban Bang Pakong", "name_ru": "Ban Bang Pakong", "tz": "", "district": "Chachoengsao"}, {"id": 328, "name": "Chiang Kham", "name_ru": "Chiang Kham", "tz": "", "district": "Phayao"}, {"id": 329, "name": "Phan Thong", "name_ru": "Phan Thong", "tz": "", "district": "Chon Buri"}, {"id": 330, "name": "Na Duang", "name_ru": "Na Duang", "tz": "", "district": "Loei"}, {"id": 331, "name": "Phanom Sarakham", "name_ru": "Phanom Sarakham", "tz": "", "district": "Chachoengsao"}, {"id": 332, "name": "Yaring", "name_ru": "Yaring", "tz": "", "district": "Pattani"}, {"id": 333, "name": "That Phanom", "name_ru": "That Phanom", "tz": "", "district": "Nakhon Phanom"}, {"id": 334, "name": "Nong Chik", "name_ru": "Nong Chik", "tz": "", "district": "Pattani"}, {"id": 335, "name": "Ban Hua Saphan", "name_ru": "Ban Hua Saphan", "tz": "", "district": "Phetchaburi"}, {"id": 336, "name": "Ban Tak", "name_ru": "Ban Tak", "tz": "", "district": "Tak"}, {"id": 337, "name": "Lat Yao", "name_ru": "Lat Yao", "tz": "", "district": "Nakhon Sawan"}, {"id": 338, "name": "Phu Khiao", "name_ru": "Phu Khiao", "tz": "", "district": "Chaiyaphum"}, {"id": 339, "name": "Pa Daet", "name_ru": "Pa Daet", "tz": "", "district": "Chiang Rai"}, {"id": 340, "name": "Dan Khun Thot", "name_ru": "Dan Khun Thot", "tz": "", "district": "Nakhon Ratchasima"}, {"id": 341, "name": "Bua Chet", "name_ru": "Bua Chet", "tz": "", "district": "Surin"}, {"id": 342, "name": "Wiset Chaichan", "name_ru": "Wiset Chaichan", "tz": "", "district": "Ang Thong"}, {"id": 343, "name": "Nikhom Kham Soi", "name_ru": "Nikhom Kham Soi", "tz": "", "district": "Mukdahan"}, {"id": 344, "name": "Si Prachan", "name_ru": "Si Prachan", "tz": "", "district": "Suphan Buri"}, {"id": 345, "name": "Phop Phra", "name_ru": "Phop Phra", "tz": "", "district": "Tak"}, {"id": 346, "name": "Sai Mun", "name_ru": "Sai Mun", "tz": "", "district": "Yasothon"}, {"id": 347, "name": "Prathai", "name_ru": "Prathai", "tz": "", "district": "Nakhon Ratchasima"}, {"id": 348, "name": "Nong Song Hong", "name_ru": "Nong Song Hong", "tz": "", "district": "Khon Kaen"}, {"id": 349, "name": "Rong Kham", "name_ru": "Rong Kham", "tz": "", "district": "Kalasin"}, {"id": 350, "name": "Phanna Nikhom", "name_ru": "Phanna Nikhom", "tz": "", "district": "Sakon Nakhon"}, {"id": 351, "name": "Khok Samrong", "name_ru": "Khok Samrong", "tz": "", "district": "Lop Buri"}, {"id": 352, "name": "Lom Kao", "name_ru": "Lom Kao", "tz": "", "district": "Phetchabun"}, {"id": 353, "name": "Pueai Noi", "name_ru": "Pueai Noi", "tz": "", "district": "Khon Kaen"}, {"id": 354, "name": "Wanon Niwat", "name_ru": "Wanon Niwat", "tz": "", "district": "Sakon Nakhon"}, {"id": 355, "name": "Ban Chet Samian", "name_ru": "Ban Chet Samian", "tz": "", "district": "Ratchaburi"}, {"id": 356, "name": "Kao Liao", "name_ru": "Kao Liao", "tz": "", "district": "Nakhon Sawan"}, {"id": 357, "name": "Borabue", "name_ru": "Borabue", "tz": "", "district": "Maha Sarakham"}, {"id": 358, "name": "Huai Mek", "name_ru": "Huai Mek", "tz": "", "district": "Kalasin"}, {"id": 359, "name": "Moeiwadi", "name_ru": "Moeiwadi", "tz": "", "district": "Roi Et"}, {"id": 360, "name": "Phachi", "name_ru": "Phachi", "tz": "", "district": "Phra Nakhon Si Ayutthaya"}, {"id": 361, "name": "Non Sila", "name_ru": "Non Sila", "tz": "", "district": "Khon Kaen"}, {"id": 362, "name": "Phayuha Khiri", "name_ru": "Phayuha Khiri", "tz": "", "district": "Nakhon Sawan"}, {"id": 363, "name": "Ban Bang Tabun", "name_ru": "Ban Bang Tabun", "tz": "", "district": "Phetchaburi"}, {"id": 364, "name": "Ao Luek", "name_ru": "Ao Luek", "tz": "", "district": "Krabi"}, {"id": 365, "name": "Ku Kaeo", "name_ru": "Ku Kaeo", "tz": "", "district": "Udon Thani"}, {"id": 366, "name": "Ban Hat Lek", "name_ru": "Ban Hat Lek", "tz": "", "district": "Trat"}, {"id": 367, "name": "Pong", "name_ru": "Pong", "tz": "", "district": "Phayao"}, {"id": 368, "name": "Ban Krang", "name_ru": "Ban Krang", "tz": "", "district": "Suphan Buri"}, {"id": 369, "name": "Bang Sai", "name_ru": "Bang Sai", "tz": "", "district": "Phra Nakhon Si Ayutthaya"}, {"id": 370, "name": "Kae Dam", "name_ru": "Kae Dam", "tz": "", "district": "Maha Sarakham"}, {"id": 371, "name": "Kham Sakae Saeng", "name_ru": "Kham Sakae Saeng", "tz": "", "district": "Nakhon Ratchasima"}, {"id": 372, "name": "Phanom Thuan", "name_ru": "Phanom Thuan", "tz": "", "district": "Kanchanaburi"}, {"id": 373, "name": "Ko Chang", "name_ru": "Ko Chang", "tz": "", "district": "Trat"}, {"id": 374, "name": "Sam Sung", "name_ru": "Sam Sung", "tz": "", "district": "Khon Kaen"}, {"id": 375, "name": "Yarang", "name_ru": "Yarang", "tz": "", "district": "Pattani"}, {"id": 376, "name": "Tha Wang Pha", "name_ru": "Tha Wang Pha", "tz": "", "district": "Nan"}, {"id": 377, "name": "Waeng Yai", "name_ru": "Waeng Yai", "tz": "", "district": "Khon Kaen"}, {"id": 378, "name": "Nong Muang", "name_ru": "Nong Muang", "tz": "", "district": "Lop Buri"}, {"id": 379, "name": "Nong Na Kham", "name_ru": "Nong Na Kham", "tz": "", "district": "Khon Kaen"}, {"id": 380, "name": "Sanom", "name_ru": "Sanom", "tz": "", "district": "Surin"}, {"id": 381, "name": "In Buri", "name_ru": "In Buri", "tz": "", "district": "Sing Buri"}, {"id": 382, "name": "Mae Chai", "name_ru": "Mae Chai", "tz": "", "district": "Phayao"}, {"id": 383, "name": "Kut Bak", "name_ru": "Kut Bak", "tz": "", "district": "Sakon Nakhon"}, {"id": 384, "name": "Si Sakhon", "name_ru": "Si Sakhon", "tz": "", "district": "Narathiwat"}, {"id": 385, "name": "Phanom", "name_ru": "Phanom", "tz": "", "district": "Surat Thani"}, {"id": 386, "name": "Thung Yai", "name_ru": "Thung Yai", "tz": "", "district": "Nakhon Si Thammarat"}, {"id": 387, "name": "Ban Kham Pom", "name_ru": "Ban Kham Pom", "tz": "", "district": "Ubon Ratchathani"}, {"id": 388, "name": "Ban Nong Samet", "name_ru": "Ban Nong Samet", "tz": "", "district": "Trat"}, {"id": 389, "name": "Ban Pa Lu Ru", "name_ru": "Ban Pa Lu Ru", "tz": "", "district": "Narathiwat"}, {"id": 390, "name": "Ban Don Sai", "name_ru": "Ban Don Sai", "tz": "", "district": "Udon Thani"}, {"id": 391, "name": "Ban Tham", "name_ru": "Ban Tham", "tz": "", "district": "Phayao"}, {"id": 392, "name": "Ban Huai Mai", "name_ru": "Ban Huai Mai", "tz": "", "district": "Phrae"}, {"id": 393, "name": "Ban Banlang", "name_ru": "Ban Banlang", "tz": "", "district": "Nakhon Ratchasima"}, {"id": 394, "name": "Ban Pao", "name_ru": "Ban Pao", "tz": "", "district": "Chaiyaphum"}, {"id": 395, "name": "Ban Patan Mai", "name_ru": "Ban Patan Mai", "tz": "", "district": "Chiang Rai"}, {"id": 396, "name": "Ban Bua Ngam", "name_ru": "Ban Bua Ngam", "tz": "", "district": "Ubon Ratchathani"}, {"id": 397, "name": "Sichon", "name_ru": "Sichon", "tz": "", "district": "Prachuap Khiri Khan"}, {"id": 398, "name": "Ban Karaket", "name_ru": "Ban Karaket", "tz": "", "district": "Nakhon Si Thammarat"}, {"id": 399, "name": "Ban Kamphuan", "name_ru": "Ban Kamphuan", "tz": "", "district": "Ranong"}, {"id": 400, "name": "Ban Wang Kalang", "name_ru": "Ban Wang Kalang", "tz": "", "district": "Kanchanaburi"}, {"id": 401, "name": "Ban Phon Yai", "name_ru": "Ban Phon Yai", "tz": "", "district": "Sakon Nakhon"}, {"id": 402, "name": "Ban Tai", "name_ru": "Ban Tai", "tz": "", "district": "Sakon Nakhon"}, {"id": 403, "name": "Ban Ta Hua Fai", "name_ru": "Ban Ta Hua Fai", "tz": "", "district": "Chiang Rai"}, {"id": 404, "name": "Ban Dong Mafai", "name_ru": "Ban Dong Mafai", "tz": "", "district": "Sakon Nakhon"}, {"id": 405, "name": "Ban Chiang", "name_ru": "Ban Chiang", "tz": "", "district": "Udon Thani"}, {"id": 406, "name": "Ban Talat Ko Ta Ba Ru", "name_ru": "Ban Talat Ko Ta Ba Ru", "tz": "", "district": "Yala"}, {"id": 407, "name": "Ban Chiang Klom", "name_ru": "Ban Chiang Klom", "tz": "", "district": "Loei"}, {"id": 408, "name": "Ban Nam Phong", "name_ru": "Ban Nam Phong", "tz": "", "district": "Khon Kaen"}, {"id": 409, "name": "Ban Bang Pramung", "name_ru": "Ban Bang Pramung", "tz": "", "district": "Nakhon Sawan"}, {"id": 410, "name": "Ban San", "name_ru": "Ban San", "tz": "", "district": "Chiang Mai"}]