[{"id": 1, "name": "Dili", "name_ru": "Dili", "tz": "", "district": "Díli"}, {"id": 2, "name": "Maliana", "name_ru": "Maliana", "tz": "", "district": "Bobonaro"}, {"id": 3, "name": "Baucau", "name_ru": "Baucau", "tz": "", "district": "Baucau"}, {"id": 4, "name": "Manatuto", "name_ru": "Manatuto", "tz": "", "district": "Manatuto"}, {"id": 5, "name": "Gleno", "name_ru": "Gleno", "tz": "", "district": "Ermera"}, {"id": 6, "name": "Viqueque", "name_ru": "Viqueque", "tz": "", "district": "Viqueque"}, {"id": 7, "name": "Liquica", "name_ru": "Liquiçá", "tz": "", "district": "Liquiçá"}, {"id": 8, "name": "Ainaro", "name_ru": "Ainaro", "tz": "", "district": "Ainaro"}, {"id": 9, "name": "Same", "name_ru": "Same", "tz": "", "district": "Manufahi"}, {"id": 10, "name": "Aileu", "name_ru": "Aileu", "tz": "", "district": "Aileu"}, {"id": 11, "name": "Suai", "name_ru": "Suai", "tz": "", "district": "Cova Lima"}, {"id": 12, "name": "Pante Macassar", "name_ru": "Pante Macassar", "tz": "", "district": "Oecussi-Ambeno"}, {"id": 13, "name": "Lospalos", "name_ru": "Lospalos", "tz": "", "district": "Lautém"}]