[{"id": 1, "name": "Ashgabat", "name_ru": "Ashgabat", "tz": "", "district": "Ahal"}, {"id": 2, "name": "Turkmenabat", "name_ru": "Türkmenabat", "tz": "", "district": "Lebap"}, {"id": 3, "name": "Dasoguz", "name_ru": "Daşoguz", "tz": "", "district": "Daşoguz"}, {"id": 4, "name": "Mary", "name_ru": "Mary", "tz": "", "district": "Mary"}, {"id": 5, "name": "Balkanabat", "name_ru": "Balkanabat", "tz": "", "district": "Balkan"}, {"id": 6, "name": "Anew", "name_ru": "Änew", "tz": "", "district": "Ahal"}, {"id": 7, "name": "Serdar", "name_ru": "Serdar", "tz": "", "district": "Balkan"}, {"id": 8, "name": "Turkmenbasy", "name_ru": "Türkmenbaşy", "tz": "", "district": "Balkan"}, {"id": 9, "name": "Tejen", "name_ru": "Tejen", "tz": "", "district": "Ahal"}, {"id": 10, "name": "Abadan", "name_ru": "Abadan", "tz": "", "district": "Ahal"}, {"id": 11, "name": "Kaka", "name_ru": "Kaka", "tz": "", "district": "Ahal"}, {"id": 12, "name": "Atamyrat", "name_ru": "Atamyrat", "tz": "", "district": "Lebap"}, {"id": 13, "name": "Koneurgench", "name_ru": "Köneürgench", "tz": "", "district": "Daşoguz"}, {"id": 14, "name": "Hazar", "name_ru": "Hazar", "tz": "", "district": "Balkan"}, {"id": 15, "name": "Gazojak", "name_ru": "Gazojak", "tz": "", "district": "Lebap"}, {"id": 16, "name": "Seydi", "name_ru": "Seydi", "tz": "", "district": "Lebap"}, {"id": 17, "name": "Serhetabat", "name_ru": "Serhetabat", "tz": "", "district": "Mary"}, {"id": 18, "name": "Sarahs", "name_ru": "Sarahs", "tz": "", "district": "Ahal"}, {"id": 19, "name": "Magtymguly", "name_ru": "Magtymguly", "tz": "", "district": "Balkan"}, {"id": 20, "name": "Nyyazow", "name_ru": "Nyyazow", "tz": "", "district": "Daşoguz"}, {"id": 21, "name": "Darganata", "name_ru": "Darganata", "tz": "", "district": "Lebap"}, {"id": 22, "name": "Garabogaz", "name_ru": "Garabogaz", "tz": "", "district": "Balkan"}, {"id": 23, "name": "Halac", "name_ru": "Halaç", "tz": "", "district": "Lebap"}, {"id": 24, "name": "Celeken", "name_ru": "Çeleken", "tz": "", "district": "Balkan"}]