[{"id": 1, "name": "Tunis", "name_ru": "Tunis", "tz": "", "district": "Tunis"}, {"id": 2, "name": "Sidi Bouzid", "name_ru": "Sidi Bouzid", "tz": "", "district": "Sidi Bouzid"}, {"id": 3, "name": "Sfax", "name_ru": "Sfax", "tz": "", "district": "Sfax"}, {"id": 4, "name": "Sousse", "name_ru": "Sousse", "tz": "", "district": "Sousse"}, {"id": 5, "name": "Kairouan", "name_ru": "Kairouan", "tz": "", "district": "Kairouan"}, {"id": 6, "name": "Metouia", "name_ru": "Métouia", "tz": "", "district": "Gabès"}, {"id": 7, "name": "Kebili", "name_ru": "Kebili", "tz": "", "district": "Kébili"}, {"id": 8, "name": "Bizerte", "name_ru": "Bizerte", "tz": "", "district": "Bizerte"}, {"id": 9, "name": "Gabes", "name_ru": "Gabès", "tz": "", "district": "Gabès"}, {"id": 10, "name": "Ariana", "name_ru": "Ariana", "tz": "", "district": "L’Ariana"}, {"id": 11, "name": "Jendouba", "name_ru": "Jendouba", "tz": "", "district": "Jendouba"}, {"id": 12, "name": "Gafsa", "name_ru": "Gafsa", "tz": "", "district": "Gafsa"}, {"id": 13, "name": "Msaken", "name_ru": "Msaken", "tz": "", "district": "Sousse"}, {"id": 14, "name": "Medenine", "name_ru": "Medenine", "tz": "", "district": "Médenine"}, {"id": 15, "name": "Kasserine", "name_ru": "Kasserine", "tz": "", "district": "Kasserine"}, {"id": 16, "name": "Beja", "name_ru": "Béja", "tz": "", "district": "Béja"}, {"id": 17, "name": "Monastir", "name_ru": "Monastir", "tz": "", "district": "Monastir"}, {"id": 18, "name": "Rades", "name_ru": "Radès", "tz": "", "district": "Ben Arous"}, {"id": 19, "name": "La Marsa", "name_ru": "La Marsa", "tz": "", "district": "Tunis"}, {"id": 20, "name": "Tataouine", "name_ru": "Tataouine", "tz": "", "district": "Tataouine"}, {"id": 21, "name": "Ben Arous", "name_ru": "Ben Arous", "tz": "", "district": "Ben Arous"}, {"id": 22, "name": "Le Bardo", "name_ru": "Le Bardo", "tz": "", "district": "Tunis"}, {"id": 23, "name": "Le Kram", "name_ru": "Le Kram", "tz": "", "district": "Tunis"}, {"id": 24, "name": "Mahdia", "name_ru": "Mahdia", "tz": "", "district": "Mahdia"}, {"id": 25, "name": "Fouchana", "name_ru": "Fouchana", "tz": "", "district": "Ben Arous"}, {"id": 26, "name": "Nabeul", "name_ru": "Nabeul", "tz": "", "district": "Nabeul"}, {"id": 27, "name": "El Kef", "name_ru": "El Kef", "tz": "", "district": "Kef"}, {"id": 28, "name": "Manouba", "name_ru": "Manouba", "tz": "", "district": "Manouba"}, {"id": 29, "name": "Hammam-Lif", "name_ru": "Hammam-Lif", "tz": "", "district": "Ben Arous"}, {"id": 30, "name": "Hammam Sousse", "name_ru": "Hammam Sousse", "tz": "", "district": "Sousse"}, {"id": 31, "name": "Ez Zahra", "name_ru": "Ez Zahra", "tz": "", "district": "Ben Arous"}, {"id": 32, "name": "Tozeur", "name_ru": "Tozeur", "tz": "", "district": "Tozeur"}, {"id": 33, "name": "Megrine", "name_ru": "Mégrine", "tz": "", "district": "Ben Arous"}, {"id": 34, "name": "Zaouiet Sousse", "name_ru": "Zaouiet Sousse", "tz": "", "district": "Sousse"}, {"id": 35, "name": "Siliana", "name_ru": "Siliana", "tz": "", "district": "Siliana"}, {"id": 36, "name": "Zaghouan", "name_ru": "Zaghouan", "tz": "", "district": "Zaghouan"}, {"id": 37, "name": "Seiada", "name_ru": "Seïada", "tz": "", "district": "Monastir"}, {"id": 38, "name": "Khunays", "name_ru": "Khunays", "tz": "", "district": "Monastir"}, {"id": 39, "name": "Sidi Bou Said", "name_ru": "Sidi Bou Saïd", "tz": "", "district": "Tunis"}, {"id": 40, "name": "Hammamet", "name_ru": "Hammamet", "tz": "", "district": "Nabeul"}, {"id": 41, "name": "Sakiet ez Zit", "name_ru": "Sakiet ez Zit", "tz": "", "district": "Sfax"}, {"id": 42, "name": "Zarzis", "name_ru": "Zarzis", "tz": "", "district": "Médenine"}, {"id": 43, "name": "Ben Gardane", "name_ru": "Ben Gardane", "tz": "", "district": "Médenine"}, {"id": 44, "name": "Houmt Souk", "name_ru": "Houmt Souk", "tz": "", "district": "Médenine"}, {"id": 45, "name": "El Hamma", "name_ru": "El Hamma", "tz": "", "district": "Gabès"}, {"id": 46, "name": "Djemmal", "name_ru": "Djemmal", "tz": "", "district": "Monastir"}, {"id": 47, "name": "Korba", "name_ru": "Korba", "tz": "", "district": "Nabeul"}, {"id": 48, "name": "Menzel Temime", "name_ru": "Menzel Temime", "tz": "", "district": "Nabeul"}, {"id": 49, "name": "Ghardimaou", "name_ru": "Ghardimaou", "tz": "", "district": "Jendouba"}, {"id": 50, "name": "Menzel Bourguiba", "name_ru": "Menzel Bourguiba", "tz": "", "district": "Bizerte"}, {"id": 51, "name": "Kelibia", "name_ru": "Kélibia", "tz": "", "district": "Nabeul"}, {"id": 52, "name": "Rass el Djebel", "name_ru": "Rass el Djebel", "tz": "", "district": "Bizerte"}, {"id": 53, "name": "El Jem", "name_ru": "El Jem", "tz": "", "district": "Mahdia"}, {"id": 54, "name": "Tebourba", "name_ru": "Tebourba", "tz": "", "district": "Manouba"}, {"id": 55, "name": "Douz", "name_ru": "Douz", "tz": "", "district": "Kébili"}, {"id": 56, "name": "Sbiba", "name_ru": "Sbiba", "tz": "", "district": "Kasserine"}, {"id": 57, "name": "Sejenane", "name_ru": "Sejenane", "tz": "", "district": "Bizerte"}, {"id": 58, "name": "Dar Chabanne", "name_ru": "Dar Chabanne", "tz": "", "district": "Nabeul"}, {"id": 59, "name": "Akouda", "name_ru": "Akouda", "tz": "", "district": "Sousse"}, {"id": 60, "name": "Aine Draham", "name_ru": "Aïne Draham", "tz": "", "district": "Jendouba"}, {"id": 61, "name": "Bou Salem", "name_ru": "Bou Salem", "tz": "", "district": "Jendouba"}, {"id": 62, "name": "Skhira", "name_ru": "Skhira", "tz": "", "district": "Sfax"}, {"id": 63, "name": "Mateur", "name_ru": "Mateur", "tz": "", "district": "Bizerte"}, {"id": 64, "name": "Rhennouch", "name_ru": "Rhennouch", "tz": "", "district": "Gabès"}, {"id": 65, "name": "Dahmani", "name_ru": "Dahmani", "tz": "", "district": "Kef"}, {"id": 66, "name": "El Alia", "name_ru": "El Alia", "tz": "", "district": "Bizerte"}, {"id": 67, "name": "Chebba", "name_ru": "Chebba", "tz": "", "district": "Mahdia"}, {"id": 68, "name": "Feriana", "name_ru": "Feriana", "tz": "", "district": "Kasserine"}, {"id": 69, "name": "El Maknassi", "name_ru": "El Maknassi", "tz": "", "district": "Sidi Bouzid"}, {"id": 70, "name": "Ouardenine", "name_ru": "Ouardenine", "tz": "", "district": "Monastir"}, {"id": 71, "name": "Nefta", "name_ru": "Nefta", "tz": "", "district": "Tozeur"}, {"id": 72, "name": "Carthage", "name_ru": "Carthage", "tz": "", "district": "Tunis"}, {"id": 73, "name": "Sbeitla", "name_ru": "Sbeitla", "tz": "", "district": "Kasserine"}, {"id": 74, "name": "Rhar el Melah", "name_ru": "Rhar el Melah", "tz": "", "district": "Bizerte"}, {"id": 75, "name": "Bekalta", "name_ru": "Bekalta", "tz": "", "district": "Monastir"}, {"id": 76, "name": "Tabarka", "name_ru": "Tabarka", "tz": "", "district": "Jendouba"}, {"id": 77, "name": "Ghomrassen", "name_ru": "Ghomrassen", "tz": "", "district": "Tataouine"}, {"id": 78, "name": "Thala", "name_ru": "Thala", "tz": "", "district": "Kasserine"}, {"id": 79, "name": "Maktar", "name_ru": "Maktar", "tz": "", "district": "Siliana"}, {"id": 80, "name": "Wadhraf", "name_ru": "Wadhraf", "tz": "", "district": "Gabès"}, {"id": 81, "name": "Agareb", "name_ru": "Agareb", "tz": "", "district": "Sfax"}, {"id": 82, "name": "Harqalah", "name_ru": "Harqalah", "tz": "", "district": "Sousse"}, {"id": 83, "name": "El Metline", "name_ru": "El Metline", "tz": "", "district": "Bizerte"}, {"id": 84, "name": "Degache", "name_ru": "Degache", "tz": "", "district": "Tozeur"}, {"id": 85, "name": "Jemna", "name_ru": "Jemna", "tz": "", "district": "Kébili"}, {"id": 86, "name": "Thelepte", "name_ru": "Thelepte", "tz": "", "district": "Kasserine"}, {"id": 87, "name": "Zarat", "name_ru": "Zarat", "tz": "", "district": "Gabès"}, {"id": 88, "name": "Dehiba", "name_ru": "Dehiba", "tz": "", "district": "Tataouine"}]