[{"id": 1, "name": "Istanbul", "name_ru": "Istanbul", "tz": "", "district": "İstanbul"}, {"id": 2, "name": "Ankara", "name_ru": "Ankara", "tz": "", "district": "Ankara"}, {"id": 3, "name": "Bagcilar", "name_ru": "Bağcılar", "tz": "", "district": "İstanbul"}, {"id": 4, "name": "Kucukcekmece", "name_ru": "Küçükçekmece", "tz": "", "district": "İstanbul"}, {"id": 5, "name": "Kagithane", "name_ru": "Kâğıthane", "tz": "", "district": "İstanbul"}, {"id": 6, "name": "Elazig", "name_ru": "Elazığ", "tz": "", "district": "Elazığ"}, {"id": 7, "name": "Esenler", "name_ru": "Esenler", "tz": "", "district": "İstanbul"}, {"id": 8, "name": "Esenyurt", "name_ru": "Esenyurt", "tz": "", "district": "İstanbul"}, {"id": 9, "name": "Manisa", "name_ru": "Manisa", "tz": "", "district": "Manisa"}, {"id": 10, "name": "Van", "name_ru": "Van", "tz": "", "district": "Van"}, {"id": 11, "name": "Konak", "name_ru": "Konak", "tz": "", "district": "İzmir"}, {"id": 12, "name": "Hatay", "name_ru": "Hatay", "tz": "", "district": "Hatay"}, {"id": 13, "name": "Izmir", "name_ru": "İzmir", "tz": "", "district": "İzmir"}, {"id": 14, "name": "Yildirim", "name_ru": "Yıldırım", "tz": "", "district": "Bursa"}, {"id": 15, "name": "Gungoren", "name_ru": "Güngören", "tz": "", "district": "İstanbul"}, {"id": 16, "name": "Iskenderun", "name_ru": "İskenderun", "tz": "", "district": "Hatay"}, {"id": 17, "name": "Kocaeli", "name_ru": "Kocaeli", "tz": "", "district": "Kocaeli"}, {"id": 18, "name": "Pendik", "name_ru": "Pendik", "tz": "", "district": "İstanbul"}, {"id": 19, "name": "Adana", "name_ru": "Adana", "tz": "", "district": "Adana"}, {"id": 20, "name": "Kutahya", "name_ru": "Kütahya", "tz": "", "district": "Kütahya"}, {"id": 21, "name": "Avcilar", "name_ru": "Avcılar", "tz": "", "district": "İstanbul"}, {"id": 22, "name": "Sakarya", "name_ru": "Sakarya", "tz": "", "district": "Sakarya"}, {"id": 23, "name": "Bursa", "name_ru": "Bursa", "tz": "", "district": "Bursa"}, {"id": 24, "name": "Tekirdag", "name_ru": "Tekirdağ", "tz": "", "district": "Tekirdağ"}, {"id": 25, "name": "Tokat", "name_ru": "Tokat", "tz": "", "district": "Tokat"}, {"id": 26, "name": "Karakopru", "name_ru": "Karaköprü", "tz": "", "district": "Şanlıurfa"}, {"id": 27, "name": "Beylikduzu", "name_ru": "Beylikdüzü", "tz": "", "district": "İstanbul"}, {"id": 28, "name": "Aydin", "name_ru": "Aydın", "tz": "", "district": "Aydın"}, {"id": 29, "name": "Selcuklu", "name_ru": "Selçuklu", "tz": "", "district": "Konya"}, {"id": 30, "name": "Sultanbeyli", "name_ru": "Sultanbeyli", "tz": "", "district": "İstanbul"}, {"id": 31, "name": "Kayapinar", "name_ru": "Kayapınar", "tz": "", "district": "Diyarbakır"}, {"id": 32, "name": "Meram", "name_ru": "Meram", "tz": "", "district": "Konya"}, {"id": 33, "name": "Eregli", "name_ru": "Ereğli", "tz": "", "district": "Zonguldak"}, {"id": 34, "name": "Eskisehir", "name_ru": "Eskişehir", "tz": "", "district": "Eskişehir"}, {"id": 35, "name": "Osmaniye", "name_ru": "Osmaniye", "tz": "", "district": "Osmaniye"}, {"id": 36, "name": "Edirne", "name_ru": "Edirne", "tz": "", "district": "Edirne"}, {"id": 37, "name": "Gaziantep", "name_ru": "Gaziantep", "tz": "", "district": "Gaziantep"}, {"id": 38, "name": "Konya", "name_ru": "Konya", "tz": "", "district": "Konya"}, {"id": 39, "name": "Arnavutkoy", "name_ru": "Arnavutköy", "tz": "", "district": "İstanbul"}, {"id": 40, "name": "Ordu", "name_ru": "Ordu", "tz": "", "district": "Ordu"}, {"id": 41, "name": "Cekme", "name_ru": "Çekme", "tz": "", "district": "İstanbul"}, {"id": 42, "name": "Kayseri", "name_ru": "Kayseri", "tz": "", "district": "Kayseri"}, {"id": 43, "name": "Kahta", "name_ru": "Kâhta", "tz": "", "district": "Adıyaman"}, {"id": 44, "name": "Tuzla", "name_ru": "Tuzla", "tz": "", "district": "İstanbul"}, {"id": 45, "name": "Samsun", "name_ru": "Samsun", "tz": "", "district": "Samsun"}, {"id": 46, "name": "Sivas", "name_ru": "Sivas", "tz": "", "district": "Sivas"}, {"id": 47, "name": "Erzurum", "name_ru": "Erzurum", "tz": "", "district": "Erzurum"}, {"id": 48, "name": "Malatya", "name_ru": "Malatya", "tz": "", "district": "Malatya"}, {"id": 49, "name": "Suruc", "name_ru": "Suruç", "tz": "", "district": "Şanlıurfa"}, {"id": 50, "name": "Diyarbakir", "name_ru": "Diyarbakır", "tz": "", "district": "Diyarbakır"}, {"id": 51, "name": "Karabuk", "name_ru": "Karabük", "tz": "", "district": "Karabük"}, {"id": 52, "name": "Mersin", "name_ru": "Mersin", "tz": "", "district": "Mersin"}, {"id": 53, "name": "Mardin", "name_ru": "Mardin", "tz": "", "district": "Mardin"}, {"id": 54, "name": "Hakkari", "name_ru": "Hakkari", "tz": "", "district": "Hakkâri"}, {"id": 55, "name": "Karaman", "name_ru": "Karaman", "tz": "", "district": "Karaman"}, {"id": 56, "name": "Sanliurfa", "name_ru": "Şanlıurfa", "tz": "", "district": "Şanlıurfa"}, {"id": 57, "name": "Antalya", "name_ru": "Antalya", "tz": "", "district": "Antalya"}, {"id": 58, "name": "Aksaray", "name_ru": "Aksaray", "tz": "", "district": "Aksaray"}, {"id": 59, "name": "Balikesir", "name_ru": "Balıkesir", "tz": "", "district": "Balıkesir"}, {"id": 60, "name": "Trabzon", "name_ru": "Trabzon", "tz": "", "district": "Trabzon"}, {"id": 61, "name": "Denizli", "name_ru": "Denizli", "tz": "", "district": "Denizli"}, {"id": 62, "name": "Kahramanmaras", "name_ru": "Kahramanmaraş", "tz": "", "district": "Kahramanmaraş"}, {"id": 63, "name": "Duzce", "name_ru": "Düzce", "tz": "", "district": "Düzce"}, {"id": 64, "name": "Mugla", "name_ru": "Muğla", "tz": "", "district": "Muğla"}, {"id": 65, "name": "Sariyer", "name_ru": "Sarıyer", "tz": "", "district": "İstanbul"}, {"id": 66, "name": "Igdir", "name_ru": "Iğdır", "tz": "", "district": "Iğdır"}, {"id": 67, "name": "Afyonkarahisar", "name_ru": "Afyonkarahisar", "tz": "", "district": "Afyonkarahisar"}, {"id": 68, "name": "Kars", "name_ru": "Kars", "tz": "", "district": "Kars"}, {"id": 69, "name": "Bartin", "name_ru": "Bartın", "tz": "", "district": "Bartın"}, {"id": 70, "name": "Usak", "name_ru": "Uşak", "tz": "", "district": "Uşak"}, {"id": 71, "name": "Amasya", "name_ru": "Amasya", "tz": "", "district": "Amasya"}, {"id": 72, "name": "Kartal", "name_ru": "Kartal", "tz": "", "district": "İstanbul"}, {"id": 73, "name": "Corum", "name_ru": "Çorum", "tz": "", "district": "Çorum"}, {"id": 74, "name": "Batman", "name_ru": "Batman", "tz": "", "district": "Batman"}, {"id": 75, "name": "Rize", "name_ru": "Rize", "tz": "", "district": "Rize"}, {"id": 76, "name": "Siirt", "name_ru": "Siirt", "tz": "", "district": "Siirt"}, {"id": 77, "name": "Sirnak", "name_ru": "Şırnak", "tz": "", "district": "Şırnak"}, {"id": 78, "name": "Agri", "name_ru": "Ağrı", "tz": "", "district": "Ağrı"}, {"id": 79, "name": "Kirklareli", "name_ru": "Kırklareli", "tz": "", "district": "Kırklareli"}, {"id": 80, "name": "Bayburt", "name_ru": "Bayburt", "tz": "", "district": "Bayburt"}, {"id": 81, "name": "Kastamonu", "name_ru": "Kastamonu", "tz": "", "district": "Kastamonu"}, {"id": 82, "name": "Canakkale", "name_ru": "Çanakkale", "tz": "", "district": "Çanakkale"}, {"id": 83, "name": "Burdur", "name_ru": "Burdur", "tz": "", "district": "Burdur"}, {"id": 84, "name": "Adiyaman", "name_ru": "Adıyaman", "tz": "", "district": "Adıyaman"}, {"id": 85, "name": "Isparta", "name_ru": "Isparta", "tz": "", "district": "Isparta"}, {"id": 86, "name": "Yalova", "name_ru": "Yalova", "tz": "", "district": "Yalova"}, {"id": 87, "name": "Bolu", "name_ru": "Bolu", "tz": "", "district": "Bolu"}, {"id": 88, "name": "Nigde", "name_ru": "Niğde", "tz": "", "district": "Niğde"}, {"id": 89, "name": "Nevsehir", "name_ru": "Nevşehir", "tz": "", "district": "Nevşehir"}, {"id": 90, "name": "Giresun", "name_ru": "Giresun", "tz": "", "district": "Giresun"}, {"id": 91, "name": "Bitlis", "name_ru": "Bitlis", "tz": "", "district": "Bitlis"}, {"id": 92, "name": "Zonguldak", "name_ru": "Zonguldak", "tz": "", "district": "Zonguldak"}, {"id": 93, "name": "Ardahan", "name_ru": "Ardahan", "tz": "", "district": "Ardahan"}, {"id": 94, "name": "Mus", "name_ru": "Muş", "tz": "", "district": "Muş"}, {"id": 95, "name": "Erzincan", "name_ru": "Erzincan", "tz": "", "district": "Erzincan"}, {"id": 96, "name": "Yozgat", "name_ru": "Yozgat", "tz": "", "district": "Yozgat"}, {"id": 97, "name": "Kilis", "name_ru": "Kilis", "tz": "", "district": "Kilis"}, {"id": 98, "name": "Sinop", "name_ru": "Sinop", "tz": "", "district": "Sinop"}, {"id": 99, "name": "Kirsehir", "name_ru": "Kırşehir", "tz": "", "district": "Kırşehir"}, {"id": 100, "name": "Bingol", "name_ru": "Bingöl", "tz": "", "district": "Bingöl"}, {"id": 101, "name": "Bilecik", "name_ru": "Bilecik", "tz": "", "district": "Bilecik"}, {"id": 102, "name": "Cankiri", "name_ru": "Çankırı", "tz": "", "district": "Çankırı"}, {"id": 103, "name": "Artvin", "name_ru": "Artvin", "tz": "", "district": "Artvin"}, {"id": 104, "name": "Gumushane", "name_ru": "Gümüşhane", "tz": "", "district": "Gümüşhane"}, {"id": 105, "name": "Kirikkale", "name_ru": "Kırıkkale", "tz": "", "district": "Kırıkkale"}, {"id": 106, "name": "Tunceli", "name_ru": "Tunceli", "tz": "", "district": "Tunceli"}, {"id": 107, "name": "Bafra", "name_ru": "Bafra", "tz": "", "district": "Samsun"}, {"id": 108, "name": "Kadirli", "name_ru": "Kadirli", "tz": "", "district": "Osmaniye"}, {"id": 109, "name": "Kapakli", "name_ru": "Kapaklı", "tz": "", "district": "Tekirdağ"}, {"id": 110, "name": "Cayirova", "name_ru": "Çayırova", "tz": "", "district": "Kocaeli"}, {"id": 111, "name": "Karatepe", "name_ru": "Karatepe", "tz": "", "district": "Kocaeli"}, {"id": 112, "name": "Arsuz", "name_ru": "Arsuz", "tz": "", "district": "Hatay"}, {"id": 113, "name": "Yuksekova", "name_ru": "Yüksekova", "tz": "", "district": "Hakkâri"}, {"id": 114, "name": "Korfez", "name_ru": "Körfez", "tz": "", "district": "Kocaeli"}, {"id": 115, "name": "Asagicinik", "name_ru": "Aşağıçinik", "tz": "", "district": "Samsun"}, {"id": 116, "name": "Tarsus", "name_ru": "Tarsus", "tz": "", "district": "Mersin"}, {"id": 117, "name": "Beykoz", "name_ru": "Beykoz", "tz": "", "district": "İstanbul"}, {"id": 118, "name": "Cizre", "name_ru": "Cizre", "tz": "", "district": "Şırnak"}, {"id": 119, "name": "Kozlu", "name_ru": "Kozlu", "tz": "", "district": "Zonguldak"}, {"id": 120, "name": "Akhisar", "name_ru": "Akhisar", "tz": "", "district": "Manisa"}, {"id": 121, "name": "Nazilli", "name_ru": "Nazilli", "tz": "", "district": "Aydın"}, {"id": 122, "name": "Ceyhan", "name_ru": "Ceyhan", "tz": "", "district": "Adana"}, {"id": 123, "name": "Yakacik", "name_ru": "Yakacık", "tz": "", "district": "Hatay"}, {"id": 124, "name": "Eregli", "name_ru": "Ereğli", "tz": "", "district": "Konya"}, {"id": 125, "name": "Turgutlu", "name_ru": "Turgutlu", "tz": "", "district": "Manisa"}, {"id": 126, "name": "Samandag", "name_ru": "Samandağ", "tz": "", "district": "Hatay"}, {"id": 127, "name": "Bandirma", "name_ru": "Bandırma", "tz": "", "district": "Balıkesir"}, {"id": 128, "name": "Odemis", "name_ru": "Ödemiş", "tz": "", "district": "İzmir"}, {"id": 129, "name": "Salihli", "name_ru": "Salihli", "tz": "", "district": "Manisa"}, {"id": 130, "name": "Inegol", "name_ru": "İnegöl", "tz": "", "district": "Bursa"}, {"id": 131, "name": "Soke", "name_ru": "Söke", "tz": "", "district": "Aydın"}, {"id": 132, "name": "Siverek", "name_ru": "Siverek", "tz": "", "district": "Şanlıurfa"}, {"id": 133, "name": "Corlu", "name_ru": "Çorlu", "tz": "", "district": "Tekirdağ"}, {"id": 134, "name": "Tire", "name_ru": "Tire", "tz": "", "district": "İzmir"}, {"id": 135, "name": "Ondokuzmayis", "name_ru": "Ondokuzmayıs", "tz": "", "district": "Samsun"}, {"id": 136, "name": "Marmara Ereglisi", "name_ru": "Marmara Ereğlisi", "tz": "", "district": "Tekirdağ"}, {"id": 137, "name": "Luleburgaz", "name_ru": "Lüleburgaz", "tz": "", "district": "Kırklareli"}, {"id": 138, "name": "Ceylanpinar", "name_ru": "Ceylanpınar", "tz": "", "district": "Şanlıurfa"}, {"id": 139, "name": "Aksehir", "name_ru": "Akşehir", "tz": "", "district": "Konya"}, {"id": 140, "name": "Edremit", "name_ru": "Edremit", "tz": "", "district": "Balıkesir"}, {"id": 141, "name": "Bergama", "name_ru": "Bergama", "tz": "", "district": "İzmir"}, {"id": 142, "name": "Silopi", "name_ru": "Silopi", "tz": "", "district": "Şırnak"}, {"id": 143, "name": "Buyukcekmece", "name_ru": "Büyükçekmece", "tz": "", "district": "İstanbul"}, {"id": 144, "name": "Nizip", "name_ru": "Nizip", "tz": "", "district": "Gaziantep"}, {"id": 145, "name": "Erzin", "name_ru": "Erzin", "tz": "", "district": "Hatay"}, {"id": 146, "name": "Polatli", "name_ru": "Polatlı", "tz": "", "district": "Ankara"}, {"id": 147, "name": "Akcakoca", "name_ru": "Akçakoca", "tz": "", "district": "Düzce"}, {"id": 148, "name": "Golcuk", "name_ru": "Gölcük", "tz": "", "district": "Kocaeli"}, {"id": 149, "name": "Zile", "name_ru": "Zile", "tz": "", "district": "Tokat"}, {"id": 150, "name": "Kozluk", "name_ru": "Kozluk", "tz": "", "district": "Batman"}, {"id": 151, "name": "Kozan", "name_ru": "Kozan", "tz": "", "district": "Adana"}, {"id": 152, "name": "Uzunkopru", "name_ru": "Uzunköprü", "tz": "", "district": "Edirne"}, {"id": 153, "name": "Bolvadin", "name_ru": "Bolvadin", "tz": "", "district": "Afyonkarahisar"}, {"id": 154, "name": "Soma", "name_ru": "Soma", "tz": "", "district": "Manisa"}, {"id": 155, "name": "Carsamba", "name_ru": "Çarşamba", "tz": "", "district": "Samsun"}, {"id": 156, "name": "Aliaga", "name_ru": "Aliağa", "tz": "", "district": "İzmir"}, {"id": 157, "name": "Turhal", "name_ru": "Turhal", "tz": "", "district": "Tokat"}, {"id": 158, "name": "Nallihan", "name_ru": "Nallıhan", "tz": "", "district": "Ankara"}, {"id": 159, "name": "Menemen", "name_ru": "Menemen", "tz": "", "district": "İzmir"}, {"id": 160, "name": "Guroymak", "name_ru": "Güroymak", "tz": "", "district": "Bitlis"}, {"id": 161, "name": "Reyhanli", "name_ru": "Reyhanlı", "tz": "", "district": "Hatay"}, {"id": 162, "name": "Ayvalik", "name_ru": "Ayvalık", "tz": "", "district": "Balıkesir"}, {"id": 163, "name": "Alasehir", "name_ru": "Alaşehir", "tz": "", "district": "Manisa"}, {"id": 164, "name": "Incirliova", "name_ru": "İncirliova", "tz": "", "district": "Aydın"}, {"id": 165, "name": "Belen", "name_ru": "Belen", "tz": "", "district": "Hatay"}, {"id": 166, "name": "Bozyazi", "name_ru": "Bozyazı", "tz": "", "district": "Mersin"}, {"id": 167, "name": "Sarikamis", "name_ru": "Sarıkamış", "tz": "", "district": "Kars"}, {"id": 168, "name": "Birecik", "name_ru": "Birecik", "tz": "", "district": "Şanlıurfa"}, {"id": 169, "name": "Unye", "name_ru": "Ünye", "tz": "", "district": "Ordu"}, {"id": 170, "name": "Kilimli", "name_ru": "Kilimli", "tz": "", "district": "Zonguldak"}, {"id": 171, "name": "Battalgazi", "name_ru": "Battalgazi", "tz": "", "district": "Malatya"}, {"id": 172, "name": "Bor", "name_ru": "Bor", "tz": "", "district": "Niğde"}, {"id": 173, "name": "Merzifon", "name_ru": "Merzifon", "tz": "", "district": "Amasya"}, {"id": 174, "name": "Babaeski", "name_ru": "Babaeski", "tz": "", "district": "Kırklareli"}, {"id": 175, "name": "Demre", "name_ru": "Demre", "tz": "", "district": "Antalya"}, {"id": 176, "name": "Islahiye", "name_ru": "İslahiye", "tz": "", "district": "Gaziantep"}, {"id": 177, "name": "Tavsanli", "name_ru": "Tavşanlı", "tz": "", "district": "Kütahya"}, {"id": 178, "name": "Develi", "name_ru": "Develi", "tz": "", "district": "Kayseri"}, {"id": 179, "name": "Bozuyuk", "name_ru": "Bozüyük", "tz": "", "district": "Bilecik"}, {"id": 180, "name": "Karakocan", "name_ru": "Karakoçan", "tz": "", "district": "Elazığ"}, {"id": 181, "name": "Erbaa", "name_ru": "Erbaa", "tz": "", "district": "Tokat"}, {"id": 182, "name": "Karapinar", "name_ru": "Karapınar", "tz": "", "district": "Konya"}, {"id": 183, "name": "Bahce", "name_ru": "Bahçe", "tz": "", "district": "Osmaniye"}, {"id": 184, "name": "Idil", "name_ru": "İdil", "tz": "", "district": "Şırnak"}, {"id": 185, "name": "Sungurlu", "name_ru": "Sungurlu", "tz": "", "district": "Çorum"}, {"id": 186, "name": "Alanya", "name_ru": "Alanya", "tz": "", "district": "Antalya"}, {"id": 187, "name": "Niksar", "name_ru": "Niksar", "tz": "", "district": "Tokat"}, {"id": 188, "name": "Urla", "name_ru": "Urla", "tz": "", "district": "İzmir"}, {"id": 189, "name": "Alapli", "name_ru": "Alaplı", "tz": "", "district": "Zonguldak"}, {"id": 190, "name": "Haskoy", "name_ru": "Hasköy", "tz": "", "district": "Muş"}, {"id": 191, "name": "Emet", "name_ru": "Emet", "tz": "", "district": "Kütahya"}, {"id": 192, "name": "Kirkagac", "name_ru": "Kırkağaç", "tz": "", "district": "Manisa"}, {"id": 193, "name": "Ortakoy", "name_ru": "Ortaköy", "tz": "", "district": "Aksaray"}, {"id": 194, "name": "Biga", "name_ru": "Biga", "tz": "", "district": "Çanakkale"}, {"id": 195, "name": "Burhaniye", "name_ru": "Burhaniye", "tz": "", "district": "Balıkesir"}, {"id": 196, "name": "Torbali", "name_ru": "Torbalı", "tz": "", "district": "İzmir"}, {"id": 197, "name": "Silifke", "name_ru": "Silifke", "tz": "", "district": "Mersin"}, {"id": 198, "name": "Besikduzu", "name_ru": "Beşikdüzü", "tz": "", "district": "Trabzon"}, {"id": 199, "name": "Buldan", "name_ru": "Buldan", "tz": "", "district": "Denizli"}, {"id": 200, "name": "Sereflikochisar", "name_ru": "Şereflikoçhisar", "tz": "", "district": "Ankara"}, {"id": 201, "name": "Cayeli", "name_ru": "Çayeli", "tz": "", "district": "Rize"}, {"id": 202, "name": "Tekkekoy", "name_ru": "Tekkeköy", "tz": "", "district": "Samsun"}, {"id": 203, "name": "Ortakent", "name_ru": "Ortakent", "tz": "", "district": "Muğla"}, {"id": 204, "name": "Bayindir", "name_ru": "Bayındır", "tz": "", "district": "İzmir"}, {"id": 205, "name": "Susurluk", "name_ru": "Susurluk", "tz": "", "district": "Balıkesir"}, {"id": 206, "name": "Anamur", "name_ru": "Anamur", "tz": "", "district": "Mersin"}, {"id": 207, "name": "Tosya", "name_ru": "Tosya", "tz": "", "district": "Kastamonu"}, {"id": 208, "name": "Viransehir", "name_ru": "Viranşehir", "tz": "", "district": "Şanlıurfa"}, {"id": 209, "name": "Saraykoy", "name_ru": "Sarayköy", "tz": "", "district": "Denizli"}, {"id": 210, "name": "Side", "name_ru": "Side", "tz": "", "district": "Antalya"}, {"id": 211, "name": "Sultanhani", "name_ru": "Sultanhanı", "tz": "", "district": "Aksaray"}, {"id": 212, "name": "Emirdag", "name_ru": "Emirdağ", "tz": "", "district": "Afyonkarahisar"}, {"id": 213, "name": "Yalvac", "name_ru": "Yalvaç", "tz": "", "district": "Isparta"}, {"id": 214, "name": "Tatvan", "name_ru": "Tatvan", "tz": "", "district": "Bitlis"}, {"id": 215, "name": "Malkara", "name_ru": "Malkara", "tz": "", "district": "Tekirdağ"}, {"id": 216, "name": "Ergani", "name_ru": "Ergani", "tz": "", "district": "Diyarbakır"}, {"id": 217, "name": "Serinhisar", "name_ru": "Serinhisar", "tz": "", "district": "Denizli"}, {"id": 218, "name": "Caglayancerit", "name_ru": "Çağlayancerit", "tz": "", "district": "Kahramanmaraş"}, {"id": 219, "name": "Midyat", "name_ru": "Midyat", "tz": "", "district": "Mardin"}, {"id": 220, "name": "Havza", "name_ru": "Havza", "tz": "", "district": "Samsun"}, {"id": 221, "name": "Selcuk", "name_ru": "Selçuk", "tz": "", "district": "İzmir"}, {"id": 222, "name": "Cumra", "name_ru": "Çumra", "tz": "", "district": "Konya"}, {"id": 223, "name": "Yahyali", "name_ru": "Yahyalı", "tz": "", "district": "Kayseri"}, {"id": 224, "name": "Kocaali", "name_ru": "Kocaali", "tz": "", "district": "Sakarya"}, {"id": 225, "name": "Bucak", "name_ru": "Bucak", "tz": "", "district": "Burdur"}, {"id": 226, "name": "Kaman", "name_ru": "Kaman", "tz": "", "district": "Kırşehir"}, {"id": 227, "name": "Fatsa", "name_ru": "Fatsa", "tz": "", "district": "Ordu"}, {"id": 228, "name": "Beypazari", "name_ru": "Beypazarı", "tz": "", "district": "Ankara"}, {"id": 229, "name": "Ahmetli", "name_ru": "Ahmetli", "tz": "", "district": "Manisa"}, {"id": 230, "name": "Cay", "name_ru": "Çay", "tz": "", "district": "Afyonkarahisar"}, {"id": 231, "name": "Kiziltepe", "name_ru": "Kızıltepe", "tz": "", "district": "Mardin"}, {"id": 232, "name": "Gebze", "name_ru": "Gebze", "tz": "", "district": "Kocaeli"}, {"id": 233, "name": "Boyabat", "name_ru": "Boyabat", "tz": "", "district": "Sinop"}, {"id": 234, "name": "Bulancak", "name_ru": "Bulancak", "tz": "", "district": "Giresun"}, {"id": 235, "name": "Akyazi", "name_ru": "Akyazı", "tz": "", "district": "Sakarya"}, {"id": 236, "name": "Yenice", "name_ru": "Yenice", "tz": "", "district": "Karabük"}, {"id": 237, "name": "Palu", "name_ru": "Palu", "tz": "", "district": "Elazığ"}, {"id": 238, "name": "Divrigi", "name_ru": "Divriği", "tz": "", "district": "Sivas"}, {"id": 239, "name": "Cinarcik", "name_ru": "Çınarcık", "tz": "", "district": "Yalova"}, {"id": 240, "name": "Kulu", "name_ru": "Kulu", "tz": "", "district": "Konya"}, {"id": 241, "name": "Tuzluca", "name_ru": "Tuzluca", "tz": "", "district": "Iğdır"}, {"id": 242, "name": "Yesilhisar", "name_ru": "Yeşilhisar", "tz": "", "district": "Kayseri"}, {"id": 243, "name": "Dogubayazit", "name_ru": "Doğubayazıt", "tz": "", "district": "Ağrı"}, {"id": 244, "name": "Kemer", "name_ru": "Kemer", "tz": "", "district": "Antalya"}, {"id": 245, "name": "Bunyan", "name_ru": "Bünyan", "tz": "", "district": "Kayseri"}, {"id": 246, "name": "Fethiye", "name_ru": "Fethiye", "tz": "", "district": "Muğla"}, {"id": 247, "name": "Tavas", "name_ru": "Tavas", "tz": "", "district": "Denizli"}, {"id": 248, "name": "Kadinhani", "name_ru": "Kadınhanı", "tz": "", "district": "Konya"}, {"id": 249, "name": "Suluova", "name_ru": "Suluova", "tz": "", "district": "Amasya"}, {"id": 250, "name": "Cine", "name_ru": "Çine", "tz": "", "district": "Aydın"}, {"id": 251, "name": "Camas", "name_ru": "Çamaş", "tz": "", "district": "Ordu"}, {"id": 252, "name": "Gumushacikoy", "name_ru": "Gümüşhacıköy", "tz": "", "district": "Amasya"}, {"id": 253, "name": "Afsin", "name_ru": "Afşin", "tz": "", "district": "Kahramanmaraş"}, {"id": 254, "name": "Simav", "name_ru": "Simav", "tz": "", "district": "Kütahya"}, {"id": 255, "name": "Cukurca", "name_ru": "Çukurca", "tz": "", "district": "Hakkâri"}, {"id": 256, "name": "Bahsili", "name_ru": "Bahşılı", "tz": "", "district": "Kırıkkale"}, {"id": 257, "name": "Bogazliyan", "name_ru": "Boğazlıyan", "tz": "", "district": "Yozgat"}, {"id": 258, "name": "Alacam", "name_ru": "Alaçam", "tz": "", "district": "Samsun"}, {"id": 259, "name": "Akcaabat", "name_ru": "Akçaabat", "tz": "", "district": "Trabzon"}, {"id": 260, "name": "Toprakkale", "name_ru": "Toprakkale", "tz": "", "district": "Osmaniye"}, {"id": 261, "name": "Kusadasi", "name_ru": "Kuşadası", "tz": "", "district": "İzmir"}, {"id": 262, "name": "Yerkoy", "name_ru": "Yerköy", "tz": "", "district": "Yozgat"}, {"id": 263, "name": "Kinik", "name_ru": "Kınık", "tz": "", "district": "İzmir"}, {"id": 264, "name": "Nusaybin", "name_ru": "Nusaybin", "tz": "", "district": "Mardin"}, {"id": 265, "name": "Lice", "name_ru": "Lice", "tz": "", "district": "Diyarbakır"}, {"id": 266, "name": "Zara", "name_ru": "Zara", "tz": "", "district": "Sivas"}, {"id": 267, "name": "Aybasti", "name_ru": "Aybastı", "tz": "", "district": "Ordu"}, {"id": 268, "name": "Gediz", "name_ru": "Gediz", "tz": "", "district": "Kütahya"}, {"id": 269, "name": "Beysehir", "name_ru": "Beyşehir", "tz": "", "district": "Konya"}, {"id": 270, "name": "Sivrihisar", "name_ru": "Sivrihisar", "tz": "", "district": "Eskişehir"}, {"id": 271, "name": "Serik", "name_ru": "Serik", "tz": "", "district": "Antalya"}, {"id": 272, "name": "Keskin", "name_ru": "Keskin", "tz": "", "district": "Kırıkkale"}, {"id": 273, "name": "Ciftlikkoy", "name_ru": "Çiftlikköy", "tz": "", "district": "Yalova"}, {"id": 274, "name": "Yesilyurt", "name_ru": "Yeşilyurt", "tz": "", "district": "Malatya"}, {"id": 275, "name": "Havran", "name_ru": "Havran", "tz": "", "district": "Balıkesir"}, {"id": 276, "name": "Saruhanli", "name_ru": "Saruhanlı", "tz": "", "district": "Manisa"}, {"id": 277, "name": "Taskopru", "name_ru": "Taşköprü", "tz": "", "district": "Kastamonu"}, {"id": 278, "name": "Susehri", "name_ru": "Suşehri", "tz": "", "district": "Sivas"}, {"id": 279, "name": "Aydincik", "name_ru": "Aydıncık", "tz": "", "district": "Mersin"}, {"id": 280, "name": "Askale", "name_ru": "Aşkale", "tz": "", "district": "Erzurum"}, {"id": 281, "name": "Sivasli", "name_ru": "Sivaslı", "tz": "", "district": "Uşak"}, {"id": 282, "name": "Menderes", "name_ru": "Menderes", "tz": "", "district": "İzmir"}, {"id": 283, "name": "Sarkisla", "name_ru": "Şarkışla", "tz": "", "district": "Sivas"}, {"id": 284, "name": "Bozdogan", "name_ru": "Bozdoğan", "tz": "", "district": "Aydın"}, {"id": 285, "name": "Cihanbeyli", "name_ru": "Cihanbeyli", "tz": "", "district": "Konya"}, {"id": 286, "name": "Derik", "name_ru": "Derik", "tz": "", "district": "Mardin"}, {"id": 287, "name": "Seydisehir", "name_ru": "Seydişehir", "tz": "", "district": "Konya"}, {"id": 288, "name": "Sarayonu", "name_ru": "Sarayönü", "tz": "", "district": "Konya"}, {"id": 289, "name": "Ipsala", "name_ru": "İpsala", "tz": "", "district": "Edirne"}, {"id": 290, "name": "Mut", "name_ru": "Mut", "tz": "", "district": "Mersin"}, {"id": 291, "name": "Manavgat", "name_ru": "Manavgat", "tz": "", "district": "Antalya"}, {"id": 292, "name": "Yayladagi", "name_ru": "Yayladağı", "tz": "", "district": "Hatay"}, {"id": 293, "name": "Pinarbasi", "name_ru": "Pınarbaşı", "tz": "", "district": "Kayseri"}, {"id": 294, "name": "Sindirgi", "name_ru": "Sındırgı", "tz": "", "district": "Balıkesir"}, {"id": 295, "name": "Silivri", "name_ru": "Silivri", "tz": "", "district": "İstanbul"}, {"id": 296, "name": "Saray", "name_ru": "Saray", "tz": "", "district": "Tekirdağ"}, {"id": 297, "name": "Gole", "name_ru": "Göle", "tz": "", "district": "Ardahan"}, {"id": 298, "name": "Carsibasi", "name_ru": "Çarşıbaşı", "tz": "", "district": "Trabzon"}, {"id": 299, "name": "Bulanik", "name_ru": "Bulanık", "tz": "", "district": "Muş"}, {"id": 300, "name": "Sorgun", "name_ru": "Sorgun", "tz": "", "district": "Yozgat"}, {"id": 301, "name": "Adilcevaz", "name_ru": "Adilcevaz", "tz": "", "district": "Bitlis"}, {"id": 302, "name": "Tonya", "name_ru": "Tonya", "tz": "", "district": "Trabzon"}, {"id": 303, "name": "Amasra", "name_ru": "Amasra", "tz": "", "district": "Bartın"}, {"id": 304, "name": "Arapgir", "name_ru": "Arapgir", "tz": "", "district": "Malatya"}, {"id": 305, "name": "Aralik", "name_ru": "Aralık", "tz": "", "district": "Adıyaman"}, {"id": 306, "name": "Suhut", "name_ru": "Şuhut", "tz": "", "district": "Afyonkarahisar"}, {"id": 307, "name": "Turkoglu", "name_ru": "Türkoğlu", "tz": "", "district": "Kahramanmaraş"}, {"id": 308, "name": "Cirali", "name_ru": "Çıralı", "tz": "", "district": "Antalya"}, {"id": 309, "name": "Piraziz", "name_ru": "Piraziz", "tz": "", "district": "Giresun"}, {"id": 310, "name": "Akcadag", "name_ru": "Akçadağ", "tz": "", "district": "Malatya"}, {"id": 311, "name": "Yildizeli", "name_ru": "Yıldızeli", "tz": "", "district": "Sivas"}, {"id": 312, "name": "Ahlat", "name_ru": "Ahlat", "tz": "", "district": "Bitlis"}, {"id": 313, "name": "Buharkent", "name_ru": "Buharkent", "tz": "", "district": "Aydın"}, {"id": 314, "name": "Cifteler", "name_ru": "Çifteler", "tz": "", "district": "Eskişehir"}, {"id": 315, "name": "Dikili", "name_ru": "Dikili", "tz": "", "district": "İzmir"}, {"id": 316, "name": "Can", "name_ru": "Çan", "tz": "", "district": "Çanakkale"}, {"id": 317, "name": "Cerkezkoy", "name_ru": "Çerkezköy", "tz": "", "district": "Tekirdağ"}, {"id": 318, "name": "Catalca", "name_ru": "Çatalca", "tz": "", "district": "İstanbul"}, {"id": 319, "name": "Civril", "name_ru": "Çivril", "tz": "", "district": "Denizli"}, {"id": 320, "name": "Incesu", "name_ru": "İncesu", "tz": "", "district": "Kayseri"}, {"id": 321, "name": "Tirebolu", "name_ru": "Tirebolu", "tz": "", "district": "Giresun"}, {"id": 322, "name": "Acigol", "name_ru": "Acıgöl", "tz": "", "district": "Nevşehir"}, {"id": 323, "name": "Patnos", "name_ru": "Patnos", "tz": "", "district": "Ağrı"}, {"id": 324, "name": "Doganhisar", "name_ru": "Doğanhisar", "tz": "", "district": "Konya"}, {"id": 325, "name": "Saraykent", "name_ru": "Saraykent", "tz": "", "district": "Yozgat"}, {"id": 326, "name": "Avanos", "name_ru": "Avanos", "tz": "", "district": "Nevşehir"}, {"id": 327, "name": "Urgup", "name_ru": "Ürgüp", "tz": "", "district": "Nevşehir"}, {"id": 328, "name": "Yenipazar", "name_ru": "Yenipazar", "tz": "", "district": "Aydın"}, {"id": 329, "name": "Golhisar", "name_ru": "Gölhisar", "tz": "", "district": "Burdur"}, {"id": 330, "name": "Savastepe", "name_ru": "Savaştepe", "tz": "", "district": "Balıkesir"}, {"id": 331, "name": "Oguzeli", "name_ru": "Oğuzeli", "tz": "", "district": "Gaziantep"}, {"id": 332, "name": "Beydag", "name_ru": "Beydağ", "tz": "", "district": "Kayseri"}, {"id": 333, "name": "Espiye", "name_ru": "Espiye", "tz": "", "district": "Giresun"}, {"id": 334, "name": "Ardesen", "name_ru": "Ardeşen", "tz": "", "district": "Rize"}, {"id": 335, "name": "Cermik", "name_ru": "Çermik", "tz": "", "district": "Diyarbakır"}, {"id": 336, "name": "Bodrum", "name_ru": "Bodrum", "tz": "", "district": "Muğla"}, {"id": 337, "name": "Ayvacik", "name_ru": "Ayvacık", "tz": "", "district": "Samsun"}, {"id": 338, "name": "Haymana", "name_ru": "Haymana", "tz": "", "district": "Ankara"}, {"id": 339, "name": "Eynesil", "name_ru": "Eynesil", "tz": "", "district": "Giresun"}, {"id": 340, "name": "Seferhisar", "name_ru": "Seferhisar", "tz": "", "district": "İzmir"}, {"id": 341, "name": "Surmene", "name_ru": "Sürmene", "tz": "", "district": "Trabzon"}, {"id": 342, "name": "Ayancik", "name_ru": "Ayancık", "tz": "", "district": "Sinop"}, {"id": 343, "name": "Uzumlu", "name_ru": "Üzümlü", "tz": "", "district": "Erzincan"}, {"id": 344, "name": "Besiri", "name_ru": "Beşiri", "tz": "", "district": "Batman"}, {"id": 345, "name": "Gokcebey", "name_ru": "Gökçebey", "tz": "", "district": "Zonguldak"}, {"id": 346, "name": "Cobanlar", "name_ru": "Çobanlar", "tz": "", "district": "Afyonkarahisar"}, {"id": 347, "name": "Vakfikebir", "name_ru": "Vakfıkebir", "tz": "", "district": "Trabzon"}, {"id": 348, "name": "Esme", "name_ru": "Eşme", "tz": "", "district": "Uşak"}, {"id": 349, "name": "Basmakci", "name_ru": "Başmakçı", "tz": "", "district": "Afyonkarahisar"}, {"id": 350, "name": "Emirgazi", "name_ru": "Emirgazi", "tz": "", "district": "Konya"}, {"id": 351, "name": "Baskil", "name_ru": "Baskil", "tz": "", "district": "Elazığ"}]