[{"id": 1, "name": "Port of Spain", "name_ru": "Port of Spain", "tz": "", "district": "Port of Spain"}, {"id": 2, "name": "Chaguanas", "name_ru": "Chaguanas", "tz": "", "district": "Chaguanas"}, {"id": 3, "name": "San Fernando", "name_ru": "San Fernando", "tz": "", "district": "San Fernando"}, {"id": 4, "name": "Couva", "name_ru": "Couva", "tz": "", "district": "Couva/Tabaquite/Talparo"}, {"id": 5, "name": "Tunapuna", "name_ru": "Tunapuna", "tz": "", "district": "Tunapuna/Piarco"}, {"id": 6, "name": "Siparia", "name_ru": "Siparia", "tz": "", "district": "Siparia"}, {"id": 7, "name": "Arima", "name_ru": "Arima", "tz": "", "district": "Arima"}, {"id": 8, "name": "Scarborough", "name_ru": "Scarborough", "tz": "", "district": "Tobago"}, {"id": 9, "name": "Diego Martin", "name_ru": "Diego Martin", "tz": "", "district": "Diego Martin"}, {"id": 10, "name": "Point Fortin", "name_ru": "Point Fortin", "tz": "", "district": "Point Fortin"}, {"id": 11, "name": "Aranguez", "name_ru": "Aranguez", "tz": "", "district": "San Juan/Laventille"}, {"id": 12, "name": "Debe", "name_ru": "Debe", "tz": "", "district": "Penal/Debe"}, {"id": 13, "name": "Princes Town", "name_ru": "Princes Town", "tz": "", "district": "Princes Town"}, {"id": 14, "name": "Sangre Grande", "name_ru": "Sangre Grande", "tz": "", "district": "Sangre Grande"}, {"id": 15, "name": "Rio Claro", "name_ru": "Rio Claro", "tz": "", "district": "Mayaro/Rio Claro"}, {"id": 16, "name": "Laventille", "name_ru": "Laventille", "tz": "", "district": "San Juan/Laventille"}, {"id": 17, "name": "Saint Joseph", "name_ru": "Saint Joseph", "tz": "", "district": "Tunapuna/Piarco"}, {"id": 18, "name": "San Juan", "name_ru": "San Juan", "tz": "", "district": "San Juan/Laventille"}]