[{"id": 1, "name": "Taichung", "name_ru": "Taichung", "tz": "", "district": "Taichung"}, {"id": 2, "name": "Kaohsiung", "name_ru": "Kaohsiung", "tz": "", "district": "Kaohsiung"}, {"id": 3, "name": "Taipei", "name_ru": "Taipei", "tz": "", "district": "Taipei"}, {"id": 4, "name": "Tainan", "name_ru": "Tainan", "tz": "", "district": "Tainan"}, {"id": 5, "name": "Zhongli", "name_ru": "Zhongli", "tz": "", "district": "Taoyuan"}, {"id": 6, "name": "Changhua", "name_ru": "Changhua", "tz": "", "district": "Changhua"}, {"id": 7, "name": "Pingtung", "name_ru": "Pingtung", "tz": "", "district": "Pingtung"}, {"id": 8, "name": "Taoyuan District", "name_ru": "Taoyuan District", "tz": "", "district": "Taoyuan"}, {"id": 9, "name": "Hsinchu", "name_ru": "Hsinchu", "tz": "", "district": "Hsinchu"}, {"id": 10, "name": "Keelung", "name_ru": "Keelung", "tz": "", "district": "Keelung"}, {"id": 11, "name": "Chiayi", "name_ru": "Chiayi", "tz": "", "district": "Chiayi"}, {"id": 12, "name": "Pingzhen", "name_ru": "Pingzhen", "tz": "", "district": "Taoyuan"}, {"id": 13, "name": "Zhubei", "name_ru": "Zhubei", "tz": "", "district": "Hsinchu"}, {"id": 14, "name": "Bade", "name_ru": "Bade", "tz": "", "district": "Taoyuan"}, {"id": 15, "name": "Yangmei", "name_ru": "Yangmei", "tz": "", "district": "Taoyuan"}, {"id": 16, "name": "Yilan", "name_ru": "Yilan", "tz": "", "district": "Yilan"}, {"id": 17, "name": "Hualien", "name_ru": "Hualien", "tz": "", "district": "Hualien"}, {"id": 18, "name": "Taitung", "name_ru": "Taitung", "tz": "", "district": "Taitung"}, {"id": 19, "name": "Douliu", "name_ru": "Douliu", "tz": "", "district": "Yunlin"}, {"id": 20, "name": "Nantou", "name_ru": "Nantou", "tz": "", "district": "Nantou"}, {"id": 21, "name": "Miaoli", "name_ru": "Miaoli", "tz": "", "district": "Miaoli"}, {"id": 22, "name": "Magong", "name_ru": "Magong", "tz": "", "district": "Penghu"}, {"id": 23, "name": "Taibao", "name_ru": "Taibao", "tz": "", "district": "Chiayi"}, {"id": 24, "name": "Banqiao", "name_ru": "Banqiao", "tz": "", "district": "New Taipei"}, {"id": 25, "name": "Nangan", "name_ru": "Nangan", "tz": "", "district": "Lienchiang"}, {"id": 26, "name": "Jincheng", "name_ru": "Jincheng", "tz": "", "district": "Kinmen"}, {"id": 27, "name": "Zhushan", "name_ru": "Zhushan", "tz": "", "district": "Nantou"}, {"id": 28, "name": "Pozi", "name_ru": "Pozi", "tz": "", "district": "Chiayi"}, {"id": 29, "name": "Huatan", "name_ru": "Huatan", "tz": "", "district": "Changhua"}, {"id": 30, "name": "Beigang", "name_ru": "Beigang", "tz": "", "district": "Yunlin"}, {"id": 31, "name": "Yuanchang", "name_ru": "Yuanchang", "tz": "", "district": "Yunlin"}, {"id": 32, "name": "Ershui", "name_ru": "Ershui", "tz": "", "district": "Changhua"}]