[{"id": 1, "name": "Dar es Salaam", "name_ru": "Dar es Salaam", "tz": "", "district": "Dar es Salaam"}, {"id": 2, "name": "Dodoma", "name_ru": "Dodoma", "tz": "", "district": "Dodoma"}, {"id": 3, "name": "Arusha", "name_ru": "Arusha", "tz": "", "district": "Arusha"}, {"id": 4, "name": "Mwanza", "name_ru": "Mwanza", "tz": "", "district": "Mwanza"}, {"id": 5, "name": "Mbeya", "name_ru": "Mbeya", "tz": "", "district": "Mbeya"}, {"id": 6, "name": "Tanga", "name_ru": "Tanga", "tz": "", "district": "Tanga"}, {"id": 7, "name": "Morogoro", "name_ru": "Morogoro", "tz": "", "district": "Morogoro"}, {"id": 8, "name": "Zanzibar", "name_ru": "Zanzibar", "tz": "", "district": "Zanzibar Urban/West"}, {"id": 9, "name": "Sumbawanga", "name_ru": "Sumbawanga", "tz": "", "district": "Rukwa"}, {"id": 10, "name": "Moshi", "name_ru": "Moshi", "tz": "", "district": "Kilimanjaro"}, {"id": 11, "name": "Kigoma", "name_ru": "Kigoma", "tz": "", "district": "Kigoma"}, {"id": 12, "name": "Tabora", "name_ru": "Tabora", "tz": "", "district": "Tabora"}, {"id": 13, "name": "Tukuyu", "name_ru": "Tukuyu", "tz": "", "district": "Mbeya"}, {"id": 14, "name": "Iringa", "name_ru": "Iringa", "tz": "", "district": "Iringa"}, {"id": 15, "name": "Shinyanga", "name_ru": "Shinyanga", "tz": "", "district": "Shinyanga"}, {"id": 16, "name": "Bukoba", "name_ru": "Bukoba", "tz": "", "district": "Kagera"}, {"id": 17, "name": "Musoma", "name_ru": "Musoma", "tz": "", "district": "Mara"}, {"id": 18, "name": "Songea", "name_ru": "Songea", "tz": "", "district": "Ruvuma"}, {"id": 19, "name": "Mtwara", "name_ru": "Mtwara", "tz": "", "district": "Mtwara"}, {"id": 20, "name": "Mpanda", "name_ru": "Mpanda", "tz": "", "district": "Katavi"}, {"id": 21, "name": "Singida", "name_ru": "Singida", "tz": "", "district": "Singida"}, {"id": 22, "name": "Chake Chake", "name_ru": "Chake Chake", "tz": "", "district": "Pemba South"}, {"id": 23, "name": "Njombe", "name_ru": "Njombe", "tz": "", "district": "Njombe"}, {"id": 24, "name": "Lindi", "name_ru": "Lindi", "tz": "", "district": "Lindi"}, {"id": 25, "name": "Kahama", "name_ru": "Kahama", "tz": "", "district": "Shinyanga"}, {"id": 26, "name": "Babati", "name_ru": "Babati", "tz": "", "district": "Manyara"}, {"id": 27, "name": "Wete", "name_ru": "Wete", "tz": "", "district": "Pemba North"}, {"id": 28, "name": "Nzega", "name_ru": "Nzega", "tz": "", "district": "Tabora"}, {"id": 29, "name": "Kibaha", "name_ru": "Kibaha", "tz": "", "district": "Coast"}, {"id": 30, "name": "Bububu", "name_ru": "Bububu", "tz": "", "district": "Zanzibar Urban/West"}, {"id": 31, "name": "Bariadi", "name_ru": "Bariadi", "tz": "", "district": "Simiyu"}, {"id": 32, "name": "Geita", "name_ru": "Geita", "tz": "", "district": "Geita"}, {"id": 33, "name": "Mahonda", "name_ru": "Mahonda", "tz": "", "district": "Zanzibar North"}, {"id": 34, "name": "Vwawa", "name_ru": "Vwawa", "tz": "", "district": "Mbeya"}, {"id": 35, "name": "Koani", "name_ru": "Koani", "tz": "", "district": "Zanzibar Central/South"}, {"id": 36, "name": "Kilosa", "name_ru": "Kilosa", "tz": "", "district": "Morogoro"}, {"id": 37, "name": "Uvinza", "name_ru": "Uvinza", "tz": "", "district": "Kigoma"}, {"id": 38, "name": "Ifakara", "name_ru": "Ifakara", "tz": "", "district": "Morogoro"}, {"id": 39, "name": "Korogwe", "name_ru": "Korogwe", "tz": "", "district": "Tanga"}, {"id": 40, "name": "Tunduma", "name_ru": "Tunduma", "tz": "", "district": "Mbeya"}, {"id": 41, "name": "Masasi", "name_ru": "Masasi", "tz": "", "district": "Mtwara"}, {"id": 42, "name": "Bagamoyo", "name_ru": "Bagamoyo", "tz": "", "district": "Coast"}, {"id": 43, "name": "Biharamulo", "name_ru": "Biharamulo", "tz": "", "district": "Kagera"}, {"id": 44, "name": "Kasulu", "name_ru": "Kasulu", "tz": "", "district": "Kigoma"}, {"id": 45, "name": "Kibiti", "name_ru": "Kibiti", "tz": "", "district": "Coast"}, {"id": 46, "name": "Sikonge", "name_ru": "Sikonge", "tz": "", "district": "Tabora"}, {"id": 47, "name": "Kakonko", "name_ru": "Kakonko", "tz": "", "district": "Kigoma"}, {"id": 48, "name": "Itigi", "name_ru": "Itigi", "tz": "", "district": "Singida"}, {"id": 49, "name": "Mpwapwa", "name_ru": "Mpwapwa", "tz": "", "district": "Dodoma"}, {"id": 50, "name": "Ngara", "name_ru": "Ngara", "tz": "", "district": "Kagera"}, {"id": 51, "name": "Same", "name_ru": "Same", "tz": "", "district": "Kilimanjaro"}, {"id": 52, "name": "Mikumi", "name_ru": "Mikumi", "tz": "", "district": "Morogoro"}, {"id": 53, "name": "Karema", "name_ru": "Karema", "tz": "", "district": "Katavi"}, {"id": 54, "name": "Nyahanga", "name_ru": "Nyahanga", "tz": "", "district": "Simiyu"}, {"id": 55, "name": "Mbulu", "name_ru": "Mbulu", "tz": "", "district": "Manyara"}, {"id": 56, "name": "Kilindoni", "name_ru": "Kilindoni", "tz": "", "district": "Coast"}, {"id": 57, "name": "Ngorongoro", "name_ru": "Ngorongoro", "tz": "", "district": "Arusha"}, {"id": 58, "name": "Mbamba Bay", "name_ru": "Mbamba Bay", "tz": "", "district": "Ruvuma"}, {"id": 59, "name": "Mkokotoni", "name_ru": "Mkokotoni", "tz": "", "district": "Zanzibar North"}, {"id": 60, "name": "Manyoni", "name_ru": "Manyoni", "tz": "", "district": "Singida"}, {"id": 61, "name": "Oldeani", "name_ru": "Oldeani", "tz": "", "district": "Arusha"}, {"id": 62, "name": "Kipili", "name_ru": "Kipili", "tz": "", "district": "Rukwa"}, {"id": 63, "name": "Tunduru", "name_ru": "Tunduru", "tz": "", "district": "Ruvuma"}, {"id": 64, "name": "Kanyato", "name_ru": "Kanyato", "tz": "", "district": "Kigoma"}]