[{"id": 1, "name": "Kyiv", "name_ru": "Kyiv", "tz": "Europe/Kyiv", "district": "Kyyiv, Misto"}, {"id": 2, "name": "Kharkiv", "name_ru": "Kharkiv", "tz": "Europe/Kyiv", "district": "Kharkivs’ka Oblast’"}, {"id": 3, "name": "Odesa", "name_ru": "Odesa", "tz": "Europe/Kyiv", "district": "Odes’ka Oblast’"}, {"id": 4, "name": "Dnipro", "name_ru": "Dnipro", "tz": "Europe/Kyiv", "district": "Dnipropetrovs’ka Oblast’"}, {"id": 5, "name": "Donetsk", "name_ru": "Donetsk", "tz": "Europe/Kyiv", "district": "Donets’ka Oblast’"}, {"id": 6, "name": "Zaporizhzhia", "name_ru": "Zaporizhzhia", "tz": "Europe/Kyiv", "district": "Zaporiz’ka Oblast’"}, {"id": 7, "name": "Lviv", "name_ru": "Lviv", "tz": "Europe/Kyiv", "district": "L’vivs’ka Oblast’"}, {"id": 8, "name": "Kryvyi Rih", "name_ru": "Kryvyi Rih", "tz": "Europe/Kyiv", "district": "Dnipropetrovs’ka Oblast’"}, {"id": 9, "name": "Mykolaiv", "name_ru": "Mykolaiv", "tz": "Europe/Kyiv", "district": "Mykolayivs’ka Oblast’"}, {"id": 10, "name": "Mariupol", "name_ru": "Mariupol", "tz": "Europe/Kyiv", "district": "Donets’ka Oblast’"}, {"id": 11, "name": "Luhansk", "name_ru": "Luhansk", "tz": "Europe/Kyiv", "district": "Luhans’ka Oblast’"}, {"id": 12, "name": "Vinnytsia", "name_ru": "Vinnytsia", "tz": "Europe/Kyiv", "district": "Vinnyts’ka Oblast’"}, {"id": 13, "name": "Makiivka", "name_ru": "Makiivka", "tz": "Europe/Kyiv", "district": "Donets’ka Oblast’"}, {"id": 14, "name": "Poltava", "name_ru": "Poltava", "tz": "Europe/Kyiv", "district": "Poltavs’ka Oblast’"}, {"id": 15, "name": "Chernihiv", "name_ru": "Chernihiv", "tz": "Europe/Kyiv", "district": "Chernihivs’ka Oblast’"}, {"id": 16, "name": "Kherson", "name_ru": "Kherson", "tz": "Europe/Kyiv", "district": "Khersons’ka Oblast’"}, {"id": 17, "name": "Cherkasy", "name_ru": "Cherkasy", "tz": "Europe/Kyiv", "district": "Cherkas’ka Oblast’"}, {"id": 18, "name": "Khmelnytskyi", "name_ru": "Khmelnytskyi", "tz": "Europe/Kyiv", "district": "Khmel’nyts’ka Oblast’"}, {"id": 19, "name": "Zhytomyr", "name_ru": "Zhytomyr", "tz": "Europe/Kyiv", "district": "Zhytomyrs’ka Oblast’"}, {"id": 20, "name": "Chernivtsi", "name_ru": "Chernivtsi", "tz": "Europe/Kyiv", "district": "Chernivets’ka Oblast’"}, {"id": 21, "name": "Sumy", "name_ru": "Sumy", "tz": "Europe/Kyiv", "district": "Sums’ka Oblast’"}, {"id": 22, "name": "Horlivka", "name_ru": "Horlivka", "tz": "Europe/Kyiv", "district": "Donets’ka Oblast’"}, {"id": 23, "name": "Rivne", "name_ru": "Rivne", "tz": "Europe/Kyiv", "district": "Rivnens’ka Oblast’"}, {"id": 24, "name": "Ivano-Frankivsk", "name_ru": "Ivano-Frankivsk", "tz": "Europe/Kyiv", "district": "Ivano-Frankivs’ka Oblast’"}, {"id": 25, "name": "Kamianske", "name_ru": "Kamianske", "tz": "Europe/Kyiv", "district": "Dnipropetrovs’ka Oblast’"}, {"id": 26, "name": "Kropyvnytskyi", "name_ru": "Kropyvnytskyi", "tz": "Europe/Kyiv", "district": "Kirovohrads’ka Oblast’"}, {"id": 27, "name": "Ternopil", "name_ru": "Ternopil", "tz": "Europe/Kyiv", "district": "Ternopil’s’ka Oblast’"}, {"id": 28, "name": "Lutsk", "name_ru": "Lutsk", "tz": "Europe/Kyiv", "district": "Volyns’ka Oblast’"}, {"id": 29, "name": "Kremenchuk", "name_ru": "Kremenchuk", "tz": "Europe/Kyiv", "district": "Poltavs’ka Oblast’"}, {"id": 30, "name": "Bila Tserkva", "name_ru": "Bila Tserkva", "tz": "Europe/Kyiv", "district": "Kyyivs’ka Oblast’"}, {"id": 31, "name": "Kramatorsk", "name_ru": "Kramatorsk", "tz": "Europe/Kyiv", "district": "Donets’ka Oblast’"}, {"id": 32, "name": "Melitopol", "name_ru": "Melitopol", "tz": "Europe/Kyiv", "district": "Zaporiz’ka Oblast’"}, {"id": 33, "name": "Sievierodonetsk", "name_ru": "Sievierodonetsk", "tz": "Europe/Kyiv", "district": "Luhans’ka Oblast’"}, {"id": 34, "name": "Drohobych", "name_ru": "Drohobych", "tz": "Europe/Kyiv", "district": "L’vivs’ka Oblast’"}, {"id": 35, "name": "Khrustalnyi", "name_ru": "Khrustalnyi", "tz": "Europe/Kyiv", "district": "Luhans’ka Oblast’"}, {"id": 36, "name": "Uzhhorod", "name_ru": "Uzhhorod", "tz": "Europe/Kyiv", "district": "Zakarpats’ka Oblast’"}, {"id": 37, "name": "Berdiansk", "name_ru": "Berdiansk", "tz": "Europe/Kyiv", "district": "Zaporiz’ka Oblast’"}, {"id": 38, "name": "Sloviansk", "name_ru": "Sloviansk", "tz": "Europe/Kyiv", "district": "Donets’ka Oblast’"}, {"id": 39, "name": "Nikopol", "name_ru": "Nikopol", "tz": "Europe/Kyiv", "district": "Dnipropetrovs’ka Oblast’"}, {"id": 40, "name": "Pavlohrad", "name_ru": "Pavlohrad", "tz": "Europe/Kyiv", "district": "Dnipropetrovs’ka Oblast’"}, {"id": 41, "name": "Alchevsk", "name_ru": "Alchevsk", "tz": "Europe/Kyiv", "district": "Luhans’ka Oblast’"}, {"id": 42, "name": "Brovary", "name_ru": "Brovary", "tz": "Europe/Kyiv", "district": "Kyyivs’ka Oblast’"}, {"id": 43, "name": "Konotop", "name_ru": "Konotop", "tz": "Europe/Kyiv", "district": "Sums’ka Oblast’"}, {"id": 44, "name": "Kamianets-Podilskyi", "name_ru": "Kamianets-Podilskyi", "tz": "Europe/Kyiv", "district": "Khmel’nyts’ka Oblast’"}, {"id": 45, "name": "Mukacheve", "name_ru": "Mukacheve", "tz": "Europe/Kyiv", "district": "Zakarpats’ka Oblast’"}, {"id": 46, "name": "Uman", "name_ru": "Uman", "tz": "Europe/Kyiv", "district": "Cherkas’ka Oblast’"}, {"id": 47, "name": "Chervonohrad", "name_ru": "Chervonohrad", "tz": "Europe/Kyiv", "district": "L’vivs’ka Oblast’"}, {"id": 48, "name": "Khartsyzk", "name_ru": "Khartsyzk", "tz": "Europe/Kyiv", "district": "Donets’ka Oblast’"}, {"id": 49, "name": "Stryi", "name_ru": "Stryi", "tz": "Europe/Kyiv", "district": "L’vivs’ka Oblast’"}, {"id": 50, "name": "Chornomorsk", "name_ru": "Chornomorsk", "tz": "Europe/Kyiv", "district": "Odes’ka Oblast’"}, {"id": 51, "name": "Novohrad-Volynskyi", "name_ru": "Novohrad-Volynskyi", "tz": "Europe/Kyiv", "district": "Zhytomyrs’ka Oblast’"}, {"id": 52, "name": "Myrnohrad", "name_ru": "Myrnohrad", "tz": "Europe/Kyiv", "district": "Donets’ka Oblast’"}, {"id": 53, "name": "Rovenky", "name_ru": "Rovenky", "tz": "Europe/Kyiv", "district": "Luhans’ka Oblast’"}, {"id": 54, "name": "Myrhorod", "name_ru": "Myrhorod", "tz": "Europe/Kyiv", "district": "Poltavs’ka Oblast’"}, {"id": 55, "name": "Bucha", "name_ru": "Bucha", "tz": "Europe/Kyiv", "district": "Kyyivs’ka Oblast’"}, {"id": 56, "name": "Chuhuiv", "name_ru": "Chuhuiv", "tz": "Europe/Kyiv", "district": "Kharkivs’ka Oblast’"}, {"id": 57, "name": "Sukhodilsk", "name_ru": "Sukhodilsk", "tz": "Europe/Kyiv", "district": "Luhans’ka Oblast’"}, {"id": 58, "name": "Kotsyubyns'ke", "name_ru": "Kotsyubyns’ke", "tz": "Europe/Kyiv", "district": "Kyyiv, Misto"}, {"id": 59, "name": "Hostomel", "name_ru": "Hostomel", "tz": "Europe/Kyiv", "district": "Kyyivs’ka Oblast’"}, {"id": 60, "name": "Vynnyky", "name_ru": "Vynnyky", "tz": "Europe/Kyiv", "district": "L’vivs’ka Oblast’"}, {"id": 61, "name": "Hirnyk", "name_ru": "Hirnyk", "tz": "Europe/Kyiv", "district": "Donets’ka Oblast’"}, {"id": 62, "name": "Komyshany", "name_ru": "Komyshany", "tz": "Europe/Kyiv", "district": "Khersons’ka Oblast’"}, {"id": 63, "name": "Karnaukhivka", "name_ru": "Karnaukhivka", "tz": "Europe/Kyiv", "district": "Dnipropetrovs’ka Oblast’"}, {"id": 64, "name": "Lysychansk", "name_ru": "Lysychansk", "tz": "Europe/Kyiv", "district": "Luhans’ka Oblast’"}, {"id": 65, "name": "Dovzhansk", "name_ru": "Dovzhansk", "tz": "Europe/Kyiv", "district": "Luhans’ka Oblast’"}, {"id": 66, "name": "Oleksandriia", "name_ru": "Oleksandriia", "tz": "Europe/Kyiv", "district": "Kirovohrads’ka Oblast’"}, {"id": 67, "name": "Yenakiieve", "name_ru": "Yenakiieve", "tz": "Europe/Kyiv", "district": "Donets’ka Oblast’"}, {"id": 68, "name": "Bakhmut", "name_ru": "Bakhmut", "tz": "Europe/Kyiv", "district": "Donets’ka Oblast’"}, {"id": 69, "name": "Shostka", "name_ru": "Shostka", "tz": "Europe/Kyiv", "district": "Sums’ka Oblast’"}, {"id": 70, "name": "Stakhanov", "name_ru": "Stakhanov", "tz": "Europe/Kyiv", "district": "Luhans’ka Oblast’"}, {"id": 71, "name": "Berdychiv", "name_ru": "Berdychiv", "tz": "Europe/Kyiv", "district": "Zhytomyrs’ka Oblast’"}, {"id": 72, "name": "Nizhyn", "name_ru": "Nizhyn", "tz": "Europe/Kyiv", "district": "Chernihivs’ka Oblast’"}, {"id": 73, "name": "Kostiantynivka", "name_ru": "Kostiantynivka", "tz": "Europe/Kyiv", "district": "Donets’ka Oblast’"}, {"id": 74, "name": "Izmail", "name_ru": "Izmail", "tz": "Europe/Kyiv", "district": "Odes’ka Oblast’"}, {"id": 75, "name": "Novomoskovsk", "name_ru": "Novomoskovsk", "tz": "Europe/Kyiv", "district": "Dnipropetrovs’ka Oblast’"}, {"id": 76, "name": "Kovel", "name_ru": "Kovel", "tz": "Europe/Kyiv", "district": "Volyns’ka Oblast’"}, {"id": 77, "name": "Smila", "name_ru": "Smila", "tz": "Europe/Kyiv", "district": "Cherkas’ka Oblast’"}, {"id": 78, "name": "Kalush", "name_ru": "Kalush", "tz": "Europe/Kyiv", "district": "Ivano-Frankivs’ka Oblast’"}, {"id": 79, "name": "Korosten", "name_ru": "Korosten", "tz": "Europe/Kyiv", "district": "Zhytomyrs’ka Oblast’"}, {"id": 80, "name": "Pokrovsk", "name_ru": "Pokrovsk", "tz": "Europe/Kyiv", "district": "Donets’ka Oblast’"}, {"id": 81, "name": "Kolomyia", "name_ru": "Kolomyia", "tz": "Europe/Kyiv", "district": "Ivano-Frankivs’ka Oblast’"}, {"id": 82, "name": "Boryspil", "name_ru": "Boryspil", "tz": "Europe/Kyiv", "district": "Kyyivs’ka Oblast’"}, {"id": 83, "name": "Rubizhne", "name_ru": "Rubizhne", "tz": "Europe/Kyiv", "district": "Luhans’ka Oblast’"}, {"id": 84, "name": "Druzhkivka", "name_ru": "Druzhkivka", "tz": "Europe/Kyiv", "district": "Donets’ka Oblast’"}, {"id": 85, "name": "Bilhorod-Dnistrovskyi", "name_ru": "Bilhorod-Dnistrovskyi", "tz": "Europe/Kyiv", "district": "Odes’ka Oblast’"}, {"id": 86, "name": "Irpin", "name_ru": "Irpin", "tz": "Europe/Kyiv", "district": "Kyyivs’ka Oblast’"}, {"id": 87, "name": "Antratsyt", "name_ru": "Antratsyt", "tz": "Europe/Kyiv", "district": "Luhans’ka Oblast’"}, {"id": 88, "name": "Lozova", "name_ru": "Lozova", "tz": "Europe/Kyiv", "district": "Kharkivs’ka Oblast’"}, {"id": 89, "name": "Enerhodar", "name_ru": "Enerhodar", "tz": "Europe/Kyiv", "district": "Zaporiz’ka Oblast’"}, {"id": 90, "name": "Pryluky", "name_ru": "Pryluky", "tz": "Europe/Kyiv", "district": "Chernihivs’ka Oblast’"}, {"id": 91, "name": "Horishni Plavni", "name_ru": "Horishni Plavni", "tz": "Europe/Kyiv", "district": "Poltavs’ka Oblast’"}, {"id": 92, "name": "Novovolynsk", "name_ru": "Novovolynsk", "tz": "Europe/Kyiv", "district": "Volyns’ka Oblast’"}, {"id": 93, "name": "Shakhtarsk", "name_ru": "Shakhtarsk", "tz": "Europe/Kyiv", "district": "Donets’ka Oblast’"}, {"id": 94, "name": "Brianka", "name_ru": "Brianka", "tz": "Europe/Kyiv", "district": "Luhans’ka Oblast’"}, {"id": 95, "name": "Snizhne", "name_ru": "Snizhne", "tz": "Europe/Kyiv", "district": "Donets’ka Oblast’"}, {"id": 96, "name": "Marhanets", "name_ru": "Marhanets", "tz": "Europe/Kyiv", "district": "Dnipropetrovs’ka Oblast’"}, {"id": 97, "name": "Fastiv", "name_ru": "Fastiv", "tz": "Europe/Kyiv", "district": "Kyyivs’ka Oblast’"}, {"id": 98, "name": "Lubny", "name_ru": "Lubny", "tz": "Europe/Kyiv", "district": "Poltavs’ka Oblast’"}, {"id": 99, "name": "Svitlovodsk", "name_ru": "Svitlovodsk", "tz": "Europe/Kyiv", "district": "Kirovohrads’ka Oblast’"}, {"id": 100, "name": "Nova Kakhovka", "name_ru": "Nova Kakhovka", "tz": "Europe/Kyiv", "district": "Khersons’ka Oblast’"}, {"id": 101, "name": "Zhovti Vody", "name_ru": "Zhovti Vody", "tz": "Europe/Kyiv", "district": "Dnipropetrovs’ka Oblast’"}, {"id": 102, "name": "Krasnodon", "name_ru": "Krasnodon", "tz": "Europe/Kyiv", "district": "Luhans’ka Oblast’"}, {"id": 103, "name": "Shepetivka", "name_ru": "Shepetivka", "tz": "Europe/Kyiv", "district": "Khmel’nyts’ka Oblast’"}, {"id": 104, "name": "Podilsk", "name_ru": "Podilsk", "tz": "Europe/Kyiv", "district": "Odes’ka Oblast’"}, {"id": 105, "name": "Romny", "name_ru": "Romny", "tz": "Europe/Kyiv", "district": "Sums’ka Oblast’"}, {"id": 106, "name": "Vyshneve", "name_ru": "Vyshneve", "tz": "Europe/Kyiv", "district": "Kyyivs’ka Oblast’"}, {"id": 107, "name": "Pokrov", "name_ru": "Pokrov", "tz": "Europe/Kyiv", "district": "Dnipropetrovs’ka Oblast’"}, {"id": 108, "name": "Vasylkiv", "name_ru": "Vasylkiv", "tz": "Europe/Kyiv", "district": "Kyyivs’ka Oblast’"}, {"id": 109, "name": "Dubno", "name_ru": "Dubno", "tz": "Europe/Kyiv", "district": "Rivnens’ka Oblast’"}, {"id": 110, "name": "Pervomaisk", "name_ru": "Pervomaisk", "tz": "Europe/Kyiv", "district": "Luhans’ka Oblast’"}, {"id": 111, "name": "Boryslav", "name_ru": "Boryslav", "tz": "Europe/Kyiv", "district": "L’vivs’ka Oblast’"}, {"id": 112, "name": "Holubivske", "name_ru": "Holubivske", "tz": "Europe/Kyiv", "district": "Luhans’ka Oblast’"}, {"id": 113, "name": "Yasynuvata", "name_ru": "Yasynuvata", "tz": "Europe/Kyiv", "district": "Donets’ka Oblast’"}, {"id": 114, "name": "Netishyn", "name_ru": "Netishyn", "tz": "Europe/Kyiv", "district": "Khmel’nyts’ka Oblast’"}, {"id": 115, "name": "Zhmerynka", "name_ru": "Zhmerynka", "tz": "Europe/Kyiv", "district": "Vinnyts’ka Oblast’"}, {"id": 116, "name": "Avdiivka", "name_ru": "Avdiivka", "tz": "Europe/Kyiv", "district": "Donets’ka Oblast’"}, {"id": 117, "name": "Kakhovka", "name_ru": "Kakhovka", "tz": "Europe/Kyiv", "district": "Khersons’ka Oblast’"}, {"id": 118, "name": "Toretsk", "name_ru": "Toretsk", "tz": "Europe/Kyiv", "district": "Donets’ka Oblast’"}, {"id": 119, "name": "Sambir", "name_ru": "Sambir", "tz": "Europe/Kyiv", "district": "L’vivs’ka Oblast’"}, {"id": 120, "name": "Boyarka", "name_ru": "Boyarka", "tz": "Europe/Kyiv", "district": "Kyyivs’ka Oblast’"}, {"id": 121, "name": "Voznesensk", "name_ru": "Voznesensk", "tz": "Europe/Kyiv", "district": "Mykolayivs’ka Oblast’"}, {"id": 122, "name": "Hlukhiv", "name_ru": "Hlukhiv", "tz": "Europe/Kyiv", "district": "Sums’ka Oblast’"}, {"id": 123, "name": "Obukhiv", "name_ru": "Obukhiv", "tz": "Europe/Kyiv", "district": "Kyyivs’ka Oblast’"}, {"id": 124, "name": "Yuzhne", "name_ru": "Yuzhne", "tz": "Europe/Kyiv", "district": "Odes’ka Oblast’"}, {"id": 125, "name": "Mohyliv-Podilskyi", "name_ru": "Mohyliv-Podilskyi", "tz": "Europe/Kyiv", "district": "Vinnyts’ka Oblast’"}, {"id": 126, "name": "Kostopil", "name_ru": "Kostopil", "tz": "Europe/Kyiv", "district": "Rivnens’ka Oblast’"}, {"id": 127, "name": "Tokmak", "name_ru": "Tokmak", "tz": "Europe/Kyiv", "district": "Zaporiz’ka Oblast’"}, {"id": 128, "name": "Novoyavorovskoye", "name_ru": "Novoyavorovskoye", "tz": "Europe/Kyiv", "district": "L’vivs’ka Oblast’"}, {"id": 129, "name": "Synelnykove", "name_ru": "Synelnykove", "tz": "Europe/Kyiv", "district": "Dnipropetrovs’ka Oblast’"}, {"id": 130, "name": "Pervomaiskyi", "name_ru": "Pervomaiskyi", "tz": "Europe/Kyiv", "district": "Kharkivs’ka Oblast’"}, {"id": 131, "name": "Khmilnyk", "name_ru": "Khmilnyk", "tz": "Europe/Kyiv", "district": "Vinnyts’ka Oblast’"}, {"id": 132, "name": "Truskavets", "name_ru": "Truskavets", "tz": "Europe/Kyiv", "district": "L’vivs’ka Oblast’"}, {"id": 133, "name": "Balakliia", "name_ru": "Balakliia", "tz": "Europe/Kyiv", "district": "Kharkivs’ka Oblast’"}, {"id": 134, "name": "Novyi Rozdil", "name_ru": "Novyi Rozdil", "tz": "Europe/Kyiv", "district": "L’vivs’ka Oblast’"}, {"id": 135, "name": "Chortkiv", "name_ru": "Chortkiv", "tz": "Europe/Kyiv", "district": "Ternopil’s’ka Oblast’"}, {"id": 136, "name": "Pershotravensk", "name_ru": "Pershotravensk", "tz": "Europe/Kyiv", "district": "Dnipropetrovs’ka Oblast’"}, {"id": 137, "name": "Khust", "name_ru": "Khust", "tz": "Europe/Kyiv", "district": "Zakarpats’ka Oblast’"}, {"id": 138, "name": "Khrestivka", "name_ru": "Khrestivka", "tz": "Europe/Kyiv", "district": "Donets’ka Oblast’"}, {"id": 139, "name": "Ternivka", "name_ru": "Ternivka", "tz": "Europe/Kyiv", "district": "Dnipropetrovs’ka Oblast’"}, {"id": 140, "name": "Vyshhorod", "name_ru": "Vyshhorod", "tz": "Europe/Kyiv", "district": "Kyyivs’ka Oblast’"}, {"id": 141, "name": "Zolotonosha", "name_ru": "Zolotonosha", "tz": "Europe/Kyiv", "district": "Cherkas’ka Oblast’"}, {"id": 142, "name": "Pereyaslav-Khmel'nyts'kyy", "name_ru": "Pereyaslav-Khmel’nyts’kyy", "tz": "Europe/Kyiv", "district": "Kyyivs’ka Oblast’"}, {"id": 143, "name": "Sofiyivs'ka Borshchahivka", "name_ru": "Sofiyivs’ka Borshchahivka", "tz": "Europe/Kyiv", "district": "Kyyivs’ka Oblast’"}, {"id": 144, "name": "Perevalsk", "name_ru": "Perevalsk", "tz": "Europe/Kyiv", "district": "Luhans’ka Oblast’"}, {"id": 145, "name": "Malyn", "name_ru": "Malyn", "tz": "Europe/Kyiv", "district": "Zhytomyrs’ka Oblast’"}, {"id": 146, "name": "Haisyn", "name_ru": "Haisyn", "tz": "Europe/Kyiv", "district": "Vinnyts’ka Oblast’"}, {"id": 147, "name": "Vynohradiv", "name_ru": "Vynohradiv", "tz": "Europe/Kyiv", "district": "Zakarpats’ka Oblast’"}, {"id": 148, "name": "Korostyshiv", "name_ru": "Korostyshiv", "tz": "Europe/Kyiv", "district": "Zhytomyrs’ka Oblast’"}, {"id": 149, "name": "Slavutych", "name_ru": "Slavutych", "tz": "Europe/Kyiv", "district": "Kyyivs’ka Oblast’"}, {"id": 150, "name": "Kaniv", "name_ru": "Kaniv", "tz": "Europe/Kyiv", "district": "Cherkas’ka Oblast’"}, {"id": 151, "name": "Selydove", "name_ru": "Selydove", "tz": "Europe/Kyiv", "district": "Donets’ka Oblast’"}, {"id": 152, "name": "Zolochiv", "name_ru": "Zolochiv", "tz": "Europe/Kyiv", "district": "L’vivs’ka Oblast’"}, {"id": 153, "name": "Berehove", "name_ru": "Berehove", "tz": "Europe/Kyiv", "district": "Zakarpats’ka Oblast’"}, {"id": 154, "name": "Brody", "name_ru": "Brody", "tz": "Europe/Kyiv", "district": "L’vivs’ka Oblast’"}, {"id": 155, "name": "Koziatyn", "name_ru": "Koziatyn", "tz": "Europe/Kyiv", "district": "Vinnyts’ka Oblast’"}, {"id": 156, "name": "Vilnohirsk", "name_ru": "Vilnohirsk", "tz": "Europe/Kyiv", "district": "Dnipropetrovs’ka Oblast’"}, {"id": 157, "name": "Molodohvardiisk", "name_ru": "Molodohvardiisk", "tz": "Europe/Kyiv", "district": "Luhans’ka Oblast’"}, {"id": 158, "name": "Znamianka", "name_ru": "Znamianka", "tz": "Europe/Kyiv", "district": "Kirovohrads’ka Oblast’"}, {"id": 159, "name": "Ladyzhyn", "name_ru": "Ladyzhyn", "tz": "Europe/Kyiv", "district": "Vinnyts’ka Oblast’"}, {"id": 160, "name": "Nadvirna", "name_ru": "Nadvirna", "tz": "Europe/Kyiv", "district": "Ivano-Frankivs’ka Oblast’"}, {"id": 161, "name": "Lyman", "name_ru": "Lyman", "tz": "Europe/Kyiv", "district": "Donets’ka Oblast’"}, {"id": 162, "name": "Merefa", "name_ru": "Merefa", "tz": "Europe/Kyiv", "district": "Kharkivs’ka Oblast’"}, {"id": 163, "name": "Bilohorodka", "name_ru": "Bilohorodka", "tz": "Europe/Kyiv", "district": "Kyyivs’ka Oblast’"}, {"id": 164, "name": "Sokal", "name_ru": "Sokal", "tz": "Europe/Kyiv", "district": "L’vivs’ka Oblast’"}, {"id": 165, "name": "Liubotyn", "name_ru": "Liubotyn", "tz": "Europe/Kyiv", "district": "Kharkivs’ka Oblast’"}, {"id": 166, "name": "Kremenets", "name_ru": "Kremenets", "tz": "Europe/Kyiv", "district": "Ternopil’s’ka Oblast’"}, {"id": 167, "name": "Dolyna", "name_ru": "Dolyna", "tz": "Europe/Kyiv", "district": "Ivano-Frankivs’ka Oblast’"}, {"id": 168, "name": "Yahotyn", "name_ru": "Yahotyn", "tz": "Europe/Kyiv", "district": "Kyyivs’ka Oblast’"}, {"id": 169, "name": "Pidhorodne", "name_ru": "Pidhorodne", "tz": "Europe/Kyiv", "district": "Dnipropetrovs’ka Oblast’"}, {"id": 170, "name": "Balta", "name_ru": "Balta", "tz": "Europe/Kyiv", "district": "Odes’ka Oblast’"}, {"id": 171, "name": "Henichesk", "name_ru": "Henichesk", "tz": "Europe/Kyiv", "district": "Khersons’ka Oblast’"}, {"id": 172, "name": "Dolynska", "name_ru": "Dolynska", "tz": "Europe/Kyiv", "district": "Kirovohrads’ka Oblast’"}, {"id": 173, "name": "Kalynivka", "name_ru": "Kalynivka", "tz": "Europe/Kyiv", "district": "Vinnyts’ka Oblast’"}, {"id": 174, "name": "Polohy", "name_ru": "Polohy", "tz": "Europe/Kyiv", "district": "Zaporiz’ka Oblast’"}, {"id": 175, "name": "Piatykhatky", "name_ru": "Piatykhatky", "tz": "Europe/Kyiv", "district": "Dnipropetrovs’ka Oblast’"}, {"id": 176, "name": "Starobilsk", "name_ru": "Starobilsk", "tz": "Europe/Kyiv", "district": "Luhans’ka Oblast’"}, {"id": 177, "name": "Vovchansk", "name_ru": "Vovchansk", "tz": "Europe/Kyiv", "district": "Kharkivs’ka Oblast’"}, {"id": 178, "name": "Dniprorudne", "name_ru": "Dniprorudne", "tz": "Europe/Kyiv", "district": "Zaporiz’ka Oblast’"}, {"id": 179, "name": "Bakhmach", "name_ru": "Bakhmach", "tz": "Europe/Kyiv", "district": "Chernihivs’ka Oblast’"}, {"id": 180, "name": "Korsun-Shevchenkivskyi", "name_ru": "Korsun-Shevchenkivskyi", "tz": "Europe/Kyiv", "district": "Cherkas’ka Oblast’"}, {"id": 181, "name": "Amvrosiivka", "name_ru": "Amvrosiivka", "tz": "Europe/Kyiv", "district": "Donets’ka Oblast’"}, {"id": 182, "name": "Svatove", "name_ru": "Svatove", "tz": "Europe/Kyiv", "district": "Luhans’ka Oblast’"}, {"id": 183, "name": "Zuhres", "name_ru": "Zuhres", "tz": "Europe/Kyiv", "district": "Donets’ka Oblast’"}, {"id": 184, "name": "Skadovsk", "name_ru": "Skadovsk", "tz": "Europe/Kyiv", "district": "Khersons’ka Oblast’"}, {"id": 185, "name": "Bolhrad", "name_ru": "Bolhrad", "tz": "Europe/Kyiv", "district": "Odes’ka Oblast’"}, {"id": 186, "name": "Berezhany", "name_ru": "Berezhany", "tz": "Europe/Kyiv", "district": "Ternopil’s’ka Oblast’"}, {"id": 187, "name": "Svalyava", "name_ru": "Svalyava", "tz": "Europe/Kyiv", "district": "Zakarpats’ka Oblast’"}, {"id": 188, "name": "Zvenyhorodka", "name_ru": "Zvenyhorodka", "tz": "Europe/Kyiv", "district": "Cherkas’ka Oblast’"}, {"id": 189, "name": "Vatutine", "name_ru": "Vatutine", "tz": "Europe/Kyiv", "district": "Cherkas’ka Oblast’"}, {"id": 190, "name": "Iziaslav", "name_ru": "Iziaslav", "tz": "Europe/Kyiv", "district": "Khmel’nyts’ka Oblast’"}, {"id": 191, "name": "Berezan", "name_ru": "Berezan", "tz": "Europe/Kyiv", "district": "Kyyivs’ka Oblast’"}, {"id": 192, "name": "Horodok", "name_ru": "Horodok", "tz": "Europe/Kyiv", "district": "Khmel’nyts’ka Oblast’"}, {"id": 193, "name": "Verkhivtseve", "name_ru": "Verkhivtseve", "tz": "Europe/Kyiv", "district": "Dnipropetrovs’ka Oblast’"}, {"id": 194, "name": "Horodok", "name_ru": "Horodok", "tz": "Europe/Kyiv", "district": "L’vivs’ka Oblast’"}, {"id": 195, "name": "Okhtyrka", "name_ru": "Okhtyrka", "tz": "Europe/Kyiv", "district": "Sums’ka Oblast’"}, {"id": 196, "name": "Bar", "name_ru": "Bar", "tz": "Europe/Kyiv", "district": "Vinnyts’ka Oblast’"}, {"id": 197, "name": "Ukrainka", "name_ru": "Ukrainka", "tz": "Europe/Kyiv", "district": "Kyyivs’ka Oblast’"}, {"id": 198, "name": "Dunaivtsi", "name_ru": "Dunaivtsi", "tz": "Europe/Kyiv", "district": "Khmel’nyts’ka Oblast’"}, {"id": 199, "name": "Skvyra", "name_ru": "Skvyra", "tz": "Europe/Kyiv", "district": "Kyyivs’ka Oblast’"}, {"id": 200, "name": "Yuvileine", "name_ru": "Yuvileine", "tz": "Europe/Kyiv", "district": "Luhans’ka Oblast’"}, {"id": 201, "name": "Ovruch", "name_ru": "Ovruch", "tz": "Europe/Kyiv", "district": "Zhytomyrs’ka Oblast’"}, {"id": 202, "name": "Putyvl", "name_ru": "Putyvl", "tz": "Europe/Kyiv", "district": "Sums’ka Oblast’"}, {"id": 203, "name": "Ostroh", "name_ru": "Ostroh", "tz": "Europe/Kyiv", "district": "Rivnens’ka Oblast’"}, {"id": 204, "name": "Rakhiv", "name_ru": "Rakhiv", "tz": "Europe/Kyiv", "district": "Zakarpats’ka Oblast’"}, {"id": 205, "name": "Bohodukhiv", "name_ru": "Bohodukhiv", "tz": "Europe/Kyiv", "district": "Kharkivs’ka Oblast’"}, {"id": 206, "name": "Burshtyn", "name_ru": "Burshtyn", "tz": "Europe/Kyiv", "district": "Ivano-Frankivs’ka Oblast’"}, {"id": 207, "name": "Tulchyn", "name_ru": "Tulchyn", "tz": "Europe/Kyiv", "district": "Vinnyts’ka Oblast’"}, {"id": 208, "name": "Vil'nyans'k", "name_ru": "Vil’nyans’k", "tz": "Europe/Kyiv", "district": "Zaporiz’ka Oblast’"}, {"id": 209, "name": "Nyzhnia Krynka", "name_ru": "Nyzhnia Krynka", "tz": "Europe/Kyiv", "district": "Donets’ka Oblast’"}, {"id": 210, "name": "Vuhledar", "name_ru": "Vuhledar", "tz": "Europe/Kyiv", "district": "Donets’ka Oblast’"}, {"id": 211, "name": "Ochakiv", "name_ru": "Ochakiv", "tz": "Europe/Kyiv", "district": "Mykolayivs’ka Oblast’"}, {"id": 212, "name": "Hulyaypole", "name_ru": "Hulyaypole", "tz": "Europe/Kyiv", "district": "Zaporiz’ka Oblast’"}, {"id": 213, "name": "Radomyshl", "name_ru": "Radomyshl", "tz": "Europe/Kyiv", "district": "Zhytomyrs’ka Oblast’"}, {"id": 214, "name": "Stanytsia Luhanska", "name_ru": "Stanytsia Luhanska", "tz": "Europe/Kyiv", "district": "Luhans’ka Oblast’"}, {"id": 215, "name": "Orikhiv", "name_ru": "Orikhiv", "tz": "Europe/Kyiv", "district": "Zaporiz’ka Oblast’"}, {"id": 216, "name": "Zolote", "name_ru": "Zolote", "tz": "Europe/Kyiv", "district": "Luhans’ka Oblast’"}, {"id": 217, "name": "Kivertsi", "name_ru": "Kivertsi", "tz": "Europe/Kyiv", "district": "Volyns’ka Oblast’"}, {"id": 218, "name": "Zhovkva", "name_ru": "Zhovkva", "tz": "Europe/Kyiv", "district": "L’vivs’ka Oblast’"}, {"id": 219, "name": "Zhashkiv", "name_ru": "Zhashkiv", "tz": "Europe/Kyiv", "district": "Cherkas’ka Oblast’"}, {"id": 220, "name": "Horodyshche", "name_ru": "Horodyshche", "tz": "Europe/Kyiv", "district": "Cherkas’ka Oblast’"}, {"id": 221, "name": "Apostolove", "name_ru": "Apostolove", "tz": "Europe/Kyiv", "district": "Dnipropetrovs’ka Oblast’"}, {"id": 222, "name": "Hola Prystan", "name_ru": "Hola Prystan", "tz": "Europe/Kyiv", "district": "Khersons’ka Oblast’"}, {"id": 223, "name": "Bunhe", "name_ru": "Bunhe", "tz": "Europe/Kyiv", "district": "Donets’ka Oblast’"}, {"id": 224, "name": "Talne", "name_ru": "Talne", "tz": "Europe/Kyiv", "district": "Cherkas’ka Oblast’"}, {"id": 225, "name": "Kaharlyk", "name_ru": "Kaharlyk", "tz": "Europe/Kyiv", "district": "Kyyivs’ka Oblast’"}, {"id": 226, "name": "Zelenodolsk", "name_ru": "Zelenodolsk", "tz": "Europe/Kyiv", "district": "Dnipropetrovs’ka Oblast’"}, {"id": 227, "name": "Berezne", "name_ru": "Berezne", "tz": "Europe/Kyiv", "district": "Rivnens’ka Oblast’"}, {"id": 228, "name": "Nosivka", "name_ru": "Nosivka", "tz": "Europe/Kyiv", "district": "Chernihivs’ka Oblast’"}, {"id": 229, "name": "Borodyanka", "name_ru": "Borodyanka", "tz": "Europe/Kyiv", "district": "Kyyivs’ka Oblast’"}, {"id": 230, "name": "Slobozhanske", "name_ru": "Slobozhanske", "tz": "Europe/Kyiv", "district": "Dnipropetrovs’ka Oblast’"}, {"id": 231, "name": "Lebedyn", "name_ru": "Lebedyn", "tz": "Europe/Kyiv", "district": "Sums’ka Oblast’"}, {"id": 232, "name": "Vasylivka", "name_ru": "Vasylivka", "tz": "Europe/Kyiv", "district": "Zaporiz’ka Oblast’"}, {"id": 233, "name": "Velykodolynske", "name_ru": "Velykodolynske", "tz": "Europe/Kyiv", "district": "Odes’ka Oblast’"}, {"id": 234, "name": "Tetiiv", "name_ru": "Tetiiv", "tz": "Europe/Kyiv", "district": "Kyyivs’ka Oblast’"}, {"id": 235, "name": "Rozhyshche", "name_ru": "Rozhyshche", "tz": "Europe/Kyiv", "district": "Volyns’ka Oblast’"}, {"id": 236, "name": "Yavoriv", "name_ru": "Yavoriv", "tz": "Europe/Kyiv", "district": "L’vivs’ka Oblast’"}, {"id": 237, "name": "Novhorod-Siverskyi", "name_ru": "Novhorod-Siverskyi", "tz": "Europe/Kyiv", "district": "Chernihivs’ka Oblast’"}, {"id": 238, "name": "Bershad", "name_ru": "Bershad", "tz": "Europe/Kyiv", "district": "Vinnyts’ka Oblast’"}, {"id": 239, "name": "Perehinske", "name_ru": "Perehinske", "tz": "Europe/Kyiv", "district": "Ivano-Frankivs’ka Oblast’"}, {"id": 240, "name": "Kamianka-Dniprovska", "name_ru": "Kamianka-Dniprovska", "tz": "Europe/Kyiv", "district": "Zaporiz’ka Oblast’"}, {"id": 241, "name": "Shchastia", "name_ru": "Shchastia", "tz": "Europe/Kyiv", "district": "Luhans’ka Oblast’"}, {"id": 242, "name": "Buchach", "name_ru": "Buchach", "tz": "Europe/Kyiv", "district": "Ternopil’s’ka Oblast’"}, {"id": 243, "name": "Koriukivka", "name_ru": "Koriukivka", "tz": "Europe/Kyiv", "district": "Chernihivs’ka Oblast’"}, {"id": 244, "name": "Kamin-Kashyrskyi", "name_ru": "Kamin-Kashyrskyi", "tz": "Europe/Kyiv", "district": "Volyns’ka Oblast’"}, {"id": 245, "name": "Hnivan", "name_ru": "Hnivan", "tz": "Europe/Kyiv", "district": "Vinnyts’ka Oblast’"}, {"id": 246, "name": "Beryslav", "name_ru": "Beryslav", "tz": "Europe/Kyiv", "district": "Khersons’ka Oblast’"}, {"id": 247, "name": "Uzyn", "name_ru": "Uzyn", "tz": "Europe/Kyiv", "district": "Kyyivs’ka Oblast’"}, {"id": 248, "name": "Bilovodsk", "name_ru": "Bilovodsk", "tz": "Europe/Kyiv", "district": "Luhans’ka Oblast’"}, {"id": 249, "name": "Mykhailivka", "name_ru": "Mykhailivka", "tz": "Europe/Kyiv", "district": "Zaporiz’ka Oblast’"}, {"id": 250, "name": "Ukrainsk", "name_ru": "Ukrainsk", "tz": "Europe/Kyiv", "district": "Donets’ka Oblast’"}, {"id": 251, "name": "Horodnia", "name_ru": "Horodnia", "tz": "Europe/Kyiv", "district": "Chernihivs’ka Oblast’"}, {"id": 252, "name": "Ovidiopol", "name_ru": "Ovidiopol", "tz": "Europe/Kyiv", "district": "Odes’ka Oblast’"}, {"id": 253, "name": "Baranivka", "name_ru": "Baranivka", "tz": "Europe/Kyiv", "district": "Zhytomyrs’ka Oblast’"}, {"id": 254, "name": "Bilopillya", "name_ru": "Bilopillya", "tz": "Europe/Kyiv", "district": "Sums’ka Oblast’"}, {"id": 255, "name": "Vasylkivka", "name_ru": "Vasylkivka", "tz": "Europe/Kyiv", "district": "Dnipropetrovs’ka Oblast’"}, {"id": 256, "name": "Nemyriv", "name_ru": "Nemyriv", "tz": "Europe/Kyiv", "district": "Vinnyts’ka Oblast’"}, {"id": 257, "name": "Prymorsk", "name_ru": "Prymorsk", "tz": "Europe/Kyiv", "district": "Zaporiz’ka Oblast’"}, {"id": 258, "name": "Mena", "name_ru": "Mena", "tz": "Europe/Kyiv", "district": "Chernihivs’ka Oblast’"}, {"id": 259, "name": "Mala Vyska", "name_ru": "Mala Vyska", "tz": "Europe/Kyiv", "district": "Kirovohrads’ka Oblast’"}, {"id": 260, "name": "Kalmiuske", "name_ru": "Kalmiuske", "tz": "Europe/Kyiv", "district": "Donets’ka Oblast’"}, {"id": 261, "name": "Lokhvytsya", "name_ru": "Lokhvytsya", "tz": "Europe/Kyiv", "district": "Poltavs’ka Oblast’"}, {"id": 262, "name": "Myronivka", "name_ru": "Myronivka", "tz": "Europe/Kyiv", "district": "Kyyivs’ka Oblast’"}, {"id": 263, "name": "Yakymivka", "name_ru": "Yakymivka", "tz": "Europe/Kyiv", "district": "Zaporiz’ka Oblast’"}, {"id": 264, "name": "Snovsk", "name_ru": "Snovsk", "tz": "Europe/Kyiv", "district": "Chernihivs’ka Oblast’"}, {"id": 265, "name": "Illintsi", "name_ru": "Illintsi", "tz": "Europe/Kyiv", "district": "Vinnyts’ka Oblast’"}, {"id": 266, "name": "Sosnivka", "name_ru": "Sosnivka", "tz": "Europe/Kyiv", "district": "L’vivs’ka Oblast’"}, {"id": 267, "name": "Zhydachiv", "name_ru": "Zhydachiv", "tz": "Europe/Kyiv", "district": "L’vivs’ka Oblast’"}, {"id": 268, "name": "Rokytne", "name_ru": "Rokytne", "tz": "Europe/Kyiv", "district": "Kyyivs’ka Oblast’"}, {"id": 269, "name": "Bobrovytsia", "name_ru": "Bobrovytsia", "tz": "Europe/Kyiv", "district": "Chernihivs’ka Oblast’"}, {"id": 270, "name": "Bobrynets", "name_ru": "Bobrynets", "tz": "Europe/Kyiv", "district": "Kirovohrads’ka Oblast’"}, {"id": 271, "name": "Novgorodskoye", "name_ru": "Novgorodskoye", "tz": "Europe/Kyiv", "district": "Donets’ka Oblast’"}, {"id": 272, "name": "Manevychi", "name_ru": "Manevychi", "tz": "Europe/Kyiv", "district": "Volyns’ka Oblast’"}, {"id": 273, "name": "Hrebinka", "name_ru": "Hrebinka", "tz": "Europe/Kyiv", "district": "Poltavs’ka Oblast’"}, {"id": 274, "name": "Baryshivka", "name_ru": "Baryshivka", "tz": "Europe/Kyiv", "district": "Kyyivs’ka Oblast’"}, {"id": 275, "name": "Khrystynivka", "name_ru": "Khrystynivka", "tz": "Europe/Kyiv", "district": "Cherkas’ka Oblast’"}, {"id": 276, "name": "Ichnia", "name_ru": "Ichnia", "tz": "Europe/Kyiv", "district": "Chernihivs’ka Oblast’"}, {"id": 277, "name": "Bolekhiv", "name_ru": "Bolekhiv", "tz": "Europe/Kyiv", "district": "Ivano-Frankivs’ka Oblast’"}, {"id": 278, "name": "Lyuboml'", "name_ru": "Lyuboml’", "tz": "Europe/Kyiv", "district": "Volyns’ka Oblast’"}, {"id": 279, "name": "Olevsk", "name_ru": "Olevsk", "tz": "Europe/Kyiv", "district": "Zhytomyrs’ka Oblast’"}, {"id": 280, "name": "Ivankiv", "name_ru": "Ivankiv", "tz": "Europe/Kyiv", "district": "Kyyivs’ka Oblast’"}, {"id": 281, "name": "Krasnoilsk", "name_ru": "Krasnoilsk", "tz": "Europe/Kyiv", "district": "Chernivets’ka Oblast’"}, {"id": 282, "name": "Verkhnodniprovsk", "name_ru": "Verkhnodniprovsk", "tz": "Europe/Kyiv", "district": "Dnipropetrovs’ka Oblast’"}, {"id": 283, "name": "Letychiv", "name_ru": "Letychiv", "tz": "Europe/Kyiv", "district": "Khmel’nyts’ka Oblast’"}, {"id": 284, "name": "Korolevo", "name_ru": "Korolevo", "tz": "Europe/Kyiv", "district": "Zakarpats’ka Oblast’"}, {"id": 285, "name": "Bilenke", "name_ru": "Bilenke", "tz": "Europe/Kyiv", "district": "Donets’ka Oblast’"}, {"id": 286, "name": "Oster", "name_ru": "Oster", "tz": "Europe/Kyiv", "district": "Chernihivs’ka Oblast’"}, {"id": 287, "name": "Radyvyliv", "name_ru": "Radyvyliv", "tz": "Europe/Kyiv", "district": "Rivnens’ka Oblast’"}, {"id": 288, "name": "Tarashcha", "name_ru": "Tarashcha", "tz": "Europe/Kyiv", "district": "Kyyivs’ka Oblast’"}, {"id": 289, "name": "Sniatyn", "name_ru": "Sniatyn", "tz": "Europe/Kyiv", "district": "Ivano-Frankivs’ka Oblast’"}, {"id": 290, "name": "Shyroke", "name_ru": "Shyroke", "tz": "Europe/Kyiv", "district": "Dnipropetrovs’ka Oblast’"}, {"id": 291, "name": "Borzna", "name_ru": "Borzna", "tz": "Europe/Kyiv", "district": "Chernihivs’ka Oblast’"}, {"id": 292, "name": "Teplodar", "name_ru": "Teplodar", "tz": "Europe/Kyiv", "district": "Odes’ka Oblast’"}, {"id": 293, "name": "Shpola", "name_ru": "Shpola", "tz": "Europe/Kyiv", "district": "Cherkas’ka Oblast’"}, {"id": 294, "name": "Sofiivka", "name_ru": "Sofiivka", "tz": "Europe/Kyiv", "district": "Donets’ka Oblast’"}, {"id": 295, "name": "Dubove", "name_ru": "Dubove", "tz": "Europe/Kyiv", "district": "Zakarpats’ka Oblast’"}, {"id": 296, "name": "Ratne", "name_ru": "Ratne", "tz": "Europe/Kyiv", "district": "Volyns’ka Oblast’"}, {"id": 297, "name": "Pereshchepyne", "name_ru": "Pereshchepyne", "tz": "Europe/Kyiv", "district": "Dnipropetrovs’ka Oblast’"}, {"id": 298, "name": "Pokrovske", "name_ru": "Pokrovske", "tz": "Europe/Kyiv", "district": "Dnipropetrovs’ka Oblast’"}, {"id": 299, "name": "Zinkiv", "name_ru": "Zinkiv", "tz": "Europe/Kyiv", "district": "Poltavs’ka Oblast’"}, {"id": 300, "name": "Kobeliaky", "name_ru": "Kobeliaky", "tz": "Europe/Kyiv", "district": "Poltavs’ka Oblast’"}, {"id": 301, "name": "Berezivka", "name_ru": "Berezivka", "tz": "Europe/Kyiv", "district": "Odes’ka Oblast’"}, {"id": 302, "name": "Makariv", "name_ru": "Makariv", "tz": "Europe/Kyiv", "district": "Kyyivs’ka Oblast’"}, {"id": 303, "name": "Vesele", "name_ru": "Vesele", "tz": "Europe/Kyiv", "district": "Zaporiz’ka Oblast’"}, {"id": 304, "name": "Khodoriv", "name_ru": "Khodoriv", "tz": "Europe/Kyiv", "district": "L’vivs’ka Oblast’"}, {"id": 305, "name": "Izium", "name_ru": "Izium", "tz": "Europe/Kyiv", "district": "Kharkivs’ka Oblast’"}, {"id": 306, "name": "Bilozerka", "name_ru": "Bilozerka", "tz": "Europe/Kyiv", "district": "Khersons’ka Oblast’"}, {"id": 307, "name": "Mizhhiria", "name_ru": "Mizhhiria", "tz": "Europe/Kyiv", "district": "Zakarpats’ka Oblast’"}, {"id": 308, "name": "Velyka Dymerka", "name_ru": "Velyka Dymerka", "tz": "Europe/Kyiv", "district": "Kyyivs’ka Oblast’"}, {"id": 309, "name": "Bezliudivka", "name_ru": "Bezliudivka", "tz": "Europe/Kyiv", "district": "Kharkivs’ka Oblast’"}, {"id": 310, "name": "Pohrebyshche", "name_ru": "Pohrebyshche", "tz": "Europe/Kyiv", "district": "Vinnyts’ka Oblast’"}, {"id": 311, "name": "Dubrovytsya", "name_ru": "Dubrovytsya", "tz": "Europe/Kyiv", "district": "Rivnens’ka Oblast’"}, {"id": 312, "name": "Tysmenytsia", "name_ru": "Tysmenytsia", "tz": "Europe/Kyiv", "district": "Ivano-Frankivs’ka Oblast’"}, {"id": 313, "name": "Irshava", "name_ru": "Irshava", "tz": "Europe/Kyiv", "district": "Zakarpats’ka Oblast’"}, {"id": 314, "name": "Khotyn", "name_ru": "Khotyn", "tz": "Europe/Kyiv", "district": "Chernivets’ka Oblast’"}, {"id": 315, "name": "Velykyi Bychkiv", "name_ru": "Velykyi Bychkiv", "tz": "Europe/Kyiv", "district": "Zakarpats’ka Oblast’"}, {"id": 316, "name": "Horodenka", "name_ru": "Horodenka", "tz": "Europe/Kyiv", "district": "Ivano-Frankivs’ka Oblast’"}, {"id": 317, "name": "Valky", "name_ru": "Valky", "tz": "Europe/Kyiv", "district": "Kharkivs’ka Oblast’"}, {"id": 318, "name": "Kalanchak", "name_ru": "Kalanchak", "tz": "Europe/Kyiv", "district": "Khersons’ka Oblast’"}, {"id": 319, "name": "Obukhivka", "name_ru": "Obukhivka", "tz": "Europe/Kyiv", "district": "Dnipropetrovs’ka Oblast’"}, {"id": 320, "name": "Stryzhavka", "name_ru": "Stryzhavka", "tz": "Europe/Kyiv", "district": "Vinnyts’ka Oblast’"}, {"id": 321, "name": "Horokhiv", "name_ru": "Horokhiv", "tz": "Europe/Kyiv", "district": "Volyns’ka Oblast’"}, {"id": 322, "name": "Velyki Luchky", "name_ru": "Velyki Luchky", "tz": "Europe/Kyiv", "district": "Zakarpats’ka Oblast’"}, {"id": 323, "name": "Tiachiv", "name_ru": "Tiachiv", "tz": "Europe/Kyiv", "district": "Zakarpats’ka Oblast’"}, {"id": 324, "name": "Kozova", "name_ru": "Kozova", "tz": "Europe/Kyiv", "district": "Ternopil’s’ka Oblast’"}, {"id": 325, "name": "Uspenka", "name_ru": "Uspenka", "tz": "Europe/Kyiv", "district": "Luhans’ka Oblast’"}, {"id": 326, "name": "Pomichna", "name_ru": "Pomichna", "tz": "Europe/Kyiv", "district": "Kirovohrads’ka Oblast’"}, {"id": 327, "name": "Chop", "name_ru": "Chop", "tz": "Europe/Kyiv", "district": "Zakarpats’ka Oblast’"}, {"id": 328, "name": "Monastyryshche", "name_ru": "Monastyryshche", "tz": "Europe/Kyiv", "district": "Cherkas’ka Oblast’"}, {"id": 329, "name": "Tlumach", "name_ru": "Tlumach", "tz": "Europe/Kyiv", "district": "Ivano-Frankivs’ka Oblast’"}, {"id": 330, "name": "Ilarionove", "name_ru": "Ilarionove", "tz": "Europe/Kyiv", "district": "Dnipropetrovs’ka Oblast’"}, {"id": 331, "name": "Kryzhopil", "name_ru": "Kryzhopil", "tz": "Europe/Kyiv", "district": "Vinnyts’ka Oblast’"}, {"id": 332, "name": "Rava-Rus'ka", "name_ru": "Rava-Rus’ka", "tz": "Europe/Kyiv", "district": "L’vivs’ka Oblast’"}, {"id": 333, "name": "Solotvyno", "name_ru": "Solotvyno", "tz": "Europe/Kyiv", "district": "Zakarpats’ka Oblast’"}, {"id": 334, "name": "Chyhyryn", "name_ru": "Chyhyryn", "tz": "Europe/Kyiv", "district": "Cherkas’ka Oblast’"}, {"id": 335, "name": "Busk", "name_ru": "Busk", "tz": "Europe/Kyiv", "district": "L’vivs’ka Oblast’"}, {"id": 336, "name": "Barvynkove", "name_ru": "Barvynkove", "tz": "Europe/Kyiv", "district": "Kharkivs’ka Oblast’"}, {"id": 337, "name": "Bushtyno", "name_ru": "Bushtyno", "tz": "Europe/Kyiv", "district": "Zakarpats’ka Oblast’"}, {"id": 338, "name": "Andrushivka", "name_ru": "Andrushivka", "tz": "Europe/Kyiv", "district": "Zhytomyrs’ka Oblast’"}, {"id": 339, "name": "Yasinia", "name_ru": "Yasinia", "tz": "Europe/Kyiv", "district": "Zakarpats’ka Oblast’"}, {"id": 340, "name": "Kosiv", "name_ru": "Kosiv", "tz": "Europe/Kyiv", "district": "Ivano-Frankivs’ka Oblast’"}, {"id": 341, "name": "Yasnohirka", "name_ru": "Yasnohirka", "tz": "Europe/Kyiv", "district": "Donets’ka Oblast’"}, {"id": 342, "name": "Lypovets", "name_ru": "Lypovets", "tz": "Europe/Kyiv", "district": "Vinnyts’ka Oblast’"}, {"id": 343, "name": "Buryn", "name_ru": "Buryn", "tz": "Europe/Kyiv", "district": "Sums’ka Oblast’"}, {"id": 344, "name": "Deliatyn", "name_ru": "Deliatyn", "tz": "Europe/Kyiv", "district": "Ivano-Frankivs’ka Oblast’"}, {"id": 345, "name": "Lanivtsi", "name_ru": "Lanivtsi", "tz": "Europe/Kyiv", "district": "Ternopil’s’ka Oblast’"}, {"id": 346, "name": "Vyshkovo", "name_ru": "Vyshkovo", "tz": "Europe/Kyiv", "district": "Zakarpats’ka Oblast’"}, {"id": 347, "name": "Mala Danylivka", "name_ru": "Mala Danylivka", "tz": "Europe/Kyiv", "district": "Kharkivs’ka Oblast’"}, {"id": 348, "name": "Bohorodchany", "name_ru": "Bohorodchany", "tz": "Europe/Kyiv", "district": "Ivano-Frankivs’ka Oblast’"}, {"id": 349, "name": "Zavodske", "name_ru": "Zavodske", "tz": "Europe/Kyiv", "district": "Poltavs’ka Oblast’"}, {"id": 350, "name": "Novi Sanzhary", "name_ru": "Novi Sanzhary", "tz": "Europe/Kyiv", "district": "Poltavs’ka Oblast’"}, {"id": 351, "name": "Kvasyliv", "name_ru": "Kvasyliv", "tz": "Europe/Kyiv", "district": "Rivnens’ka Oblast’"}, {"id": 352, "name": "Lysianka", "name_ru": "Lysianka", "tz": "Europe/Kyiv", "district": "Cherkas’ka Oblast’"}, {"id": 353, "name": "Krasnopillya", "name_ru": "Krasnopillya", "tz": "Europe/Kyiv", "district": "Sums’ka Oblast’"}, {"id": 354, "name": "Tarutyne", "name_ru": "Tarutyne", "tz": "Europe/Kyiv", "district": "Odes’ka Oblast’"}, {"id": 355, "name": "Manhush", "name_ru": "Manhush", "tz": "Europe/Kyiv", "district": "Donets’ka Oblast’"}, {"id": 356, "name": "Yaremche", "name_ru": "Yaremche", "tz": "Europe/Kyiv", "district": "Ivano-Frankivs’ka Oblast’"}, {"id": 357, "name": "Ananiv", "name_ru": "Ananiv", "tz": "Europe/Kyiv", "district": "Odes’ka Oblast’"}, {"id": 358, "name": "Kushuhum", "name_ru": "Kushuhum", "tz": "Europe/Kyiv", "district": "Zaporiz’ka Oblast’"}, {"id": 359, "name": "Semenivka", "name_ru": "Semenivka", "tz": "Europe/Kyiv", "district": "Chernihivs’ka Oblast’"}, {"id": 360, "name": "Pidvolochysk", "name_ru": "Pidvolochysk", "tz": "Europe/Kyiv", "district": "Ternopil’s’ka Oblast’"}, {"id": 361, "name": "Lanchyn", "name_ru": "Lanchyn", "tz": "Europe/Kyiv", "district": "Ivano-Frankivs’ka Oblast’"}, {"id": 362, "name": "Kozelets", "name_ru": "Kozelets", "tz": "Europe/Kyiv", "district": "Chernihivs’ka Oblast’"}, {"id": 363, "name": "Pivdenne", "name_ru": "Pivdenne", "tz": "Europe/Kyiv", "district": "Kharkivs’ka Oblast’"}, {"id": 364, "name": "Vylkove", "name_ru": "Vylkove", "tz": "Europe/Kyiv", "district": "Odes’ka Oblast’"}, {"id": 365, "name": "Rohatyn", "name_ru": "Rohatyn", "tz": "Europe/Kyiv", "district": "Ivano-Frankivs’ka Oblast’"}, {"id": 366, "name": "Nemishayeve", "name_ru": "Nemishayeve", "tz": "Europe/Kyiv", "district": "Kyyivs’ka Oblast’"}, {"id": 367, "name": "Vorzel", "name_ru": "Vorzel", "tz": "Europe/Kyiv", "district": "Kyyivs’ka Oblast’"}, {"id": 368, "name": "Kryve Ozero", "name_ru": "Kryve Ozero", "tz": "Europe/Kyiv", "district": "Mykolayivs’ka Oblast’"}, {"id": 369, "name": "Khoroshiv", "name_ru": "Khoroshiv", "tz": "Europe/Kyiv", "district": "Zhytomyrs’ka Oblast’"}, {"id": 370, "name": "Trostianets", "name_ru": "Trostianets", "tz": "Europe/Kyiv", "district": "Vinnyts’ka Oblast’"}, {"id": 371, "name": "Novoselytsia", "name_ru": "Novoselytsia", "tz": "Europe/Kyiv", "district": "Chernivets’ka Oblast’"}, {"id": 372, "name": "Dykanka", "name_ru": "Dykanka", "tz": "Europe/Kyiv", "district": "Poltavs’ka Oblast’"}, {"id": 373, "name": "Teresva", "name_ru": "Teresva", "tz": "Europe/Kyiv", "district": "Zakarpats’ka Oblast’"}, {"id": 374, "name": "Vapniarka", "name_ru": "Vapniarka", "tz": "Europe/Kyiv", "district": "Vinnyts’ka Oblast’"}, {"id": 375, "name": "Solone", "name_ru": "Solone", "tz": "Europe/Kyiv", "district": "Dnipropetrovs’ka Oblast’"}, {"id": 376, "name": "Velykyy Bereznyy", "name_ru": "Velykyy Bereznyy", "tz": "Europe/Kyiv", "district": "Zakarpats’ka Oblast’"}, {"id": 377, "name": "Bereznehuvate", "name_ru": "Bereznehuvate", "tz": "Europe/Kyiv", "district": "Mykolayivs’ka Oblast’"}, {"id": 378, "name": "Krasnokutsk", "name_ru": "Krasnokutsk", "tz": "Europe/Kyiv", "district": "Kharkivs’ka Oblast’"}, {"id": 379, "name": "Romaniv", "name_ru": "Romaniv", "tz": "Europe/Kyiv", "district": "Zhytomyrs’ka Oblast’"}, {"id": 380, "name": "Tsarychanka", "name_ru": "Tsarychanka", "tz": "Europe/Kyiv", "district": "Dnipropetrovs’ka Oblast’"}, {"id": 381, "name": "Mezhova", "name_ru": "Mezhova", "tz": "Europe/Kyiv", "district": "Dnipropetrovs’ka Oblast’"}, {"id": 382, "name": "Rzhyshchiv", "name_ru": "Rzhyshchiv", "tz": "Europe/Kyiv", "district": "Kyyivs’ka Oblast’"}, {"id": 383, "name": "Borova", "name_ru": "Borova", "tz": "Europe/Kyiv", "district": "Kyyivs’ka Oblast’"}, {"id": 384, "name": "Rudno", "name_ru": "Rudno", "tz": "Europe/Kyiv", "district": "L’vivs’ka Oblast’"}, {"id": 385, "name": "Lymanske", "name_ru": "Lymanske", "tz": "Europe/Kyiv", "district": "Odes’ka Oblast’"}, {"id": 386, "name": "Shyriaieve", "name_ru": "Shyriaieve", "tz": "Europe/Kyiv", "district": "Odes’ka Oblast’"}, {"id": 387, "name": "Poninka", "name_ru": "Poninka", "tz": "Europe/Kyiv", "district": "Khmel’nyts’ka Oblast’"}, {"id": 388, "name": "Ripky", "name_ru": "Ripky", "tz": "Europe/Kyiv", "district": "Chernihivs’ka Oblast’"}, {"id": 389, "name": "Sharhorod", "name_ru": "Sharhorod", "tz": "Europe/Kyiv", "district": "Vinnyts’ka Oblast’"}, {"id": 390, "name": "Petropavlivka", "name_ru": "Petropavlivka", "tz": "Europe/Kyiv", "district": "Dnipropetrovs’ka Oblast’"}, {"id": 391, "name": "Molochansk", "name_ru": "Molochansk", "tz": "Europe/Kyiv", "district": "Zaporiz’ka Oblast’"}, {"id": 392, "name": "Piskivka", "name_ru": "Piskivka", "tz": "Europe/Kyiv", "district": "Kyyivs’ka Oblast’"}, {"id": 393, "name": "Sakhnovshchyna", "name_ru": "Sakhnovshchyna", "tz": "Europe/Kyiv", "district": "Kharkivs’ka Oblast’"}, {"id": 394, "name": "Turka", "name_ru": "Turka", "tz": "Europe/Kyiv", "district": "L’vivs’ka Oblast’"}, {"id": 395, "name": "Vorozhba", "name_ru": "Vorozhba", "tz": "Europe/Kyiv", "district": "Sums’ka Oblast’"}, {"id": 396, "name": "Sosnytsia", "name_ru": "Sosnytsia", "tz": "Europe/Kyiv", "district": "Chernihivs’ka Oblast’"}, {"id": 397, "name": "Pryvillya", "name_ru": "Pryvillya", "tz": "Europe/Kyiv", "district": "Luhans’ka Oblast’"}, {"id": 398, "name": "Kazanka", "name_ru": "Kazanka", "tz": "Europe/Kyiv", "district": "Mykolayivs’ka Oblast’"}, {"id": 399, "name": "Tomakivka", "name_ru": "Tomakivka", "tz": "Europe/Kyiv", "district": "Dnipropetrovs’ka Oblast’"}, {"id": 400, "name": "Shevchenkove", "name_ru": "Shevchenkove", "tz": "Europe/Kyiv", "district": "Kharkivs’ka Oblast’"}, {"id": 401, "name": "Vilshany", "name_ru": "Vilshany", "tz": "Europe/Kyiv", "district": "Kharkivs’ka Oblast’"}, {"id": 402, "name": "Chynadiyovo", "name_ru": "Chynadiyovo", "tz": "Europe/Kyiv", "district": "Zakarpats’ka Oblast’"}, {"id": 403, "name": "Dobroslav", "name_ru": "Dobroslav", "tz": "Europe/Kyiv", "district": "Odes’ka Oblast’"}, {"id": 404, "name": "Nova Maiachka", "name_ru": "Nova Maiachka", "tz": "Europe/Kyiv", "district": "Khersons’ka Oblast’"}, {"id": 405, "name": "Bilmak", "name_ru": "Bilmak", "tz": "Europe/Kyiv", "district": "Zaporiz’ka Oblast’"}, {"id": 406, "name": "Hornostaivka", "name_ru": "Hornostaivka", "tz": "Europe/Kyiv", "district": "Khersons’ka Oblast’"}, {"id": 407, "name": "Oleksandrivsk", "name_ru": "Oleksandrivsk", "tz": "Europe/Kyiv", "district": "Luhans’ka Oblast’"}, {"id": 408, "name": "Sofiivka", "name_ru": "Sofiivka", "tz": "Europe/Kyiv", "district": "Dnipropetrovs’ka Oblast’"}, {"id": 409, "name": "Irshansk", "name_ru": "Irshansk", "tz": "Europe/Kyiv", "district": "Zhytomyrs’ka Oblast’"}, {"id": 410, "name": "Perechyn", "name_ru": "Perechyn", "tz": "Europe/Kyiv", "district": "Zakarpats’ka Oblast’"}, {"id": 411, "name": "Lityn", "name_ru": "Lityn", "tz": "Europe/Kyiv", "district": "Vinnyts’ka Oblast’"}, {"id": 412, "name": "Staryi Sambir", "name_ru": "Staryi Sambir", "tz": "Europe/Kyiv", "district": "L’vivs’ka Oblast’"}, {"id": 413, "name": "Svesa", "name_ru": "Svesa", "tz": "Europe/Kyiv", "district": "Sums’ka Oblast’"}, {"id": 414, "name": "Voronovytsia", "name_ru": "Voronovytsia", "tz": "Europe/Kyiv", "district": "Vinnyts’ka Oblast’"}, {"id": 415, "name": "Yemilchyne", "name_ru": "Yemilchyne", "tz": "Europe/Kyiv", "district": "Zhytomyrs’ka Oblast’"}, {"id": 416, "name": "Nova Praha", "name_ru": "Nova Praha", "tz": "Europe/Kyiv", "district": "Kirovohrads’ka Oblast’"}, {"id": 417, "name": "Sudova Vyshnya", "name_ru": "Sudova Vyshnya", "tz": "Europe/Kyiv", "district": "L’vivs’ka Oblast’"}, {"id": 418, "name": "Ivanychi", "name_ru": "Ivanychi", "tz": "Europe/Kyiv", "district": "Volyns’ka Oblast’"}, {"id": 419, "name": "Pryazovske", "name_ru": "Pryazovske", "tz": "Europe/Kyiv", "district": "Zaporiz’ka Oblast’"}, {"id": 420, "name": "Tsuman", "name_ru": "Tsuman", "tz": "Europe/Kyiv", "district": "Volyns’ka Oblast’"}, {"id": 421, "name": "Slatyne", "name_ru": "Slatyne", "tz": "Europe/Kyiv", "district": "Kharkivs’ka Oblast’"}, {"id": 422, "name": "Bilokurakyne", "name_ru": "Bilokurakyne", "tz": "Europe/Kyiv", "district": "Luhans’ka Oblast’"}, {"id": 423, "name": "Dobrotvir", "name_ru": "Dobrotvir", "tz": "Europe/Kyiv", "district": "L’vivs’ka Oblast’"}, {"id": 424, "name": "Drabiv", "name_ru": "Drabiv", "tz": "Europe/Kyiv", "district": "Cherkas’ka Oblast’"}, {"id": 425, "name": "Halych", "name_ru": "Halych", "tz": "Europe/Kyiv", "district": "Ivano-Frankivs’ka Oblast’"}, {"id": 426, "name": "Chervonohryhorivka", "name_ru": "Chervonohryhorivka", "tz": "Europe/Kyiv", "district": "Dnipropetrovs’ka Oblast’"}, {"id": 427, "name": "Stavyshche", "name_ru": "Stavyshche", "tz": "Europe/Kyiv", "district": "Kyyivs’ka Oblast’"}, {"id": 428, "name": "Petropavlivs'ka Borshchahivka", "name_ru": "Petropavlivs’ka Borshchahivka", "tz": "Europe/Kyiv", "district": "Kyyivs’ka Oblast’"}, {"id": 429, "name": "Vinkivtsi", "name_ru": "Vinkivtsi", "tz": "Europe/Kyiv", "district": "Khmel’nyts’ka Oblast’"}, {"id": 430, "name": "Turbiv", "name_ru": "Turbiv", "tz": "Europe/Kyiv", "district": "Vinnyts’ka Oblast’"}, {"id": 431, "name": "Velyki Mosty", "name_ru": "Velyki Mosty", "tz": "Europe/Kyiv", "district": "L’vivs’ka Oblast’"}, {"id": 432, "name": "Mahdalynivka", "name_ru": "Mahdalynivka", "tz": "Europe/Kyiv", "district": "Dnipropetrovs’ka Oblast’"}, {"id": 433, "name": "Teplyk", "name_ru": "Teplyk", "tz": "Europe/Kyiv", "district": "Vinnyts’ka Oblast’"}, {"id": 434, "name": "Arbuzynka", "name_ru": "Arbuzynka", "tz": "Europe/Kyiv", "district": "Mykolayivs’ka Oblast’"}, {"id": 435, "name": "Blahovishchenske", "name_ru": "Blahovishchenske", "tz": "Europe/Kyiv", "district": "Kirovohrads’ka Oblast’"}, {"id": 436, "name": "Hvardiys'ke", "name_ru": "Hvardiys’ke", "tz": "Europe/Kyiv", "district": "Dnipropetrovs’ka Oblast’"}, {"id": 437, "name": "Balabyne", "name_ru": "Balabyne", "tz": "Europe/Kyiv", "district": "Zaporiz’ka Oblast’"}, {"id": 438, "name": "Kehychivka", "name_ru": "Kehychivka", "tz": "Europe/Kyiv", "district": "Kharkivs’ka Oblast’"}, {"id": 439, "name": "Sutysky", "name_ru": "Sutysky", "tz": "Europe/Kyiv", "district": "Vinnyts’ka Oblast’"}, {"id": 440, "name": "Volodarka", "name_ru": "Volodarka", "tz": "Europe/Kyiv", "district": "Kyyivs’ka Oblast’"}, {"id": 441, "name": "Morshyn", "name_ru": "Morshyn", "tz": "Europe/Kyiv", "district": "L’vivs’ka Oblast’"}, {"id": 442, "name": "Murovani Kurylivtsi", "name_ru": "Murovani Kurylivtsi", "tz": "Europe/Kyiv", "district": "Vinnyts’ka Oblast’"}, {"id": 443, "name": "Ozerne", "name_ru": "Ozerne", "tz": "Europe/Kyiv", "district": "Zhytomyrs’ka Oblast’"}, {"id": 444, "name": "Bryukhovychi", "name_ru": "Bryukhovychi", "tz": "Europe/Kyiv", "district": "L’vivs’ka Oblast’"}, {"id": 445, "name": "Chornukhyne", "name_ru": "Chornukhyne", "tz": "Europe/Kyiv", "district": "Luhans’ka Oblast’"}, {"id": 446, "name": "Verkhovyna", "name_ru": "Verkhovyna", "tz": "Europe/Kyiv", "district": "Ivano-Frankivs’ka Oblast’"}, {"id": 447, "name": "Chernihivka", "name_ru": "Chernihivka", "tz": "Europe/Kyiv", "district": "Zaporiz’ka Oblast’"}, {"id": 448, "name": "Veselynove", "name_ru": "Veselynove", "tz": "Europe/Kyiv", "district": "Mykolayivs’ka Oblast’"}, {"id": 449, "name": "Hrebinky", "name_ru": "Hrebinky", "tz": "Europe/Kyiv", "district": "Kyyivs’ka Oblast’"}, {"id": 450, "name": "Lyubeshiv", "name_ru": "Lyubeshiv", "tz": "Europe/Kyiv", "district": "Volyns’ka Oblast’"}, {"id": 451, "name": "Dobrovelychkivka", "name_ru": "Dobrovelychkivka", "tz": "Europe/Kyiv", "district": "Kirovohrads’ka Oblast’"}, {"id": 452, "name": "Popilnia", "name_ru": "Popilnia", "tz": "Europe/Kyiv", "district": "Zhytomyrs’ka Oblast’"}, {"id": 453, "name": "Turiys'k", "name_ru": "Turiys’k", "tz": "Europe/Kyiv", "district": "Volyns’ka Oblast’"}, {"id": 454, "name": "Velyka Novosilka", "name_ru": "Velyka Novosilka", "tz": "Europe/Kyiv", "district": "Donets’ka Oblast’"}, {"id": 455, "name": "Dniprovske", "name_ru": "Dniprovske", "tz": "Europe/Kyiv", "district": "Dnipropetrovs’ka Oblast’"}, {"id": 456, "name": "Oleksandriiske", "name_ru": "Oleksandriiske", "tz": "Europe/Kyiv", "district": "Kirovohrads’ka Oblast’"}, {"id": 457, "name": "Novhorodka", "name_ru": "Novhorodka", "tz": "Europe/Kyiv", "district": "Kirovohrads’ka Oblast’"}, {"id": 458, "name": "Dymer", "name_ru": "Dymer", "tz": "Europe/Kyiv", "district": "Kyyivs’ka Oblast’"}, {"id": 459, "name": "Chudniv", "name_ru": "Chudniv", "tz": "Europe/Kyiv", "district": "Zhytomyrs’ka Oblast’"}, {"id": 460, "name": "Broshniv-Osada", "name_ru": "Broshniv-Osada", "tz": "Europe/Kyiv", "district": "Ivano-Frankivs’ka Oblast’"}, {"id": 461, "name": "Savyntsi", "name_ru": "Savyntsi", "tz": "Europe/Kyiv", "district": "Kharkivs’ka Oblast’"}, {"id": 462, "name": "Tomashpil", "name_ru": "Tomashpil", "tz": "Europe/Kyiv", "district": "Vinnyts’ka Oblast’"}, {"id": 463, "name": "Korop", "name_ru": "Korop", "tz": "Europe/Kyiv", "district": "Chernihivs’ka Oblast’"}, {"id": 464, "name": "Nova Borova", "name_ru": "Nova Borova", "tz": "Europe/Kyiv", "district": "Zhytomyrs’ka Oblast’"}, {"id": 465, "name": "Hubynykha", "name_ru": "Hubynykha", "tz": "Europe/Kyiv", "district": "Dnipropetrovs’ka Oblast’"}, {"id": 466, "name": "Katerynopil", "name_ru": "Katerynopil", "tz": "Europe/Kyiv", "district": "Cherkas’ka Oblast’"}, {"id": 467, "name": "Otyniia", "name_ru": "Otyniia", "tz": "Europe/Kyiv", "district": "Ivano-Frankivs’ka Oblast’"}, {"id": 468, "name": "Nedryhayliv", "name_ru": "Nedryhayliv", "tz": "Europe/Kyiv", "district": "Sums’ka Oblast’"}, {"id": 469, "name": "Stara Syniava", "name_ru": "Stara Syniava", "tz": "Europe/Kyiv", "district": "Khmel’nyts’ka Oblast’"}, {"id": 470, "name": "Stepanivka", "name_ru": "Stepanivka", "tz": "Europe/Kyiv", "district": "Sums’ka Oblast’"}, {"id": 471, "name": "Pulyny", "name_ru": "Pulyny", "tz": "Europe/Kyiv", "district": "Zhytomyrs’ka Oblast’"}, {"id": 472, "name": "Pechenizhyn", "name_ru": "Pechenizhyn", "tz": "Europe/Kyiv", "district": "Ivano-Frankivs’ka Oblast’"}, {"id": 473, "name": "Hoshcha", "name_ru": "Hoshcha", "tz": "Europe/Kyiv", "district": "Rivnens’ka Oblast’"}, {"id": 474, "name": "Pishchanka", "name_ru": "Pishchanka", "tz": "Europe/Kyiv", "district": "Vinnyts’ka Oblast’"}, {"id": 475, "name": "Shatsk", "name_ru": "Shatsk", "tz": "Europe/Kyiv", "district": "Volyns’ka Oblast’"}, {"id": 476, "name": "Bratske", "name_ru": "Bratske", "tz": "Europe/Kyiv", "district": "Mykolayivs’ka Oblast’"}, {"id": 477, "name": "Opishnya", "name_ru": "Opishnya", "tz": "Europe/Kyiv", "district": "Poltavs’ka Oblast’"}, {"id": 478, "name": "Komyshuvakha", "name_ru": "Komyshuvakha", "tz": "Europe/Kyiv", "district": "Zaporiz’ka Oblast’"}, {"id": 479, "name": "Pechenihy", "name_ru": "Pechenihy", "tz": "Europe/Kyiv", "district": "Kharkivs’ka Oblast’"}, {"id": 480, "name": "Novohuivynske", "name_ru": "Novohuivynske", "tz": "Europe/Kyiv", "district": "Zhytomyrs’ka Oblast’"}, {"id": 481, "name": "Horodnytsia", "name_ru": "Horodnytsia", "tz": "Europe/Kyiv", "district": "Zhytomyrs’ka Oblast’"}, {"id": 482, "name": "Kupiansk", "name_ru": "Kupiansk", "tz": "Europe/Kyiv", "district": "Kharkivs’ka Oblast’"}, {"id": 483, "name": "Bratslav", "name_ru": "Bratslav", "tz": "Europe/Kyiv", "district": "Vinnyts’ka Oblast’"}, {"id": 484, "name": "Stara Vyzhivka", "name_ru": "Stara Vyzhivka", "tz": "Europe/Kyiv", "district": "Volyns’ka Oblast’"}, {"id": 485, "name": "Novomykolayivka", "name_ru": "Novomykolayivka", "tz": "Europe/Kyiv", "district": "Zaporiz’ka Oblast’"}, {"id": 486, "name": "Chemerivtsi", "name_ru": "Chemerivtsi", "tz": "Europe/Kyiv", "district": "Khmel’nyts’ka Oblast’"}, {"id": 487, "name": "Kalynivka", "name_ru": "Kalynivka", "tz": "Europe/Kyiv", "district": "Kyyivs’ka Oblast’"}, {"id": 488, "name": "Volovets", "name_ru": "Volovets", "tz": "Europe/Kyiv", "district": "Zakarpats’ka Oblast’"}, {"id": 489, "name": "Kyrnasivka", "name_ru": "Kyrnasivka", "tz": "Europe/Kyiv", "district": "Vinnyts’ka Oblast’"}, {"id": 490, "name": "Klavdiyevo-Tarasove", "name_ru": "Klavdiyevo-Tarasove", "tz": "Europe/Kyiv", "district": "Kyyivs’ka Oblast’"}, {"id": 491, "name": "Kolochava", "name_ru": "Kolochava", "tz": "Europe/Kyiv", "district": "Zakarpats’ka Oblast’"}, {"id": 492, "name": "Bohdanivka", "name_ru": "Bohdanivka", "tz": "Europe/Kyiv", "district": "Dnipropetrovs’ka Oblast’"}, {"id": 493, "name": "Z.hurivka", "name_ru": "Z·hurivka", "tz": "Europe/Kyiv", "district": "Kyyivs’ka Oblast’"}, {"id": 494, "name": "Chechelnyk", "name_ru": "Chechelnyk", "tz": "Europe/Kyiv", "district": "Vinnyts’ka Oblast’"}, {"id": 495, "name": "Syurte", "name_ru": "Syurte", "tz": "Europe/Kyiv", "district": "Zakarpats’ka Oblast’"}, {"id": 496, "name": "Nerubaiske", "name_ru": "Nerubaiske", "tz": "Europe/Kyiv", "district": "Odes’ka Oblast’"}, {"id": 497, "name": "Ivanivka", "name_ru": "Ivanivka", "tz": "Europe/Kyiv", "district": "Luhans’ka Oblast’"}, {"id": 498, "name": "Velykyi Dalnyk", "name_ru": "Velykyi Dalnyk", "tz": "Europe/Kyiv", "district": "Odes’ka Oblast’"}, {"id": 499, "name": "Dovhe", "name_ru": "Dovhe", "tz": "Europe/Kyiv", "district": "Zakarpats’ka Oblast’"}, {"id": 500, "name": "Velyki Komiaty", "name_ru": "Velyki Komiaty", "tz": "Europe/Kyiv", "district": "Zakarpats’ka Oblast’"}, {"id": 501, "name": "Rozsoshentsi", "name_ru": "Rozsoshentsi", "tz": "Europe/Kyiv", "district": "Poltavs’ka Oblast’"}, {"id": 502, "name": "Lozuvatka", "name_ru": "Lozuvatka", "tz": "Europe/Kyiv", "district": "Dnipropetrovs’ka Oblast’"}, {"id": 503, "name": "Kubei", "name_ru": "Kubei", "tz": "Europe/Kyiv", "district": "Odes’ka Oblast’"}, {"id": 504, "name": "Bile", "name_ru": "Bile", "tz": "Europe/Kyiv", "district": "Luhans’ka Oblast’"}, {"id": 505, "name": "Fontanka", "name_ru": "Fontanka", "tz": "Europe/Kyiv", "district": "Odes’ka Oblast’"}, {"id": 506, "name": "Kushnytsia", "name_ru": "Kushnytsia", "tz": "Europe/Kyiv", "district": "Zakarpats’ka Oblast’"}, {"id": 507, "name": "Sokilnyky", "name_ru": "Sokilnyky", "tz": "Europe/Kyiv", "district": "L’vivs’ka Oblast’"}, {"id": 508, "name": "Horonda", "name_ru": "Horonda", "tz": "Europe/Kyiv", "district": "Zakarpats’ka Oblast’"}, {"id": 509, "name": "Zoria", "name_ru": "Zoria", "tz": "Europe/Kyiv", "district": "Odes’ka Oblast’"}, {"id": 510, "name": "Horenka", "name_ru": "Horenka", "tz": "Europe/Kyiv", "district": "Kyyivs’ka Oblast’"}, {"id": 511, "name": "Rivne", "name_ru": "Rivne", "tz": "Europe/Kyiv", "district": "Kirovohrads’ka Oblast’"}, {"id": 512, "name": "Mykolayivka", "name_ru": "Mykolayivka", "tz": "Europe/Kyiv", "district": "Dnipropetrovs’ka Oblast’"}, {"id": 513, "name": "Yalta", "name_ru": "Yalta", "tz": "Europe/Kyiv", "district": "Donets’ka Oblast’"}]