[{"id": 1, "name": "Kampala", "name_ru": "Kampala", "tz": "", "district": "Kampala"}, {"id": 2, "name": "Mbale", "name_ru": "Mbale", "tz": "", "district": "Mbale"}, {"id": 3, "name": "Arua", "name_ru": "Arua", "tz": "", "district": "Arua"}, {"id": 4, "name": "Tororo", "name_ru": "Tororo", "tz": "", "district": "Tororo"}, {"id": 5, "name": "Gulu", "name_ru": "Gulu", "tz": "", "district": "Gulu"}, {"id": 6, "name": "Lira", "name_ru": "Lira", "tz": "", "district": "Lira"}, {"id": 7, "name": "Mbarara", "name_ru": "Mbarara", "tz": "", "district": "Mbarara"}, {"id": 8, "name": "Jinja", "name_ru": "Jinja", "tz": "", "district": "Jinja"}, {"id": 9, "name": "Kasese", "name_ru": "Kasese", "tz": "", "district": "Kasese"}, {"id": 10, "name": "Masaka", "name_ru": "Masaka", "tz": "", "district": "Masaka"}, {"id": 11, "name": "Kitgum", "name_ru": "Kitgum", "tz": "", "district": "Kitgum"}, {"id": 12, "name": "Busia", "name_ru": "Busia", "tz": "", "district": "Busia"}, {"id": 13, "name": "Iganga", "name_ru": "Iganga", "tz": "", "district": "Iganga"}, {"id": 14, "name": "Kabale", "name_ru": "Kabale", "tz": "", "district": "Kabale"}, {"id": 15, "name": "Fort Portal", "name_ru": "Fort Portal", "tz": "", "district": "Kabarole"}, {"id": 16, "name": "Mityana", "name_ru": "Mityana", "tz": "", "district": "Mityana"}, {"id": 17, "name": "Adjumani", "name_ru": "Adjumani", "tz": "", "district": "Adjumani"}, {"id": 18, "name": "Masindi", "name_ru": "Masindi", "tz": "", "district": "Masindi"}, {"id": 19, "name": "Pallisa", "name_ru": "Pallisa", "tz": "", "district": "Pallisa"}, {"id": 20, "name": "Nebbi", "name_ru": "Nebbi", "tz": "", "district": "Nebbi"}, {"id": 21, "name": "Moyo", "name_ru": "Moyo", "tz": "", "district": "Moyo"}, {"id": 22, "name": "Kayunga", "name_ru": "Kayunga", "tz": "", "district": "Kayunga"}, {"id": 23, "name": "Mubende", "name_ru": "Mubende", "tz": "", "district": "Mubende"}, {"id": 24, "name": "Pakwach", "name_ru": "Pakwach", "tz": "", "district": "Nwoya"}, {"id": 25, "name": "Kamuli", "name_ru": "Kamuli", "tz": "", "district": "Kamuli"}, {"id": 26, "name": "Ntungamo", "name_ru": "Ntungamo", "tz": "", "district": "Ntungamo"}, {"id": 27, "name": "Kiboga", "name_ru": "Kiboga", "tz": "", "district": "Kiboga"}, {"id": 28, "name": "Sironko", "name_ru": "Sironko", "tz": "", "district": "Sironko"}, {"id": 29, "name": "Kisoro", "name_ru": "Kisoro", "tz": "", "district": "Kisoro"}, {"id": 30, "name": "Kumi", "name_ru": "Kumi", "tz": "", "district": "Kumi"}, {"id": 31, "name": "Mpigi", "name_ru": "Mpigi", "tz": "", "district": "Mpigi"}, {"id": 32, "name": "Katakwi", "name_ru": "Katakwi", "tz": "", "district": "Katakwi"}, {"id": 33, "name": "Nakasongola", "name_ru": "Nakasongola", "tz": "", "district": "Nakasongola"}, {"id": 34, "name": "Koboko", "name_ru": "Koboko", "tz": "", "district": "Koboko"}, {"id": 35, "name": "Kalangala", "name_ru": "Kalangala", "tz": "", "district": "Kalangala"}, {"id": 36, "name": "Soroti", "name_ru": "Soroti", "tz": "", "district": "Soroti"}, {"id": 37, "name": "Kaberamaido", "name_ru": "Kaberamaido", "tz": "", "district": "Kaberamaido"}, {"id": 38, "name": "Bugiri", "name_ru": "Bugiri", "tz": "", "district": "Bugiri"}, {"id": 39, "name": "Moroto", "name_ru": "Moroto", "tz": "", "district": "Moroto"}, {"id": 40, "name": "Hoima", "name_ru": "Hoima", "tz": "", "district": "Hoima"}, {"id": 41, "name": "Wakiso", "name_ru": "Wakiso", "tz": "", "district": "Wakiso"}, {"id": 42, "name": "Kapchorwa", "name_ru": "Kapchorwa", "tz": "", "district": "Kapchorwa"}, {"id": 43, "name": "Bundibugyo", "name_ru": "Bundibugyo", "tz": "", "district": "Bundibugyo"}, {"id": 44, "name": "Yumbe", "name_ru": "Yumbe", "tz": "", "district": "Yumbe"}, {"id": 45, "name": "Mukono", "name_ru": "Mukono", "tz": "", "district": "Mukono"}, {"id": 46, "name": "Kaabong", "name_ru": "Kaabong", "tz": "", "district": "Kaabong"}, {"id": 47, "name": "Lyantonde", "name_ru": "Lyantonde", "tz": "", "district": "Lyantonde"}, {"id": 48, "name": "Bududa", "name_ru": "Bududa", "tz": "", "district": "Bududa"}, {"id": 49, "name": "Manafwa", "name_ru": "Manafwa", "tz": "", "district": "Manafwa"}, {"id": 50, "name": "Luwero", "name_ru": "Luwero", "tz": "", "district": "Luwero"}, {"id": 51, "name": "Mayuge", "name_ru": "Mayuge", "tz": "", "district": "Mayuge"}, {"id": 52, "name": "Namutumba", "name_ru": "Namutumba", "tz": "", "district": "Namutumba"}, {"id": 53, "name": "Kaliro", "name_ru": "Kaliro", "tz": "", "district": "Kaliro"}, {"id": 54, "name": "Amudat", "name_ru": "Amudat", "tz": "", "district": "Amudat"}, {"id": 55, "name": "Bukwo", "name_ru": "Bukwo", "tz": "", "district": "Bukwa"}, {"id": 56, "name": "Kibiito", "name_ru": "Kibiito", "tz": "", "district": "Kabarole"}, {"id": 57, "name": "Kibuku", "name_ru": "Kibuku", "tz": "", "district": "Kibuku"}, {"id": 58, "name": "Maracha", "name_ru": "Maracha", "tz": "", "district": "Maracha"}, {"id": 59, "name": "Buikwe", "name_ru": "Buikwe", "tz": "", "district": "Buikwe"}, {"id": 60, "name": "Kagadi", "name_ru": "Kagadi", "tz": "", "district": "Kibaale"}, {"id": 61, "name": "Binyin", "name_ru": "Binyin", "tz": "", "district": "Kween"}, {"id": 62, "name": "Bulambuli", "name_ru": "Bulambuli", "tz": "", "district": "Bulambuli"}, {"id": 63, "name": "Namayingo", "name_ru": "Namayingo", "tz": "", "district": "Namayingo"}, {"id": 64, "name": "Apac", "name_ru": "Apac", "tz": "", "district": "Apac"}, {"id": 65, "name": "Butebo", "name_ru": "Butebo", "tz": "", "district": "Pallisa"}, {"id": 66, "name": "Kiryandongo", "name_ru": "Kiryandongo", "tz": "", "district": "Kiryandongo"}, {"id": 67, "name": "Busesa", "name_ru": "Busesa", "tz": "", "district": "Iganga"}, {"id": 68, "name": "Butaleja", "name_ru": "Butaleja", "tz": "", "district": "Butaleja"}, {"id": 69, "name": "Bukomansimbi", "name_ru": "Bukomansimbi", "tz": "", "district": "Bukomansimbi"}, {"id": 70, "name": "Luuka Town", "name_ru": "Luuka Town", "tz": "", "district": "Luuka"}, {"id": 71, "name": "Serere", "name_ru": "Serere", "tz": "", "district": "Serere"}, {"id": 72, "name": "Zombo", "name_ru": "Zombo", "tz": "", "district": "Zombo"}, {"id": 73, "name": "Nsiika", "name_ru": "Nsiika", "tz": "", "district": "Buhweju"}, {"id": 74, "name": "Rubanda", "name_ru": "Rubanda", "tz": "", "district": "Kabale"}, {"id": 75, "name": "Ntara", "name_ru": "Ntara", "tz": "", "district": "Kamwenge"}, {"id": 76, "name": "Kalungu", "name_ru": "Kalungu", "tz": "", "district": "Kalungu"}, {"id": 77, "name": "Rukungiri", "name_ru": "Rukungiri", "tz": "", "district": "Rukungiri"}, {"id": 78, "name": "Bushenyi", "name_ru": "Bushenyi", "tz": "", "district": "Buhweju"}, {"id": 79, "name": "Gombe", "name_ru": "Gombe", "tz": "", "district": "Butambala"}, {"id": 80, "name": "Kanungu", "name_ru": "Kanungu", "tz": "", "district": "Kanungu"}, {"id": 81, "name": "Bupoto", "name_ru": "Bupoto", "tz": "", "district": "Manafwa"}, {"id": 82, "name": "Rubirizi", "name_ru": "Rubirizi", "tz": "", "district": "Rubirizi"}, {"id": 83, "name": "Kyenjojo", "name_ru": "Kyenjojo", "tz": "", "district": "Kyenjojo"}, {"id": 84, "name": "Kyegegwa", "name_ru": "Kyegegwa", "tz": "", "district": "Kyegegwa"}, {"id": 85, "name": "Kole", "name_ru": "Kole", "tz": "", "district": "Kole"}, {"id": 86, "name": "Ibanda", "name_ru": "Ibanda", "tz": "", "district": "Ibanda"}, {"id": 87, "name": "Bulisa", "name_ru": "Bulisa", "tz": "", "district": "Buliisa"}, {"id": 88, "name": "Mparo", "name_ru": "Mparo", "tz": "", "district": "Kabale"}, {"id": 89, "name": "Mitoma", "name_ru": "Mitoma", "tz": "", "district": "Mitooma"}, {"id": 90, "name": "Bukedea", "name_ru": "Bukedea", "tz": "", "district": "Bukedea"}, {"id": 91, "name": "Amolatar", "name_ru": "Amolatar", "tz": "", "district": "Amolatar"}, {"id": 92, "name": "Kasanda", "name_ru": "Kasanda", "tz": "", "district": "Mubende"}, {"id": 93, "name": "Kasaali", "name_ru": "Kasaali", "tz": "", "district": "Rakai"}, {"id": 94, "name": "Dokolo", "name_ru": "Dokolo", "tz": "", "district": "Dokolo"}, {"id": 95, "name": "Kakumiro", "name_ru": "Kakumiro", "tz": "", "district": "Kibaale"}, {"id": 96, "name": "Sembabule", "name_ru": "Sembabule", "tz": "", "district": "Sembabule"}, {"id": 97, "name": "Rakai", "name_ru": "Rakai", "tz": "", "district": "Rakai"}, {"id": 98, "name": "Kinoni", "name_ru": "Kinoni", "tz": "", "district": "Sheema"}, {"id": 99, "name": "Kibingo", "name_ru": "Kibingo", "tz": "", "district": "Sheema"}, {"id": 100, "name": "Lwengo", "name_ru": "Lwengo", "tz": "", "district": "Lwengo"}, {"id": 101, "name": "Butalangu", "name_ru": "Butalangu", "tz": "", "district": "Nakaseke"}, {"id": 102, "name": "Kanoni", "name_ru": "Kanoni", "tz": "", "district": "Gomba"}, {"id": 103, "name": "Alebtong", "name_ru": "Alebtong", "tz": "", "district": "Alebtong"}, {"id": 104, "name": "Amuria", "name_ru": "Amuria", "tz": "", "district": "Amuria"}, {"id": 105, "name": "Abim", "name_ru": "Abim", "tz": "", "district": "Abim"}, {"id": 106, "name": "Ngora", "name_ru": "Ngora", "tz": "", "district": "Ngora"}, {"id": 107, "name": "Kalaki", "name_ru": "Kalaki", "tz": "", "district": "Kaberamaido"}, {"id": 108, "name": "Kamwenge", "name_ru": "Kamwenge", "tz": "", "district": "Kamwenge"}, {"id": 109, "name": "Isingiro", "name_ru": "Isingiro", "tz": "", "district": "Isingiro"}, {"id": 110, "name": "Buyende", "name_ru": "Buyende", "tz": "", "district": "Buyende"}, {"id": 111, "name": "Palenga", "name_ru": "Palenga", "tz": "", "district": "Gulu"}, {"id": 112, "name": "Lamwo", "name_ru": "Lamwo", "tz": "", "district": "Lamwo"}, {"id": 113, "name": "Oyam", "name_ru": "Oyam", "tz": "", "district": "Oyam"}, {"id": 114, "name": "Agago", "name_ru": "Agago", "tz": "", "district": "Agago"}, {"id": 115, "name": "Napak", "name_ru": "Napak", "tz": "", "district": "Napak"}, {"id": 116, "name": "Nabilatuk", "name_ru": "Nabilatuk", "tz": "", "district": "Nakapiripirit"}, {"id": 117, "name": "Kiruhura", "name_ru": "Kiruhura", "tz": "", "district": "Kiruhura"}, {"id": 118, "name": "Kotido", "name_ru": "Kotido", "tz": "", "district": "Kotido"}, {"id": 119, "name": "Nwoya", "name_ru": "Nwoya", "tz": "", "district": "Nwoya"}, {"id": 120, "name": "Pader", "name_ru": "Pader", "tz": "", "district": "Pader"}, {"id": 121, "name": "Otuke", "name_ru": "Otuke", "tz": "", "district": "Otuke"}, {"id": 122, "name": "Amuru", "name_ru": "Amuru", "tz": "", "district": "Amuru"}, {"id": 123, "name": "Nakapiripirit", "name_ru": "Nakapiripirit", "tz": "", "district": "Nakapiripirit"}, {"id": 124, "name": "Kyankwanzi", "name_ru": "Kyankwanzi", "tz": "", "district": "Kyankwanzi"}, {"id": 125, "name": "Ntoroko", "name_ru": "Ntoroko", "tz": "", "district": "Ntoroko"}, {"id": 126, "name": "Kitamilo", "name_ru": "Kitamilo", "tz": "", "district": "Buvuma"}, {"id": 127, "name": "Bombo", "name_ru": "Bombo", "tz": "", "district": "Luwero"}, {"id": 128, "name": "Entebbe", "name_ru": "Entebbe", "tz": "", "district": "Wakiso"}, {"id": 129, "name": "Kibale", "name_ru": "Kibale", "tz": "", "district": "Kibaale"}, {"id": 130, "name": "Katwe", "name_ru": "Katwe", "tz": "", "district": "Kasese"}, {"id": 131, "name": "Masindi Port", "name_ru": "Masindi Port", "tz": "", "district": "Kiryandongo"}]