[{"id": 1, "name": "Montevideo", "name_ru": "Montevideo", "tz": "", "district": "Montevideo"}, {"id": 2, "name": "Salto", "name_ru": "Salto", "tz": "", "district": "Salto"}, {"id": 3, "name": "Ciudad de la Costa", "name_ru": "Ciudad de la Costa", "tz": "", "district": "Canelones"}, {"id": 4, "name": "Maldonado", "name_ru": "Maldonado", "tz": "", "district": "Maldonado"}, {"id": 5, "name": "Paysandu", "name_ru": "Paysandú", "tz": "", "district": "Paysandú"}, {"id": 6, "name": "Las Piedras", "name_ru": "Las Piedras", "tz": "", "district": "Canelones"}, {"id": 7, "name": "Rivera", "name_ru": "Rivera", "tz": "", "district": "Rivera"}, {"id": 8, "name": "Tacuarembo", "name_ru": "Tacuarembó", "tz": "", "district": "Tacuarembó"}, {"id": 9, "name": "Melo", "name_ru": "Melo", "tz": "", "district": "Cerro Largo"}, {"id": 10, "name": "Mercedes", "name_ru": "Mercedes", "tz": "", "district": "Soriano"}, {"id": 11, "name": "Artigas", "name_ru": "Artigas", "tz": "", "district": "Artigas"}, {"id": 12, "name": "Minas", "name_ru": "Minas", "tz": "", "district": "Lavalleja"}, {"id": 13, "name": "San Jose", "name_ru": "San José", "tz": "", "district": "San José"}, {"id": 14, "name": "Florida", "name_ru": "Florida", "tz": "", "district": "Florida"}, {"id": 15, "name": "Durazno", "name_ru": "Durazno", "tz": "", "district": "Durazno"}, {"id": 16, "name": "Pando", "name_ru": "Pando", "tz": "", "district": "Canelones"}, {"id": 17, "name": "Treinta y Tres", "name_ru": "Treinta y Tres", "tz": "", "district": "Treinta y Tres"}, {"id": 18, "name": "Colonia del Sacramento", "name_ru": "Colonia del Sacramento", "tz": "", "district": "Colonia"}, {"id": 19, "name": "Rocha", "name_ru": "Rocha", "tz": "", "district": "Rocha"}, {"id": 20, "name": "Fray Bentos", "name_ru": "Fray Bentos", "tz": "", "district": "Río Negro"}, {"id": 21, "name": "Bella Union", "name_ru": "Bella Unión", "tz": "", "district": "Artigas"}, {"id": 22, "name": "Carmelo", "name_ru": "Carmelo", "tz": "", "district": "Colonia"}, {"id": 23, "name": "Santa Lucia", "name_ru": "Santa Lucía", "tz": "", "district": "Canelones"}, {"id": 24, "name": "Dolores", "name_ru": "Dolores", "tz": "", "district": "Soriano"}, {"id": 25, "name": "Canelones", "name_ru": "Canelones", "tz": "", "district": "Canelones"}, {"id": 26, "name": "Progreso", "name_ru": "Progreso", "tz": "", "district": "Canelones"}, {"id": 27, "name": "Libertad", "name_ru": "Libertad", "tz": "", "district": "San José"}, {"id": 28, "name": "Nueva Palmira", "name_ru": "Nueva Palmira", "tz": "", "district": "Colonia"}, {"id": 29, "name": "Chuy", "name_ru": "Chuy", "tz": "", "district": "Rocha"}, {"id": 30, "name": "Salinas", "name_ru": "Salinas", "tz": "", "district": "Canelones"}, {"id": 31, "name": "Lascano", "name_ru": "Lascano", "tz": "", "district": "Rocha"}, {"id": 32, "name": "Castillos", "name_ru": "Castillos", "tz": "", "district": "Rocha"}, {"id": 33, "name": "Joaquin Suarez", "name_ru": "Joaquín Suárez", "tz": "", "district": "Canelones"}, {"id": 34, "name": "Sauce", "name_ru": "Sauce", "tz": "", "district": "Canelones"}, {"id": 35, "name": "Tala", "name_ru": "Tala", "tz": "", "district": "Canelones"}, {"id": 36, "name": "Trinidad", "name_ru": "Trinidad", "tz": "", "district": "Flores"}, {"id": 37, "name": "Rio Branco", "name_ru": "Río Branco", "tz": "", "district": "Cerro Largo"}, {"id": 38, "name": "Paso de los Toros", "name_ru": "Paso de los Toros", "tz": "", "district": "Durazno"}, {"id": 39, "name": "Nueva Helvecia", "name_ru": "Nueva Helvecia", "tz": "", "district": "Colonia"}, {"id": 40, "name": "Rosario", "name_ru": "Rosario", "tz": "", "district": "Colonia"}, {"id": 41, "name": "Punta del Este", "name_ru": "Punta del Este", "tz": "", "district": "Maldonado"}, {"id": 42, "name": "Piriapolis", "name_ru": "Piriápolis", "tz": "", "district": "Maldonado"}, {"id": 43, "name": "Sarandi del Yi", "name_ru": "Sarandí del Yi", "tz": "", "district": "Durazno"}, {"id": 44, "name": "Parque del Plata", "name_ru": "Parque del Plata", "tz": "", "district": "Canelones"}, {"id": 45, "name": "San Ramon", "name_ru": "San Ramón", "tz": "", "district": "Canelones"}, {"id": 46, "name": "San Jacinto", "name_ru": "San Jacinto", "tz": "", "district": "Canelones"}, {"id": 47, "name": "Sarandi Grande", "name_ru": "Sarandí Grande", "tz": "", "district": "Florida"}, {"id": 48, "name": "Atlantida", "name_ru": "Atlántida", "tz": "", "district": "Canelones"}, {"id": 49, "name": "Tranqueras", "name_ru": "Tranqueras", "tz": "", "district": "Rivera"}, {"id": 50, "name": "Jose Pedro Varela", "name_ru": "José Pedro Varela", "tz": "", "district": "Lavalleja"}, {"id": 51, "name": "Pan de Azucar", "name_ru": "Pan de Azúcar", "tz": "", "district": "Maldonado"}, {"id": 52, "name": "Guichon", "name_ru": "Guichón", "tz": "", "district": "Paysandú"}, {"id": 53, "name": "La Paloma", "name_ru": "La Paloma", "tz": "", "district": "Rocha"}, {"id": 54, "name": "Vergara", "name_ru": "Vergara", "tz": "", "district": "Treinta y Tres"}, {"id": 55, "name": "Baltasar Brum", "name_ru": "Baltasar Brum", "tz": "", "district": "Artigas"}, {"id": 56, "name": "Aigua", "name_ru": "Aiguá", "tz": "", "district": "Maldonado"}, {"id": 57, "name": "Jose Batlle y Ordonez", "name_ru": "José Batlle y Ordóñez", "tz": "", "district": "Lavalleja"}]