[{"id": 1, "name": "Tashkent", "name_ru": "Tashkent", "tz": "Asia/Tashkent", "district": "Toshkent"}, {"id": 2, "name": "Namangan", "name_ru": "Namangan", "tz": "Asia/Tashkent", "district": "Namangan"}, {"id": 3, "name": "Samarkand", "name_ru": "Samarkand", "tz": "Asia/Samarkand", "district": "Samarqand"}, {"id": 4, "name": "Andijon", "name_ru": "Andijon", "tz": "Asia/Tashkent", "district": "Andijon"}, {"id": 5, "name": "Qoqon", "name_ru": "Qoqon", "tz": "Asia/Tashkent", "district": "Farg‘ona"}, {"id": 6, "name": "Nukus", "name_ru": "Nukus", "tz": "Asia/Samarkand", "district": "Qoraqalpog‘iston"}, {"id": 7, "name": "Farg`ona", "name_ru": "Farg‘ona", "tz": "Asia/Tashkent", "district": "Farg‘ona"}, {"id": 8, "name": "Bukhara", "name_ru": "Bukhara", "tz": "Asia/Samarkand", "district": "Buxoro"}, {"id": 9, "name": "Qarshi", "name_ru": "Qarshi", "tz": "Asia/Samarkand", "district": "Qashqadaryo"}, {"id": 10, "name": "Denov", "name_ru": "Denov", "tz": "Asia/Samarkand", "district": "Surxondaryo"}, {"id": 11, "name": "Marg`ilon", "name_ru": "Marg‘ilon", "tz": "Asia/Tashkent", "district": "Farg‘ona"}, {"id": 12, "name": "Iskandar", "name_ru": "Iskandar", "tz": "Asia/Tashkent", "district": "Toshkent"}, {"id": 13, "name": "Jizzax", "name_ru": "Jizzax", "tz": "Asia/Tashkent", "district": "Jizzax"}, {"id": 14, "name": "Chirchiq", "name_ru": "Chirchiq", "tz": "Asia/Tashkent", "district": "Toshkent"}, {"id": 15, "name": "Termiz", "name_ru": "Termiz", "tz": "Asia/Samarkand", "district": "Surxondaryo"}, {"id": 16, "name": "Urganch", "name_ru": "Urganch", "tz": "Asia/Samarkand", "district": "Xorazm"}, {"id": 17, "name": "Navoiy", "name_ru": "Navoiy", "tz": "Asia/Samarkand", "district": "Navoiy"}, {"id": 18, "name": "Angren", "name_ru": "Angren", "tz": "Asia/Tashkent", "district": "Toshkent"}, {"id": 19, "name": "Olmaliq", "name_ru": "Olmaliq", "tz": "Asia/Tashkent", "district": "Toshkent"}, {"id": 20, "name": "Kogon Shahri", "name_ru": "Kogon Shahri", "tz": "Asia/Samarkand", "district": "Buxoro"}, {"id": 21, "name": "Shahrisabz", "name_ru": "Shahrisabz", "tz": "Asia/Samarkand", "district": "Qashqadaryo"}, {"id": 22, "name": "Guliston", "name_ru": "Guliston", "tz": "Asia/Tashkent", "district": "Sirdaryo"}, {"id": 23, "name": "Urgut Shahri", "name_ru": "Urgut Shahri", "tz": "Asia/Samarkand", "district": "Samarqand"}, {"id": 24, "name": "Kattagan", "name_ru": "Kattagan", "tz": "Asia/Samarkand", "district": "Navoiy"}, {"id": 25, "name": "Bekobod", "name_ru": "Bekobod", "tz": "Asia/Tashkent", "district": "Toshkent"}, {"id": 26, "name": "Qo`ng`irot Shahri", "name_ru": "Qo‘ng‘irot Shahri", "tz": "Asia/Samarkand", "district": "Qoraqalpog‘iston"}, {"id": 27, "name": "Xo`jayli Shahri", "name_ru": "Xo‘jayli Shahri", "tz": "Asia/Samarkand", "district": "Qoraqalpog‘iston"}, {"id": 28, "name": "Kattaqo'rg'on Shahri", "name_ru": "Kattaqo’rg’on Shahri", "tz": "Asia/Samarkand", "district": "Samarqand"}, {"id": 29, "name": "Qunghirot", "name_ru": "Qŭnghirot", "tz": "Asia/Samarkand", "district": "Qoraqalpog‘iston"}, {"id": 30, "name": "Xiva", "name_ru": "Xiva", "tz": "Asia/Samarkand", "district": "Xorazm"}, {"id": 31, "name": "Zarafshon Shahri", "name_ru": "Zarafshon Shahri", "tz": "Asia/Samarkand", "district": "Navoiy"}, {"id": 32, "name": "Turtkul", "name_ru": "Tŭrtkŭl", "tz": "Asia/Samarkand", "district": "Qoraqalpog‘iston"}, {"id": 33, "name": "Beruniy", "name_ru": "Beruniy", "tz": "Asia/Samarkand", "district": "Qoraqalpog‘iston"}, {"id": 34, "name": "Chimboy Shahri", "name_ru": "Chimboy Shahri", "tz": "Asia/Samarkand", "district": "Qoraqalpog‘iston"}, {"id": 35, "name": "Chortoq", "name_ru": "Chortoq", "tz": "Asia/Tashkent", "district": "Namangan"}, {"id": 36, "name": "Xonobod", "name_ru": "Xonobod", "tz": "Asia/Tashkent", "district": "Andijon"}, {"id": 37, "name": "Payshamba Shahri", "name_ru": "Payshamba Shahri", "tz": "Asia/Samarkand", "district": "Samarqand"}, {"id": 38, "name": "Kosonsoy", "name_ru": "Kosonsoy", "tz": "Asia/Tashkent", "district": "Namangan"}, {"id": 39, "name": "G'ijduvon Shahri", "name_ru": "G’ijduvon Shahri", "tz": "Asia/Samarkand", "district": "Buxoro"}, {"id": 40, "name": "Yangiyer", "name_ru": "Yangiyer", "tz": "Asia/Tashkent", "district": "Sirdaryo"}, {"id": 41, "name": "Bo`ka", "name_ru": "Bo‘ka", "tz": "Asia/Tashkent", "district": "Toshkent"}, {"id": 42, "name": "Rishton", "name_ru": "Rishton", "tz": "Asia/Tashkent", "district": "Farg‘ona"}, {"id": 43, "name": "Uchquduq Shahri", "name_ru": "Uchquduq Shahri", "tz": "Asia/Samarkand", "district": "Navoiy"}, {"id": 44, "name": "Manghit", "name_ru": "Manghit", "tz": "Asia/Samarkand", "district": "Qoraqalpog‘iston"}, {"id": 45, "name": "Nurota", "name_ru": "Nurota", "tz": "Asia/Samarkand", "district": "Navoiy"}, {"id": 46, "name": "Qorasuv", "name_ru": "Qorasuv", "tz": "Asia/Tashkent", "district": "Andijon"}, {"id": 47, "name": "Muynoq", "name_ru": "Mŭynoq", "tz": "Asia/Samarkand", "district": "Qoraqalpog‘iston"}, {"id": 48, "name": "G`uzor", "name_ru": "G‘uzor", "tz": "Asia/Samarkand", "district": "Qashqadaryo"}, {"id": 49, "name": "Boysun", "name_ru": "Boysun", "tz": "Asia/Samarkand", "district": "Surxondaryo"}, {"id": 50, "name": "Yaypan", "name_ru": "Yaypan", "tz": "Asia/Tashkent", "district": "Farg‘ona"}, {"id": 51, "name": "Juma Shahri", "name_ru": "Juma Shahri", "tz": "Asia/Samarkand", "district": "Samarqand"}, {"id": 52, "name": "Chiroqchi", "name_ru": "Chiroqchi", "tz": "Asia/Samarkand", "district": "Qashqadaryo"}, {"id": 53, "name": "Vobkent Shahri", "name_ru": "Vobkent Shahri", "tz": "Asia/Samarkand", "district": "Buxoro"}, {"id": 54, "name": "Yangirabot", "name_ru": "Yangirabot", "tz": "Asia/Samarkand", "district": "Navoiy"}, {"id": 55, "name": "Tinchlik", "name_ru": "Tinchlik", "tz": "Asia/Tashkent", "district": "Farg‘ona"}, {"id": 56, "name": "Sharg`un", "name_ru": "Sharg‘un", "tz": "Asia/Samarkand", "district": "Surxondaryo"}, {"id": 57, "name": "Shumanay", "name_ru": "Shumanay", "tz": "Asia/Samarkand", "district": "Qoraqalpog‘iston"}, {"id": 58, "name": "Qiziltepa", "name_ru": "Qiziltepa", "tz": "Asia/Samarkand", "district": "Navoiy"}, {"id": 59, "name": "Bo`ston", "name_ru": "Bo‘ston", "tz": "Asia/Samarkand", "district": "Qoraqalpog‘iston"}]