[{"id": 1, "name": "Caracas", "name_ru": "Caracas", "tz": "", "district": "Distrito Capital"}, {"id": 2, "name": "Maracaibo", "name_ru": "Maracaibo", "tz": "", "district": "Zulia"}, {"id": 3, "name": "Valencia", "name_ru": "Valencia", "tz": "", "district": "Carabobo"}, {"id": 4, "name": "Barquisimeto", "name_ru": "Barquisimeto", "tz": "", "district": "Lara"}, {"id": 5, "name": "Ciudad Guayana", "name_ru": "Ciudad Guayana", "tz": "", "district": "Bolívar"}, {"id": 6, "name": "Catia La Mar", "name_ru": "Catia La Mar", "tz": "", "district": "Vargas"}, {"id": 7, "name": "Ciudad Bolivar", "name_ru": "Ciudad Bolívar", "tz": "", "district": "Bolívar"}, {"id": 8, "name": "Santa Teresa del Tuy", "name_ru": "Santa Teresa del Tuy", "tz": "", "district": "Miranda"}, {"id": 9, "name": "Maturin", "name_ru": "Maturín", "tz": "", "district": "Monagas"}, {"id": 10, "name": "Barcelona", "name_ru": "Barcelona", "tz": "", "district": "Anzoátegui"}, {"id": 11, "name": "Maracay", "name_ru": "Maracay", "tz": "", "district": "Aragua"}, {"id": 12, "name": "Cumana", "name_ru": "Cumaná", "tz": "", "district": "Sucre"}, {"id": 13, "name": "Cabimas", "name_ru": "Cabimas", "tz": "", "district": "Zulia"}, {"id": 14, "name": "Puerto La Cruz", "name_ru": "Puerto La Cruz", "tz": "", "district": "Anzoátegui"}, {"id": 15, "name": "Merida", "name_ru": "Mérida", "tz": "", "district": "Mérida"}, {"id": 16, "name": "Punto Fijo", "name_ru": "Punto Fijo", "tz": "", "district": "Falcón"}, {"id": 17, "name": "San Cristobal", "name_ru": "San Cristóbal", "tz": "", "district": "Táchira"}, {"id": 18, "name": "Barinas", "name_ru": "Barinas", "tz": "", "district": "Barinas"}, {"id": 19, "name": "Coro", "name_ru": "Coro", "tz": "", "district": "Falcón"}, {"id": 20, "name": "Turmero", "name_ru": "Turmero", "tz": "", "district": "Aragua"}, {"id": 21, "name": "Los Teques", "name_ru": "Los Teques", "tz": "", "district": "Miranda"}, {"id": 22, "name": "Baruta", "name_ru": "Baruta", "tz": "", "district": "Miranda"}, {"id": 23, "name": "San Felipe", "name_ru": "San Felipe", "tz": "", "district": "Yaracuy"}, {"id": 24, "name": "Cua", "name_ru": "Cúa", "tz": "", "district": "Miranda"}, {"id": 25, "name": "La Victoria", "name_ru": "La Victoria", "tz": "", "district": "Aragua"}, {"id": 26, "name": "El Tigre", "name_ru": "El Tigre", "tz": "", "district": "Anzoátegui"}, {"id": 27, "name": "Guarenas", "name_ru": "Guarenas", "tz": "", "district": "Miranda"}, {"id": 28, "name": "Puerto Cabello", "name_ru": "Puerto Cabello", "tz": "", "district": "Carabobo"}, {"id": 29, "name": "La Guaira", "name_ru": "La Guaira", "tz": "", "district": "Vargas"}, {"id": 30, "name": "Guacara", "name_ru": "Guacara", "tz": "", "district": "Carabobo"}, {"id": 31, "name": "Tocuyito", "name_ru": "Tocuyito", "tz": "", "district": "Carabobo"}, {"id": 32, "name": "Acarigua", "name_ru": "Acarigua", "tz": "", "district": "Portuguesa"}, {"id": 33, "name": "San Fernando", "name_ru": "San Fernando", "tz": "", "district": "Apure"}, {"id": 34, "name": "Guanare", "name_ru": "Guanare", "tz": "", "district": "Portuguesa"}, {"id": 35, "name": "Valera", "name_ru": "Valera", "tz": "", "district": "Trujillo"}, {"id": 36, "name": "Araure", "name_ru": "Araure", "tz": "", "district": "Portuguesa"}, {"id": 37, "name": "Guatire", "name_ru": "Guatire", "tz": "", "district": "Miranda"}, {"id": 38, "name": "San Diego", "name_ru": "San Diego", "tz": "", "district": "Carabobo"}, {"id": 39, "name": "Carupano", "name_ru": "Carúpano", "tz": "", "district": "Sucre"}, {"id": 40, "name": "Santa Rita", "name_ru": "Santa Rita", "tz": "", "district": "Aragua"}, {"id": 41, "name": "Anaco", "name_ru": "Anaco", "tz": "", "district": "Anzoátegui"}, {"id": 42, "name": "Palo Negro", "name_ru": "Palo Negro", "tz": "", "district": "Aragua"}, {"id": 43, "name": "Ocumare del Tuy", "name_ru": "Ocumare del Tuy", "tz": "", "district": "Miranda"}, {"id": 44, "name": "Villa de Cura", "name_ru": "Villa de Cura", "tz": "", "district": "Aragua"}, {"id": 45, "name": "Yaritagua", "name_ru": "Yaritagua", "tz": "", "district": "Yaracuy"}, {"id": 46, "name": "Calabozo", "name_ru": "Calabozo", "tz": "", "district": "Guárico"}, {"id": 47, "name": "Los Guayos", "name_ru": "Los Guayos", "tz": "", "district": "Carabobo"}, {"id": 48, "name": "Tariba", "name_ru": "Táriba", "tz": "", "district": "Táchira"}, {"id": 49, "name": "Guasdualito", "name_ru": "Guasdualito", "tz": "", "district": "Apure"}, {"id": 50, "name": "Cagua", "name_ru": "Cagua", "tz": "", "district": "Aragua"}, {"id": 51, "name": "Porlamar", "name_ru": "Porlamar", "tz": "", "district": "Nueva Esparta"}, {"id": 52, "name": "Machiques", "name_ru": "Machiques", "tz": "", "district": "Zulia"}, {"id": 53, "name": "Ciudad Ojeda", "name_ru": "Ciudad Ojeda", "tz": "", "district": "Zulia"}, {"id": 54, "name": "San Carlos", "name_ru": "San Carlos", "tz": "", "district": "Cojedes"}, {"id": 55, "name": "Charallave", "name_ru": "Charallave", "tz": "", "district": "Miranda"}, {"id": 56, "name": "La Asuncion", "name_ru": "La Asunción", "tz": "", "district": "Nueva Esparta"}, {"id": 57, "name": "Valle de La Pascua", "name_ru": "Valle de La Pascua", "tz": "", "district": "Guárico"}, {"id": 58, "name": "Santa Lucia", "name_ru": "Santa Lucía", "tz": "", "district": "Miranda"}, {"id": 59, "name": "Carora", "name_ru": "Carora", "tz": "", "district": "Lara"}, {"id": 60, "name": "Quibor", "name_ru": "Quíbor", "tz": "", "district": "Lara"}, {"id": 61, "name": "Socopo", "name_ru": "Socopó", "tz": "", "district": "Barinas"}, {"id": 62, "name": "Tinaquillo", "name_ru": "Tinaquillo", "tz": "", "district": "Cojedes"}, {"id": 63, "name": "El Limon", "name_ru": "El Limón", "tz": "", "district": "Aragua"}, {"id": 64, "name": "San Juan de los Morros", "name_ru": "San Juan de los Morros", "tz": "", "district": "Guárico"}, {"id": 65, "name": "Tucupita", "name_ru": "Tucupita", "tz": "", "district": "Delta Amacuro"}, {"id": 66, "name": "Puerto Ayacucho", "name_ru": "Puerto Ayacucho", "tz": "", "district": "Amazonas"}, {"id": 67, "name": "Lecherias", "name_ru": "Lecherías", "tz": "", "district": "Anzoátegui"}, {"id": 68, "name": "Trujillo", "name_ru": "Trujillo", "tz": "", "district": "Trujillo"}, {"id": 69, "name": "Rubio", "name_ru": "Rubio", "tz": "", "district": "Táchira"}, {"id": 70, "name": "Cantaura", "name_ru": "Cantaura", "tz": "", "district": "Anzoátegui"}, {"id": 71, "name": "La Grita", "name_ru": "La Grita", "tz": "", "district": "Táchira"}, {"id": 72, "name": "Maiquetia", "name_ru": "Maiquetía", "tz": "", "district": "Vargas"}, {"id": 73, "name": "San Carlos del Zulia", "name_ru": "San Carlos del Zulia", "tz": "", "district": "Zulia"}, {"id": 74, "name": "Cabudare", "name_ru": "Cabudare", "tz": "", "district": "Lara"}, {"id": 75, "name": "Caripito", "name_ru": "Caripito", "tz": "", "district": "Monagas"}, {"id": 76, "name": "Zaraza", "name_ru": "Zaraza", "tz": "", "district": "Guárico"}, {"id": 77, "name": "San Antonio del Tachira", "name_ru": "San Antonio del Táchira", "tz": "", "district": "Táchira"}, {"id": 78, "name": "Upata", "name_ru": "Upata", "tz": "", "district": "Bolívar"}, {"id": 79, "name": "Sanare", "name_ru": "Sanare", "tz": "", "district": "Lara"}, {"id": 80, "name": "Santa Cruz de Los Taques", "name_ru": "Santa Cruz de Los Taques", "tz": "", "district": "Falcón"}, {"id": 81, "name": "El Tocuyo", "name_ru": "El Tocuyo", "tz": "", "district": "Lara"}, {"id": 82, "name": "Altagracia de Orituco", "name_ru": "Altagracia de Orituco", "tz": "", "district": "Guárico"}, {"id": 83, "name": "Santa Rita", "name_ru": "Santa Rita", "tz": "", "district": "Zulia"}, {"id": 84, "name": "Sabaneta", "name_ru": "Sabaneta", "tz": "", "district": "Barinas"}, {"id": 85, "name": "Puerto Piritu", "name_ru": "Puerto Píritu", "tz": "", "district": "Anzoátegui"}, {"id": 86, "name": "La Colonia Tovar", "name_ru": "La Colonia Tovar", "tz": "", "district": "Aragua"}, {"id": 87, "name": "Chaguaramas", "name_ru": "Chaguaramas", "tz": "", "district": "Guárico"}, {"id": 88, "name": "Tucacas", "name_ru": "Tucacas", "tz": "", "district": "Falcón"}, {"id": 89, "name": "Onoto", "name_ru": "Onoto", "tz": "", "district": "Anzoátegui"}, {"id": 90, "name": "San Jose de Aerocuar", "name_ru": "San José de Aerocuar", "tz": "", "district": "Sucre"}, {"id": 91, "name": "Uracoa", "name_ru": "Uracoa", "tz": "", "district": "Monagas"}, {"id": 92, "name": "Bruzual", "name_ru": "Bruzual", "tz": "", "district": "Apure"}, {"id": 93, "name": "Mucuchies", "name_ru": "Mucuchíes", "tz": "", "district": "Mérida"}, {"id": 94, "name": "Mapire", "name_ru": "Mapire", "tz": "", "district": "Anzoátegui"}, {"id": 95, "name": "El Dorado", "name_ru": "El Dorado", "tz": "", "district": "Bolívar"}, {"id": 96, "name": "La Esmeralda", "name_ru": "La Esmeralda", "tz": "", "district": "Amazonas"}, {"id": 97, "name": "El Manteco", "name_ru": "El Manteco", "tz": "", "district": "Bolívar"}]