[{"id": 1, "name": "Ho Chi Minh City", "name_ru": "Ho Chi Minh City", "tz": "Asia/Ho_Chi_Minh", "district": "Hồ Chí Minh"}, {"id": 2, "name": "Hanoi", "name_ru": "Hanoi", "tz": "Asia/Bangkok", "district": "Hà Nội"}, {"id": 3, "name": "Haiphong", "name_ru": "Haiphong", "tz": "Asia/Bangkok", "district": "Hải Phòng"}, {"id": 4, "name": "Can Tho", "name_ru": "Cần Thơ", "tz": "Asia/Ho_Chi_Minh", "district": "Cần Thơ"}, {"id": 5, "name": "Bien Hoa", "name_ru": "Biên Hòa", "tz": "Asia/Ho_Chi_Minh", "district": "Đồng Nai"}, {"id": 6, "name": "Thu Duc", "name_ru": "Thủ Đức", "tz": "Asia/Ho_Chi_Minh", "district": "Hồ Chí Minh"}, {"id": 7, "name": "Quang Ha", "name_ru": "Quảng Hà", "tz": "Asia/Ho_Chi_Minh", "district": "Quảng Nam"}, {"id": 8, "name": "Hue", "name_ru": "Huế", "tz": "Asia/Ho_Chi_Minh", "district": "Thừa Thiên-Huế"}, {"id": 9, "name": "Bac Ninh", "name_ru": "Bắc Ninh", "tz": "Asia/Bangkok", "district": "Bắc Ninh"}, {"id": 10, "name": "Hai Duong", "name_ru": "Hải Dương", "tz": "Asia/Bangkok", "district": "Hải Dương"}, {"id": 11, "name": "Vinh", "name_ru": "Vinh", "tz": "Asia/Bangkok", "district": "Nghệ An"}, {"id": 12, "name": "Thanh Hoa", "name_ru": "Thanh Hóa", "tz": "Asia/Bangkok", "district": "Thanh Hóa"}, {"id": 13, "name": "Nha Trang", "name_ru": "Nha Trang", "tz": "Asia/Ho_Chi_Minh", "district": "Khánh Hòa"}, {"id": 14, "name": "Nam Dinh", "name_ru": "Nam Định", "tz": "Asia/Bangkok", "district": "Nam Định"}, {"id": 15, "name": "Buon Ma Thuot", "name_ru": "Buôn Ma Thuột", "tz": "Asia/Ho_Chi_Minh", "district": "Đắk Lắk"}, {"id": 16, "name": "Thai Nguyen", "name_ru": "Thái Nguyên", "tz": "Asia/Bangkok", "district": "Thái Nguyên"}, {"id": 17, "name": "Vung Tau", "name_ru": "Vũng Tàu", "tz": "Asia/Ho_Chi_Minh", "district": "Bà Rịa-Vũng Tàu"}, {"id": 18, "name": "Ca Mau", "name_ru": "Cà Mau", "tz": "Asia/Ho_Chi_Minh", "district": "Cà Mau"}, {"id": 19, "name": "Quy Nhon", "name_ru": "Quy Nhơn", "tz": "Asia/Ho_Chi_Minh", "district": "Bình Định"}, {"id": 20, "name": "Soc Trang", "name_ru": "Sóc Trăng", "tz": "Asia/Ho_Chi_Minh", "district": "Sóc Trăng"}, {"id": 21, "name": "Long Xuyen", "name_ru": "Long Xuyên", "tz": "Asia/Ho_Chi_Minh", "district": "An Giang"}, {"id": 22, "name": "Viet Tri", "name_ru": "Việt Trì", "tz": "Asia/Bangkok", "district": "Phú Thọ"}, {"id": 23, "name": "Thai Binh", "name_ru": "Thái Bình", "tz": "Asia/Bangkok", "district": "Thái Bình"}, {"id": 24, "name": "Quang Ngai", "name_ru": "Quảng Ngãi", "tz": "Asia/Ho_Chi_Minh", "district": "Quảng Ngãi"}, {"id": 25, "name": "Ap Da Loi", "name_ru": "Ấp Đa Lợi", "tz": "Asia/Ho_Chi_Minh", "district": "Lâm Đồng"}, {"id": 26, "name": "Rach Gia", "name_ru": "Rạch Giá", "tz": "Asia/Ho_Chi_Minh", "district": "Kiến Giang"}, {"id": 27, "name": "Thu Dau Mot", "name_ru": "Thủ Dầu Một", "tz": "Asia/Ho_Chi_Minh", "district": "Bình Dương"}, {"id": 28, "name": "Tuy Hoa", "name_ru": "Tuy Hòa", "tz": "Asia/Ho_Chi_Minh", "district": "Phú Yên"}, {"id": 29, "name": "Bac Lieu", "name_ru": "Bạc Liêu", "tz": "Asia/Ho_Chi_Minh", "district": "Bạc Liêu"}, {"id": 30, "name": "Sa Dec", "name_ru": "Sa Đéc", "tz": "Asia/Ho_Chi_Minh", "district": "Đồng Tháp"}, {"id": 31, "name": "Phan Thiet", "name_ru": "Phan Thiết", "tz": "Asia/Ho_Chi_Minh", "district": "Bình Thuận"}, {"id": 32, "name": "Son Tay", "name_ru": "Sơn Tây", "tz": "Asia/Bangkok", "district": "Hà Nội"}, {"id": 33, "name": "Phan Rang-Thap Cham", "name_ru": "Phan Rang-Tháp Chàm", "tz": "Asia/Ho_Chi_Minh", "district": "Ninh Thuận"}, {"id": 34, "name": "Ha Long", "name_ru": "Hạ Long", "tz": "Asia/Bangkok", "district": "Quảng Ninh"}, {"id": 35, "name": "Ha Tinh", "name_ru": "Hà Tĩnh", "tz": "Asia/Bangkok", "district": "Hà Tĩnh"}, {"id": 36, "name": "Dong Hoi", "name_ru": "Đồng Hới", "tz": "Asia/Bangkok", "district": "Quảng Bình"}, {"id": 37, "name": "Chau Doc", "name_ru": "Châu Đốc", "tz": "Asia/Ho_Chi_Minh", "district": "An Giang"}, {"id": 38, "name": "Cam Pha", "name_ru": "Cẩm Phả", "tz": "Asia/Bangkok", "district": "Quảng Ninh"}, {"id": 39, "name": "Cao Lanh", "name_ru": "Cao Lãnh", "tz": "Asia/Ho_Chi_Minh", "district": "Đồng Tháp"}, {"id": 40, "name": "Lang Son", "name_ru": "Lạng Sơn", "tz": "Asia/Bangkok", "district": "Lạng Sơn"}, {"id": 41, "name": "Cam Ranh", "name_ru": "Cam Ranh", "tz": "Asia/Ho_Chi_Minh", "district": "Khánh Hòa"}, {"id": 42, "name": "Pleiku", "name_ru": "Pleiku", "tz": "Asia/Ho_Chi_Minh", "district": "Gia Lai"}, {"id": 43, "name": "Tan An", "name_ru": "Tân An", "tz": "Asia/Ho_Chi_Minh", "district": "Long An"}, {"id": 44, "name": "Tra Vinh", "name_ru": "Trà Vinh", "tz": "Asia/Ho_Chi_Minh", "district": "Trà Vinh"}, {"id": 45, "name": "Ninh Binh", "name_ru": "Ninh Bình", "tz": "Asia/Bangkok", "district": "Ninh Bình"}, {"id": 46, "name": "My Tho", "name_ru": "Mỹ Tho", "tz": "Asia/Ho_Chi_Minh", "district": "Tiền Giang"}, {"id": 47, "name": "Tay Ninh", "name_ru": "Tây Ninh", "tz": "Asia/Ho_Chi_Minh", "district": "Tây Ninh"}, {"id": 48, "name": "Cam Ranh", "name_ru": "Cam Ranh", "tz": "Asia/Ho_Chi_Minh", "district": "Khánh Hòa"}, {"id": 49, "name": "Hoi An", "name_ru": "Hội An", "tz": "Asia/Ho_Chi_Minh", "district": "Quảng Nam"}, {"id": 50, "name": "Hoa Binh", "name_ru": "Hòa Bình", "tz": "Asia/Bangkok", "district": "Hòa Bình"}, {"id": 51, "name": "Vinh Long", "name_ru": "Vĩnh Long", "tz": "Asia/Ho_Chi_Minh", "district": "Vĩnh Long"}, {"id": 52, "name": "Mang La", "name_ru": "Mang La", "tz": "Asia/Ho_Chi_Minh", "district": "Kon Tum"}, {"id": 53, "name": "Yen Bai", "name_ru": "Yên Bái", "tz": "Asia/Bangkok", "district": "Yên Bái"}, {"id": 54, "name": "Vi Thanh", "name_ru": "Vị Thanh", "tz": "Asia/Ho_Chi_Minh", "district": "Hậu Giang"}, {"id": 55, "name": "Lao Cai", "name_ru": "Lào Cai", "tz": "Asia/Bangkok", "district": "Lào Cai"}, {"id": 56, "name": "Ben Tre", "name_ru": "Bến Tre", "tz": "Asia/Ho_Chi_Minh", "district": "Bến Tre"}, {"id": 57, "name": "Bac Giang", "name_ru": "Bắc Giang", "tz": "Asia/Bangkok", "district": "Bắc Giang"}, {"id": 58, "name": "Cao Bang", "name_ru": "Cao Bằng", "tz": "Asia/Bangkok", "district": "Cao Bằng"}, {"id": 59, "name": "Tuyen Quang", "name_ru": "Tuyên Quang", "tz": "Asia/Bangkok", "district": "Tuyên Quang"}, {"id": 60, "name": "Ha Giang", "name_ru": "Hà Giang", "tz": "Asia/Bangkok", "district": "Hà Giang"}, {"id": 61, "name": "Bac Kan", "name_ru": "Bắc Kạn", "tz": "Asia/Bangkok", "district": "Bắc Kạn"}, {"id": 62, "name": "Son La", "name_ru": "Sơn La", "tz": "Asia/Bangkok", "district": "Sơn La"}, {"id": 63, "name": "Dong Ha", "name_ru": "Đông Hà", "tz": "Asia/Ho_Chi_Minh", "district": "Quảng Trị"}, {"id": 64, "name": "Da Nang", "name_ru": "Đà Nẵng", "tz": "Asia/Ho_Chi_Minh", "district": "Đà Nẵng"}, {"id": 65, "name": "Hung Yen", "name_ru": "Hưng Yên", "tz": "Asia/Bangkok", "district": "Hưng Yên"}, {"id": 66, "name": "Phu Ly", "name_ru": "Phủ Lý", "tz": "Asia/Bangkok", "district": "Hà Nam"}, {"id": 67, "name": "Vinh Yen", "name_ru": "Vĩnh Yên", "tz": "Asia/Bangkok", "district": "Vĩnh Phúc"}, {"id": 68, "name": "Tam Ky", "name_ru": "Tam Kỳ", "tz": "Asia/Ho_Chi_Minh", "district": "Quảng Nam"}, {"id": 69, "name": "Dien Bien Phu", "name_ru": "Điện Biên Phủ", "tz": "Asia/Bangkok", "district": "Điện Biên"}, {"id": 70, "name": "Lai Chau", "name_ru": "Lai Châu", "tz": "Asia/Bangkok", "district": "Lai Châu"}, {"id": 71, "name": "Dong Xoai", "name_ru": "Đồng Xoài", "tz": "Asia/Ho_Chi_Minh", "district": "Bình Phước"}, {"id": 72, "name": "Da Lat", "name_ru": "Đà Lạt", "tz": "Asia/Ho_Chi_Minh", "district": "Lâm Đồng"}, {"id": 73, "name": "Kon Tum", "name_ru": "Kon Tum", "tz": "Asia/Ho_Chi_Minh", "district": "Kon Tum"}, {"id": 74, "name": "Gia Nghia", "name_ru": "Gia Nghĩa", "tz": "Asia/Ho_Chi_Minh", "district": "Đắk Nông"}, {"id": 75, "name": "Di An", "name_ru": "Dĩ An", "tz": "Asia/Ho_Chi_Minh", "district": "Bình Dương"}, {"id": 76, "name": "Quang Tri", "name_ru": "Quảng Trị", "tz": "Asia/Ho_Chi_Minh", "district": "Quảng Trị"}, {"id": 77, "name": "Phu Quoc", "name_ru": "Phú Quốc", "tz": "Asia/Ho_Chi_Minh", "district": "Kiến Giang"}, {"id": 78, "name": "Ha Tien", "name_ru": "Hà Tiên", "tz": "Asia/Ho_Chi_Minh", "district": "Kiến Giang"}, {"id": 79, "name": "Binh Long", "name_ru": "Bình Long", "tz": "Asia/Ho_Chi_Minh", "district": "Bình Phước"}, {"id": 80, "name": "Luan Chau", "name_ru": "Luân Châu", "tz": "Asia/Bangkok", "district": "Điện Biên"}]