[{"id": 1, "name": "Apia", "name_ru": "Apia", "tz": "", "district": "Tuamasaga"}, {"id": 2, "name": "Afega", "name_ru": "Afega", "tz": "", "district": "Tuamasaga"}, {"id": 3, "name": "Leulumoega", "name_ru": "Leulumoega", "tz": "", "district": "A‘ana"}, {"id": 4, "name": "Mulifanua", "name_ru": "Mulifanua", "tz": "", "district": "Aiga-i-le-Tai"}, {"id": 5, "name": "Lufilufi", "name_ru": "Lufilufi", "tz": "", "district": "Atua"}, {"id": 6, "name": "Safotulafai", "name_ru": "Safotulafai", "tz": "", "district": "Fa‘asaleleaga"}, {"id": 7, "name": "Samamea", "name_ru": "Samamea", "tz": "", "district": "Va‘a-o-Fonoti"}, {"id": 8, "name": "Satupa`itea", "name_ru": "Satupa‘itea", "tz": "", "district": "Satupa‘itea"}, {"id": 9, "name": "Asau", "name_ru": "Asau", "tz": "", "district": "Vaisigano"}, {"id": 10, "name": "Safotu", "name_ru": "Safotu", "tz": "", "district": "Gagaifomauga"}, {"id": 11, "name": "Vailoa", "name_ru": "Vailoa", "tz": "", "district": "Palauli"}, {"id": 12, "name": "Saleaula", "name_ru": "Saleaula", "tz": "", "district": "Gaga‘emauga"}]