[{"id": 1, "name": "Sanaa", "name_ru": "Sanaa", "tz": "", "district": "Amānat al ‘Āşimah"}, {"id": 2, "name": "Ta`izz", "name_ru": "Ta‘izz", "tz": "", "district": "Ta‘izz"}, {"id": 3, "name": "Al Hudaydah", "name_ru": "Al Ḩudaydah", "tz": "", "district": "Al Ḩudaydah"}, {"id": 4, "name": "Aden", "name_ru": "Aden", "tz": "", "district": "‘Adan"}, {"id": 5, "name": "Ibb", "name_ru": "Ibb", "tz": "", "district": "Ibb"}, {"id": 6, "name": "Ibb", "name_ru": "Ibb", "tz": "", "district": "Ibb"}, {"id": 7, "name": "Dhamar", "name_ru": "Dhamār", "tz": "", "district": "Dhamār"}, {"id": 8, "name": "Al Mukalla", "name_ru": "Al Mukallā", "tz": "", "district": "Ḩaḑramawt"}, {"id": 9, "name": "Ash Shaykh `Uthman", "name_ru": "Ash Shaykh ‘Uthmān", "tz": "", "district": "‘Adan"}, {"id": 10, "name": "Tarim", "name_ru": "Tarīm", "tz": "", "district": "Ḩaḑramawt"}, {"id": 11, "name": "Sa`dah", "name_ru": "Şa‘dah", "tz": "", "district": "Şa‘dah"}, {"id": 12, "name": "Zinjibar", "name_ru": "Zinjibār", "tz": "", "district": "Abyan"}, {"id": 13, "name": "Hajjah", "name_ru": "Ḩajjah", "tz": "", "district": "Ḩajjah"}, {"id": 14, "name": "Al Bayda'", "name_ru": "Al Bayḑā’", "tz": "", "district": "Al Bayḑā’"}, {"id": 15, "name": "`Ataq", "name_ru": "‘Ataq", "tz": "", "district": "Shabwah"}, {"id": 16, "name": "Lahij", "name_ru": "Laḩij", "tz": "", "district": "Laḩij"}, {"id": 17, "name": "Al Ghayzah", "name_ru": "Al Ghayz̧ah", "tz": "", "district": "Al Mahrah"}, {"id": 18, "name": "Ma'rib", "name_ru": "Ma’rib", "tz": "", "district": "Ma’rib"}, {"id": 19, "name": "Hadibu", "name_ru": "Ḩadībū", "tz": "", "district": "Arkhabīl Suquţrá"}, {"id": 20, "name": "Al Mahwit", "name_ru": "Al Maḩwīt", "tz": "", "district": "Al Maḩwīt"}, {"id": 21, "name": "`Amran", "name_ru": "‘Amrān", "tz": "", "district": "‘Amrān"}, {"id": 22, "name": "Ad Dali`", "name_ru": "Aḑ Ḑāli‘", "tz": "", "district": "Aḑ Ḑāli‘"}, {"id": 23, "name": "Al Jabin", "name_ru": "Al Jabīn", "tz": "", "district": "Raymah"}, {"id": 24, "name": "Al Hazm", "name_ru": "Al Ḩazm", "tz": "", "district": "Al Jawf"}, {"id": 25, "name": "Say'un", "name_ru": "Say’ūn", "tz": "", "district": "Ḩaḑramawt"}, {"id": 26, "name": "Ash Shihr", "name_ru": "Ash Shiḩr", "tz": "", "district": "Ḩaḑramawt"}, {"id": 27, "name": "Zabid", "name_ru": "Zabīd", "tz": "", "district": "Al Ḩudaydah"}, {"id": 28, "name": "Bajil", "name_ru": "Bājil", "tz": "", "district": "Al Ḩudaydah"}, {"id": 29, "name": "Rada`", "name_ru": "Radā‘", "tz": "", "district": "Al Bayḑā’"}, {"id": 30, "name": "Bayt al Faqih", "name_ru": "Bayt al Faqīh", "tz": "", "district": "Al Ḩudaydah"}, {"id": 31, "name": "Al Qa`idah", "name_ru": "Al Qā‘idah", "tz": "", "district": "Ibb"}, {"id": 32, "name": "Yarim", "name_ru": "Yarīm", "tz": "", "district": "Ibb"}, {"id": 33, "name": "Ja`ar", "name_ru": "Ja‘ār", "tz": "", "district": "Abyan"}, {"id": 34, "name": "Ma`bar", "name_ru": "Ma‘bar", "tz": "", "district": "Dhamār"}, {"id": 35, "name": "Jiblah", "name_ru": "Jiblah", "tz": "", "district": "Ibb"}, {"id": 36, "name": "Ad Dis", "name_ru": "Ad Dīs", "tz": "", "district": "Ḩaḑramawt"}, {"id": 37, "name": "Khamir", "name_ru": "Khamir", "tz": "", "district": "‘Amrān"}, {"id": 38, "name": "Mocha", "name_ru": "Mocha", "tz": "", "district": "Ta‘izz"}, {"id": 39, "name": "Raydah", "name_ru": "Raydah", "tz": "", "district": "‘Amrān"}, {"id": 40, "name": "Shibam", "name_ru": "Shibām", "tz": "", "district": "Ḩaḑramawt"}, {"id": 41, "name": "Ar Rawdah", "name_ru": "Ar Rawḑah", "tz": "", "district": "Shabwah"}, {"id": 42, "name": "Dawran ad Daydah", "name_ru": "Ḑawrān ad Daydah", "tz": "", "district": "Dhamār"}]