[{"id": 1, "name": "Johannesburg", "name_ru": "Johannesburg", "tz": "", "district": "Gauteng"}, {"id": 2, "name": "Soweto", "name_ru": "Soweto", "tz": "", "district": "Gauteng"}, {"id": 3, "name": "Vereeniging", "name_ru": "Vereeniging", "tz": "", "district": "Gauteng"}, {"id": 4, "name": "Pretoria", "name_ru": "Pretoria", "tz": "", "district": "Gauteng"}, {"id": 5, "name": "Cape Town", "name_ru": "Cape Town", "tz": "", "district": "Western Cape"}, {"id": 6, "name": "Bloemfontein", "name_ru": "Bloemfontein", "tz": "", "district": "Free State"}, {"id": 7, "name": "Pietermaritzburg", "name_ru": "Pietermaritzburg", "tz": "", "district": "KwaZulu-Natal"}, {"id": 8, "name": "Durban", "name_ru": "Durban", "tz": "", "district": "KwaZulu-Natal"}, {"id": 9, "name": "Welkom", "name_ru": "Welkom", "tz": "", "district": "Free State"}, {"id": 10, "name": "East London", "name_ru": "East London", "tz": "", "district": "Eastern Cape"}, {"id": 11, "name": "Randburg", "name_ru": "Randburg", "tz": "", "district": "Gauteng"}, {"id": 12, "name": "Roodepoort", "name_ru": "Roodepoort", "tz": "", "district": "Gauteng"}, {"id": 13, "name": "Port Elizabeth", "name_ru": "Port Elizabeth", "tz": "", "district": "Eastern Cape"}, {"id": 14, "name": "Springs", "name_ru": "Springs", "tz": "", "district": "Gauteng"}, {"id": 15, "name": "Centurion", "name_ru": "Centurion", "tz": "", "district": "Gauteng"}, {"id": 16, "name": "Sandton", "name_ru": "Sandton", "tz": "", "district": "Gauteng"}, {"id": 17, "name": "Polokwane", "name_ru": "Polokwane", "tz": "", "district": "Limpopo"}, {"id": 18, "name": "Klerksdorp", "name_ru": "Klerksdorp", "tz": "", "district": "North West"}, {"id": 19, "name": "Rustenburg", "name_ru": "Rustenburg", "tz": "", "district": "North West"}, {"id": 20, "name": "Kimberley", "name_ru": "Kimberley", "tz": "", "district": "Northern Cape"}, {"id": 21, "name": "Bhisho", "name_ru": "Bhisho", "tz": "", "district": "Eastern Cape"}, {"id": 22, "name": "Benoni", "name_ru": "Benoni", "tz": "", "district": "Gauteng"}, {"id": 23, "name": "George", "name_ru": "George", "tz": "", "district": "Western Cape"}, {"id": 24, "name": "Middelburg", "name_ru": "Middelburg", "tz": "", "district": "Mpumalanga"}, {"id": 25, "name": "Vryheid", "name_ru": "Vryheid", "tz": "", "district": "KwaZulu-Natal"}, {"id": 26, "name": "Potchefstroom", "name_ru": "Potchefstroom", "tz": "", "district": "North West"}, {"id": 27, "name": "Umtata", "name_ru": "Umtata", "tz": "", "district": "Eastern Cape"}, {"id": 28, "name": "Brits", "name_ru": "Brits", "tz": "", "district": "North West"}, {"id": 29, "name": "Alberton", "name_ru": "Alberton", "tz": "", "district": "Gauteng"}, {"id": 30, "name": "Upington", "name_ru": "Upington", "tz": "", "district": "Northern Cape"}, {"id": 31, "name": "Paarl", "name_ru": "Paarl", "tz": "", "district": "Western Cape"}, {"id": 32, "name": "Uitenhage", "name_ru": "Uitenhage", "tz": "", "district": "Eastern Cape"}, {"id": 33, "name": "Queenstown", "name_ru": "Queenstown", "tz": "", "district": "Eastern Cape"}, {"id": 34, "name": "Kroonstad", "name_ru": "Kroonstad", "tz": "", "district": "Free State"}, {"id": 35, "name": "Mmabatho", "name_ru": "Mmabatho", "tz": "", "district": "North West"}, {"id": 36, "name": "Bethal", "name_ru": "Bethal", "tz": "", "district": "Mpumalanga"}, {"id": 37, "name": "Thohoyandou", "name_ru": "Thohoyandou", "tz": "", "district": "Limpopo"}, {"id": 38, "name": "Saldanha", "name_ru": "Saldanha", "tz": "", "district": "Western Cape"}, {"id": 39, "name": "Vryburg", "name_ru": "Vryburg", "tz": "", "district": "North West"}, {"id": 40, "name": "Vredenburg", "name_ru": "Vredenburg", "tz": "", "district": "Western Cape"}, {"id": 41, "name": "Cradock", "name_ru": "Cradock", "tz": "", "district": "Eastern Cape"}, {"id": 42, "name": "Ulundi", "name_ru": "Ulundi", "tz": "", "district": "KwaZulu-Natal"}, {"id": 43, "name": "Mahikeng", "name_ru": "Mahikeng", "tz": "", "district": "North West"}, {"id": 44, "name": "Saron", "name_ru": "Saron", "tz": "", "district": "Western Cape"}, {"id": 45, "name": "Nelspruit", "name_ru": "Nelspruit", "tz": "", "district": "Mpumalanga"}, {"id": 46, "name": "Worcester", "name_ru": "Worcester", "tz": "", "district": "Western Cape"}, {"id": 47, "name": "Vanderbijlpark", "name_ru": "Vanderbijlpark", "tz": "", "district": "Gauteng"}, {"id": 48, "name": "Grahamstown", "name_ru": "Grahamstown", "tz": "", "district": "Eastern Cape"}, {"id": 49, "name": "Standerton", "name_ru": "Standerton", "tz": "", "district": "Mpumalanga"}, {"id": 50, "name": "Brakpan", "name_ru": "Brakpan", "tz": "", "district": "Gauteng"}, {"id": 51, "name": "Tzaneen", "name_ru": "Tzaneen", "tz": "", "district": "Limpopo"}, {"id": 52, "name": "Graaff-Reinet", "name_ru": "Graaff-Reinet", "tz": "", "district": "Eastern Cape"}, {"id": 53, "name": "Oudtshoorn", "name_ru": "Oudtshoorn", "tz": "", "district": "Western Cape"}, {"id": 54, "name": "Mossel Bay", "name_ru": "Mossel Bay", "tz": "", "district": "Western Cape"}, {"id": 55, "name": "Port Shepstone", "name_ru": "Port Shepstone", "tz": "", "district": "KwaZulu-Natal"}, {"id": 56, "name": "Knysna", "name_ru": "Knysna", "tz": "", "district": "Western Cape"}, {"id": 57, "name": "Ladysmith", "name_ru": "Ladysmith", "tz": "", "district": "KwaZulu-Natal"}, {"id": 58, "name": "Kuilsrivier", "name_ru": "Kuilsrivier", "tz": "", "district": "Western Cape"}, {"id": 59, "name": "Beaufort West", "name_ru": "Beaufort West", "tz": "", "district": "Western Cape"}, {"id": 60, "name": "Aliwal North", "name_ru": "Aliwal North", "tz": "", "district": "Eastern Cape"}, {"id": 61, "name": "Volksrust", "name_ru": "Volksrust", "tz": "", "district": "Mpumalanga"}, {"id": 62, "name": "Musina", "name_ru": "Musina", "tz": "", "district": "Limpopo"}, {"id": 63, "name": "Malmesbury", "name_ru": "Malmesbury", "tz": "", "district": "Western Cape"}, {"id": 64, "name": "Lebowakgomo", "name_ru": "Lebowakgomo", "tz": "", "district": "Limpopo"}, {"id": 65, "name": "De Aar", "name_ru": "De Aar", "tz": "", "district": "Northern Cape"}, {"id": 66, "name": "Jeffrey's Bay", "name_ru": "Jeffrey’s Bay", "tz": "", "district": "Eastern Cape"}, {"id": 67, "name": "Lichtenburg", "name_ru": "Lichtenburg", "tz": "", "district": "North West"}, {"id": 68, "name": "Hermanus", "name_ru": "Hermanus", "tz": "", "district": "Western Cape"}, {"id": 69, "name": "Carletonville", "name_ru": "Carletonville", "tz": "", "district": "Gauteng"}, {"id": 70, "name": "Robertson", "name_ru": "Robertson", "tz": "", "district": "Western Cape"}, {"id": 71, "name": "Bronkhorstspruit", "name_ru": "Bronkhorstspruit", "tz": "", "district": "Gauteng"}, {"id": 72, "name": "Komatipoort", "name_ru": "Komatipoort", "tz": "", "district": "Mpumalanga"}, {"id": 73, "name": "Port Alfred", "name_ru": "Port Alfred", "tz": "", "district": "Eastern Cape"}, {"id": 74, "name": "Middelburg", "name_ru": "Middelburg", "tz": "", "district": "Eastern Cape"}, {"id": 75, "name": "Swellendam", "name_ru": "Swellendam", "tz": "", "district": "Western Cape"}, {"id": 76, "name": "Bloemhof", "name_ru": "Bloemhof", "tz": "", "district": "North West"}, {"id": 77, "name": "Bethlehem", "name_ru": "Bethlehem", "tz": "", "district": "Free State"}, {"id": 78, "name": "Montagu", "name_ru": "Montagu", "tz": "", "district": "Western Cape"}, {"id": 79, "name": "Bredasdorp", "name_ru": "Bredasdorp", "tz": "", "district": "Western Cape"}, {"id": 80, "name": "Phalaborwa", "name_ru": "Phalaborwa", "tz": "", "district": "Limpopo"}, {"id": 81, "name": "Caledon", "name_ru": "Caledon", "tz": "", "district": "Western Cape"}, {"id": 82, "name": "Moorreesburg", "name_ru": "Moorreesburg", "tz": "", "district": "Western Cape"}, {"id": 83, "name": "Colesberg", "name_ru": "Colesberg", "tz": "", "district": "Northern Cape"}, {"id": 84, "name": "Piketberg", "name_ru": "Piketberg", "tz": "", "district": "Western Cape"}, {"id": 85, "name": "Brandfort", "name_ru": "Brandfort", "tz": "", "district": "Free State"}, {"id": 86, "name": "Prieska", "name_ru": "Prieska", "tz": "", "district": "Northern Cape"}, {"id": 87, "name": "Velddrif", "name_ru": "Velddrif", "tz": "", "district": "Western Cape"}, {"id": 88, "name": "Kuruman", "name_ru": "Kuruman", "tz": "", "district": "Northern Cape"}, {"id": 89, "name": "Saint Helena Bay", "name_ru": "Saint Helena Bay", "tz": "", "district": "Western Cape"}, {"id": 90, "name": "Springbok", "name_ru": "Springbok", "tz": "", "district": "Northern Cape"}, {"id": 91, "name": "Villiersdorp", "name_ru": "Villiersdorp", "tz": "", "district": "Western Cape"}, {"id": 92, "name": "Darling", "name_ru": "Darling", "tz": "", "district": "Western Cape"}, {"id": 93, "name": "Tulbagh", "name_ru": "Tulbagh", "tz": "", "district": "Western Cape"}, {"id": 94, "name": "Citrusdal", "name_ru": "Citrusdal", "tz": "", "district": "Western Cape"}, {"id": 95, "name": "Clanwilliam", "name_ru": "Clanwilliam", "tz": "", "district": "Western Cape"}, {"id": 96, "name": "Porterville", "name_ru": "Porterville", "tz": "", "district": "Western Cape"}, {"id": 97, "name": "Kleinmond", "name_ru": "Kleinmond", "tz": "", "district": "Western Cape"}, {"id": 98, "name": "Vanrhynsdorp", "name_ru": "Vanrhynsdorp", "tz": "", "district": "Western Cape"}, {"id": 99, "name": "Klawer", "name_ru": "Klawer", "tz": "", "district": "Western Cape"}, {"id": 100, "name": "Carnarvon", "name_ru": "Carnarvon", "tz": "", "district": "Northern Cape"}, {"id": 101, "name": "Genadendal", "name_ru": "Genadendal", "tz": "", "district": "Western Cape"}, {"id": 102, "name": "Hopefield", "name_ru": "Hopefield", "tz": "", "district": "Western Cape"}, {"id": 103, "name": "Port Saint John's", "name_ru": "Port Saint John’s", "tz": "", "district": "Eastern Cape"}, {"id": 104, "name": "Lambert's Bay", "name_ru": "Lambert’s Bay", "tz": "", "district": "Western Cape"}, {"id": 105, "name": "Riviersonderend", "name_ru": "Riviersonderend", "tz": "", "district": "Western Cape"}, {"id": 106, "name": "Onrus", "name_ru": "Onrus", "tz": "", "district": "Western Cape"}, {"id": 107, "name": "Pofadder", "name_ru": "Pofadder", "tz": "", "district": "Northern Cape"}, {"id": 108, "name": "Alexander Bay", "name_ru": "Alexander Bay", "tz": "", "district": "Northern Cape"}, {"id": 109, "name": "Ubombo", "name_ru": "Ubombo", "tz": "", "district": "KwaZulu-Natal"}]