[{"id": 1, "name": "Lusaka", "name_ru": "Lusaka", "tz": "", "district": "Lusaka"}, {"id": 2, "name": "Ndola", "name_ru": "Ndola", "tz": "", "district": "Copperbelt"}, {"id": 3, "name": "Kitwe", "name_ru": "Kitwe", "tz": "", "district": "Copperbelt"}, {"id": 4, "name": "Mazabuka", "name_ru": "Mazabuka", "tz": "", "district": "Southern"}, {"id": 5, "name": "Kasama", "name_ru": "Kasama", "tz": "", "district": "Northern"}, {"id": 6, "name": "Kashikishi", "name_ru": "Kashikishi", "tz": "", "district": "Luapula"}, {"id": 7, "name": "Chingola", "name_ru": "Chingola", "tz": "", "district": "Copperbelt"}, {"id": 8, "name": "Nchelenge", "name_ru": "Nchelenge", "tz": "", "district": "Luapula"}, {"id": 9, "name": "Livingstone", "name_ru": "Livingstone", "tz": "", "district": "Southern"}, {"id": 10, "name": "Mansa", "name_ru": "Mansa", "tz": "", "district": "Luapula"}, {"id": 11, "name": "Mufulira", "name_ru": "Mufulira", "tz": "", "district": "Copperbelt"}, {"id": 12, "name": "Kabwe", "name_ru": "Kabwe", "tz": "", "district": "Central"}, {"id": 13, "name": "Luanshya", "name_ru": "Luanshya", "tz": "", "district": "Copperbelt"}, {"id": 14, "name": "Chipata", "name_ru": "Chipata", "tz": "", "district": "Eastern"}, {"id": 15, "name": "Solwezi", "name_ru": "Solwezi", "tz": "", "district": "North-Western"}, {"id": 16, "name": "Mongu", "name_ru": "Mongu", "tz": "", "district": "Western"}, {"id": 17, "name": "Choma", "name_ru": "Choma", "tz": "", "district": "Southern"}, {"id": 18, "name": "Chinsali", "name_ru": "Chinsali", "tz": "", "district": "Muchinga"}, {"id": 19, "name": "Chililabombwe", "name_ru": "Chililabombwe", "tz": "", "district": "Copperbelt"}, {"id": 20, "name": "Kafue", "name_ru": "Kafue", "tz": "", "district": "Lusaka"}, {"id": 21, "name": "Kapiri Mposhi", "name_ru": "Kapiri Mposhi", "tz": "", "district": "Central"}, {"id": 22, "name": "Mpika", "name_ru": "Mpika", "tz": "", "district": "Muchinga"}, {"id": 23, "name": "Mbala", "name_ru": "Mbala", "tz": "", "district": "Northern"}, {"id": 24, "name": "Kawambwa", "name_ru": "Kawambwa", "tz": "", "district": "Luapula"}, {"id": 25, "name": "Sesheke", "name_ru": "Sesheke", "tz": "", "district": "Western"}, {"id": 26, "name": "Mumbwa", "name_ru": "Mumbwa", "tz": "", "district": "Central"}, {"id": 27, "name": "Kaoma", "name_ru": "Kaoma", "tz": "", "district": "Western"}, {"id": 28, "name": "Mwinilunga", "name_ru": "Mwinilunga", "tz": "", "district": "North-Western"}, {"id": 29, "name": "Lundazi", "name_ru": "Lundazi", "tz": "", "district": "Eastern"}, {"id": 30, "name": "Senanga", "name_ru": "Senanga", "tz": "", "district": "Western"}, {"id": 31, "name": "Kalabo", "name_ru": "Kalabo", "tz": "", "district": "Western"}, {"id": 32, "name": "Zambezi", "name_ru": "Zambezi", "tz": "", "district": "North-Western"}, {"id": 33, "name": "Kasempa", "name_ru": "Kasempa", "tz": "", "district": "North-Western"}, {"id": 34, "name": "Lukulu", "name_ru": "Lukulu", "tz": "", "district": "Western"}, {"id": 35, "name": "Nyimba", "name_ru": "Nyimba", "tz": "", "district": "Eastern"}]