[{"id": 1, "name": "Harare", "name_ru": "Harare", "tz": "", "district": "Harare"}, {"id": 2, "name": "Bulawayo", "name_ru": "Bulawayo", "tz": "", "district": "Bulawayo"}, {"id": 3, "name": "Chitungwiza", "name_ru": "Chitungwiza", "tz": "", "district": "Harare"}, {"id": 4, "name": "Mutare", "name_ru": "Mutare", "tz": "", "district": "Manicaland"}, {"id": 5, "name": "Gweru", "name_ru": "Gweru", "tz": "", "district": "Midlands"}, {"id": 6, "name": "Masvingo", "name_ru": "Masvingo", "tz": "", "district": "Masvingo"}, {"id": 7, "name": "Chinhoyi", "name_ru": "Chinhoyi", "tz": "", "district": "Mashonaland West"}, {"id": 8, "name": "Marondera", "name_ru": "Marondera", "tz": "", "district": "Mashonaland East"}, {"id": 9, "name": "Bindura", "name_ru": "Bindura", "tz": "", "district": "Mashonaland Central"}, {"id": 10, "name": "Gwanda", "name_ru": "Gwanda", "tz": "", "district": "Matabeleland South"}, {"id": 11, "name": "Lupane", "name_ru": "Lupane", "tz": "", "district": "Matabeleland North"}, {"id": 12, "name": "Kwekwe", "name_ru": "Kwekwe", "tz": "", "district": "Midlands"}, {"id": 13, "name": "Kadoma", "name_ru": "Kadoma", "tz": "", "district": "Mashonaland West"}, {"id": 14, "name": "Hwange", "name_ru": "Hwange", "tz": "", "district": "Matabeleland North"}, {"id": 15, "name": "Beitbridge", "name_ru": "Beitbridge", "tz": "", "district": "Matabeleland South"}, {"id": 16, "name": "Zvishavane", "name_ru": "Zvishavane", "tz": "", "district": "Masvingo"}, {"id": 17, "name": "Victoria Falls", "name_ru": "Victoria Falls", "tz": "", "district": "Matabeleland North"}, {"id": 18, "name": "Redcliff", "name_ru": "Redcliff", "tz": "", "district": "Midlands"}, {"id": 19, "name": "Chiredzi", "name_ru": "Chiredzi", "tz": "", "district": "Masvingo"}, {"id": 20, "name": "Karoi", "name_ru": "Karoi", "tz": "", "district": "Mashonaland West"}, {"id": 21, "name": "Kariba", "name_ru": "Kariba", "tz": "", "district": "Mashonaland West"}, {"id": 22, "name": "Ruwa", "name_ru": "Ruwa", "tz": "", "district": "Mashonaland East"}, {"id": 23, "name": "Shamva", "name_ru": "Shamva", "tz": "", "district": "Mashonaland Central"}, {"id": 24, "name": "Chivhu", "name_ru": "Chivhu", "tz": "", "district": "Mashonaland East"}, {"id": 25, "name": "Plumtree", "name_ru": "Plumtree", "tz": "", "district": "Matabeleland South"}, {"id": 26, "name": "Mazoe", "name_ru": "Mazoe", "tz": "", "district": "Mashonaland Central"}]